<?xml version="1.0" encoding="UTF-8"?>
<gpx version="1.1" creator="HoldMyTrack" xmlns="http://www.topografix.com/GPX/1/1" xmlns:gpxtpx="http://www.garmin.com/xmlschemas/TrackPointExtension/v1">
  <trk>
    <type>walking</type>
    <trkseg>
      <trkpt lat="43.085024" lon="-79.054013"><ele>174.77</ele><time>2026-07-14T14:24:15Z</time></trkpt>
      <trkpt lat="43.084993" lon="-79.055011"><ele>174.19</ele><time>2026-07-14T14:25:25Z</time></trkpt>
      <trkpt lat="43.084653" lon="-79.054988"><ele>174</ele><time>2026-07-14T14:25:56Z</time></trkpt>
      <trkpt lat="43.084651" lon="-79.055067"><ele>174</ele><time>2026-07-14T14:26:01Z</time></trkpt>
      <trkpt lat="43.083702" lon="-79.055005"><ele>174</ele><time>2026-07-14T14:27:26Z</time></trkpt>
      <trkpt lat="43.082388" lon="-79.054925"><ele>174</ele><time>2026-07-14T14:29:23Z</time></trkpt>
      <trkpt lat="43.082434" lon="-79.053663"><ele>173</ele><time>2026-07-14T14:30:55Z</time></trkpt>
      <trkpt lat="43.082391" lon="-79.053659"><ele>173</ele><time>2026-07-14T14:30:59Z</time></trkpt>
      <trkpt lat="43.082393" lon="-79.053605"><ele>173</ele><time>2026-07-14T14:31:02Z</time></trkpt>
      <trkpt lat="43.082402" lon="-79.053362"><ele>173</ele><time>2026-07-14T14:31:19Z</time></trkpt>
      <trkpt lat="43.082276" lon="-79.053375"><ele>173</ele><time>2026-07-14T14:31:31Z</time></trkpt>
      <trkpt lat="43.082242" lon="-79.053389"><ele>173</ele><time>2026-07-14T14:31:34Z</time></trkpt>
      <trkpt lat="43.082217" lon="-79.053408"><ele>173</ele><time>2026-07-14T14:31:37Z</time></trkpt>
      <trkpt lat="43.082151" lon="-79.053497"><ele>173</ele><time>2026-07-14T14:31:45Z</time></trkpt>
      <trkpt lat="43.08211" lon="-79.053527"><ele>173</ele><time>2026-07-14T14:31:49Z</time></trkpt>
      <trkpt lat="43.082063" lon="-79.053553"><ele>173</ele><time>2026-07-14T14:31:53Z</time></trkpt>
      <trkpt lat="43.08196" lon="-79.053575"><ele>173</ele><time>2026-07-14T14:32:03Z</time></trkpt>
      <trkpt lat="43.081893" lon="-79.053607"><ele>173</ele><time>2026-07-14T14:32:09Z</time></trkpt>
      <trkpt lat="43.081796" lon="-79.053666"><ele>173</ele><time>2026-07-14T14:32:18Z</time></trkpt>
      <trkpt lat="43.081746" lon="-79.05373"><ele>173</ele><time>2026-07-14T14:32:24Z</time></trkpt>
      <trkpt lat="43.081686" lon="-79.053782"><ele>173</ele><time>2026-07-14T14:32:30Z</time></trkpt>
      <trkpt lat="43.081601" lon="-79.053776"><ele>173</ele><time>2026-07-14T14:32:37Z</time></trkpt>
      <trkpt lat="43.081545" lon="-79.053756"><ele>172.75</ele><time>2026-07-14T14:32:43Z</time></trkpt>
      <trkpt lat="43.081491" lon="-79.05372"><ele>172.37</ele><time>2026-07-14T14:32:48Z</time></trkpt>
      <trkpt lat="43.081389" lon="-79.053442"><ele>172.61</ele><time>2026-07-14T14:33:08Z</time></trkpt>
      <trkpt lat="43.081333" lon="-79.053315"><ele>172.94</ele><time>2026-07-14T14:33:18Z</time></trkpt>
      <trkpt lat="43.081303" lon="-79.053174"><ele>173</ele><time>2026-07-14T14:33:29Z</time></trkpt>
      <trkpt lat="43.081247" lon="-79.05299"><ele>173</ele><time>2026-07-14T14:33:41Z</time></trkpt>
      <trkpt lat="43.081214" lon="-79.0528"><ele>173</ele><time>2026-07-14T14:33:54Z</time></trkpt>
      <trkpt lat="43.081215" lon="-79.05265"><ele>173</ele><time>2026-07-14T14:34:04Z</time></trkpt>
      <trkpt lat="43.08123" lon="-79.05245"><ele>173</ele><time>2026-07-14T14:34:16Z</time></trkpt>
      <trkpt lat="43.081121" lon="-79.052588"><ele>173.63</ele><time>2026-07-14T14:34:29Z</time></trkpt>
      <trkpt lat="43.08107" lon="-79.052628"><ele>174</ele><time>2026-07-14T14:34:34Z</time></trkpt>
      <trkpt lat="43.081002" lon="-79.052664"><ele>174</ele><time>2026-07-14T14:34:41Z</time></trkpt>
      <trkpt lat="43.080941" lon="-79.052683"><ele>174</ele><time>2026-07-14T14:34:46Z</time></trkpt>
      <trkpt lat="43.080862" lon="-79.052695"><ele>174</ele><time>2026-07-14T14:34:53Z</time></trkpt>
      <trkpt lat="43.080748" lon="-79.052681"><ele>174</ele><time>2026-07-14T14:35:03Z</time></trkpt>
      <trkpt lat="43.080693" lon="-79.052627"><ele>173.96</ele><time>2026-07-14T14:35:09Z</time></trkpt>
      <trkpt lat="43.080641" lon="-79.052542"><ele>173.55</ele><time>2026-07-14T14:35:17Z</time></trkpt>
      <trkpt lat="43.080642" lon="-79.052435"><ele>173.56</ele><time>2026-07-14T14:35:25Z</time></trkpt>
      <trkpt lat="43.080619" lon="-79.052277"><ele>173.37</ele><time>2026-07-14T14:35:36Z</time></trkpt>
      <trkpt lat="43.08055" lon="-79.052007"><ele>173</ele><time>2026-07-14T14:35:53Z</time></trkpt>
      <trkpt lat="43.080548" lon="-79.051923"><ele>173</ele><time>2026-07-14T14:35:59Z</time></trkpt>
      <trkpt lat="43.080578" lon="-79.05175"><ele>173</ele><time>2026-07-14T14:36:11Z</time></trkpt>
      <trkpt lat="43.08061" lon="-79.051641"><ele>173</ele><time>2026-07-14T14:36:19Z</time></trkpt>
      <trkpt lat="43.080602" lon="-79.051545"><ele>173</ele><time>2026-07-14T14:36:25Z</time></trkpt>
      <trkpt lat="43.080558" lon="-79.051445"><ele>173</ele><time>2026-07-14T14:36:33Z</time></trkpt>
      <trkpt lat="43.080494" lon="-79.051335"><ele>173</ele><time>2026-07-14T14:36:43Z</time></trkpt>
      <trkpt lat="43.080478" lon="-79.051259"><ele>173</ele><time>2026-07-14T14:36:48Z</time></trkpt>
      <trkpt lat="43.080479" lon="-79.051115"><ele>173</ele><time>2026-07-14T14:36:57Z</time></trkpt>
      <trkpt lat="43.080466" lon="-79.051005"><ele>173</ele><time>2026-07-14T14:37:04Z</time></trkpt>
      <trkpt lat="43.080434" lon="-79.050882"><ele>172.96</ele><time>2026-07-14T14:37:12Z</time></trkpt>
      <trkpt lat="43.080386" lon="-79.050791"><ele>173</ele><time>2026-07-14T14:37:19Z</time></trkpt>
      <trkpt lat="43.080353" lon="-79.050747"><ele>173</ele><time>2026-07-14T14:37:23Z</time></trkpt>
      <trkpt lat="43.080293" lon="-79.050712"><ele>172.92</ele><time>2026-07-14T14:37:28Z</time></trkpt>
      <trkpt lat="43.080211" lon="-79.050712"><ele>172.69</ele><time>2026-07-14T14:37:35Z</time></trkpt>
      <trkpt lat="43.080084" lon="-79.050749"><ele>172.94</ele><time>2026-07-14T14:37:48Z</time></trkpt>
      <trkpt lat="43.080042" lon="-79.050753"><ele>173</ele><time>2026-07-14T14:37:52Z</time></trkpt>
      <trkpt lat="43.080006" lon="-79.050752"><ele>173</ele><time>2026-07-14T14:37:55Z</time></trkpt>
      <trkpt lat="43.079897" lon="-79.050702"><ele>173</ele><time>2026-07-14T14:38:05Z</time></trkpt>
      <trkpt lat="43.079881" lon="-79.050641"><ele>173.03</ele><time>2026-07-14T14:38:09Z</time></trkpt>
      <trkpt lat="43.079851" lon="-79.050529"><ele>173.19</ele><time>2026-07-14T14:38:17Z</time></trkpt>
      <trkpt lat="43.079598" lon="-79.049982"><ele>173.14</ele><time>2026-07-14T14:39:03Z</time></trkpt>
      <trkpt lat="43.079567" lon="-79.049891"><ele>173.42</ele><time>2026-07-14T14:39:09Z</time></trkpt>
      <trkpt lat="43.079461" lon="-79.049518"><ele>173.16</ele><time>2026-07-14T14:39:35Z</time></trkpt>
      <trkpt lat="43.079286" lon="-79.048642"><ele>173.76</ele><time>2026-07-14T14:40:38Z</time></trkpt>
      <trkpt lat="43.079229" lon="-79.048451"><ele>173.31</ele><time>2026-07-14T14:40:53Z</time></trkpt>
      <trkpt lat="43.079211" lon="-79.048367"><ele>173.4</ele><time>2026-07-14T14:40:58Z</time></trkpt>
      <trkpt lat="43.079343" lon="-79.047746"><ele>174.02</ele><time>2026-07-14T14:41:37Z</time></trkpt>
      <trkpt lat="43.079618" lon="-79.04735"><ele>175.16</ele><time>2026-07-14T14:42:17Z</time></trkpt>
      <trkpt lat="43.079343" lon="-79.047746"><ele>174.02</ele><time>2026-07-14T14:42:51Z</time></trkpt>
      <trkpt lat="43.079296" lon="-79.04796"><ele>174</ele><time>2026-07-14T14:43:06Z</time></trkpt>
      <trkpt lat="43.079211" lon="-79.048367"><ele>173.4</ele><time>2026-07-14T14:43:36Z</time></trkpt>
      <trkpt lat="43.079229" lon="-79.048451"><ele>173.31</ele><time>2026-07-14T14:43:42Z</time></trkpt>
      <trkpt lat="43.079286" lon="-79.048642"><ele>173.76</ele><time>2026-07-14T14:43:55Z</time></trkpt>
      <trkpt lat="43.079461" lon="-79.049518"><ele>173.16</ele><time>2026-07-14T14:44:51Z</time></trkpt>
      <trkpt lat="43.079598" lon="-79.049982"><ele>173.14</ele><time>2026-07-14T14:45:28Z</time></trkpt>
      <trkpt lat="43.079851" lon="-79.050529"><ele>173.19</ele><time>2026-07-14T14:46:10Z</time></trkpt>
      <trkpt lat="43.079897" lon="-79.050702"><ele>173</ele><time>2026-07-14T14:46:23Z</time></trkpt>
      <trkpt lat="43.079922" lon="-79.050881"><ele>172.72</ele><time>2026-07-14T14:46:35Z</time></trkpt>
      <trkpt lat="43.079937" lon="-79.051118"><ele>172.69</ele><time>2026-07-14T14:46:51Z</time></trkpt>
      <trkpt lat="43.079957" lon="-79.05124"><ele>173</ele><time>2026-07-14T14:46:59Z</time></trkpt>
      <trkpt lat="43.080074" lon="-79.051548"><ele>173</ele><time>2026-07-14T14:47:20Z</time></trkpt>
      <trkpt lat="43.080086" lon="-79.051632"><ele>173</ele><time>2026-07-14T14:47:26Z</time></trkpt>
      <trkpt lat="43.080084" lon="-79.051811"><ele>173</ele><time>2026-07-14T14:47:37Z</time></trkpt>
      <trkpt lat="43.080097" lon="-79.051896"><ele>173</ele><time>2026-07-14T14:47:43Z</time></trkpt>
      <trkpt lat="43.080174" lon="-79.052078"><ele>172.95</ele><time>2026-07-14T14:47:58Z</time></trkpt>
      <trkpt lat="43.080212" lon="-79.052208"><ele>173</ele><time>2026-07-14T14:48:07Z</time></trkpt>
      <trkpt lat="43.080288" lon="-79.052611"><ele>173</ele><time>2026-07-14T14:48:38Z</time></trkpt>
      <trkpt lat="43.080349" lon="-79.052791"><ele>173.44</ele><time>2026-07-14T14:48:52Z</time></trkpt>
      <trkpt lat="43.0804" lon="-79.052879"><ele>173.95</ele><time>2026-07-14T14:49:00Z</time></trkpt>
      <trkpt lat="43.080509" lon="-79.052996"><ele>174</ele><time>2026-07-14T14:49:12Z</time></trkpt>
      <trkpt lat="43.080577" lon="-79.053187"><ele>174</ele><time>2026-07-14T14:49:27Z</time></trkpt>
      <trkpt lat="43.080513" lon="-79.053556"><ele>173.53</ele><time>2026-07-14T14:49:55Z</time></trkpt>
      <trkpt lat="43.080484" lon="-79.053861"><ele>173.3</ele><time>2026-07-14T14:50:14Z</time></trkpt>
      <trkpt lat="43.080483" lon="-79.054039"><ele>173.29</ele><time>2026-07-14T14:50:26Z</time></trkpt>
      <trkpt lat="43.080518" lon="-79.054368"><ele>172.74</ele><time>2026-07-14T14:50:46Z</time></trkpt>
      <trkpt lat="43.080557" lon="-79.054547"><ele>172.8</ele><time>2026-07-14T14:50:58Z</time></trkpt>
      <trkpt lat="43.080694" lon="-79.054997"><ele>173</ele><time>2026-07-14T14:51:31Z</time></trkpt>
      <trkpt lat="43.080688" lon="-79.055151"><ele>173.19</ele><time>2026-07-14T14:51:41Z</time></trkpt>
      <trkpt lat="43.080619" lon="-79.055396"><ele>173.37</ele><time>2026-07-14T14:51:58Z</time></trkpt>
      <trkpt lat="43.080606" lon="-79.055531"><ele>173.27</ele><time>2026-07-14T14:52:07Z</time></trkpt>
      <trkpt lat="43.080623" lon="-79.055654"><ele>173.4</ele><time>2026-07-14T14:52:15Z</time></trkpt>
      <trkpt lat="43.08068" lon="-79.055758"><ele>173.85</ele><time>2026-07-14T14:52:24Z</time></trkpt>
      <trkpt lat="43.08071" lon="-79.055878"><ele>174</ele><time>2026-07-14T14:52:32Z</time></trkpt>
      <trkpt lat="43.080715" lon="-79.055989"><ele>174</ele><time>2026-07-14T14:52:39Z</time></trkpt>
      <trkpt lat="43.080697" lon="-79.056153"><ele>173.99</ele><time>2026-07-14T14:52:50Z</time></trkpt>
      <trkpt lat="43.080666" lon="-79.056319"><ele>173.73</ele><time>2026-07-14T14:53:02Z</time></trkpt>
      <trkpt lat="43.080668" lon="-79.056567"><ele>173.76</ele><time>2026-07-14T14:53:18Z</time></trkpt>
      <trkpt lat="43.080723" lon="-79.056791"><ele>173.44</ele><time>2026-07-14T14:53:35Z</time></trkpt>
      <trkpt lat="43.080736" lon="-79.056924"><ele>173.31</ele><time>2026-07-14T14:53:44Z</time></trkpt>
      <trkpt lat="43.080691" lon="-79.057216"><ele>172.89</ele><time>2026-07-14T14:54:02Z</time></trkpt>
      <trkpt lat="43.0807" lon="-79.057386"><ele>173.02</ele><time>2026-07-14T14:54:13Z</time></trkpt>
      <trkpt lat="43.080729" lon="-79.057522"><ele>173.24</ele><time>2026-07-14T14:54:22Z</time></trkpt>
      <trkpt lat="43.080759" lon="-79.057899"><ele>172.93</ele><time>2026-07-14T14:54:50Z</time></trkpt>
      <trkpt lat="43.080887" lon="-79.058159"><ele>173.18</ele><time>2026-07-14T14:55:11Z</time></trkpt>
      <trkpt lat="43.080958" lon="-79.058403"><ele>173</ele><time>2026-07-14T14:55:28Z</time></trkpt>
      <trkpt lat="43.080996" lon="-79.058687"><ele>173</ele><time>2026-07-14T14:55:49Z</time></trkpt>
      <trkpt lat="43.08101" lon="-79.058889"><ele>173</ele><time>2026-07-14T14:56:02Z</time></trkpt>
      <trkpt lat="43.081009" lon="-79.059224"><ele>172.48</ele><time>2026-07-14T14:56:24Z</time></trkpt>
      <trkpt lat="43.081039" lon="-79.059367"><ele>172.23</ele><time>2026-07-14T14:56:35Z</time></trkpt>
      <trkpt lat="43.081195" lon="-79.059786"><ele>172</ele><time>2026-07-14T14:57:05Z</time></trkpt>
      <trkpt lat="43.081266" lon="-79.060063"><ele>172</ele><time>2026-07-14T14:57:25Z</time></trkpt>
      <trkpt lat="43.081328" lon="-79.060349"><ele>172.01</ele><time>2026-07-14T14:57:44Z</time></trkpt>
      <trkpt lat="43.081342" lon="-79.060612"><ele>172</ele><time>2026-07-14T14:58:02Z</time></trkpt>
      <trkpt lat="43.0814" lon="-79.061009"><ele>171.46</ele><time>2026-07-14T14:58:28Z</time></trkpt>
      <trkpt lat="43.081526" lon="-79.061337"><ele>171</ele><time>2026-07-14T14:58:52Z</time></trkpt>
      <trkpt lat="43.081635" lon="-79.061524"><ele>171</ele><time>2026-07-14T14:59:10Z</time></trkpt>
      <trkpt lat="43.081744" lon="-79.061665"><ele>171</ele><time>2026-07-14T14:59:25Z</time></trkpt>
      <trkpt lat="43.081921" lon="-79.061828"><ele>171</ele><time>2026-07-14T14:59:44Z</time></trkpt>
      <trkpt lat="43.08211" lon="-79.061954"><ele>171</ele><time>2026-07-14T15:00:02Z</time></trkpt>
      <trkpt lat="43.082309" lon="-79.062031"><ele>171.69</ele><time>2026-07-14T15:00:22Z</time></trkpt>
      <trkpt lat="43.082413" lon="-79.062135"><ele>171.23</ele><time>2026-07-14T15:00:34Z</time></trkpt>
      <trkpt lat="43.082478" lon="-79.06224"><ele>171</ele><time>2026-07-14T15:00:43Z</time></trkpt>
      <trkpt lat="43.082536" lon="-79.06239"><ele>170.91</ele><time>2026-07-14T15:00:55Z</time></trkpt>
      <trkpt lat="43.082595" lon="-79.062477"><ele>171</ele><time>2026-07-14T15:01:03Z</time></trkpt>
      <trkpt lat="43.08276" lon="-79.06254"><ele>170.58</ele><time>2026-07-14T15:01:19Z</time></trkpt>
      <trkpt lat="43.082917" lon="-79.062617"><ele>170</ele><time>2026-07-14T15:01:35Z</time></trkpt>
      <trkpt lat="43.083005" lon="-79.062707"><ele>169.63</ele><time>2026-07-14T15:01:45Z</time></trkpt>
      <trkpt lat="43.08311" lon="-79.062854"><ele>169.01</ele><time>2026-07-14T15:01:59Z</time></trkpt>
      <trkpt lat="43.083214" lon="-79.063202"><ele>169</ele><time>2026-07-14T15:02:25Z</time></trkpt>
      <trkpt lat="43.083305" lon="-79.06335"><ele>168.17</ele><time>2026-07-14T15:02:37Z</time></trkpt>
      <trkpt lat="43.083439" lon="-79.063622"><ele>167.11</ele><time>2026-07-14T15:03:01Z</time></trkpt>
      <trkpt lat="43.084134" lon="-79.064634"><ele>164.93</ele><time>2026-07-14T15:04:32Z</time></trkpt>
      <trkpt lat="43.0844" lon="-79.064984"><ele>164.44</ele><time>2026-07-14T15:05:04Z</time></trkpt>
      <trkpt lat="43.084606" lon="-79.065216"><ele>165.04</ele><time>2026-07-14T15:05:29Z</time></trkpt>
      <trkpt lat="43.084712" lon="-79.065351"><ele>165.02</ele><time>2026-07-14T15:05:43Z</time></trkpt>
      <trkpt lat="43.084773" lon="-79.065293"><ele>165</ele><time>2026-07-14T15:05:49Z</time></trkpt>
      <trkpt lat="43.084991" lon="-79.065476"><ele>165.28</ele><time>2026-07-14T15:06:14Z</time></trkpt>
      <trkpt lat="43.085514" lon="-79.0661"><ele>165.46</ele><time>2026-07-14T15:07:21Z</time></trkpt>
      <trkpt lat="43.085589" lon="-79.066209"><ele>165.51</ele><time>2026-07-14T15:07:31Z</time></trkpt>
      <trkpt lat="43.085646" lon="-79.066364"><ele>165.25</ele><time>2026-07-14T15:07:42Z</time></trkpt>
      <trkpt lat="43.08569" lon="-79.066577"><ele>164.84</ele><time>2026-07-14T15:07:58Z</time></trkpt>
      <trkpt lat="43.085736" lon="-79.066719"><ele>164.58</ele><time>2026-07-14T15:08:09Z</time></trkpt>
      <trkpt lat="43.08588" lon="-79.066999"><ele>163.97</ele><time>2026-07-14T15:08:33Z</time></trkpt>
      <trkpt lat="43.085973" lon="-79.067133"><ele>163.99</ele><time>2026-07-14T15:08:45Z</time></trkpt>
      <trkpt lat="43.085854" lon="-79.067297"><ele>163.01</ele><time>2026-07-14T15:09:01Z</time></trkpt>
      <trkpt lat="43.085738" lon="-79.067402"><ele>162.08</ele><time>2026-07-14T15:09:13Z</time></trkpt>
      <trkpt lat="43.085683" lon="-79.067455"><ele>162</ele><time>2026-07-14T15:09:20Z</time></trkpt>
      <trkpt lat="43.08564" lon="-79.06751"><ele>162</ele><time>2026-07-14T15:09:26Z</time></trkpt>
      <trkpt lat="43.085598" lon="-79.067589"><ele>161.88</ele><time>2026-07-14T15:09:32Z</time></trkpt>
      <trkpt lat="43.085566" lon="-79.067651"><ele>161.79</ele><time>2026-07-14T15:09:37Z</time></trkpt>
      <trkpt lat="43.085542" lon="-79.067717"><ele>161.44</ele><time>2026-07-14T15:09:42Z</time></trkpt>
      <trkpt lat="43.085495" lon="-79.06792"><ele>160.68</ele><time>2026-07-14T15:09:57Z</time></trkpt>
      <trkpt lat="43.085485" lon="-79.068034"><ele>160.04</ele><time>2026-07-14T15:10:05Z</time></trkpt>
      <trkpt lat="43.085485" lon="-79.068199"><ele>159.09</ele><time>2026-07-14T15:10:16Z</time></trkpt>
      <trkpt lat="43.085577" lon="-79.068399"><ele>159.49</ele><time>2026-07-14T15:10:33Z</time></trkpt>
      <trkpt lat="43.085582" lon="-79.068396"><ele>159.6</ele><time>2026-07-14T15:10:34Z</time></trkpt>
      <trkpt lat="43.085691" lon="-79.068587"><ele>159.2</ele><time>2026-07-14T15:10:49Z</time></trkpt>
      <trkpt lat="43.085736" lon="-79.06863"><ele>158.88</ele><time>2026-07-14T15:10:54Z</time></trkpt>
      <trkpt lat="43.085762" lon="-79.068632"><ele>158.75</ele><time>2026-07-14T15:10:56Z</time></trkpt>
      <trkpt lat="43.085805" lon="-79.068658"><ele>158.17</ele><time>2026-07-14T15:11:00Z</time></trkpt>
      <trkpt lat="43.085917" lon="-79.068673"><ele>155.13</ele><time>2026-07-14T15:11:10Z</time></trkpt>
      <trkpt lat="43.086005" lon="-79.068626"><ele>155.58</ele><time>2026-07-14T15:11:18Z</time></trkpt>
      <trkpt lat="43.086036" lon="-79.068601"><ele>157.07</ele><time>2026-07-14T15:11:21Z</time></trkpt>
      <trkpt lat="43.08608" lon="-79.068589"><ele>157.96</ele><time>2026-07-14T15:11:25Z</time></trkpt>
      <trkpt lat="43.086094" lon="-79.068477"><ele>160.97</ele><time>2026-07-14T15:11:33Z</time></trkpt>
      <trkpt lat="43.086107" lon="-79.068438"><ele>161.04</ele><time>2026-07-14T15:11:36Z</time></trkpt>
      <trkpt lat="43.086092" lon="-79.068319"><ele>161.28</ele><time>2026-07-14T15:11:44Z</time></trkpt>
      <trkpt lat="43.086108" lon="-79.068248"><ele>161.71</ele><time>2026-07-14T15:11:49Z</time></trkpt>
      <trkpt lat="43.086185" lon="-79.067975"><ele>162.77</ele><time>2026-07-14T15:12:09Z</time></trkpt>
      <trkpt lat="43.086224" lon="-79.067871"><ele>163</ele><time>2026-07-14T15:12:17Z</time></trkpt>
      <trkpt lat="43.086275" lon="-79.067774"><ele>163.4</ele><time>2026-07-14T15:12:25Z</time></trkpt>
      <trkpt lat="43.086318" lon="-79.067784"><ele>163.74</ele><time>2026-07-14T15:12:29Z</time></trkpt>
      <trkpt lat="43.086379" lon="-79.067821"><ele>164</ele><time>2026-07-14T15:12:36Z</time></trkpt>
      <trkpt lat="43.086427" lon="-79.06787"><ele>163.89</ele><time>2026-07-14T15:12:42Z</time></trkpt>
      <trkpt lat="43.08646" lon="-79.067907"><ele>163.86</ele><time>2026-07-14T15:12:46Z</time></trkpt>
      <trkpt lat="43.086504" lon="-79.068002"><ele>163.8</ele><time>2026-07-14T15:12:53Z</time></trkpt>
      <trkpt lat="43.086554" lon="-79.06804"><ele>163.52</ele><time>2026-07-14T15:12:58Z</time></trkpt>
      <trkpt lat="43.086895" lon="-79.068721"><ele>111.61</ele><time>2026-07-14T15:13:54Z</time></trkpt>
      <trkpt lat="43.086936" lon="-79.068806"><ele>110.6</ele><time>2026-07-14T15:14:00Z</time></trkpt>
      <trkpt lat="43.086914" lon="-79.068826"><ele>110.5</ele><time>2026-07-14T15:14:02Z</time></trkpt>
      <trkpt lat="43.086899" lon="-79.068873"><ele>110.87</ele><time>2026-07-14T15:14:06Z</time></trkpt>
      <trkpt lat="43.086868" lon="-79.068971"><ele>110.31</ele><time>2026-07-14T15:14:13Z</time></trkpt>
      <trkpt lat="43.086776" lon="-79.069112"><ele>110.56</ele><time>2026-07-14T15:14:25Z</time></trkpt>
      <trkpt lat="43.08672" lon="-79.069119"><ele>111.33</ele><time>2026-07-14T15:14:30Z</time></trkpt>
      <trkpt lat="43.08666" lon="-79.06921"><ele>110.3</ele><time>2026-07-14T15:14:38Z</time></trkpt>
      <trkpt lat="43.086547" lon="-79.069282"><ele>110.23</ele><time>2026-07-14T15:14:50Z</time></trkpt>
      <trkpt lat="43.08649" lon="-79.069319"><ele>110.72</ele><time>2026-07-14T15:14:56Z</time></trkpt>
      <trkpt lat="43.086449" lon="-79.069428"><ele>109.83</ele><time>2026-07-14T15:15:05Z</time></trkpt>
      <trkpt lat="43.086437" lon="-79.069496"><ele>108.71</ele><time>2026-07-14T15:15:10Z</time></trkpt>
      <trkpt lat="43.086425" lon="-79.069526"><ele>108.46</ele><time>2026-07-14T15:15:12Z</time></trkpt>
      <trkpt lat="43.086351" lon="-79.069558"><ele>110.03</ele><time>2026-07-14T15:15:19Z</time></trkpt>
      <trkpt lat="43.086425" lon="-79.069526"><ele>108.46</ele><time>2026-07-14T15:15:26Z</time></trkpt>
      <trkpt lat="43.086437" lon="-79.069496"><ele>108.71</ele><time>2026-07-14T15:15:29Z</time></trkpt>
      <trkpt lat="43.086449" lon="-79.069428"><ele>109.83</ele><time>2026-07-14T15:15:33Z</time></trkpt>
      <trkpt lat="43.08649" lon="-79.069319"><ele>110.72</ele><time>2026-07-14T15:15:41Z</time></trkpt>
      <trkpt lat="43.086547" lon="-79.069282"><ele>110.23</ele><time>2026-07-14T15:15:46Z</time></trkpt>
      <trkpt lat="43.08666" lon="-79.06921"><ele>110.3</ele><time>2026-07-14T15:15:57Z</time></trkpt>
      <trkpt lat="43.086776" lon="-79.069219"><ele>109.31</ele><time>2026-07-14T15:16:07Z</time></trkpt>
      <trkpt lat="43.086817" lon="-79.06919"><ele>109.01</ele><time>2026-07-14T15:16:11Z</time></trkpt>
      <trkpt lat="43.086843" lon="-79.069149"><ele>109.07</ele><time>2026-07-14T15:16:15Z</time></trkpt>
      <trkpt lat="43.086892" lon="-79.069115"><ele>108.48</ele><time>2026-07-14T15:16:20Z</time></trkpt>
      <trkpt lat="43.087025" lon="-79.069068"><ele>106.59</ele><time>2026-07-14T15:16:33Z</time></trkpt>
      <trkpt lat="43.087112" lon="-79.069001"><ele>105.44</ele><time>2026-07-14T15:16:42Z</time></trkpt>
      <trkpt lat="43.087195" lon="-79.068911"><ele>104.98</ele><time>2026-07-14T15:16:51Z</time></trkpt>
      <trkpt lat="43.087193" lon="-79.068821"><ele>106.32</ele><time>2026-07-14T15:16:57Z</time></trkpt>
      <trkpt lat="43.08732" lon="-79.068704"><ele>105.76</ele><time>2026-07-14T15:17:11Z</time></trkpt>
      <trkpt lat="43.087665" lon="-79.068438"><ele>105.14</ele><time>2026-07-14T15:17:44Z</time></trkpt>
      <trkpt lat="43.087699" lon="-79.068523"><ele>102.85</ele><time>2026-07-14T15:17:50Z</time></trkpt>
      <trkpt lat="43.08759" lon="-79.068637"><ele>102.69</ele><time>2026-07-14T15:18:03Z</time></trkpt>
      <trkpt lat="43.08748" lon="-79.068753"><ele>102.53</ele><time>2026-07-14T15:18:16Z</time></trkpt>
      <trkpt lat="43.087426" lon="-79.068791"><ele>102.74</ele><time>2026-07-14T15:18:21Z</time></trkpt>
      <trkpt lat="43.087439" lon="-79.068824"><ele>102.13</ele><time>2026-07-14T15:18:24Z</time></trkpt>
      <trkpt lat="43.087482" lon="-79.068788"><ele>102.09</ele><time>2026-07-14T15:18:28Z</time></trkpt>
      <trkpt lat="43.087492" lon="-79.068815"><ele>101.67</ele><time>2026-07-14T15:18:30Z</time></trkpt>
      <trkpt lat="43.087431" lon="-79.068868"><ele>101.62</ele><time>2026-07-14T15:18:37Z</time></trkpt>
      <trkpt lat="43.08742" lon="-79.06884"><ele>102.11</ele><time>2026-07-14T15:18:39Z</time></trkpt>
      <trkpt lat="43.087385" lon="-79.06887"><ele>101.98</ele><time>2026-07-14T15:18:43Z</time></trkpt>
      <trkpt lat="43.087379" lon="-79.068857"><ele>102.24</ele><time>2026-07-14T15:18:44Z</time></trkpt>
      <trkpt lat="43.087357" lon="-79.068809"><ele>103.26</ele><time>2026-07-14T15:18:48Z</time></trkpt>
      <trkpt lat="43.087347" lon="-79.068785"><ele>103.88</ele><time>2026-07-14T15:18:50Z</time></trkpt>
      <trkpt lat="43.08733" lon="-79.068799"><ele>103.96</ele><time>2026-07-14T15:18:52Z</time></trkpt>
      <trkpt lat="43.08731" lon="-79.068817"><ele>104.11</ele><time>2026-07-14T15:18:54Z</time></trkpt>
      <trkpt lat="43.087277" lon="-79.068844"><ele>104.4</ele><time>2026-07-14T15:18:58Z</time></trkpt>
      <trkpt lat="43.087248" lon="-79.068869"><ele>104.73</ele><time>2026-07-14T15:19:01Z</time></trkpt>
      <trkpt lat="43.087195" lon="-79.068911"><ele>104.98</ele><time>2026-07-14T15:19:06Z</time></trkpt>
      <trkpt lat="43.087193" lon="-79.068821"><ele>106.32</ele><time>2026-07-14T15:19:13Z</time></trkpt>
      <trkpt lat="43.087149" lon="-79.068832"><ele>106.88</ele><time>2026-07-14T15:19:17Z</time></trkpt>
      <trkpt lat="43.087034" lon="-79.068825"><ele>109.35</ele><time>2026-07-14T15:19:28Z</time></trkpt>
      <trkpt lat="43.087027" lon="-79.068771"><ele>110.15</ele><time>2026-07-14T15:19:32Z</time></trkpt>
      <trkpt lat="43.086961" lon="-79.068784"><ele>110.52</ele><time>2026-07-14T15:19:38Z</time></trkpt>
      <trkpt lat="43.086936" lon="-79.068806"><ele>110.6</ele><time>2026-07-14T15:19:41Z</time></trkpt>
      <trkpt lat="43.086895" lon="-79.068721"><ele>111.61</ele><time>2026-07-14T15:19:47Z</time></trkpt>
      <trkpt lat="43.086554" lon="-79.06804"><ele>163.52</ele><time>2026-07-14T15:20:48Z</time></trkpt>
      <trkpt lat="43.086551" lon="-79.067959"><ele>163.93</ele><time>2026-07-14T15:20:54Z</time></trkpt>
      <trkpt lat="43.086508" lon="-79.06786"><ele>163.98</ele><time>2026-07-14T15:21:02Z</time></trkpt>
      <trkpt lat="43.086496" lon="-79.067804"><ele>164</ele><time>2026-07-14T15:21:06Z</time></trkpt>
      <trkpt lat="43.086489" lon="-79.067782"><ele>164</ele><time>2026-07-14T15:21:08Z</time></trkpt>
      <trkpt lat="43.086476" lon="-79.06758"><ele>164</ele><time>2026-07-14T15:21:20Z</time></trkpt>
      <trkpt lat="43.086587" lon="-79.06758"><ele>164.51</ele><time>2026-07-14T15:21:29Z</time></trkpt>
      <trkpt lat="43.08671" lon="-79.067567"><ele>164.95</ele><time>2026-07-14T15:21:41Z</time></trkpt>
      <trkpt lat="43.087071" lon="-79.067398"><ele>166</ele><time>2026-07-14T15:22:16Z</time></trkpt>
      <trkpt lat="43.087137" lon="-79.067383"><ele>166</ele><time>2026-07-14T15:22:22Z</time></trkpt>
      <trkpt lat="43.087369" lon="-79.067379"><ele>166</ele><time>2026-07-14T15:22:44Z</time></trkpt>
      <trkpt lat="43.087456" lon="-79.067341"><ele>166</ele><time>2026-07-14T15:22:53Z</time></trkpt>
      <trkpt lat="43.087583" lon="-79.067321"><ele>166</ele><time>2026-07-14T15:23:04Z</time></trkpt>
      <trkpt lat="43.087791" lon="-79.06722"><ele>165.85</ele><time>2026-07-14T15:23:24Z</time></trkpt>
      <trkpt lat="43.087776" lon="-79.06717"><ele>165.98</ele><time>2026-07-14T15:23:28Z</time></trkpt>
      <trkpt lat="43.087904" lon="-79.067099"><ele>165.63</ele><time>2026-07-14T15:23:41Z</time></trkpt>
      <trkpt lat="43.088073" lon="-79.066967"><ele>165</ele><time>2026-07-14T15:23:59Z</time></trkpt>
      <trkpt lat="43.088303" lon="-79.066769"><ele>164.33</ele><time>2026-07-14T15:24:26Z</time></trkpt>
      <trkpt lat="43.088493" lon="-79.066518"><ele>162.8</ele><time>2026-07-14T15:24:50Z</time></trkpt>
      <trkpt lat="43.088695" lon="-79.066237"><ele>163.52</ele><time>2026-07-14T15:25:15Z</time></trkpt>
      <trkpt lat="43.089052" lon="-79.065585"><ele>162.33</ele><time>2026-07-14T15:26:10Z</time></trkpt>
      <trkpt lat="43.089143" lon="-79.06535"><ele>161.94</ele><time>2026-07-14T15:26:29Z</time></trkpt>
      <trkpt lat="43.089286" lon="-79.064918"><ele>164.76</ele><time>2026-07-14T15:27:03Z</time></trkpt>
      <trkpt lat="43.089397" lon="-79.064563"><ele>165.34</ele><time>2026-07-14T15:27:29Z</time></trkpt>
      <trkpt lat="43.089462" lon="-79.064595"><ele>165.88</ele><time>2026-07-14T15:27:35Z</time></trkpt>
      <trkpt lat="43.089508" lon="-79.064438"><ele>166.51</ele><time>2026-07-14T15:27:46Z</time></trkpt>
      <trkpt lat="43.08954" lon="-79.064393"><ele>167.4</ele><time>2026-07-14T15:27:50Z</time></trkpt>
      <trkpt lat="43.089616" lon="-79.064229"><ele>167</ele><time>2026-07-14T15:28:02Z</time></trkpt>
      <trkpt lat="43.089705" lon="-79.064053"><ele>168.3</ele><time>2026-07-14T15:28:16Z</time></trkpt>
      <trkpt lat="43.089856" lon="-79.063804"><ele>168.81</ele><time>2026-07-14T15:28:38Z</time></trkpt>
      <trkpt lat="43.090047" lon="-79.063532"><ele>169.76</ele><time>2026-07-14T15:29:04Z</time></trkpt>
      <trkpt lat="43.090189" lon="-79.063377"><ele>170.11</ele><time>2026-07-14T15:29:21Z</time></trkpt>
      <trkpt lat="43.090793" lon="-79.062859"><ele>172</ele><time>2026-07-14T15:30:23Z</time></trkpt>
      <trkpt lat="43.091003" lon="-79.06269"><ele>172</ele><time>2026-07-14T15:30:46Z</time></trkpt>
      <trkpt lat="43.091143" lon="-79.062613"><ele>172.15</ele><time>2026-07-14T15:30:59Z</time></trkpt>
      <trkpt lat="43.091457" lon="-79.062479"><ele>173</ele><time>2026-07-14T15:31:29Z</time></trkpt>
      <trkpt lat="43.091646" lon="-79.062345"><ele>173</ele><time>2026-07-14T15:31:49Z</time></trkpt>
      <trkpt lat="43.091698" lon="-79.062345"><ele>173</ele><time>2026-07-14T15:31:54Z</time></trkpt>
      <trkpt lat="43.091753" lon="-79.062389"><ele>173</ele><time>2026-07-14T15:32:00Z</time></trkpt>
      <trkpt lat="43.091868" lon="-79.062598"><ele>173</ele><time>2026-07-14T15:32:19Z</time></trkpt>
      <trkpt lat="43.091877" lon="-79.062654"><ele>173</ele><time>2026-07-14T15:32:23Z</time></trkpt>
      <trkpt lat="43.091872" lon="-79.062783"><ele>172.46</ele><time>2026-07-14T15:32:32Z</time></trkpt>
      <trkpt lat="43.091846" lon="-79.062816"><ele>172.19</ele><time>2026-07-14T15:32:35Z</time></trkpt>
      <trkpt lat="43.091872" lon="-79.062783"><ele>172.46</ele><time>2026-07-14T15:32:38Z</time></trkpt>
      <trkpt lat="43.091933" lon="-79.06273"><ele>172.77</ele><time>2026-07-14T15:32:45Z</time></trkpt>
      <trkpt lat="43.091988" lon="-79.062646"><ele>173</ele><time>2026-07-14T15:32:52Z</time></trkpt>
      <trkpt lat="43.092152" lon="-79.062524"><ele>172.95</ele><time>2026-07-14T15:33:08Z</time></trkpt>
      <trkpt lat="43.092325" lon="-79.062428"><ele>172.47</ele><time>2026-07-14T15:33:26Z</time></trkpt>
      <trkpt lat="43.092495" lon="-79.062358"><ele>172.64</ele><time>2026-07-14T15:33:42Z</time></trkpt>
      <trkpt lat="43.092637" lon="-79.062317"><ele>174</ele><time>2026-07-14T15:33:56Z</time></trkpt>
      <trkpt lat="43.092858" lon="-79.062286"><ele>174</ele><time>2026-07-14T15:34:15Z</time></trkpt>
      <trkpt lat="43.092856" lon="-79.0622"><ele>174</ele><time>2026-07-14T15:34:21Z</time></trkpt>
      <trkpt lat="43.093141" lon="-79.062216"><ele>174</ele><time>2026-07-14T15:34:45Z</time></trkpt>
      <trkpt lat="43.093187" lon="-79.062196"><ele>174</ele><time>2026-07-14T15:34:49Z</time></trkpt>
      <trkpt lat="43.0933" lon="-79.062098"><ele>174.18</ele><time>2026-07-14T15:35:01Z</time></trkpt>
      <trkpt lat="43.093386" lon="-79.062"><ele>174.03</ele><time>2026-07-14T15:35:11Z</time></trkpt>
      <trkpt lat="43.093514" lon="-79.061978"><ele>175</ele><time>2026-07-14T15:35:23Z</time></trkpt>
      <trkpt lat="43.093546" lon="-79.061996"><ele>175</ele><time>2026-07-14T15:35:26Z</time></trkpt>
      <trkpt lat="43.093561" lon="-79.061887"><ele>175</ele><time>2026-07-14T15:35:33Z</time></trkpt>
      <trkpt lat="43.093686" lon="-79.061899"><ele>174.84</ele><time>2026-07-14T15:35:46Z</time></trkpt>
      <trkpt lat="43.093748" lon="-79.061895"><ele>174.67</ele><time>2026-07-14T15:35:52Z</time></trkpt>
      <trkpt lat="43.093799" lon="-79.061836"><ele>174.97</ele><time>2026-07-14T15:35:58Z</time></trkpt>
      <trkpt lat="43.09382" lon="-79.061785"><ele>175</ele><time>2026-07-14T15:36:02Z</time></trkpt>
      <trkpt lat="43.093815" lon="-79.061654"><ele>175.03</ele><time>2026-07-14T15:36:11Z</time></trkpt>
      <trkpt lat="43.093921" lon="-79.061617"><ele>175.24</ele><time>2026-07-14T15:36:22Z</time></trkpt>
      <trkpt lat="43.093951" lon="-79.06163"><ele>175.17</ele><time>2026-07-14T15:36:25Z</time></trkpt>
      <trkpt lat="43.094003" lon="-79.061687"><ele>175</ele><time>2026-07-14T15:36:31Z</time></trkpt>
      <trkpt lat="43.094054" lon="-79.061724"><ele>175</ele><time>2026-07-14T15:36:37Z</time></trkpt>
      <trkpt lat="43.094171" lon="-79.061751"><ele>175</ele><time>2026-07-14T15:36:47Z</time></trkpt>
      <trkpt lat="43.094236" lon="-79.061748"><ele>175</ele><time>2026-07-14T15:36:53Z</time></trkpt>
      <trkpt lat="43.094337" lon="-79.061767"><ele>174.63</ele><time>2026-07-14T15:37:02Z</time></trkpt>
      <trkpt lat="43.094597" lon="-79.061659"><ele>174.91</ele><time>2026-07-14T15:37:26Z</time></trkpt>
      <trkpt lat="43.094664" lon="-79.061631"><ele>174.98</ele><time>2026-07-14T15:37:32Z</time></trkpt>
      <trkpt lat="43.094763" lon="-79.061614"><ele>174.29</ele><time>2026-07-14T15:37:40Z</time></trkpt>
      <trkpt lat="43.094856" lon="-79.061537"><ele>174.71</ele><time>2026-07-14T15:37:50Z</time></trkpt>
      <trkpt lat="43.095102" lon="-79.061443"><ele>174.75</ele><time>2026-07-14T15:38:12Z</time></trkpt>
      <trkpt lat="43.095309" lon="-79.061336"><ele>175.4</ele><time>2026-07-14T15:38:34Z</time></trkpt>
      <trkpt lat="43.095393" lon="-79.061324"><ele>174.85</ele><time>2026-07-14T15:38:41Z</time></trkpt>
      <trkpt lat="43.095335" lon="-79.061108"><ele>176.11</ele><time>2026-07-14T15:38:56Z</time></trkpt>
      <trkpt lat="43.095629" lon="-79.060891"><ele>177</ele><time>2026-07-14T15:39:25Z</time></trkpt>
      <trkpt lat="43.095935" lon="-79.060708"><ele>177</ele><time>2026-07-14T15:39:58Z</time></trkpt>
      <trkpt lat="43.096271" lon="-79.06055"><ele>177</ele><time>2026-07-14T15:40:29Z</time></trkpt>
      <trkpt lat="43.096526" lon="-79.060443"><ele>176.93</ele><time>2026-07-14T15:40:51Z</time></trkpt>
      <trkpt lat="43.096704" lon="-79.060521"><ele>173.91</ele><time>2026-07-14T15:41:10Z</time></trkpt>
      <trkpt lat="43.096893" lon="-79.060445"><ele>176.12</ele><time>2026-07-14T15:41:29Z</time></trkpt>
      <trkpt lat="43.096992" lon="-79.060539"><ele>172.88</ele><time>2026-07-14T15:41:40Z</time></trkpt>
      <trkpt lat="43.09723" lon="-79.060675"><ele>166.22</ele><time>2026-07-14T15:42:02Z</time></trkpt>
      <trkpt lat="43.097611" lon="-79.060776"><ele>164.53</ele><time>2026-07-14T15:42:39Z</time></trkpt>
      <trkpt lat="43.097813" lon="-79.060763"><ele>164.98</ele><time>2026-07-14T15:42:59Z</time></trkpt>
      <trkpt lat="43.097882" lon="-79.060712"><ele>166.42</ele><time>2026-07-14T15:43:07Z</time></trkpt>
      <trkpt lat="43.097966" lon="-79.06049"><ele>170.9</ele><time>2026-07-14T15:43:23Z</time></trkpt>
      <trkpt lat="43.098088" lon="-79.06049"><ele>170.07</ele><time>2026-07-14T15:43:34Z</time></trkpt>
      <trkpt lat="43.098267" lon="-79.060426"><ele>170.02</ele><time>2026-07-14T15:43:51Z</time></trkpt>
      <trkpt lat="43.098729" lon="-79.060079"><ele>166.72</ele><time>2026-07-14T15:44:40Z</time></trkpt>
      <trkpt lat="43.098821" lon="-79.060006"><ele>163.82</ele><time>2026-07-14T15:44:50Z</time></trkpt>
      <trkpt lat="43.099124" lon="-79.059682"><ele>159.51</ele><time>2026-07-14T15:45:26Z</time></trkpt>
      <trkpt lat="43.099356" lon="-79.059414"><ele>160.07</ele><time>2026-07-14T15:45:54Z</time></trkpt>
      <trkpt lat="43.099492" lon="-79.059223"><ele>161.92</ele><time>2026-07-14T15:46:13Z</time></trkpt>
      <trkpt lat="43.099655" lon="-79.05897"><ele>161.2</ele><time>2026-07-14T15:46:35Z</time></trkpt>
      <trkpt lat="43.099744" lon="-79.058861"><ele>161.96</ele><time>2026-07-14T15:46:45Z</time></trkpt>
      <trkpt lat="43.099874" lon="-79.058757"><ele>160.02</ele><time>2026-07-14T15:46:59Z</time></trkpt>
      <trkpt lat="43.100069" lon="-79.058638"><ele>157.2</ele><time>2026-07-14T15:47:18Z</time></trkpt>
      <trkpt lat="43.100299" lon="-79.058548"><ele>154.95</ele><time>2026-07-14T15:47:41Z</time></trkpt>
      <trkpt lat="43.10064" lon="-79.058482"><ele>154.52</ele><time>2026-07-14T15:48:11Z</time></trkpt>
      <trkpt lat="43.100963" lon="-79.058371"><ele>153.43</ele><time>2026-07-14T15:48:40Z</time></trkpt>
      <trkpt lat="43.101121" lon="-79.058323"><ele>155.16</ele><time>2026-07-14T15:48:54Z</time></trkpt>
      <trkpt lat="43.101501" lon="-79.058214"><ele>147.48</ele><time>2026-07-14T15:49:29Z</time></trkpt>
      <trkpt lat="43.101671" lon="-79.05816"><ele>148.62</ele><time>2026-07-14T15:49:45Z</time></trkpt>
      <trkpt lat="43.101835" lon="-79.058072"><ele>145.51</ele><time>2026-07-14T15:50:01Z</time></trkpt>
      <trkpt lat="43.101944" lon="-79.057968"><ele>147.62</ele><time>2026-07-14T15:50:12Z</time></trkpt>
      <trkpt lat="43.10248" lon="-79.057304"><ele>143.04</ele><time>2026-07-14T15:51:23Z</time></trkpt>
      <trkpt lat="43.102641" lon="-79.057132"><ele>139.77</ele><time>2026-07-14T15:51:43Z</time></trkpt>
      <trkpt lat="43.102801" lon="-79.05696"><ele>139.03</ele><time>2026-07-14T15:52:01Z</time></trkpt>
      <trkpt lat="43.102967" lon="-79.056821"><ele>137.67</ele><time>2026-07-14T15:52:17Z</time></trkpt>
      <trkpt lat="43.103121" lon="-79.056713"><ele>136.55</ele><time>2026-07-14T15:52:33Z</time></trkpt>
      <trkpt lat="43.10335" lon="-79.056605"><ele>136.27</ele><time>2026-07-14T15:52:55Z</time></trkpt>
      <trkpt lat="43.103514" lon="-79.056548"><ele>135.49</ele><time>2026-07-14T15:53:10Z</time></trkpt>
      <trkpt lat="43.103668" lon="-79.056514"><ele>134.65</ele><time>2026-07-14T15:53:25Z</time></trkpt>
      <trkpt lat="43.103989" lon="-79.05646"><ele>133.28</ele><time>2026-07-14T15:53:56Z</time></trkpt>
      <trkpt lat="43.104169" lon="-79.056459"><ele>131.96</ele><time>2026-07-14T15:54:13Z</time></trkpt>
      <trkpt lat="43.104733" lon="-79.056501"><ele>129.9</ele><time>2026-07-14T15:55:04Z</time></trkpt>
      <trkpt lat="43.104826" lon="-79.056496"><ele>129.93</ele><time>2026-07-14T15:55:13Z</time></trkpt>
      <trkpt lat="43.104955" lon="-79.056463"><ele>129.15</ele><time>2026-07-14T15:55:26Z</time></trkpt>
      <trkpt lat="43.105399" lon="-79.056265"><ele>127.52</ele><time>2026-07-14T15:56:07Z</time></trkpt>
      <trkpt lat="43.105617" lon="-79.056226"><ele>125.7</ele><time>2026-07-14T15:56:25Z</time></trkpt>
      <trkpt lat="43.10581" lon="-79.056231"><ele>124.92</ele><time>2026-07-14T15:56:43Z</time></trkpt>
      <trkpt lat="43.106034" lon="-79.056274"><ele>124.9</ele><time>2026-07-14T15:57:03Z</time></trkpt>
      <trkpt lat="43.106182" lon="-79.056332"><ele>123.65</ele><time>2026-07-14T15:57:17Z</time></trkpt>
      <trkpt lat="43.106956" lon="-79.056803"><ele>120.5</ele><time>2026-07-14T15:58:29Z</time></trkpt>
      <trkpt lat="43.107162" lon="-79.056887"><ele>118.07</ele><time>2026-07-14T15:58:48Z</time></trkpt>
      <trkpt lat="43.107295" lon="-79.0569"><ele>117.43</ele><time>2026-07-14T15:59:01Z</time></trkpt>
      <trkpt lat="43.107577" lon="-79.056856"><ele>115.65</ele><time>2026-07-14T15:59:28Z</time></trkpt>
    </trkseg>
  </trk>
</gpx>
