<?xml version="1.0" encoding="UTF-8"?>
<gpx version="1.1" creator="HoldMyTrack" xmlns="http://www.topografix.com/GPX/1/1">
  <trk>
    <type>Solowheel</type>
    <trkseg>
      <trkpt lat="41.47929577622563" lon="-81.48217286914587"><ele>311</ele><time>2026-10-04T20:31:17Z</time></trkpt>
      <trkpt lat="41.47945641539991" lon="-81.48201688192785"><ele>312</ele><time>2026-10-04T20:31:20Z</time></trkpt>
      <trkpt lat="41.479650707915425" lon="-81.48178034462035"><ele>311</ele><time>2026-10-04T20:31:23Z</time></trkpt>
      <trkpt lat="41.479791859164834" lon="-81.48151941597462"><ele>307</ele><time>2026-10-04T20:31:26Z</time></trkpt>
      <trkpt lat="41.47989671677351" lon="-81.48125521838665"><ele>307</ele><time>2026-10-04T20:31:29Z</time></trkpt>
      <trkpt lat="41.479988833889365" lon="-81.48107031360269"><ele>307</ele><time>2026-10-04T20:31:32Z</time></trkpt>
      <trkpt lat="41.48014226462692" lon="-81.48092363029718"><ele>306</ele><time>2026-10-04T20:31:35Z</time></trkpt>
      <trkpt lat="41.48035474587232" lon="-81.4807915315032"><ele>305</ele><time>2026-10-04T20:31:38Z</time></trkpt>
      <trkpt lat="41.480537303723395" lon="-81.4805653039366"><ele>305</ele><time>2026-10-04T20:31:41Z</time></trkpt>
      <trkpt lat="41.480699577368796" lon="-81.48027059622109"><ele>305</ele><time>2026-10-04T20:31:44Z</time></trkpt>
      <trkpt lat="41.480843955650926" lon="-81.479961136356"><ele>305</ele><time>2026-10-04T20:31:47Z</time></trkpt>
      <trkpt lat="41.48096423596144" lon="-81.47970247082412"><ele>304</ele><time>2026-10-04T20:31:50Z</time></trkpt>
      <trkpt lat="41.48110211826861" lon="-81.47951044142246"><ele>305</ele><time>2026-10-04T20:31:53Z</time></trkpt>
      <trkpt lat="41.48121783044189" lon="-81.4793562144041"><ele>305</ele><time>2026-10-04T20:31:56Z</time></trkpt>
      <trkpt lat="41.481338907033205" lon="-81.479237023741"><ele>304</ele><time>2026-10-04T20:31:59Z</time></trkpt>
      <trkpt lat="41.48148546461016" lon="-81.4791336748749"><ele>304</ele><time>2026-10-04T20:32:02Z</time></trkpt>
      <trkpt lat="41.481606415472925" lon="-81.47897559218109"><ele>303</ele><time>2026-10-04T20:32:05Z</time></trkpt>
      <trkpt lat="41.48169404827058" lon="-81.47879085503519"><ele>304</ele><time>2026-10-04T20:32:08Z</time></trkpt>
      <trkpt lat="41.48174337577075" lon="-81.47859681397676"><ele>303</ele><time>2026-10-04T20:32:11Z</time></trkpt>
      <trkpt lat="41.481788428500295" lon="-81.47842733189464"><ele>304</ele><time>2026-10-04T20:32:14Z</time></trkpt>
      <trkpt lat="41.4818510832265" lon="-81.47831752896309"><ele>304</ele><time>2026-10-04T20:32:17Z</time></trkpt>
      <trkpt lat="41.481980164535344" lon="-81.47815869189799"><ele>302</ele><time>2026-10-04T20:32:20Z</time></trkpt>
      <trkpt lat="41.48213112261146" lon="-81.4780252519995"><ele>303</ele><time>2026-10-04T20:32:23Z</time></trkpt>
      <trkpt lat="41.4822578150779" lon="-81.47794486954808"><ele>303</ele><time>2026-10-04T20:32:26Z</time></trkpt>
      <trkpt lat="41.482353368774056" lon="-81.47783146239817"><ele>302</ele><time>2026-10-04T20:32:29Z</time></trkpt>
      <trkpt lat="41.48245110176504" lon="-81.47767907939851"><ele>302</ele><time>2026-10-04T20:32:32Z</time></trkpt>
      <trkpt lat="41.48254279978573" lon="-81.47752367891371"><ele>302</ele><time>2026-10-04T20:32:35Z</time></trkpt>
      <trkpt lat="41.48263236042112" lon="-81.4773830305785"><ele>302</ele><time>2026-10-04T20:32:38Z</time></trkpt>
      <trkpt lat="41.482685543596745" lon="-81.47717859596014"><ele>302</ele><time>2026-10-04T20:32:41Z</time></trkpt>
      <trkpt lat="41.48276915308088" lon="-81.47701724432409"><ele>302</ele><time>2026-10-04T20:32:44Z</time></trkpt>
      <trkpt lat="41.48289186414331" lon="-81.47689084522426"><ele>302</ele><time>2026-10-04T20:32:47Z</time></trkpt>
      <trkpt lat="41.48299500346184" lon="-81.47671189159155"><ele>302</ele><time>2026-10-04T20:32:50Z</time></trkpt>
      <trkpt lat="41.48309625685215" lon="-81.47657685913146"><ele>303</ele><time>2026-10-04T20:32:53Z</time></trkpt>
      <trkpt lat="41.48320802953094" lon="-81.47644677199423"><ele>302</ele><time>2026-10-04T20:32:56Z</time></trkpt>
      <trkpt lat="41.483301906846464" lon="-81.47633797489107"><ele>301</ele><time>2026-10-04T20:32:59Z</time></trkpt>
      <trkpt lat="41.48338689934462" lon="-81.47616631351411"><ele>301</ele><time>2026-10-04T20:33:02Z</time></trkpt>
      <trkpt lat="41.48345755878836" lon="-81.47599096409976"><ele>301</ele><time>2026-10-04T20:33:05Z</time></trkpt>
      <trkpt lat="41.48356962483376" lon="-81.47585484199226"><ele>301</ele><time>2026-10-04T20:33:08Z</time></trkpt>
      <trkpt lat="41.48368613328785" lon="-81.47572014480829"><ele>301</ele><time>2026-10-04T20:33:11Z</time></trkpt>
      <trkpt lat="41.48376957513392" lon="-81.47554286755621"><ele>300</ele><time>2026-10-04T20:33:14Z</time></trkpt>
      <trkpt lat="41.483839941211045" lon="-81.47536383010447"><ele>299</ele><time>2026-10-04T20:33:17Z</time></trkpt>
      <trkpt lat="41.48398427758366" lon="-81.47522075101733"><ele>298</ele><time>2026-10-04T20:33:20Z</time></trkpt>
      <trkpt lat="41.48414148017764" lon="-81.47507909685373"><ele>298</ele><time>2026-10-04T20:33:23Z</time></trkpt>
      <trkpt lat="41.484296042472124" lon="-81.47492637857795"><ele>297</ele><time>2026-10-04T20:33:26Z</time></trkpt>
      <trkpt lat="41.484458735212684" lon="-81.4747962076217"><ele>298</ele><time>2026-10-04T20:33:29Z</time></trkpt>
      <trkpt lat="41.48456510156393" lon="-81.47459160536528"><ele>297</ele><time>2026-10-04T20:33:32Z</time></trkpt>
      <trkpt lat="41.484607555903494" lon="-81.47435389459133"><ele>298</ele><time>2026-10-04T20:33:35Z</time></trkpt>
      <trkpt lat="41.484663588926196" lon="-81.47415474057198"><ele>297</ele><time>2026-10-04T20:33:38Z</time></trkpt>
      <trkpt lat="41.484760316088796" lon="-81.47400830872357"><ele>297</ele><time>2026-10-04T20:33:41Z</time></trkpt>
      <trkpt lat="41.48487724363804" lon="-81.4739185385406"><ele>297</ele><time>2026-10-04T20:33:44Z</time></trkpt>
      <trkpt lat="41.48498742375523" lon="-81.47380974143744"><ele>297</ele><time>2026-10-04T20:33:47Z</time></trkpt>
      <trkpt lat="41.48510539904237" lon="-81.47361821494997"><ele>297</ele><time>2026-10-04T20:33:50Z</time></trkpt>
      <trkpt lat="41.48519898299128" lon="-81.47339768707752"><ele>297</ele><time>2026-10-04T20:33:53Z</time></trkpt>
      <trkpt lat="41.48533481173217" lon="-81.47323943674564"><ele>296</ele><time>2026-10-04T20:33:56Z</time></trkpt>
      <trkpt lat="41.48549612145871" lon="-81.47306484170258"><ele>296</ele><time>2026-10-04T20:33:59Z</time></trkpt>
      <trkpt lat="41.48565575480461" lon="-81.47280969657004"><ele>296</ele><time>2026-10-04T20:34:02Z</time></trkpt>
      <trkpt lat="41.48581421468407" lon="-81.47252789698541"><ele>295</ele><time>2026-10-04T20:34:05Z</time></trkpt>
      <trkpt lat="41.486041992902756" lon="-81.47231373935938"><ele>296</ele><time>2026-10-04T20:34:08Z</time></trkpt>
      <trkpt lat="41.48621973115951" lon="-81.47203076630831"><ele>296</ele><time>2026-10-04T20:34:11Z</time></trkpt>
      <trkpt lat="41.486289887689054" lon="-81.4717897027731"><ele>295</ele><time>2026-10-04T20:34:14Z</time></trkpt>
      <trkpt lat="41.486359373666346" lon="-81.47166548296809"><ele>296</ele><time>2026-10-04T20:34:17Z</time></trkpt>
      <trkpt lat="41.486461171880364" lon="-81.47150790318847"><ele>295</ele><time>2026-10-04T20:34:20Z</time></trkpt>
      <trkpt lat="41.486587948165834" lon="-81.47129139862955"><ele>295</ele><time>2026-10-04T20:34:23Z</time></trkpt>
      <trkpt lat="41.48678043857217" lon="-81.47109224461019"><ele>294</ele><time>2026-10-04T20:34:26Z</time></trkpt>
      <trkpt lat="41.486894097179174" lon="-81.47088395431638"><ele>294</ele><time>2026-10-04T20:34:29Z</time></trkpt>
      <trkpt lat="41.48700482212007" lon="-81.47077473811805"><ele>293</ele><time>2026-10-04T20:34:32Z</time></trkpt>
      <trkpt lat="41.48711269721389" lon="-81.47054616361856"><ele>292</ele><time>2026-10-04T20:34:35Z</time></trkpt>
      <trkpt lat="41.487240311689675" lon="-81.47028950974345"><ele>290</ele><time>2026-10-04T20:34:38Z</time></trkpt>
      <trkpt lat="41.487450236454606" lon="-81.4701180998236"><ele>290</ele><time>2026-10-04T20:34:41Z</time></trkpt>
      <trkpt lat="41.48763279430568" lon="-81.46988902240992"><ele>288</ele><time>2026-10-04T20:34:44Z</time></trkpt>
      <trkpt lat="41.48777822032571" lon="-81.4696363080293"><ele>288</ele><time>2026-10-04T20:34:47Z</time></trkpt>
      <trkpt lat="41.487878090702" lon="-81.46933682262897"><ele>288</ele><time>2026-10-04T20:34:50Z</time></trkpt>
      <trkpt lat="41.48804501630366" lon="-81.46915895864367"><ele>286</ele><time>2026-10-04T20:34:53Z</time></trkpt>
      <trkpt lat="41.48820972070098" lon="-81.46892191842198"><ele>286</ele><time>2026-10-04T20:34:56Z</time></trkpt>
      <trkpt lat="41.4883165480569" lon="-81.46863358095288"><ele>285</ele><time>2026-10-04T20:34:59Z</time></trkpt>
      <trkpt lat="41.48848573677242" lon="-81.46837307140231"><ele>284</ele><time>2026-10-04T20:35:02Z</time></trkpt>
      <trkpt lat="41.48865500930697" lon="-81.46809990517795"><ele>284</ele><time>2026-10-04T20:35:05Z</time></trkpt>
      <trkpt lat="41.488754292950034" lon="-81.46780394017696"><ele>283</ele><time>2026-10-04T20:35:08Z</time></trkpt>
      <trkpt lat="41.48891874589026" lon="-81.46755047142506"><ele>281</ele><time>2026-10-04T20:35:11Z</time></trkpt>
      <trkpt lat="41.48908395320177" lon="-81.46728166379035"><ele>280</ele><time>2026-10-04T20:35:14Z</time></trkpt>
      <trkpt lat="41.48925431538373" lon="-81.46701972931623"><ele>280</ele><time>2026-10-04T20:35:17Z</time></trkpt>
      <trkpt lat="41.489445213228464" lon="-81.46673725917935"><ele>279</ele><time>2026-10-04T20:35:20Z</time></trkpt>
      <trkpt lat="41.489626346156" lon="-81.46646149456501"><ele>279</ele><time>2026-10-04T20:35:23Z</time></trkpt>
      <trkpt lat="41.48979884572327" lon="-81.46619344130158"><ele>277</ele><time>2026-10-04T20:35:26Z</time></trkpt>
      <trkpt lat="41.48997218348086" lon="-81.46592773497105"><ele>277</ele><time>2026-10-04T20:35:29Z</time></trkpt>
      <trkpt lat="41.490139779634774" lon="-81.46568709053099"><ele>277</ele><time>2026-10-04T20:35:32Z</time></trkpt>
      <trkpt lat="41.4903190266341" lon="-81.4656057022512"><ele>277</ele><time>2026-10-04T20:35:35Z</time></trkpt>
      <trkpt lat="41.49046763777733" lon="-81.4655052870512"><ele>279</ele><time>2026-10-04T20:35:38Z</time></trkpt>
      <trkpt lat="41.49056050926447" lon="-81.46528886631131"><ele>279</ele><time>2026-10-04T20:35:41Z</time></trkpt>
      <trkpt lat="41.49068435188383" lon="-81.46508300676942"><ele>280</ele><time>2026-10-04T20:35:44Z</time></trkpt>
      <trkpt lat="41.49082072544843" lon="-81.46493749693036"><ele>280</ele><time>2026-10-04T20:35:47Z</time></trkpt>
      <trkpt lat="41.490889457054436" lon="-81.46477354690433"><ele>280</ele><time>2026-10-04T20:35:50Z</time></trkpt>
      <trkpt lat="41.491020801477134" lon="-81.46458302624524"><ele>280</ele><time>2026-10-04T20:35:53Z</time></trkpt>
      <trkpt lat="41.49122640956193" lon="-81.46444422192872"><ele>280</ele><time>2026-10-04T20:35:56Z</time></trkpt>
      <trkpt lat="41.49139061104506" lon="-81.46428680978715"><ele>281</ele><time>2026-10-04T20:35:59Z</time></trkpt>
      <trkpt lat="41.49148193188012" lon="-81.46405513398349"><ele>282</ele><time>2026-10-04T20:36:02Z</time></trkpt>
      <trkpt lat="41.491543664596975" lon="-81.46393342874944"><ele>283</ele><time>2026-10-04T20:36:05Z</time></trkpt>
      <trkpt lat="41.49160464294255" lon="-81.4639253821224"><ele>284</ele><time>2026-10-04T20:36:08Z</time></trkpt>
      <trkpt lat="41.491676098667085" lon="-81.46398833021522"><ele>285</ele><time>2026-10-04T20:36:11Z</time></trkpt>
      <trkpt lat="41.49171913973987" lon="-81.46405228413641"><ele>284</ele><time>2026-10-04T20:36:14Z</time></trkpt>
      <trkpt lat="41.49180442560464" lon="-81.46411187946796"><ele>285</ele><time>2026-10-04T20:36:17Z</time></trkpt>
      <trkpt lat="41.49190974421799" lon="-81.46411716006696"><ele>285</ele><time>2026-10-04T20:36:20Z</time></trkpt>
      <trkpt lat="41.49200483690947" lon="-81.46408958360553"><ele>284</ele><time>2026-10-04T20:36:23Z</time></trkpt>
      <trkpt lat="41.49211736395955" lon="-81.46403962746263"><ele>284</ele><time>2026-10-04T20:36:26Z</time></trkpt>
      <trkpt lat="41.492267274297774" lon="-81.46392320282757"><ele>285</ele><time>2026-10-04T20:36:29Z</time></trkpt>
      <trkpt lat="41.49241014383733" lon="-81.46374952979386"><ele>286</ele><time>2026-10-04T20:36:32Z</time></trkpt>
      <trkpt lat="41.49252744857222" lon="-81.46351986564696"><ele>287</ele><time>2026-10-04T20:36:35Z</time></trkpt>
      <trkpt lat="41.492569986730814" lon="-81.46327662281692"><ele>287</ele><time>2026-10-04T20:36:38Z</time></trkpt>
      <trkpt lat="41.49262526538223" lon="-81.46304243244231"><ele>292</ele><time>2026-10-04T20:37:28Z</time></trkpt>
      <trkpt lat="41.492620152421296" lon="-81.46288317628205"><ele>291</ele><time>2026-10-04T20:37:31Z</time></trkpt>
      <trkpt lat="41.49253914132714" lon="-81.46274462342262"><ele>291</ele><time>2026-10-04T20:37:34Z</time></trkpt>
      <trkpt lat="41.49244136642665" lon="-81.4626147877425"><ele>292</ele><time>2026-10-04T20:37:37Z</time></trkpt>
      <trkpt lat="41.49248323403299" lon="-81.46243943832815"><ele>292</ele><time>2026-10-04T20:37:40Z</time></trkpt>
      <trkpt lat="41.4925733814016" lon="-81.46221379749477"><ele>291</ele><time>2026-10-04T20:37:43Z</time></trkpt>
      <trkpt lat="41.492931162938476" lon="-81.46178749389946"><ele>291</ele><time>2026-10-04T20:37:49Z</time></trkpt>
      <trkpt lat="41.49307688232511" lon="-81.46152949891984"><ele>290</ele><time>2026-10-04T20:37:52Z</time></trkpt>
      <trkpt lat="41.493253824301064" lon="-81.46126295439899"><ele>289</ele><time>2026-10-04T20:37:55Z</time></trkpt>
      <trkpt lat="41.49345138575882" lon="-81.4610465336591"><ele>288</ele><time>2026-10-04T20:37:58Z</time></trkpt>
      <trkpt lat="41.49360041599721" lon="-81.46075115539134"><ele>289</ele><time>2026-10-04T20:38:01Z</time></trkpt>
      <trkpt lat="41.493795211426914" lon="-81.46048947237432"><ele>288</ele><time>2026-10-04T20:38:04Z</time></trkpt>
      <trkpt lat="41.49399407207966" lon="-81.46024396643043"><ele>287</ele><time>2026-10-04T20:38:07Z</time></trkpt>
      <trkpt lat="41.49415957275778" lon="-81.45996090956032"><ele>286</ele><time>2026-10-04T20:38:10Z</time></trkpt>
      <trkpt lat="41.494351141154766" lon="-81.45972470752895"><ele>285</ele><time>2026-10-04T20:38:13Z</time></trkpt>
      <trkpt lat="41.494532357901335" lon="-81.45956352353096"><ele>285</ele><time>2026-10-04T20:38:16Z</time></trkpt>
      <trkpt lat="41.4947059052065" lon="-81.45943687297404"><ele>284</ele><time>2026-10-04T20:38:19Z</time></trkpt>
      <trkpt lat="41.49483636952937" lon="-81.45918130874634"><ele>284</ele><time>2026-10-04T20:38:22Z</time></trkpt>
      <trkpt lat="41.494999690912664" lon="-81.4589362218976"><ele>283</ele><time>2026-10-04T20:38:25Z</time></trkpt>
      <trkpt lat="41.49515685159713" lon="-81.45866774953902"><ele>285</ele><time>2026-10-04T20:38:28Z</time></trkpt>
      <trkpt lat="41.49532721377909" lon="-81.45839466713369"><ele>285</ele><time>2026-10-04T20:38:31Z</time></trkpt>
      <trkpt lat="41.49548462592065" lon="-81.45811077207327"><ele>286</ele><time>2026-10-04T20:38:34Z</time></trkpt>
      <trkpt lat="41.495669363066554" lon="-81.45783777348697"><ele>287</ele><time>2026-10-04T20:38:37Z</time></trkpt>
      <trkpt lat="41.49586130864918" lon="-81.45757433027029"><ele>287</ele><time>2026-10-04T20:38:40Z</time></trkpt>
      <trkpt lat="41.49604403413832" lon="-81.45736972801387"><ele>287</ele><time>2026-10-04T20:38:43Z</time></trkpt>
      <trkpt lat="41.496193525381386" lon="-81.45712397061288"><ele>287</ele><time>2026-10-04T20:38:46Z</time></trkpt>
      <trkpt lat="41.49632520508021" lon="-81.45684921182692"><ele>288</ele><time>2026-10-04T20:38:49Z</time></trkpt>
      <trkpt lat="41.49651593528688" lon="-81.45659733563662"><ele>290</ele><time>2026-10-04T20:38:52Z</time></trkpt>
      <trkpt lat="41.4966816874221" lon="-81.45632199011743"><ele>290</ele><time>2026-10-04T20:38:55Z</time></trkpt>
      <trkpt lat="41.49687061551958" lon="-81.45607832819223"><ele>291</ele><time>2026-10-04T20:38:58Z</time></trkpt>
      <trkpt lat="41.49700661189854" lon="-81.45577238872647"><ele>292</ele><time>2026-10-04T20:39:01Z</time></trkpt>
      <trkpt lat="41.497190804220736" lon="-81.4555137231946"><ele>293</ele><time>2026-10-04T20:39:04Z</time></trkpt>
      <trkpt lat="41.49738907814026" lon="-81.45526788197458"><ele>294</ele><time>2026-10-04T20:39:07Z</time></trkpt>
      <trkpt lat="41.49755248334259" lon="-81.45501726306975"><ele>294</ele><time>2026-10-04T20:39:10Z</time></trkpt>
      <trkpt lat="41.497676032595336" lon="-81.45470243878663"><ele>295</ele><time>2026-10-04T20:39:13Z</time></trkpt>
      <trkpt lat="41.49782573338598" lon="-81.45442625507712"><ele>296</ele><time>2026-10-04T20:39:16Z</time></trkpt>
      <trkpt lat="41.49801311083138" lon="-81.45420178771019"><ele>297</ele><time>2026-10-04T20:39:19Z</time></trkpt>
      <trkpt lat="41.49820363149047" lon="-81.45398268476129"><ele>300</ele><time>2026-10-04T20:39:22Z</time></trkpt>
      <trkpt lat="41.498396205715835" lon="-81.45376743748784"><ele>302</ele><time>2026-10-04T20:39:25Z</time></trkpt>
      <trkpt lat="41.49854879826307" lon="-81.45351950079203"><ele>303</ele><time>2026-10-04T20:39:28Z</time></trkpt>
      <trkpt lat="41.49866891093552" lon="-81.45321054384112"><ele>304</ele><time>2026-10-04T20:39:31Z</time></trkpt>
      <trkpt lat="41.49885804858059" lon="-81.45296235568821"><ele>306</ele><time>2026-10-04T20:39:34Z</time></trkpt>
      <trkpt lat="41.49903536774218" lon="-81.45270964130759"><ele>306</ele><time>2026-10-04T20:39:37Z</time></trkpt>
      <trkpt lat="41.49919898249209" lon="-81.45240780897439"><ele>306</ele><time>2026-10-04T20:39:40Z</time></trkpt>
      <trkpt lat="41.49936335161328" lon="-81.4521221537143"><ele>307</ele><time>2026-10-04T20:39:43Z</time></trkpt>
      <trkpt lat="41.49956904351711" lon="-81.45189810544252"><ele>307</ele><time>2026-10-04T20:39:46Z</time></trkpt>
      <trkpt lat="41.499741836450994" lon="-81.45164522342384"><ele>306</ele><time>2026-10-04T20:39:49Z</time></trkpt>
      <trkpt lat="41.499845520593226" lon="-81.45133098587394"><ele>307</ele><time>2026-10-04T20:39:52Z</time></trkpt>
      <trkpt lat="41.50000268127769" lon="-81.45106259733438"><ele>307</ele><time>2026-10-04T20:39:55Z</time></trkpt>
      <trkpt lat="41.50017270818353" lon="-81.45078876055777"><ele>306</ele><time>2026-10-04T20:39:58Z</time></trkpt>
      <trkpt lat="41.500333095900714" lon="-81.45048852078617"><ele>305</ele><time>2026-10-04T20:40:01Z</time></trkpt>
      <trkpt lat="41.50048786774278" lon="-81.45026992075145"><ele>304</ele><time>2026-10-04T20:40:04Z</time></trkpt>
      <trkpt lat="41.500586941838264" lon="-81.45020789466798"><ele>305</ele><time>2026-10-04T20:40:07Z</time></trkpt>
      <trkpt lat="41.50065630208701" lon="-81.45021728239954"><ele>306</ele><time>2026-10-04T20:40:12Z</time></trkpt>
      <trkpt lat="41.500702067278326" lon="-81.45023186691105"><ele>307</ele><time>2026-10-04T20:40:16Z</time></trkpt>
      <trkpt lat="41.50074171368033" lon="-81.45026774145663"><ele>308</ele><time>2026-10-04T20:40:20Z</time></trkpt>
      <trkpt lat="41.500790202990174" lon="-81.45029732957482"><ele>307</ele><time>2026-10-04T20:40:30Z</time></trkpt>
      <trkpt lat="41.50073731318116" lon="-81.45023890770972"><ele>308</ele><time>2026-10-04T20:40:43Z</time></trkpt>
      <trkpt lat="41.5006591938436" lon="-81.45013991743326"><ele>307</ele><time>2026-10-04T20:40:46Z</time></trkpt>
      <trkpt lat="41.50065814610571" lon="-81.45000714808702"><ele>307</ele><time>2026-10-04T20:40:49Z</time></trkpt>
      <trkpt lat="41.50064553134143" lon="-81.44994562491775"><ele>308</ele><time>2026-10-04T20:40:52Z</time></trkpt>
      <trkpt lat="41.500621140003204" lon="-81.44987085834146"><ele>307</ele><time>2026-10-04T20:41:00Z</time></trkpt>
      <trkpt lat="41.50066489353776" lon="-81.44975669682026"><ele>308</ele><time>2026-10-04T20:41:03Z</time></trkpt>
      <trkpt lat="41.50073169730604" lon="-81.44965745508671"><ele>307</ele><time>2026-10-04T20:41:06Z</time></trkpt>
      <trkpt lat="41.50077834259719" lon="-81.44958444871008"><ele>307</ele><time>2026-10-04T20:41:09Z</time></trkpt>
      <trkpt lat="41.50088605005294" lon="-81.4494214206934"><ele>308</ele><time>2026-10-04T20:41:15Z</time></trkpt>
      <trkpt lat="41.501004779711366" lon="-81.44925931468606"><ele>308</ele><time>2026-10-04T20:41:18Z</time></trkpt>
      <trkpt lat="41.50115519296378" lon="-81.44901028834283"><ele>307</ele><time>2026-10-04T20:41:21Z</time></trkpt>
      <trkpt lat="41.5013336436823" lon="-81.44877148792148"><ele>306</ele><time>2026-10-04T20:41:24Z</time></trkpt>
      <trkpt lat="41.501503670588136" lon="-81.44850016571581"><ele>306</ele><time>2026-10-04T20:41:27Z</time></trkpt>
      <trkpt lat="41.501669590361416" lon="-81.44824208691716"><ele>306</ele><time>2026-10-04T20:41:30Z</time></trkpt>
      <trkpt lat="41.50184498168528" lon="-81.44798166118562"><ele>304</ele><time>2026-10-04T20:41:33Z</time></trkpt>
      <trkpt lat="41.50203034747392" lon="-81.4477067347616"><ele>304</ele><time>2026-10-04T20:41:36Z</time></trkpt>
      <trkpt lat="41.50221646763384" lon="-81.44743859767914"><ele>303</ele><time>2026-10-04T20:41:39Z</time></trkpt>
      <trkpt lat="41.50239206850529" lon="-81.44716333597898"><ele>303</ele><time>2026-10-04T20:41:42Z</time></trkpt>
      <trkpt lat="41.50259168352932" lon="-81.44688757136464"><ele>303</ele><time>2026-10-04T20:41:45Z</time></trkpt>
      <trkpt lat="41.502787987701595" lon="-81.44663041457534"><ele>304</ele><time>2026-10-04T20:41:48Z</time></trkpt>
      <trkpt lat="41.50296819861978" lon="-81.44637007266283"><ele>305</ele><time>2026-10-04T20:41:51Z</time></trkpt>
      <trkpt lat="41.50315993465483" lon="-81.44607570022345"><ele>306</ele><time>2026-10-04T20:41:54Z</time></trkpt>
      <trkpt lat="41.503343540243804" lon="-81.44579038023949"><ele>306</ele><time>2026-10-04T20:41:57Z</time></trkpt>
      <trkpt lat="41.503543951548636" lon="-81.44551067613065"><ele>306</ele><time>2026-10-04T20:42:00Z</time></trkpt>
      <trkpt lat="41.50371720548719" lon="-81.44523549824953"><ele>305</ele><time>2026-10-04T20:42:03Z</time></trkpt>
      <trkpt lat="41.503905546851456" lon="-81.44495302811265"><ele>305</ele><time>2026-10-04T20:42:06Z</time></trkpt>
      <trkpt lat="41.50408077053726" lon="-81.44466871395707"><ele>304</ele><time>2026-10-04T20:42:09Z</time></trkpt>
      <trkpt lat="41.504260897636414" lon="-81.44438691437244"><ele>305</ele><time>2026-10-04T20:42:12Z</time></trkpt>
      <trkpt lat="41.50445016101003" lon="-81.44411366432905"><ele>305</ele><time>2026-10-04T20:42:15Z</time></trkpt>
      <trkpt lat="41.50463439524174" lon="-81.44383530132473"><ele>306</ele><time>2026-10-04T20:42:18Z</time></trkpt>
      <trkpt lat="41.504819970577955" lon="-81.44356096163392"><ele>306</ele><time>2026-10-04T20:42:21Z</time></trkpt>
      <trkpt lat="41.505003911443055" lon="-81.4432752225548"><ele>306</ele><time>2026-10-04T20:42:24Z</time></trkpt>
      <trkpt lat="41.50518768467009" lon="-81.4430011343211"><ele>305</ele><time>2026-10-04T20:42:27Z</time></trkpt>
      <trkpt lat="41.50536919478327" lon="-81.44271682016551"><ele>305</ele><time>2026-10-04T20:42:30Z</time></trkpt>
      <trkpt lat="41.50555837433785" lon="-81.44244172610343"><ele>305</ele><time>2026-10-04T20:42:33Z</time></trkpt>
      <trkpt lat="41.50574114173651" lon="-81.44216286018491"><ele>304</ele><time>2026-10-04T20:42:36Z</time></trkpt>
      <trkpt lat="41.505919843912125" lon="-81.44188365899026"><ele>303</ele><time>2026-10-04T20:42:39Z</time></trkpt>
      <trkpt lat="41.50609980337322" lon="-81.4416176173836"><ele>303</ele><time>2026-10-04T20:42:42Z</time></trkpt>
      <trkpt lat="41.50628877338022" lon="-81.44133388996124"><ele>301</ele><time>2026-10-04T20:42:45Z</time></trkpt>
      <trkpt lat="41.50647728238255" lon="-81.44105343148112"><ele>300</ele><time>2026-10-04T20:42:48Z</time></trkpt>
      <trkpt lat="41.50666390545666" lon="-81.44078898243606"><ele>300</ele><time>2026-10-04T20:42:51Z</time></trkpt>
      <trkpt lat="41.506847091950476" lon="-81.44050517119467"><ele>300</ele><time>2026-10-04T20:42:54Z</time></trkpt>
      <trkpt lat="41.50703526567668" lon="-81.44021599553525"><ele>300</ele><time>2026-10-04T20:42:57Z</time></trkpt>
      <trkpt lat="41.50722440332174" lon="-81.43994115293026"><ele>301</ele><time>2026-10-04T20:43:00Z</time></trkpt>
      <trkpt lat="41.50740733835846" lon="-81.43966337665915"><ele>300</ele><time>2026-10-04T20:43:03Z</time></trkpt>
      <trkpt lat="41.507573844864964" lon="-81.43941594287753"><ele>301</ele><time>2026-10-04T20:43:06Z</time></trkpt>
      <trkpt lat="41.50772090535611" lon="-81.4392118435353"><ele>300</ele><time>2026-10-04T20:43:09Z</time></trkpt>
      <trkpt lat="41.50784189812839" lon="-81.43903615884483"><ele>300</ele><time>2026-10-04T20:43:12Z</time></trkpt>
      <trkpt lat="41.50789109990001" lon="-81.43895342946053"><ele>301</ele><time>2026-10-04T20:43:15Z</time></trkpt>
      <trkpt lat="41.507867337204516" lon="-81.43889643251896"><ele>301</ele><time>2026-10-04T20:43:18Z</time></trkpt>
      <trkpt lat="41.507831839844584" lon="-81.43879459239542"><ele>301</ele><time>2026-10-04T20:43:21Z</time></trkpt>
      <trkpt lat="41.50775975547731" lon="-81.43875033594668"><ele>302</ele><time>2026-10-04T20:43:24Z</time></trkpt>
      <trkpt lat="41.507683102972806" lon="-81.4387427084148"><ele>302</ele><time>2026-10-04T20:43:27Z</time></trkpt>
      <trkpt lat="41.50762782432139" lon="-81.43871990963817"><ele>302</ele><time>2026-10-04T20:43:31Z</time></trkpt>
      <trkpt lat="41.50760263670236" lon="-81.43865344114602"><ele>302</ele><time>2026-10-04T20:43:35Z</time></trkpt>
      <trkpt lat="41.507659927010536" lon="-81.4385405369103"><ele>302</ele><time>2026-10-04T20:43:38Z</time></trkpt>
      <trkpt lat="41.5078112622723" lon="-81.43844800069928"><ele>301</ele><time>2026-10-04T20:43:41Z</time></trkpt>
      <trkpt lat="41.50795907713473" lon="-81.43824968487024"><ele>300</ele><time>2026-10-04T20:43:44Z</time></trkpt>
      <trkpt lat="41.50812244042754" lon="-81.43801365047693"><ele>299</ele><time>2026-10-04T20:43:47Z</time></trkpt>
      <trkpt lat="41.50834820698947" lon="-81.43789504654706"><ele>299</ele><time>2026-10-04T20:43:50Z</time></trkpt>
      <trkpt lat="41.50858369655907" lon="-81.43784022890031"><ele>299</ele><time>2026-10-04T20:43:53Z</time></trkpt>
      <trkpt lat="41.508739558048546" lon="-81.43764166161418"><ele>299</ele><time>2026-10-04T20:43:56Z</time></trkpt>
      <trkpt lat="41.5089006582275" lon="-81.43741250038147"><ele>298</ele><time>2026-10-04T20:43:59Z</time></trkpt>
      <trkpt lat="41.50904616806656" lon="-81.43719105049968"><ele>297</ele><time>2026-10-04T20:44:02Z</time></trkpt>
      <trkpt lat="41.5092962840572" lon="-81.43680950626731"><ele>297</ele><time>2026-10-04T20:44:07Z</time></trkpt>
      <trkpt lat="41.509467819705606" lon="-81.43655084073544"><ele>297</ele><time>2026-10-04T20:44:10Z</time></trkpt>
      <trkpt lat="41.509659555740654" lon="-81.43626694567502"><ele>296</ele><time>2026-10-04T20:44:13Z</time></trkpt>
      <trkpt lat="41.509816381148994" lon="-81.43601590767503"><ele>295</ele><time>2026-10-04T20:44:16Z</time></trkpt>
      <trkpt lat="41.50999298784882" lon="-81.43576109781861"><ele>295</ele><time>2026-10-04T20:44:19Z</time></trkpt>
      <trkpt lat="41.5101752942428" lon="-81.43548214808106"><ele>293</ele><time>2026-10-04T20:44:22Z</time></trkpt>
      <trkpt lat="41.51036183349788" lon="-81.43521166406572"><ele>293</ele><time>2026-10-04T20:44:25Z</time></trkpt>
      <trkpt lat="41.510547660291195" lon="-81.43493313342333"><ele>292</ele><time>2026-10-04T20:44:28Z</time></trkpt>
      <trkpt lat="41.51073193643242" lon="-81.43465929664671"><ele>292</ele><time>2026-10-04T20:44:31Z</time></trkpt>
      <trkpt lat="41.510915542021394" lon="-81.4343751501292"><ele>293</ele><time>2026-10-04T20:44:34Z</time></trkpt>
      <trkpt lat="41.5110957948491" lon="-81.43409603275359"><ele>292</ele><time>2026-10-04T20:44:37Z</time></trkpt>
      <trkpt lat="41.51127579621971" lon="-81.433822279796"><ele>292</ele><time>2026-10-04T20:44:40Z</time></trkpt>
      <trkpt lat="41.5114652691409" lon="-81.43355967476964"><ele>292</ele><time>2026-10-04T20:44:43Z</time></trkpt>
      <trkpt lat="41.51164602488279" lon="-81.43329665064812"><ele>291</ele><time>2026-10-04T20:44:46Z</time></trkpt>
      <trkpt lat="41.51182757690549" lon="-81.43303630873561"><ele>291</ele><time>2026-10-04T20:44:49Z</time></trkpt>
      <trkpt lat="41.51200958993286" lon="-81.4327638130635"><ele>291</ele><time>2026-10-04T20:44:52Z</time></trkpt>
      <trkpt lat="41.51219985913485" lon="-81.43248863518238"><ele>289</ele><time>2026-10-04T20:44:55Z</time></trkpt>
      <trkpt lat="41.512383883818984" lon="-81.43222980201244"><ele>287</ele><time>2026-10-04T20:44:58Z</time></trkpt>
      <trkpt lat="41.5125636337325" lon="-81.43195646815002"><ele>286</ele><time>2026-10-04T20:45:01Z</time></trkpt>
      <trkpt lat="41.512739695608616" lon="-81.43167081288993"><ele>285</ele><time>2026-10-04T20:45:04Z</time></trkpt>
      <trkpt lat="41.5129251871258" lon="-81.43140594474971"><ele>284</ele><time>2026-10-04T20:45:07Z</time></trkpt>
      <trkpt lat="41.5131004108116" lon="-81.43114920705557"><ele>283</ele><time>2026-10-04T20:45:10Z</time></trkpt>
      <trkpt lat="41.51328305248171" lon="-81.430867575109"><ele>284</ele><time>2026-10-04T20:45:13Z</time></trkpt>
      <trkpt lat="41.51345928199589" lon="-81.43057303503156"><ele>284</ele><time>2026-10-04T20:45:16Z</time></trkpt>
      <trkpt lat="41.513639157637954" lon="-81.43028913997114"><ele>283</ele><time>2026-10-04T20:45:19Z</time></trkpt>
      <trkpt lat="41.51381970383227" lon="-81.4300131238997"><ele>283</ele><time>2026-10-04T20:45:22Z</time></trkpt>
      <trkpt lat="41.51399308349937" lon="-81.42974096350372"><ele>281</ele><time>2026-10-04T20:45:25Z</time></trkpt>
      <trkpt lat="41.51416114065796" lon="-81.42945447005332"><ele>282</ele><time>2026-10-04T20:45:28Z</time></trkpt>
      <trkpt lat="41.51433225721121" lon="-81.42915582284331"><ele>281</ele><time>2026-10-04T20:45:31Z</time></trkpt>
      <trkpt lat="41.5144881606102" lon="-81.42884527333081"><ele>280</ele><time>2026-10-04T20:45:34Z</time></trkpt>
      <trkpt lat="41.51462445035577" lon="-81.42857814207673"><ele>280</ele><time>2026-10-04T20:45:37Z</time></trkpt>
      <trkpt lat="41.514744060114026" lon="-81.42830514349043"><ele>279</ele><time>2026-10-04T20:45:40Z</time></trkpt>
      <trkpt lat="41.51490641757846" lon="-81.42797280102968"><ele>277</ele><time>2026-10-04T20:45:43Z</time></trkpt>
      <trkpt lat="41.51504098903388" lon="-81.42765018157661"><ele>278</ele><time>2026-10-04T20:45:46Z</time></trkpt>
      <trkpt lat="41.515188133344054" lon="-81.4273412246257"><ele>278</ele><time>2026-10-04T20:45:49Z</time></trkpt>
      <trkpt lat="41.5153341460973" lon="-81.42703394405544"><ele>277</ele><time>2026-10-04T20:45:52Z</time></trkpt>
      <trkpt lat="41.51548724155873" lon="-81.42672180198133"><ele>277</ele><time>2026-10-04T20:45:55Z</time></trkpt>
      <trkpt lat="41.51559700258076" lon="-81.42644578590989"><ele>275</ele><time>2026-10-04T20:45:58Z</time></trkpt>
      <trkpt lat="41.51572277303785" lon="-81.42614336684346"><ele>275</ele><time>2026-10-04T20:46:01Z</time></trkpt>
      <trkpt lat="41.515882783569396" lon="-81.42584840767086"><ele>275</ele><time>2026-10-04T20:46:04Z</time></trkpt>
      <trkpt lat="41.51604987680912" lon="-81.42554389312863"><ele>274</ele><time>2026-10-04T20:46:07Z</time></trkpt>
      <trkpt lat="41.51622246019542" lon="-81.4252522867173"><ele>275</ele><time>2026-10-04T20:46:10Z</time></trkpt>
      <trkpt lat="41.516391816549" lon="-81.42496646381915"><ele>275</ele><time>2026-10-04T20:46:13Z</time></trkpt>
      <trkpt lat="41.516563897021115" lon="-81.42466471530497"><ele>275</ele><time>2026-10-04T20:46:16Z</time></trkpt>
      <trkpt lat="41.51675190310925" lon="-81.42440068535507"><ele>275</ele><time>2026-10-04T20:46:19Z</time></trkpt>
      <trkpt lat="41.516944100148976" lon="-81.42414897680283"><ele>274</ele><time>2026-10-04T20:46:22Z</time></trkpt>
      <trkpt lat="41.51713671628386" lon="-81.42389358021319"><ele>274</ele><time>2026-10-04T20:46:25Z</time></trkpt>
      <trkpt lat="41.517322794534266" lon="-81.42362971790135"><ele>274</ele><time>2026-10-04T20:46:28Z</time></trkpt>
      <trkpt lat="41.51755304541439" lon="-81.42335026524961"><ele>276</ele><time>2026-10-04T20:46:31Z</time></trkpt>
      <trkpt lat="41.51775211561471" lon="-81.42312227748334"><ele>278</ele><time>2026-10-04T20:46:34Z</time></trkpt>
      <trkpt lat="41.51796388439834" lon="-81.42288255505264"><ele>279</ele><time>2026-10-04T20:46:37Z</time></trkpt>
      <trkpt lat="41.5182016370818" lon="-81.4226496219635"><ele>281</ele><time>2026-10-04T20:46:40Z</time></trkpt>
      <trkpt lat="41.51842333842069" lon="-81.42243110574782"><ele>281</ele><time>2026-10-04T20:46:43Z</time></trkpt>
      <trkpt lat="41.51863590348512" lon="-81.42222373746336"><ele>281</ele><time>2026-10-04T20:46:46Z</time></trkpt>
      <trkpt lat="41.51885106693953" lon="-81.42211494036019"><ele>280</ele><time>2026-10-04T20:46:49Z</time></trkpt>
      <trkpt lat="41.519100554287434" lon="-81.42212172970176"><ele>279</ele><time>2026-10-04T20:46:52Z</time></trkpt>
      <trkpt lat="41.519333445467055" lon="-81.42218492925167"><ele>279</ele><time>2026-10-04T20:46:55Z</time></trkpt>
      <trkpt lat="41.51954689063132" lon="-81.42225718125701"><ele>281</ele><time>2026-10-04T20:46:58Z</time></trkpt>
      <trkpt lat="41.51971322949976" lon="-81.42232499085367"><ele>282</ele><time>2026-10-04T20:47:01Z</time></trkpt>
      <trkpt lat="41.51985442265868" lon="-81.42226648516953"><ele>281</ele><time>2026-10-04T20:47:04Z</time></trkpt>
      <trkpt lat="41.519943941384554" lon="-81.42218006774783"><ele>280</ele><time>2026-10-04T20:47:07Z</time></trkpt>
      <trkpt lat="41.519995741546154" lon="-81.42211385071278"><ele>280</ele><time>2026-10-04T20:47:10Z</time></trkpt>
      <trkpt lat="41.52004251256585" lon="-81.42207210883498"><ele>280</ele><time>2026-10-04T20:47:13Z</time></trkpt>
      <trkpt lat="41.520080524496734" lon="-81.42202734947205"><ele>280</ele><time>2026-10-04T20:47:17Z</time></trkpt>
      <trkpt lat="41.52004108764231" lon="-81.4221059717238"><ele>280</ele><time>2026-10-04T20:47:20Z</time></trkpt>
      <trkpt lat="41.51994000189006" lon="-81.42220211215317"><ele>280</ele><time>2026-10-04T20:47:23Z</time></trkpt>
      <trkpt lat="41.51975467801094" lon="-81.42244141548872"><ele>279</ele><time>2026-10-04T20:47:29Z</time></trkpt>
      <trkpt lat="41.51980857364833" lon="-81.42265188507736"><ele>279</ele><time>2026-10-04T20:47:32Z</time></trkpt>
      <trkpt lat="41.519892015494406" lon="-81.42289529554546"><ele>278</ele><time>2026-10-04T20:47:35Z</time></trkpt>
      <trkpt lat="41.519973068498075" lon="-81.42314289696515"><ele>278</ele><time>2026-10-04T20:47:38Z</time></trkpt>
      <trkpt lat="41.52003061026335" lon="-81.42339158803225"><ele>279</ele><time>2026-10-04T20:47:41Z</time></trkpt>
      <trkpt lat="41.52000315953046" lon="-81.42365511506796"><ele>279</ele><time>2026-10-04T20:47:44Z</time></trkpt>
      <trkpt lat="41.5199448633939" lon="-81.4238687697798"><ele>278</ele><time>2026-10-04T20:47:47Z</time></trkpt>
      <trkpt lat="41.519851447083056" lon="-81.42411092296243"><ele>278</ele><time>2026-10-04T20:47:50Z</time></trkpt>
      <trkpt lat="41.519731250591576" lon="-81.42436011694372"><ele>280</ele><time>2026-10-04T20:47:53Z</time></trkpt>
      <trkpt lat="41.51956616900861" lon="-81.42461014911532"><ele>281</ele><time>2026-10-04T20:47:56Z</time></trkpt>
      <trkpt lat="41.51941370218992" lon="-81.4248775318265"><ele>280</ele><time>2026-10-04T20:47:59Z</time></trkpt>
      <trkpt lat="41.519238939508796" lon="-81.42514776438475"><ele>280</ele><time>2026-10-04T20:48:02Z</time></trkpt>
      <trkpt lat="41.51905407663435" lon="-81.4253939408809"><ele>280</ele><time>2026-10-04T20:48:05Z</time></trkpt>
      <trkpt lat="41.518872189335525" lon="-81.42563014291227"><ele>280</ele><time>2026-10-04T20:48:08Z</time></trkpt>
      <trkpt lat="41.518683596514165" lon="-81.42588964663446"><ele>281</ele><time>2026-10-04T20:48:11Z</time></trkpt>
      <trkpt lat="41.51848092209548" lon="-81.42613699659705"><ele>279</ele><time>2026-10-04T20:48:14Z</time></trkpt>
      <trkpt lat="41.51822443585843" lon="-81.42645433545113"><ele>280</ele><time>2026-10-04T20:48:18Z</time></trkpt>
      <trkpt lat="41.51802968233824" lon="-81.426662793383"><ele>280</ele><time>2026-10-04T20:48:21Z</time></trkpt>
      <trkpt lat="41.51784037705511" lon="-81.42686689272523"><ele>280</ele><time>2026-10-04T20:48:24Z</time></trkpt>
      <trkpt lat="41.517654550261796" lon="-81.42706839367747"><ele>279</ele><time>2026-10-04T20:48:27Z</time></trkpt>
      <trkpt lat="41.517471740953624" lon="-81.42725581303239"><ele>279</ele><time>2026-10-04T20:48:30Z</time></trkpt>
      <trkpt lat="41.5172647498548" lon="-81.42743510194123"><ele>279</ele><time>2026-10-04T20:48:33Z</time></trkpt>
      <trkpt lat="41.51705583091825" lon="-81.42761598341167"><ele>280</ele><time>2026-10-04T20:48:36Z</time></trkpt>
      <trkpt lat="41.51684318203479" lon="-81.42779988236725"><ele>280</ele><time>2026-10-04T20:48:39Z</time></trkpt>
      <trkpt lat="41.51661213487387" lon="-81.42796877771616"><ele>280</ele><time>2026-10-04T20:48:42Z</time></trkpt>
      <trkpt lat="41.51638888288289" lon="-81.42812543548644"><ele>280</ele><time>2026-10-04T20:48:45Z</time></trkpt>
      <trkpt lat="41.51618147268891" lon="-81.42824437469244"><ele>280</ele><time>2026-10-04T20:48:48Z</time></trkpt>
      <trkpt lat="41.51597188320011" lon="-81.42836356535554"><ele>280</ele><time>2026-10-04T20:48:51Z</time></trkpt>
      <trkpt lat="41.515751858241856" lon="-81.42848962917924"><ele>280</ele><time>2026-10-04T20:48:54Z</time></trkpt>
      <trkpt lat="41.51551594957709" lon="-81.42861653119326"><ele>280</ele><time>2026-10-04T20:48:57Z</time></trkpt>
      <trkpt lat="41.5152841899544" lon="-81.42883060500026"><ele>280</ele><time>2026-10-04T20:49:00Z</time></trkpt>
      <trkpt lat="41.51507527101785" lon="-81.42905565910041"><ele>280</ele><time>2026-10-04T20:49:03Z</time></trkpt>
      <trkpt lat="41.51483772788197" lon="-81.42934625968337"><ele>279</ele><time>2026-10-04T20:49:06Z</time></trkpt>
      <trkpt lat="41.51465424802154" lon="-81.42963350750506"><ele>278</ele><time>2026-10-04T20:49:09Z</time></trkpt>
      <trkpt lat="41.51444553863257" lon="-81.42986082471907"><ele>277</ele><time>2026-10-04T20:49:12Z</time></trkpt>
      <trkpt lat="41.5142505755648" lon="-81.43012586049736"><ele>278</ele><time>2026-10-04T20:49:15Z</time></trkpt>
      <trkpt lat="41.51406810153276" lon="-81.43039248883724"><ele>278</ele><time>2026-10-04T20:49:18Z</time></trkpt>
      <trkpt lat="41.51389811653644" lon="-81.43066179938614"><ele>280</ele><time>2026-10-04T20:49:21Z</time></trkpt>
      <trkpt lat="41.51372461114079" lon="-81.43092105165124"><ele>280</ele><time>2026-10-04T20:49:24Z</time></trkpt>
      <trkpt lat="41.513560744933784" lon="-81.43120544962585"><ele>279</ele><time>2026-10-04T20:49:27Z</time></trkpt>
      <trkpt lat="41.513374079950154" lon="-81.4314688090235"><ele>279</ele><time>2026-10-04T20:49:30Z</time></trkpt>
      <trkpt lat="41.513178697787225" lon="-81.43174926750362"><ele>281</ele><time>2026-10-04T20:49:33Z</time></trkpt>
      <trkpt lat="41.512990314513445" lon="-81.43201975151896"><ele>282</ele><time>2026-10-04T20:49:36Z</time></trkpt>
      <trkpt lat="41.51280767284334" lon="-81.43231412395835"><ele>284</ele><time>2026-10-04T20:49:39Z</time></trkpt>
      <trkpt lat="41.512626791372895" lon="-81.4326121006161"><ele>285</ele><time>2026-10-04T20:49:42Z</time></trkpt>
      <trkpt lat="41.512443562969565" lon="-81.43290420994163"><ele>286</ele><time>2026-10-04T20:49:45Z</time></trkpt>
      <trkpt lat="41.51225530542433" lon="-81.43315323628485"><ele>287</ele><time>2026-10-04T20:49:48Z</time></trkpt>
      <trkpt lat="41.51206985581666" lon="-81.43341047689319"><ele>286</ele><time>2026-10-04T20:49:51Z</time></trkpt>
      <trkpt lat="41.511899954639375" lon="-81.4336673822254"><ele>287</ele><time>2026-10-04T20:49:54Z</time></trkpt>
      <trkpt lat="41.51172753889114" lon="-81.43393375910819"><ele>287</ele><time>2026-10-04T20:49:57Z</time></trkpt>
      <trkpt lat="41.51154225692153" lon="-81.43421254120767"><ele>288</ele><time>2026-10-04T20:50:00Z</time></trkpt>
      <trkpt lat="41.51138027664274" lon="-81.43449995666742"><ele>289</ele><time>2026-10-04T20:50:03Z</time></trkpt>
      <trkpt lat="41.51120182592422" lon="-81.43477748148143"><ele>289</ele><time>2026-10-04T20:50:06Z</time></trkpt>
      <trkpt lat="41.511026015505195" lon="-81.43507587723434"><ele>289</ele><time>2026-10-04T20:50:09Z</time></trkpt>
      <trkpt lat="41.510848947800696" lon="-81.43531266599894"><ele>291</ele><time>2026-10-04T20:50:12Z</time></trkpt>
      <trkpt lat="41.51067011989653" lon="-81.43555180169642"><ele>290</ele><time>2026-10-04T20:50:15Z</time></trkpt>
      <trkpt lat="41.51048869360238" lon="-81.4358067791909"><ele>290</ele><time>2026-10-04T20:50:18Z</time></trkpt>
      <trkpt lat="41.51030621957034" lon="-81.43610073253512"><ele>289</ele><time>2026-10-04T20:50:21Z</time></trkpt>
      <trkpt lat="41.5101174172014" lon="-81.43638588488102"><ele>290</ele><time>2026-10-04T20:50:24Z</time></trkpt>
      <trkpt lat="41.50993921793997" lon="-81.4366630744189"><ele>291</ele><time>2026-10-04T20:50:27Z</time></trkpt>
      <trkpt lat="41.509757498279214" lon="-81.43693045713007"><ele>291</ele><time>2026-10-04T20:50:30Z</time></trkpt>
      <trkpt lat="41.50958525016904" lon="-81.4372001029551"><ele>292</ele><time>2026-10-04T20:50:33Z</time></trkpt>
      <trkpt lat="41.509416229091585" lon="-81.43744829110801"><ele>292</ele><time>2026-10-04T20:50:36Z</time></trkpt>
      <trkpt lat="41.50924649555236" lon="-81.43770586699247"><ele>293</ele><time>2026-10-04T20:50:39Z</time></trkpt>
      <trkpt lat="41.5091036260128" lon="-81.43793134018779"><ele>293</ele><time>2026-10-04T20:50:42Z</time></trkpt>
      <trkpt lat="41.50901108980179" lon="-81.43812202848494"><ele>294</ele><time>2026-10-04T20:50:45Z</time></trkpt>
      <trkpt lat="41.508956900797784" lon="-81.43822034820914"><ele>296</ele><time>2026-10-04T20:50:48Z</time></trkpt>
      <trkpt lat="41.50894923135638" lon="-81.43835940398276"><ele>296</ele><time>2026-10-04T20:50:51Z</time></trkpt>
      <trkpt lat="41.50891930796206" lon="-81.43860817886889"><ele>297</ele><time>2026-10-04T20:50:54Z</time></trkpt>
      <trkpt lat="41.50885082781315" lon="-81.4388698618859"><ele>298</ele><time>2026-10-04T20:50:57Z</time></trkpt>
      <trkpt lat="41.50869467295706" lon="-81.43907438032329"><ele>299</ele><time>2026-10-04T20:51:00Z</time></trkpt>
      <trkpt lat="41.50848726276308" lon="-81.43919105641544"><ele>300</ele><time>2026-10-04T20:51:03Z</time></trkpt>
      <trkpt lat="41.50832125917077" lon="-81.43920966424048"><ele>299</ele><time>2026-10-04T20:51:06Z</time></trkpt>
      <trkpt lat="41.50820290669799" lon="-81.43930303864181"><ele>301</ele><time>2026-10-04T20:51:09Z</time></trkpt>
      <trkpt lat="41.508074663579464" lon="-81.43950864672661"><ele>303</ele><time>2026-10-04T20:51:12Z</time></trkpt>
      <trkpt lat="41.507926764898" lon="-81.43973738886416"><ele>304</ele><time>2026-10-04T20:51:15Z</time></trkpt>
      <trkpt lat="41.507784482091665" lon="-81.4399512950331"><ele>304</ele><time>2026-10-04T20:51:18Z</time></trkpt>
      <trkpt lat="41.507497946731746" lon="-81.44037952646613"><ele>305</ele><time>2026-10-04T20:51:24Z</time></trkpt>
      <trkpt lat="41.507351766340435" lon="-81.44059703685343"><ele>305</ele><time>2026-10-04T20:51:27Z</time></trkpt>
      <trkpt lat="41.507200011983514" lon="-81.44081924110651"><ele>304</ele><time>2026-10-04T20:51:30Z</time></trkpt>
      <trkpt lat="41.50703342165798" lon="-81.44107949919999"><ele>305</ele><time>2026-10-04T20:51:33Z</time></trkpt>
      <trkpt lat="41.50686243083328" lon="-81.44135031849146"><ele>305</ele><time>2026-10-04T20:51:36Z</time></trkpt>
      <trkpt lat="41.50668406393379" lon="-81.44159448333085"><ele>305</ele><time>2026-10-04T20:51:39Z</time></trkpt>
      <trkpt lat="41.506496225483716" lon="-81.44185172393918"><ele>305</ele><time>2026-10-04T20:51:42Z</time></trkpt>
      <trkpt lat="41.506316140294075" lon="-81.44212170504034"><ele>306</ele><time>2026-10-04T20:51:45Z</time></trkpt>
      <trkpt lat="41.50613618083298" lon="-81.4423967152834"><ele>306</ele><time>2026-10-04T20:51:48Z</time></trkpt>
      <trkpt lat="41.50595592800528" lon="-81.44264766946435"><ele>306</ele><time>2026-10-04T20:51:51Z</time></trkpt>
      <trkpt lat="41.505784727633" lon="-81.4429126214236"><ele>306</ele><time>2026-10-04T20:51:54Z</time></trkpt>
      <trkpt lat="41.50560455862433" lon="-81.44319442100823"><ele>306</ele><time>2026-10-04T20:51:57Z</time></trkpt>
      <trkpt lat="41.505417516455054" lon="-81.44347311928868"><ele>305</ele><time>2026-10-04T20:52:00Z</time></trkpt>
      <trkpt lat="41.50523101910949" lon="-81.44373245537281"><ele>305</ele><time>2026-10-04T20:52:03Z</time></trkpt>
      <trkpt lat="41.50504464749247" lon="-81.44398751668632"><ele>303</ele><time>2026-10-04T20:52:06Z</time></trkpt>
      <trkpt lat="41.50487495586276" lon="-81.44426453858614"><ele>303</ele><time>2026-10-04T20:52:09Z</time></trkpt>
      <trkpt lat="41.50469143409282" lon="-81.44454063847661"><ele>302</ele><time>2026-10-04T20:52:12Z</time></trkpt>
      <trkpt lat="41.50449542328715" lon="-81.44479201175272"><ele>302</ele><time>2026-10-04T20:52:15Z</time></trkpt>
      <trkpt lat="41.50432061869651" lon="-81.44507649354637"><ele>303</ele><time>2026-10-04T20:52:18Z</time></trkpt>
      <trkpt lat="41.50414296425879" lon="-81.4453561976552"><ele>303</ele><time>2026-10-04T20:52:21Z</time></trkpt>
      <trkpt lat="41.5039601130411" lon="-81.44563548266888"><ele>304</ele><time>2026-10-04T20:52:24Z</time></trkpt>
      <trkpt lat="41.50378442835063" lon="-81.445900099352"><ele>305</ele><time>2026-10-04T20:52:27Z</time></trkpt>
      <trkpt lat="41.50360534898937" lon="-81.44618231803179"><ele>305</ele><time>2026-10-04T20:52:30Z</time></trkpt>
      <trkpt lat="41.503437836654484" lon="-81.44642673432827"><ele>305</ele><time>2026-10-04T20:52:33Z</time></trkpt>
      <trkpt lat="41.50325967930257" lon="-81.44670207984746"><ele>306</ele><time>2026-10-04T20:52:36Z</time></trkpt>
      <trkpt lat="41.503073307685554" lon="-81.44698019139469"><ele>306</ele><time>2026-10-04T20:52:39Z</time></trkpt>
      <trkpt lat="41.502904831431806" lon="-81.44724329933524"><ele>306</ele><time>2026-10-04T20:52:42Z</time></trkpt>
      <trkpt lat="41.502713304944336" lon="-81.4475341513753"><ele>306</ele><time>2026-10-04T20:52:45Z</time></trkpt>
      <trkpt lat="41.502549815922976" lon="-81.44780773669481"><ele>306</ele><time>2026-10-04T20:52:48Z</time></trkpt>
      <trkpt lat="41.50236692279577" lon="-81.44810018129647"><ele>306</ele><time>2026-10-04T20:52:51Z</time></trkpt>
      <trkpt lat="41.502168104052544" lon="-81.44837359897792"><ele>306</ele><time>2026-10-04T20:52:54Z</time></trkpt>
      <trkpt lat="41.50198085233569" lon="-81.44865053705871"><ele>306</ele><time>2026-10-04T20:52:57Z</time></trkpt>
      <trkpt lat="41.50180156342685" lon="-81.44890408962965"><ele>307</ele><time>2026-10-04T20:53:00Z</time></trkpt>
      <trkpt lat="41.50162868667394" lon="-81.44916778430343"><ele>307</ele><time>2026-10-04T20:53:03Z</time></trkpt>
      <trkpt lat="41.50146465282887" lon="-81.44943055696785"><ele>308</ele><time>2026-10-04T20:53:06Z</time></trkpt>
      <trkpt lat="41.50131059344858" lon="-81.4496682677418"><ele>308</ele><time>2026-10-04T20:53:09Z</time></trkpt>
      <trkpt lat="41.50115569587797" lon="-81.44989868625998"><ele>307</ele><time>2026-10-04T20:53:12Z</time></trkpt>
      <trkpt lat="41.50099752936512" lon="-81.45010588690639"><ele>307</ele><time>2026-10-04T20:53:15Z</time></trkpt>
      <trkpt lat="41.50084879249334" lon="-81.45031652413309"><ele>307</ele><time>2026-10-04T20:53:18Z</time></trkpt>
      <trkpt lat="41.500793723389506" lon="-81.45046236924827"><ele>307</ele><time>2026-10-04T20:53:21Z</time></trkpt>
      <trkpt lat="41.500861532986164" lon="-81.45051483996212"><ele>307</ele><time>2026-10-04T20:53:24Z</time></trkpt>
      <trkpt lat="41.50090905837715" lon="-81.45043144002557"><ele>310</ele><time>2026-10-04T20:53:27Z</time></trkpt>
      <trkpt lat="41.500883367843926" lon="-81.45036455243826"><ele>309</ele><time>2026-10-04T20:53:30Z</time></trkpt>
      <trkpt lat="41.50076505728066" lon="-81.45026321522892"><ele>309</ele><time>2026-10-04T20:53:36Z</time></trkpt>
      <trkpt lat="41.50062076281756" lon="-81.45018266513944"><ele>309</ele><time>2026-10-04T20:53:39Z</time></trkpt>
      <trkpt lat="41.50045941118151" lon="-81.4502330403775"><ele>308</ele><time>2026-10-04T20:53:42Z</time></trkpt>
      <trkpt lat="41.50031654164195" lon="-81.45040461793542"><ele>309</ele><time>2026-10-04T20:53:45Z</time></trkpt>
      <trkpt lat="41.5001906035468" lon="-81.45062766037881"><ele>309</ele><time>2026-10-04T20:53:48Z</time></trkpt>
      <trkpt lat="41.50007862132043" lon="-81.45085715688765"><ele>308</ele><time>2026-10-04T20:53:51Z</time></trkpt>
      <trkpt lat="41.49994107428938" lon="-81.45112277939916"><ele>309</ele><time>2026-10-04T20:53:54Z</time></trkpt>
      <trkpt lat="41.499831564724445" lon="-81.45136560313404"><ele>308</ele><time>2026-10-04T20:53:57Z</time></trkpt>
      <trkpt lat="41.49976396467537" lon="-81.45158235915005"><ele>309</ele><time>2026-10-04T20:54:00Z</time></trkpt>
      <trkpt lat="41.499685761518776" lon="-81.45172820426524"><ele>309</ele><time>2026-10-04T20:54:03Z</time></trkpt>
      <trkpt lat="41.49955927859992" lon="-81.45187044516206"><ele>310</ele><time>2026-10-04T20:54:06Z</time></trkpt>
      <trkpt lat="41.499396963045" lon="-81.45203037187457"><ele>310</ele><time>2026-10-04T20:54:09Z</time></trkpt>
      <trkpt lat="41.499232426285744" lon="-81.45224260166287"><ele>311</ele><time>2026-10-04T20:54:12Z</time></trkpt>
      <trkpt lat="41.49910363834351" lon="-81.45248902961612"><ele>311</ele><time>2026-10-04T20:54:15Z</time></trkpt>
      <trkpt lat="41.4989524288103" lon="-81.45277694799006"><ele>312</ele><time>2026-10-04T20:54:18Z</time></trkpt>
      <trkpt lat="41.498764883726835" lon="-81.4530320931226"><ele>312</ele><time>2026-10-04T20:54:21Z</time></trkpt>
      <trkpt lat="41.49861350655556" lon="-81.45333141088486"><ele>311</ele><time>2026-10-04T20:54:24Z</time></trkpt>
      <trkpt lat="41.498471894301474" lon="-81.45365889184177"><ele>311</ele><time>2026-10-04T20:54:27Z</time></trkpt>
      <trkpt lat="41.49826825596392" lon="-81.45392602309585"><ele>310</ele><time>2026-10-04T20:54:30Z</time></trkpt>
      <trkpt lat="41.49804010055959" lon="-81.45413976162672"><ele>309</ele><time>2026-10-04T20:54:33Z</time></trkpt>
      <trkpt lat="41.49783419910818" lon="-81.45437110215425"><ele>307</ele><time>2026-10-04T20:54:36Z</time></trkpt>
      <trkpt lat="41.49767184164375" lon="-81.45466555841267"><ele>306</ele><time>2026-10-04T20:54:39Z</time></trkpt>
      <trkpt lat="41.49754267651588" lon="-81.45498415455222"><ele>304</ele><time>2026-10-04T20:54:42Z</time></trkpt>
      <trkpt lat="41.497341552749276" lon="-81.45526947453618"><ele>303</ele><time>2026-10-04T20:54:45Z</time></trkpt>
      <trkpt lat="41.49713640566915" lon="-81.45552411675453"><ele>301</ele><time>2026-10-04T20:54:48Z</time></trkpt>
      <trkpt lat="41.496966714039445" lon="-81.4558123704046"><ele>300</ele><time>2026-10-04T20:54:51Z</time></trkpt>
      <trkpt lat="41.49681680370122" lon="-81.45611554384232"><ele>298</ele><time>2026-10-04T20:54:54Z</time></trkpt>
      <trkpt lat="41.49663026444614" lon="-81.45638284273446"><ele>297</ele><time>2026-10-04T20:54:57Z</time></trkpt>
      <trkpt lat="41.49644552730024" lon="-81.45664871670306"><ele>295</ele><time>2026-10-04T20:55:00Z</time></trkpt>
      <trkpt lat="41.49626531638205" lon="-81.4568829908967"><ele>294</ele><time>2026-10-04T20:55:03Z</time></trkpt>
      <trkpt lat="41.49616548791528" lon="-81.45711047574878"><ele>294</ele><time>2026-10-04T20:55:06Z</time></trkpt>
      <trkpt lat="41.49602483958006" lon="-81.45731071941555"><ele>293</ele><time>2026-10-04T20:55:09Z</time></trkpt>
      <trkpt lat="41.495839641429484" lon="-81.45753510296345"><ele>293</ele><time>2026-10-04T20:55:12Z</time></trkpt>
      <trkpt lat="41.49565138388425" lon="-81.45780977793038"><ele>292</ele><time>2026-10-04T20:55:15Z</time></trkpt>
      <trkpt lat="41.49546455126256" lon="-81.45808068104088"><ele>291</ele><time>2026-10-04T20:55:18Z</time></trkpt>
      <trkpt lat="41.49530575610697" lon="-81.45837807096541"><ele>290</ele><time>2026-10-04T20:55:21Z</time></trkpt>
      <trkpt lat="41.49512085132301" lon="-81.45866489969194"><ele>289</ele><time>2026-10-04T20:55:24Z</time></trkpt>
      <trkpt lat="41.494950195774436" lon="-81.45894259214401"><ele>288</ele><time>2026-10-04T20:55:27Z</time></trkpt>
      <trkpt lat="41.49479948915541" lon="-81.45924149081111"><ele>287</ele><time>2026-10-04T20:55:30Z</time></trkpt>
      <trkpt lat="41.494640610180795" lon="-81.45948179997504"><ele>287</ele><time>2026-10-04T20:55:33Z</time></trkpt>
      <trkpt lat="41.494432906620204" lon="-81.45959763787687"><ele>287</ele><time>2026-10-04T20:55:36Z</time></trkpt>
      <trkpt lat="41.49425789248198" lon="-81.45979771390557"><ele>287</ele><time>2026-10-04T20:55:39Z</time></trkpt>
      <trkpt lat="41.49410416837782" lon="-81.46003735251725"><ele>289</ele><time>2026-10-04T20:55:42Z</time></trkpt>
      <trkpt lat="41.493942104279995" lon="-81.46025544963777"><ele>290</ele><time>2026-10-04T20:55:45Z</time></trkpt>
      <trkpt lat="41.49378075264394" lon="-81.46050497889519"><ele>291</ele><time>2026-10-04T20:55:48Z</time></trkpt>
      <trkpt lat="41.49362782482058" lon="-81.46072047762573"><ele>291</ele><time>2026-10-04T20:55:51Z</time></trkpt>
      <trkpt lat="41.49349585175514" lon="-81.46094226278365"><ele>292</ele><time>2026-10-04T20:55:54Z</time></trkpt>
      <trkpt lat="41.493338230066" lon="-81.46114778704941"><ele>293</ele><time>2026-10-04T20:55:57Z</time></trkpt>
      <trkpt lat="41.49315210990608" lon="-81.46134744398296"><ele>293</ele><time>2026-10-04T20:56:00Z</time></trkpt>
      <trkpt lat="41.493017664179206" lon="-81.46164324134588"><ele>293</ele><time>2026-10-04T20:56:03Z</time></trkpt>
      <trkpt lat="41.49283062200993" lon="-81.4618895854801"><ele>292</ele><time>2026-10-04T20:56:06Z</time></trkpt>
      <trkpt lat="41.49263163562864" lon="-81.46211598068476"><ele>292</ele><time>2026-10-04T20:56:09Z</time></trkpt>
      <trkpt lat="41.49248403031379" lon="-81.46236986853182"><ele>290</ele><time>2026-10-04T20:56:12Z</time></trkpt>
      <trkpt lat="41.49238537531346" lon="-81.46252644248307"><ele>292</ele><time>2026-10-04T20:56:15Z</time></trkpt>
      <trkpt lat="41.492273141629994" lon="-81.46249794401228"><ele>293</ele><time>2026-10-04T20:56:18Z</time></trkpt>
      <trkpt lat="41.492178342305124" lon="-81.46239979192615"><ele>292</ele><time>2026-10-04T20:56:21Z</time></trkpt>
      <trkpt lat="41.492055715061724" lon="-81.46237338893116"><ele>292</ele><time>2026-10-04T20:56:24Z</time></trkpt>
      <trkpt lat="41.49194985162467" lon="-81.46237749606371"><ele>292</ele><time>2026-10-04T20:56:27Z</time></trkpt>
      <trkpt lat="41.49179298430681" lon="-81.46244119852781"><ele>291</ele><time>2026-10-04T20:56:30Z</time></trkpt>
      <trkpt lat="41.49162878282368" lon="-81.46258377470076"><ele>291</ele><time>2026-10-04T20:56:33Z</time></trkpt>
      <trkpt lat="41.4915027609095" lon="-81.46279491484165"><ele>291</ele><time>2026-10-04T20:56:36Z</time></trkpt>
      <trkpt lat="41.49142937734723" lon="-81.46301007829607"><ele>290</ele><time>2026-10-04T20:56:39Z</time></trkpt>
      <trkpt lat="41.49138671346009" lon="-81.46310705691576"><ele>289</ele><time>2026-10-04T20:56:42Z</time></trkpt>
      <trkpt lat="41.49138063658029" lon="-81.46317235194147"><ele>289</ele><time>2026-10-04T20:56:45Z</time></trkpt>
      <trkpt lat="41.49139103014022" lon="-81.46333060227334"><ele>288</ele><time>2026-10-04T20:56:48Z</time></trkpt>
      <trkpt lat="41.49141039233655" lon="-81.46346798166633"><ele>286</ele><time>2026-10-04T20:56:51Z</time></trkpt>
      <trkpt lat="41.49149228353053" lon="-81.46363235078752"><ele>284</ele><time>2026-10-04T20:56:54Z</time></trkpt>
      <trkpt lat="41.49153138510883" lon="-81.46385631524026"><ele>283</ele><time>2026-10-04T20:56:57Z</time></trkpt>
      <trkpt lat="41.49143222719431" lon="-81.46411296911538"><ele>283</ele><time>2026-10-04T20:57:00Z</time></trkpt>
      <trkpt lat="41.49130846839398" lon="-81.46434749476612"><ele>283</ele><time>2026-10-04T20:57:03Z</time></trkpt>
      <trkpt lat="41.49109913036227" lon="-81.4644759055227"><ele>282</ele><time>2026-10-04T20:57:06Z</time></trkpt>
      <trkpt lat="41.4909335039556" lon="-81.46468050777912"><ele>282</ele><time>2026-10-04T20:57:09Z</time></trkpt>
      <trkpt lat="41.49082722142339" lon="-81.46487547084689"><ele>281</ele><time>2026-10-04T20:57:12Z</time></trkpt>
      <trkpt lat="41.490775756537914" lon="-81.46495568566024"><ele>281</ele><time>2026-10-04T20:57:15Z</time></trkpt>
      <trkpt lat="41.49067089892924" lon="-81.46510505117476"><ele>281</ele><time>2026-10-04T20:57:18Z</time></trkpt>
      <trkpt lat="41.49055828806013" lon="-81.46535089239478"><ele>280</ele><time>2026-10-04T20:57:21Z</time></trkpt>
      <trkpt lat="41.49045074824244" lon="-81.46551677025855"><ele>280</ele><time>2026-10-04T20:57:24Z</time></trkpt>
      <trkpt lat="41.49028264917433" lon="-81.46557594649494"><ele>280</ele><time>2026-10-04T20:57:27Z</time></trkpt>
      <trkpt lat="41.49012586567551" lon="-81.46573268808424"><ele>280</ele><time>2026-10-04T20:57:30Z</time></trkpt>
      <trkpt lat="41.489957557059824" lon="-81.4659667108208"><ele>280</ele><time>2026-10-04T20:57:33Z</time></trkpt>
      <trkpt lat="41.48978912271559" lon="-81.46621800027788"><ele>281</ele><time>2026-10-04T20:57:36Z</time></trkpt>
      <trkpt lat="41.48962047882378" lon="-81.46645914763212"><ele>281</ele><time>2026-10-04T20:57:39Z</time></trkpt>
      <trkpt lat="41.48945837281644" lon="-81.46672300994396"><ele>281</ele><time>2026-10-04T20:57:42Z</time></trkpt>
      <trkpt lat="41.48930058348924" lon="-81.46695720031857"><ele>281</ele><time>2026-10-04T20:57:45Z</time></trkpt>
      <trkpt lat="41.489138142205775" lon="-81.46720153279603"><ele>281</ele><time>2026-10-04T20:57:48Z</time></trkpt>
      <trkpt lat="41.488964930176735" lon="-81.46744167432189"><ele>281</ele><time>2026-10-04T20:57:51Z</time></trkpt>
      <trkpt lat="41.48883509449661" lon="-81.46766656078398"><ele>281</ele><time>2026-10-04T20:57:54Z</time></trkpt>
      <trkpt lat="41.488730111159384" lon="-81.46790100261569"><ele>281</ele><time>2026-10-04T20:57:57Z</time></trkpt>
      <trkpt lat="41.488606058992445" lon="-81.4681441616267"><ele>280</ele><time>2026-10-04T20:58:00Z</time></trkpt>
      <trkpt lat="41.48844562936574" lon="-81.46838966757059"><ele>281</ele><time>2026-10-04T20:58:03Z</time></trkpt>
      <trkpt lat="41.488290103152394" lon="-81.46863140165806"><ele>280</ele><time>2026-10-04T20:58:06Z</time></trkpt>
      <trkpt lat="41.48817841429263" lon="-81.46891177631915"><ele>282</ele><time>2026-10-04T20:58:09Z</time></trkpt>
      <trkpt lat="41.48800687864423" lon="-81.46910238079727"><ele>283</ele><time>2026-10-04T20:58:12Z</time></trkpt>
      <trkpt lat="41.4878617040813" lon="-81.4693110063672"><ele>283</ele><time>2026-10-04T20:58:15Z</time></trkpt>
      <trkpt lat="41.48777235299349" lon="-81.46957646124065"><ele>283</ele><time>2026-10-04T20:58:18Z</time></trkpt>
      <trkpt lat="41.487630447372794" lon="-81.46979564800858"><ele>282</ele><time>2026-10-04T20:58:21Z</time></trkpt>
      <trkpt lat="41.48745979182422" lon="-81.47003210149705"><ele>284</ele><time>2026-10-04T20:58:24Z</time></trkpt>
      <trkpt lat="41.48728146683425" lon="-81.47018624469638"><ele>285</ele><time>2026-10-04T20:58:27Z</time></trkpt>
      <trkpt lat="41.48714609909803" lon="-81.47048212587833"><ele>287</ele><time>2026-10-04T20:58:30Z</time></trkpt>
      <trkpt lat="41.48697598837316" lon="-81.47074556909502"><ele>288</ele><time>2026-10-04T20:58:33Z</time></trkpt>
      <trkpt lat="41.48683362174779" lon="-81.47100264206529"><ele>289</ele><time>2026-10-04T20:58:36Z</time></trkpt>
      <trkpt lat="41.48665303364396" lon="-81.47118788212538"><ele>290</ele><time>2026-10-04T20:58:39Z</time></trkpt>
      <trkpt lat="41.48651707917452" lon="-81.47134143859148"><ele>292</ele><time>2026-10-04T20:58:42Z</time></trkpt>
      <trkpt lat="41.48645907640457" lon="-81.47145241498947"><ele>294</ele><time>2026-10-04T20:58:45Z</time></trkpt>
      <trkpt lat="41.48639160208404" lon="-81.47162156179547"><ele>293</ele><time>2026-10-04T20:58:48Z</time></trkpt>
      <trkpt lat="41.4862770633772" lon="-81.47183697670698"><ele>295</ele><time>2026-10-04T20:58:51Z</time></trkpt>
      <trkpt lat="41.48617308586836" lon="-81.47210067138076"><ele>295</ele><time>2026-10-04T20:58:54Z</time></trkpt>
      <trkpt lat="41.48601328488439" lon="-81.47224794141948"><ele>296</ele><time>2026-10-04T20:58:57Z</time></trkpt>
      <trkpt lat="41.48584954440594" lon="-81.47240158170462"><ele>295</ele><time>2026-10-04T20:59:00Z</time></trkpt>
      <trkpt lat="41.485688905231655" lon="-81.47265429608524"><ele>296</ele><time>2026-10-04T20:59:03Z</time></trkpt>
      <trkpt lat="41.48553027771413" lon="-81.47293685004115"><ele>296</ele><time>2026-10-04T20:59:06Z</time></trkpt>
      <trkpt lat="41.4853359432891" lon="-81.47316676564515"><ele>296</ele><time>2026-10-04T20:59:09Z</time></trkpt>
      <trkpt lat="41.48518184199929" lon="-81.47341260686517"><ele>296</ele><time>2026-10-04T20:59:12Z</time></trkpt>
      <trkpt lat="41.48502920754254" lon="-81.47369968704879"><ele>296</ele><time>2026-10-04T20:59:15Z</time></trkpt>
      <trkpt lat="41.48481664247811" lon="-81.47391183301806"><ele>296</ele><time>2026-10-04T20:59:18Z</time></trkpt>
      <trkpt lat="41.48467092309147" lon="-81.47410897538066"><ele>297</ele><time>2026-10-04T20:59:21Z</time></trkpt>
      <trkpt lat="41.48462234996259" lon="-81.47435825318098"><ele>297</ele><time>2026-10-04T20:59:24Z</time></trkpt>
      <trkpt lat="41.484558270312846" lon="-81.47463066503406"><ele>296</ele><time>2026-10-04T20:59:27Z</time></trkpt>
      <trkpt lat="41.48438895586878" lon="-81.474852534011"><ele>296</ele><time>2026-10-04T20:59:30Z</time></trkpt>
      <trkpt lat="41.48418904747814" lon="-81.47501380182803"><ele>296</ele><time>2026-10-04T20:59:33Z</time></trkpt>
      <trkpt lat="41.4839804219082" lon="-81.47519216872752"><ele>295</ele><time>2026-10-04T20:59:36Z</time></trkpt>
      <trkpt lat="41.483813747763634" lon="-81.47536844015121"><ele>296</ele><time>2026-10-04T20:59:39Z</time></trkpt>
      <trkpt lat="41.4837127039209" lon="-81.47560053505003"><ele>297</ele><time>2026-10-04T20:59:42Z</time></trkpt>
      <trkpt lat="41.483558686450124" lon="-81.47579088807106"><ele>297</ele><time>2026-10-04T20:59:45Z</time></trkpt>
      <trkpt lat="41.48343643639237" lon="-81.4759841747582"><ele>298</ele><time>2026-10-04T20:59:48Z</time></trkpt>
      <trkpt lat="41.48339067120105" lon="-81.47609146311879"><ele>298</ele><time>2026-10-04T20:59:51Z</time></trkpt>
      <trkpt lat="41.483354503288865" lon="-81.47614418528974"><ele>298</ele><time>2026-10-04T20:59:54Z</time></trkpt>
      <trkpt lat="41.48326301481575" lon="-81.4763084705919"><ele>298</ele><time>2026-10-04T20:59:57Z</time></trkpt>
      <trkpt lat="41.4830868691206" lon="-81.47650703787804"><ele>298</ele><time>2026-10-04T21:00:00Z</time></trkpt>
      <trkpt lat="41.48296625353396" lon="-81.47675413638353"><ele>299</ele><time>2026-10-04T21:00:03Z</time></trkpt>
      <trkpt lat="41.48278805427253" lon="-81.47693577222526"><ele>300</ele><time>2026-10-04T21:00:06Z</time></trkpt>
      <trkpt lat="41.48270159494132" lon="-81.4771982934326"><ele>301</ele><time>2026-10-04T21:00:09Z</time></trkpt>
      <trkpt lat="41.48262703791261" lon="-81.47739945910871"><ele>302</ele><time>2026-10-04T21:00:12Z</time></trkpt>
      <trkpt lat="41.48250193800777" lon="-81.47758352570236"><ele>304</ele><time>2026-10-04T21:00:15Z</time></trkpt>
      <trkpt lat="41.48236342705786" lon="-81.47779391147196"><ele>305</ele><time>2026-10-04T21:00:18Z</time></trkpt>
      <trkpt lat="41.48217952810228" lon="-81.47792542353272"><ele>305</ele><time>2026-10-04T21:00:21Z</time></trkpt>
      <trkpt lat="41.48198552895337" lon="-81.47809884510934"><ele>305</ele><time>2026-10-04T21:00:24Z</time></trkpt>
      <trkpt lat="41.48182908073068" lon="-81.4783582650125"><ele>305</ele><time>2026-10-04T21:00:27Z</time></trkpt>
      <trkpt lat="41.48172824643552" lon="-81.47868222557008"><ele>304</ele><time>2026-10-04T21:00:30Z</time></trkpt>
      <trkpt lat="41.481571504846215" lon="-81.47896008566022"><ele>305</ele><time>2026-10-04T21:00:33Z</time></trkpt>
      <trkpt lat="41.48136422038078" lon="-81.47915320470929"><ele>306</ele><time>2026-10-04T21:00:36Z</time></trkpt>
      <trkpt lat="41.48116774857044" lon="-81.47936736233532"><ele>305</ele><time>2026-10-04T21:00:39Z</time></trkpt>
      <trkpt lat="41.48098770529032" lon="-81.47962502203882"><ele>305</ele><time>2026-10-04T21:00:42Z</time></trkpt>
      <trkpt lat="41.480848020873964" lon="-81.47994604893029"><ele>306</ele><time>2026-10-04T21:00:45Z</time></trkpt>
      <trkpt lat="41.480691907927394" lon="-81.48025500588119"><ele>307</ele><time>2026-10-04T21:00:48Z</time></trkpt>
      <trkpt lat="41.480535794980824" lon="-81.48052833974361"><ele>308</ele><time>2026-10-04T21:00:51Z</time></trkpt>
      <trkpt lat="41.48033785633743" lon="-81.48075649514794"><ele>307</ele><time>2026-10-04T21:00:54Z</time></trkpt>
      <trkpt lat="41.480105174705386" lon="-81.48091214708984"><ele>308</ele><time>2026-10-04T21:00:57Z</time></trkpt>
      <trkpt lat="41.47993108257651" lon="-81.48117424920201"><ele>308</ele><time>2026-10-04T21:01:00Z</time></trkpt>
      <trkpt lat="41.479812604375184" lon="-81.48149644955993"><ele>309</ele><time>2026-10-04T21:01:03Z</time></trkpt>
      <trkpt lat="41.479651713743806" lon="-81.48178570903838"><ele>309</ele><time>2026-10-04T21:01:06Z</time></trkpt>
      <trkpt lat="41.47948453668505" lon="-81.48201612755656"><ele>309</ele><time>2026-10-04T21:01:09Z</time></trkpt>
      <trkpt lat="41.47934187669307" lon="-81.48215191438794"><ele>309</ele><time>2026-10-04T21:01:12Z</time></trkpt>
      <trkpt lat="41.47924473043531" lon="-81.48225719109178"><ele>310</ele><time>2026-10-04T21:01:15Z</time></trkpt>
      <trkpt lat="41.479188026860356" lon="-81.48232131265104"><ele>310</ele><time>2026-10-04T21:01:18Z</time></trkpt>
      <trkpt lat="41.479161120951176" lon="-81.48238635621965"><ele>310</ele><time>2026-10-04T21:01:21Z</time></trkpt>
    </trkseg>
  </trk>
</gpx>
