<?xml version="1.0" encoding="UTF-8"?>
<gpx version="1.1" creator="HoldMyTrack" xmlns="http://www.topografix.com/GPX/1/1">
  <trk>
    <type>walking</type>
    <trkseg>
      <trkpt lat="41.47519484627992" lon="-81.49016291834414"><ele>323</ele><time>2026-10-03T15:11:36.996Z</time></trkpt>
      <trkpt lat="41.47516349796206" lon="-81.49010114371777"><ele>320</ele><time>2026-10-03T15:11:40.001Z</time></trkpt>
      <trkpt lat="41.47519501391798" lon="-81.49003341794014"><ele>316</ele><time>2026-10-03T15:11:49Z</time></trkpt>
      <trkpt lat="41.47518533281982" lon="-81.48995328694582"><ele>317</ele><time>2026-10-03T15:11:55Z</time></trkpt>
      <trkpt lat="41.47521504666656" lon="-81.4898731559515"><ele>316</ele><time>2026-10-03T15:12:01Z</time></trkpt>
      <trkpt lat="41.475264206528664" lon="-81.48985077627003"><ele>316</ele><time>2026-10-03T15:12:07Z</time></trkpt>
      <trkpt lat="41.47532019764185" lon="-81.48987357504666"><ele>317</ele><time>2026-10-03T15:12:13Z</time></trkpt>
      <trkpt lat="41.47537681739777" lon="-81.48983929306269"><ele>315</ele><time>2026-10-03T15:12:22Z</time></trkpt>
      <trkpt lat="41.47542534861714" lon="-81.48987391032279"><ele>314</ele><time>2026-10-03T15:12:28Z</time></trkpt>
      <trkpt lat="41.475479286164045" lon="-81.48989779874682"><ele>312</ele><time>2026-10-03T15:12:34Z</time></trkpt>
      <trkpt lat="41.475528655573726" lon="-81.48991422727704"><ele>311</ele><time>2026-10-03T15:12:40Z</time></trkpt>
      <trkpt lat="41.475570858456194" lon="-81.48996041156352"><ele>312</ele><time>2026-10-03T15:12:46Z</time></trkpt>
      <trkpt lat="41.475618216209114" lon="-81.48999041877687"><ele>312</ele><time>2026-10-03T15:12:52Z</time></trkpt>
      <trkpt lat="41.47566326893866" lon="-81.49001061916351"><ele>313</ele><time>2026-10-03T15:12:58Z</time></trkpt>
      <trkpt lat="41.47570836357772" lon="-81.4900388661772"><ele>315</ele><time>2026-10-03T15:13:05Z</time></trkpt>
      <trkpt lat="41.475757607258856" lon="-81.49004984647036"><ele>317</ele><time>2026-10-03T15:13:13Z</time></trkpt>
      <trkpt lat="41.475789793767035" lon="-81.49009318090975"><ele>319</ele><time>2026-10-03T15:13:21Z</time></trkpt>
      <trkpt lat="41.475813472643495" lon="-81.49015076458454"><ele>319</ele><time>2026-10-03T15:13:28Z</time></trkpt>
      <trkpt lat="41.4758375287056" lon="-81.49020910263062"><ele>319</ele><time>2026-10-03T15:13:36Z</time></trkpt>
      <trkpt lat="41.47582851815969" lon="-81.49028856307268"><ele>317</ele><time>2026-10-03T15:13:57Z</time></trkpt>
      <trkpt lat="41.47586296778172" lon="-81.49035410955548"><ele>317</ele><time>2026-10-03T15:14:09Z</time></trkpt>
      <trkpt lat="41.475910283625126" lon="-81.49034916423261"><ele>316</ele><time>2026-10-03T15:14:18Z</time></trkpt>
      <trkpt lat="41.47595776710659" lon="-81.49032234214246"><ele>316</ele><time>2026-10-03T15:14:24Z</time></trkpt>
      <trkpt lat="41.47599825169891" lon="-81.49029367603362"><ele>315</ele><time>2026-10-03T15:14:30Z</time></trkpt>
      <trkpt lat="41.4760611159727" lon="-81.4902804326266"><ele>314</ele><time>2026-10-03T15:14:39Z</time></trkpt>
      <trkpt lat="41.476081274449825" lon="-81.4903464820236"><ele>314</ele><time>2026-10-03T15:14:51Z</time></trkpt>
      <trkpt lat="41.47606107406318" lon="-81.49041940458119"><ele>312</ele><time>2026-10-03T15:15:00Z</time></trkpt>
      <trkpt lat="41.47605281788856" lon="-81.49049190804362"><ele>312</ele><time>2026-10-03T15:15:06Z</time></trkpt>
      <trkpt lat="41.47604954894632" lon="-81.49056474678218"><ele>313</ele><time>2026-10-03T15:15:15Z</time></trkpt>
      <trkpt lat="41.47603592835367" lon="-81.49063515476882"><ele>314</ele><time>2026-10-03T15:15:24Z</time></trkpt>
      <trkpt lat="41.476049004122615" lon="-81.4907040540129"><ele>313</ele><time>2026-10-03T15:15:30Z</time></trkpt>
      <trkpt lat="41.476038275286555" lon="-81.49077110923827"><ele>312</ele><time>2026-10-03T15:15:36Z</time></trkpt>
      <trkpt lat="41.47602767217904" lon="-81.49083254858851"><ele>312</ele><time>2026-10-03T15:15:42Z</time></trkpt>
      <trkpt lat="41.47603408433497" lon="-81.49089247919619"><ele>313</ele><time>2026-10-03T15:15:48Z</time></trkpt>
      <trkpt lat="41.47604066412896" lon="-81.49082626216114"><ele>313</ele><time>2026-10-03T15:16:06Z</time></trkpt>
      <trkpt lat="41.4760412927717" lon="-81.49076147004962"><ele>313</ele><time>2026-10-03T15:16:12Z</time></trkpt>
      <trkpt lat="41.47604988422245" lon="-81.49068603292108"><ele>312</ele><time>2026-10-03T15:16:21Z</time></trkpt>
      <trkpt lat="41.476049926131964" lon="-81.49061168543994"><ele>311</ele><time>2026-10-03T15:16:30Z</time></trkpt>
      <trkpt lat="41.47605185396969" lon="-81.49055116809905"><ele>312</ele><time>2026-10-03T15:16:36Z</time></trkpt>
      <trkpt lat="41.476055374369025" lon="-81.49046843871474"><ele>311</ele><time>2026-10-03T15:16:42Z</time></trkpt>
      <trkpt lat="41.47606777958572" lon="-81.49038202129304"><ele>311</ele><time>2026-10-03T15:16:51Z</time></trkpt>
      <trkpt lat="41.47609933745116" lon="-81.4903253596276"><ele>312</ele><time>2026-10-03T15:17:00Z</time></trkpt>
      <trkpt lat="41.476138564758" lon="-81.49029208347201"><ele>313</ele><time>2026-10-03T15:17:06Z</time></trkpt>
      <trkpt lat="41.47618722170591" lon="-81.49025805294514"><ele>314</ele><time>2026-10-03T15:17:15Z</time></trkpt>
      <trkpt lat="41.47620717063546" lon="-81.49018848314881"><ele>315</ele><time>2026-10-03T15:17:24Z</time></trkpt>
      <trkpt lat="41.47618202492595" lon="-81.49010147899389"><ele>316</ele><time>2026-10-03T15:17:33Z</time></trkpt>
      <trkpt lat="41.476127207279205" lon="-81.49006828665733"><ele>315</ele><time>2026-10-03T15:17:42Z</time></trkpt>
      <trkpt lat="41.476101600565016" lon="-81.4900150615722"><ele>314</ele><time>2026-10-03T15:17:48Z</time></trkpt>
      <trkpt lat="41.47610449232161" lon="-81.48994155228138"><ele>313</ele><time>2026-10-03T15:17:57Z</time></trkpt>
      <trkpt lat="41.476098080165684" lon="-81.48986435495317"><ele>314</ele><time>2026-10-03T15:18:03Z</time></trkpt>
      <trkpt lat="41.476045148447156" lon="-81.4898303244263"><ele>314</ele><time>2026-10-03T15:18:12Z</time></trkpt>
      <trkpt lat="41.475999928079545" lon="-81.48981439881027"><ele>314</ele><time>2026-10-03T15:18:18Z</time></trkpt>
      <trkpt lat="41.47595282178372" lon="-81.48982537910342"><ele>313</ele><time>2026-10-03T15:18:27Z</time></trkpt>
      <trkpt lat="41.475933669134974" lon="-81.48988564498723"><ele>314</ele><time>2026-10-03T15:18:36Z</time></trkpt>
      <trkpt lat="41.475893184542656" lon="-81.48995353840292"><ele>315</ele><time>2026-10-03T15:18:45Z</time></trkpt>
      <trkpt lat="41.475827721878886" lon="-81.48998631164432"><ele>313</ele><time>2026-10-03T15:18:54Z</time></trkpt>
      <trkpt lat="41.47577307187021" lon="-81.49001816287637"><ele>313</ele><time>2026-10-03T15:19:03Z</time></trkpt>
      <trkpt lat="41.47572994697839" lon="-81.49005093611777"><ele>311</ele><time>2026-10-03T15:19:15Z</time></trkpt>
      <trkpt lat="41.47568166721612" lon="-81.49002092890441"><ele>312</ele><time>2026-10-03T15:19:24Z</time></trkpt>
      <trkpt lat="41.475640051066875" lon="-81.48998815566301"><ele>310</ele><time>2026-10-03T15:19:36Z</time></trkpt>
      <trkpt lat="41.475594537332654" lon="-81.48998396471143"><ele>311</ele><time>2026-10-03T15:19:48Z</time></trkpt>
      <trkpt lat="41.4755386300385" lon="-81.48996334522963"><ele>312</ele><time>2026-10-03T15:19:57Z</time></trkpt>
      <trkpt lat="41.47550820372999" lon="-81.4900443982333"><ele>313</ele><time>2026-10-03T15:20:09Z</time></trkpt>
      <trkpt lat="41.475495169870555" lon="-81.49010692723095"><ele>316</ele><time>2026-10-03T15:20:18Z</time></trkpt>
      <trkpt lat="41.47544496227056" lon="-81.49009686894715"><ele>315</ele><time>2026-10-03T15:23:48Z</time></trkpt>
      <trkpt lat="41.47549286484718" lon="-81.4900634251535"><ele>313</ele><time>2026-10-03T15:24:45Z</time></trkpt>
      <trkpt lat="41.47551235277206" lon="-81.4899886585772"><ele>313</ele><time>2026-10-03T15:24:51Z</time></trkpt>
      <trkpt lat="41.47556318901479" lon="-81.4899799413979"><ele>313</ele><time>2026-10-03T15:24:57Z</time></trkpt>
      <trkpt lat="41.475620940327644" lon="-81.4900132175535"><ele>313</ele><time>2026-10-03T15:25:03Z</time></trkpt>
      <trkpt lat="41.47568522952497" lon="-81.49002377875149"><ele>313</ele><time>2026-10-03T15:25:09Z</time></trkpt>
      <trkpt lat="41.475750943645835" lon="-81.49002587422729"><ele>313</ele><time>2026-10-03T15:25:15Z</time></trkpt>
      <trkpt lat="41.475698640570045" lon="-81.49001338519156"><ele>315</ele><time>2026-10-03T15:25:32Z</time></trkpt>
      <trkpt lat="41.47565606050193" lon="-81.48998346179724"><ele>315</ele><time>2026-10-03T15:25:38Z</time></trkpt>
      <trkpt lat="41.475609205663204" lon="-81.48996217176318"><ele>315</ele><time>2026-10-03T15:25:45Z</time></trkpt>
      <trkpt lat="41.475561638362706" lon="-81.48994163610041"><ele>316</ele><time>2026-10-03T15:25:54Z</time></trkpt>
      <trkpt lat="41.47550778463483" lon="-81.4899286441505"><ele>316</ele><time>2026-10-03T15:26:02Z</time></trkpt>
      <trkpt lat="41.47546813823283" lon="-81.4898940268904"><ele>316</ele><time>2026-10-03T15:26:08Z</time></trkpt>
      <trkpt lat="41.47542094811797" lon="-81.48991062305868"><ele>317</ele><time>2026-10-03T15:26:14Z</time></trkpt>
      <trkpt lat="41.47536939941347" lon="-81.48992084898055"><ele>318</ele><time>2026-10-03T15:26:29Z</time></trkpt>
      <trkpt lat="41.475322670303285" lon="-81.48988975211978"><ele>318</ele><time>2026-10-03T15:26:37Z</time></trkpt>
      <trkpt lat="41.47527568973601" lon="-81.48989637382329"><ele>319</ele><time>2026-10-03T15:26:45Z</time></trkpt>
      <trkpt lat="41.47525020875037" lon="-81.48994968272746"><ele>318</ele><time>2026-10-03T15:26:57Z</time></trkpt>
      <trkpt lat="41.47526860702783" lon="-81.49000709876418"><ele>319</ele><time>2026-10-03T15:27:04Z</time></trkpt>
      <trkpt lat="41.475263577885926" lon="-81.49007943458855"><ele>319</ele><time>2026-10-03T15:27:12Z</time></trkpt>
      <trkpt lat="41.475262446329" lon="-81.49013936519623"><ele>319</ele><time>2026-10-03T15:27:20Z</time></trkpt>
      <trkpt lat="41.47526387125254" lon="-81.49020474404097"><ele>318</ele><time>2026-10-03T15:27:25Z</time></trkpt>
      <trkpt lat="41.47527263034135" lon="-81.4902671892196"><ele>319</ele><time>2026-10-03T15:27:31Z</time></trkpt>
      <trkpt lat="41.47527200169861" lon="-81.49032938294113"><ele>319</ele><time>2026-10-03T15:27:37Z</time></trkpt>
      <trkpt lat="41.47527317516506" lon="-81.49039182811975"><ele>320</ele><time>2026-10-03T15:27:43Z</time></trkpt>
      <trkpt lat="41.47528327535838" lon="-81.49048319086432"><ele>320</ele><time>2026-10-03T15:27:53Z</time></trkpt>
      <trkpt lat="41.47527476772666" lon="-81.4905727095902"><ele>319</ele><time>2026-10-03T15:28:02Z</time></trkpt>
      <trkpt lat="41.4752788329497" lon="-81.49064177647233"><ele>320</ele><time>2026-10-03T15:28:08Z</time></trkpt>
      <trkpt lat="41.4752830658108" lon="-81.49071888998151"><ele>321</ele><time>2026-10-03T15:28:17Z</time></trkpt>
      <trkpt lat="41.475275019183755" lon="-81.49078720249236"><ele>321</ele><time>2026-10-03T15:28:23Z</time></trkpt>
      <trkpt lat="41.47525666281581" lon="-81.49086917750537"><ele>322</ele><time>2026-10-03T15:28:34Z</time></trkpt>
      <trkpt lat="41.47526856511831" lon="-81.49095417000353"><ele>321</ele><time>2026-10-03T15:28:43Z</time></trkpt>
      <trkpt lat="41.475307079963386" lon="-81.49098618887365"><ele>320</ele><time>2026-10-03T15:28:49Z</time></trkpt>
      <trkpt lat="41.47535875439644" lon="-81.49102382361889"><ele>318</ele><time>2026-10-03T15:28:58Z</time></trkpt>
      <trkpt lat="41.47541742771864" lon="-81.49104285053909"><ele>319</ele><time>2026-10-03T15:29:04Z</time></trkpt>
      <trkpt lat="41.47547094617039" lon="-81.49104930460453"><ele>319</ele><time>2026-10-03T15:29:10Z</time></trkpt>
      <trkpt lat="41.47552609909326" lon="-81.49107336066663"><ele>319</ele><time>2026-10-03T15:29:16Z</time></trkpt>
      <trkpt lat="41.47558284457773" lon="-81.49107294157147"><ele>320</ele><time>2026-10-03T15:29:22Z</time></trkpt>
      <trkpt lat="41.475631962530315" lon="-81.4910959918052"><ele>321</ele><time>2026-10-03T15:29:28Z</time></trkpt>
      <trkpt lat="41.475685983896255" lon="-81.49113899096847"><ele>321</ele><time>2026-10-03T15:29:34Z</time></trkpt>
      <trkpt lat="41.47571812849492" lon="-81.49119766429067"><ele>320</ele><time>2026-10-03T15:29:40Z</time></trkpt>
      <trkpt lat="41.47575442213565" lon="-81.49124133400619"><ele>320</ele><time>2026-10-03T15:29:46Z</time></trkpt>
      <trkpt lat="41.47578551899642" lon="-81.49129405617714"><ele>321</ele><time>2026-10-03T15:29:51Z</time></trkpt>
      <trkpt lat="41.47581389173865" lon="-81.49134795181453"><ele>321</ele><time>2026-10-03T15:29:57Z</time></trkpt>
      <trkpt lat="41.475844946689904" lon="-81.4914028532803"><ele>320</ele><time>2026-10-03T15:30:03Z</time></trkpt>
      <trkpt lat="41.47586904466152" lon="-81.4914570003748"><ele>320</ele><time>2026-10-03T15:30:09Z</time></trkpt>
      <trkpt lat="41.47588513791561" lon="-81.49152900092304"><ele>320</ele><time>2026-10-03T15:30:15Z</time></trkpt>
      <trkpt lat="41.475900183431804" lon="-81.4916100539267"><ele>319</ele><time>2026-10-03T15:30:24Z</time></trkpt>
      <trkpt lat="41.475890879519284" lon="-81.49167878553271"><ele>320</ele><time>2026-10-03T15:30:30Z</time></trkpt>
      <trkpt lat="41.475896034389734" lon="-81.49175807833672"><ele>319</ele><time>2026-10-03T15:30:36Z</time></trkpt>
      <trkpt lat="41.47590450011194" lon="-81.49185019545257"><ele>319</ele><time>2026-10-03T15:30:45Z</time></trkpt>
      <trkpt lat="41.47588534746319" lon="-81.49190660566092"><ele>320</ele><time>2026-10-03T15:30:51Z</time></trkpt>
      <trkpt lat="41.4758734870702" lon="-81.49197986349463"><ele>320</ele><time>2026-10-03T15:30:57Z</time></trkpt>
      <trkpt lat="41.475859908387065" lon="-81.49208053015172"><ele>320</ele><time>2026-10-03T15:31:06Z</time></trkpt>
      <trkpt lat="41.47584985010326" lon="-81.492163175717"><ele>319</ele><time>2026-10-03T15:31:12Z</time></trkpt>
      <trkpt lat="41.475836145691574" lon="-81.49223098531365"><ele>320</ele><time>2026-10-03T15:31:18Z</time></trkpt>
      <trkpt lat="41.47584218066186" lon="-81.49229569360614"><ele>319</ele><time>2026-10-03T15:31:24Z</time></trkpt>
      <trkpt lat="41.47583161946386" lon="-81.49236903525889"><ele>319</ele><time>2026-10-03T15:31:30Z</time></trkpt>
      <trkpt lat="41.47580936551094" lon="-81.4924425445497"><ele>320</ele><time>2026-10-03T15:31:36Z</time></trkpt>
      <trkpt lat="41.475785141810775" lon="-81.49252032861114"><ele>320</ele><time>2026-10-03T15:31:42Z</time></trkpt>
      <trkpt lat="41.475766324438155" lon="-81.49258897639811"><ele>320</ele><time>2026-10-03T15:31:48Z</time></trkpt>
      <trkpt lat="41.4757381612435" lon="-81.49265636689961"><ele>321</ele><time>2026-10-03T15:31:54Z</time></trkpt>
      <trkpt lat="41.47571024950594" lon="-81.49271772243083"><ele>321</ele><time>2026-10-03T15:32:00Z</time></trkpt>
      <trkpt lat="41.47568279877305" lon="-81.49277899414301"><ele>321</ele><time>2026-10-03T15:32:06Z</time></trkpt>
      <trkpt lat="41.47565995808691" lon="-81.49284177459776"><ele>322</ele><time>2026-10-03T15:32:12Z</time></trkpt>
      <trkpt lat="41.47561088204384" lon="-81.4928865339607"><ele>322</ele><time>2026-10-03T15:32:18Z</time></trkpt>
      <trkpt lat="41.47556708659977" lon="-81.49294696748257"><ele>323</ele><time>2026-10-03T15:32:24Z</time></trkpt>
      <trkpt lat="41.4755299128592" lon="-81.4929830096662"><ele>323</ele><time>2026-10-03T15:32:29Z</time></trkpt>
      <trkpt lat="41.47549139801413" lon="-81.49302919395268"><ele>325</ele><time>2026-10-03T15:32:36Z</time></trkpt>
      <trkpt lat="41.475481004454195" lon="-81.49308962747455"><ele>325</ele><time>2026-10-03T15:32:41Z</time></trkpt>
      <trkpt lat="41.47544077131897" lon="-81.49312726221979"><ele>326</ele><time>2026-10-03T15:32:47Z</time></trkpt>
      <trkpt lat="41.47539374884218" lon="-81.49310437962413"><ele>326</ele><time>2026-10-03T15:32:54Z</time></trkpt>
      <trkpt lat="41.475373967550695" lon="-81.49303833022714"><ele>326</ele><time>2026-10-03T15:33:00Z</time></trkpt>
      <trkpt lat="41.47532665170729" lon="-81.49299507960677"><ele>326</ele><time>2026-10-03T15:33:06Z</time></trkpt>
      <trkpt lat="41.47527292370796" lon="-81.49294252507389"><ele>325</ele><time>2026-10-03T15:33:12Z</time></trkpt>
      <trkpt lat="41.47522933781147" lon="-81.49287580512464"><ele>325</ele><time>2026-10-03T15:33:21Z</time></trkpt>
      <trkpt lat="41.47519120015204" lon="-81.49283272214234"><ele>324</ele><time>2026-10-03T15:33:27Z</time></trkpt>
      <trkpt lat="41.47515691816807" lon="-81.49277849122882"><ele>324</ele><time>2026-10-03T15:33:33Z</time></trkpt>
      <trkpt lat="41.47511186543852" lon="-81.4927089214325"><ele>324</ele><time>2026-10-03T15:33:39Z</time></trkpt>
      <trkpt lat="41.47506718989462" lon="-81.49264488369226"><ele>324</ele><time>2026-10-03T15:33:48Z</time></trkpt>
      <trkpt lat="41.47501325234771" lon="-81.49259777739644"><ele>324</ele><time>2026-10-03T15:33:54Z</time></trkpt>
      <trkpt lat="41.47496799007058" lon="-81.49256156757474"><ele>324</ele><time>2026-10-03T15:34:00Z</time></trkpt>
      <trkpt lat="41.47491971030831" lon="-81.49251462891698"><ele>324</ele><time>2026-10-03T15:34:06Z</time></trkpt>
      <trkpt lat="41.4748763339594" lon="-81.49246861226857"><ele>324</ele><time>2026-10-03T15:34:12Z</time></trkpt>
      <trkpt lat="41.474832287058234" lon="-81.49241547100246"><ele>323</ele><time>2026-10-03T15:34:18Z</time></trkpt>
      <trkpt lat="41.474784133024514" lon="-81.49237087927759"><ele>322</ele><time>2026-10-03T15:34:24Z</time></trkpt>
      <trkpt lat="41.47473773919046" lon="-81.49231874383986"><ele>321</ele><time>2026-10-03T15:34:33Z</time></trkpt>
      <trkpt lat="41.47470002062619" lon="-81.4922702126205"><ele>321</ele><time>2026-10-03T15:34:39Z</time></trkpt>
      <trkpt lat="41.4746630564332" lon="-81.49220424704254"><ele>320</ele><time>2026-10-03T15:34:45Z</time></trkpt>
      <trkpt lat="41.47460815496743" lon="-81.49218630976975"><ele>319</ele><time>2026-10-03T15:34:51Z</time></trkpt>
      <trkpt lat="41.474570729769766" lon="-81.49214498698711"><ele>319</ele><time>2026-10-03T15:34:57Z</time></trkpt>
      <trkpt lat="41.474513271823525" lon="-81.49207541719079"><ele>319</ele><time>2026-10-03T15:35:06Z</time></trkpt>
      <trkpt lat="41.474453383125365" lon="-81.4920249581337"><ele>318</ele><time>2026-10-03T15:35:12Z</time></trkpt>
      <trkpt lat="41.47441880777478" lon="-81.49195320904255"><ele>317</ele><time>2026-10-03T15:35:18Z</time></trkpt>
      <trkpt lat="41.47440665401518" lon="-81.49188229814172"><ele>316</ele><time>2026-10-03T15:35:24Z</time></trkpt>
      <trkpt lat="41.47441486828029" lon="-81.49182219989598"><ele>319</ele><time>2026-10-03T15:35:30Z</time></trkpt>
      <trkpt lat="41.47439605090767" lon="-81.49176486767828"><ele>322</ele><time>2026-10-03T15:35:35Z</time></trkpt>
      <trkpt lat="41.474387207999825" lon="-81.49169823154807"><ele>323</ele><time>2026-10-03T15:35:42Z</time></trkpt>
      <trkpt lat="41.474346430040896" lon="-81.49166160263121"><ele>322</ele><time>2026-10-03T15:35:50Z</time></trkpt>
      <trkpt lat="41.47429316304624" lon="-81.49165984243155"><ele>322</ele><time>2026-10-03T15:35:55Z</time></trkpt>
      <trkpt lat="41.47429923992604" lon="-81.49174885824323"><ele>320</ele><time>2026-10-03T15:36:09Z</time></trkpt>
      <trkpt lat="41.47428570315242" lon="-81.49180828593671"><ele>319</ele><time>2026-10-03T15:36:36Z</time></trkpt>
      <trkpt lat="41.47422262933105" lon="-81.49179839529097"><ele>320</ele><time>2026-10-03T15:36:57Z</time></trkpt>
      <trkpt lat="41.47417652886361" lon="-81.49185589514673"><ele>320</ele><time>2026-10-03T15:37:09Z</time></trkpt>
      <trkpt lat="41.47415142506361" lon="-81.49179437197745"><ele>321</ele><time>2026-10-03T15:37:21Z</time></trkpt>
      <trkpt lat="41.474203183315694" lon="-81.49179453961551"><ele>321</ele><time>2026-10-03T15:37:30Z</time></trkpt>
      <trkpt lat="41.47426776587963" lon="-81.49178867228329"><ele>321</ele><time>2026-10-03T15:37:39Z</time></trkpt>
      <trkpt lat="41.47431332152337" lon="-81.49174332618713"><ele>321</ele><time>2026-10-03T15:37:45Z</time></trkpt>
      <trkpt lat="41.47429588716477" lon="-81.49168314412236"><ele>320</ele><time>2026-10-03T15:37:51Z</time></trkpt>
      <trkpt lat="41.474360511638224" lon="-81.49167157709599"><ele>320</ele><time>2026-10-03T15:38:00Z</time></trkpt>
      <trkpt lat="41.474401163868606" lon="-81.49163721129298"><ele>320</ele><time>2026-10-03T15:38:06Z</time></trkpt>
      <trkpt lat="41.4744439534843" lon="-81.49158163927495"><ele>320</ele><time>2026-10-03T15:38:12Z</time></trkpt>
      <trkpt lat="41.47451021242887" lon="-81.4915616903454"><ele>321</ele><time>2026-10-03T15:38:18Z</time></trkpt>
      <trkpt lat="41.474562641233206" lon="-81.4915347006172"><ele>320</ele><time>2026-10-03T15:38:24Z</time></trkpt>
      <trkpt lat="41.474603209644556" lon="-81.49147644639015"><ele>321</ele><time>2026-10-03T15:38:33Z</time></trkpt>
      <trkpt lat="41.47464361041784" lon="-81.491431100294"><ele>319</ele><time>2026-10-03T15:38:39Z</time></trkpt>
      <trkpt lat="41.47467198316008" lon="-81.49137938395143"><ele>320</ele><time>2026-10-03T15:38:45Z</time></trkpt>
      <trkpt lat="41.47470831871033" lon="-81.49132624268532"><ele>320</ele><time>2026-10-03T15:38:51Z</time></trkpt>
      <trkpt lat="41.47473497316241" lon="-81.49126019328833"><ele>319</ele><time>2026-10-03T15:38:57Z</time></trkpt>
      <trkpt lat="41.474762759171426" lon="-81.49120998568833"><ele>320</ele><time>2026-10-03T15:39:06Z</time></trkpt>
      <trkpt lat="41.47479247301817" lon="-81.49116396903992"><ele>320</ele><time>2026-10-03T15:39:15Z</time></trkpt>
      <trkpt lat="41.47479456849396" lon="-81.49110202677548"><ele>320</ele><time>2026-10-03T15:39:21Z</time></trkpt>
      <trkpt lat="41.4747936045751" lon="-81.49103086441755"><ele>319</ele><time>2026-10-03T15:39:27Z</time></trkpt>
      <trkpt lat="41.47475127596408" lon="-81.49096104316413"><ele>320</ele><time>2026-10-03T15:39:33Z</time></trkpt>
      <trkpt lat="41.47472642362118" lon="-81.4908988494426"><ele>320</ele><time>2026-10-03T15:39:39Z</time></trkpt>
      <trkpt lat="41.47472449578345" lon="-81.49082542397082"><ele>321</ele><time>2026-10-03T15:39:45Z</time></trkpt>
      <trkpt lat="41.47471913136542" lon="-81.49076172150671"><ele>319</ele><time>2026-10-03T15:39:51Z</time></trkpt>
      <trkpt lat="41.47470861207694" lon="-81.49067454971373"><ele>320</ele><time>2026-10-03T15:39:57Z</time></trkpt>
      <trkpt lat="41.47471963427961" lon="-81.4905864559114"><ele>319</ele><time>2026-10-03T15:40:06Z</time></trkpt>
      <trkpt lat="41.47471678443253" lon="-81.49051311425865"><ele>318</ele><time>2026-10-03T15:40:12Z</time></trkpt>
      <trkpt lat="41.47471150383353" lon="-81.49044580757618"><ele>319</ele><time>2026-10-03T15:40:18Z</time></trkpt>
      <trkpt lat="41.47470697760582" lon="-81.49036953225732"><ele>319</ele><time>2026-10-03T15:40:24Z</time></trkpt>
      <trkpt lat="41.47470484022051" lon="-81.49029702879488"><ele>318</ele><time>2026-10-03T15:40:33Z</time></trkpt>
      <trkpt lat="41.47471787407994" lon="-81.49023466743529"><ele>317</ele><time>2026-10-03T15:40:39Z</time></trkpt>
      <trkpt lat="41.47472244221717" lon="-81.49014640599489"><ele>317</ele><time>2026-10-03T15:40:48Z</time></trkpt>
      <trkpt lat="41.47472566924989" lon="-81.49006887339056"><ele>317</ele><time>2026-10-03T15:40:54Z</time></trkpt>
      <trkpt lat="41.474718963727355" lon="-81.48999989032745"><ele>317</ele><time>2026-10-03T15:41:00Z</time></trkpt>
      <trkpt lat="41.474724034778774" lon="-81.48993803188205"><ele>317</ele><time>2026-10-03T15:41:06Z</time></trkpt>
      <trkpt lat="41.47471594624221" lon="-81.4898765925318"><ele>316</ele><time>2026-10-03T15:41:12Z</time></trkpt>
      <trkpt lat="41.47472986020148" lon="-81.48980626836419"><ele>316</ele><time>2026-10-03T15:41:18Z</time></trkpt>
      <trkpt lat="41.47475383244455" lon="-81.4897333458066"><ele>317</ele><time>2026-10-03T15:41:24Z</time></trkpt>
      <trkpt lat="41.474813972599804" lon="-81.48969386704266"><ele>317</ele><time>2026-10-03T15:41:33Z</time></trkpt>
      <trkpt lat="41.47486116271466" lon="-81.4897005725652"><ele>316</ele><time>2026-10-03T15:41:39Z</time></trkpt>
      <trkpt lat="41.47491124458611" lon="-81.48971205577254"><ele>314</ele><time>2026-10-03T15:41:45Z</time></trkpt>
      <trkpt lat="41.474957219325006" lon="-81.4897111337632"><ele>315</ele><time>2026-10-03T15:41:51Z</time></trkpt>
      <trkpt lat="41.47500709164888" lon="-81.48972060531378"><ele>317</ele><time>2026-10-03T15:41:58Z</time></trkpt>
      <trkpt lat="41.47505847271532" lon="-81.48972068913281"><ele>317</ele><time>2026-10-03T15:42:04Z</time></trkpt>
      <trkpt lat="41.47511006332934" lon="-81.48971683345735"><ele>318</ele><time>2026-10-03T15:42:10Z</time></trkpt>
      <trkpt lat="41.47515662480146" lon="-81.48972798138857"><ele>318</ele><time>2026-10-03T15:42:18Z</time></trkpt>
    </trkseg>
  </trk>
</gpx>
