<?xml version="1.0" encoding="UTF-8"?>
<gpx version="1.1" creator="HoldMyTrack" xmlns="http://www.topografix.com/GPX/1/1" xmlns:gpxtpx="http://www.garmin.com/xmlschemas/TrackPointExtension/v1">
  <trk>
    <type>walking</type>
    <trkseg>
      <trkpt lat="21.009709" lon="105.847701"><ele>19.15</ele><time>2026-01-24T02:30:00Z</time></trkpt>
      <trkpt lat="21.009857" lon="105.847715"><ele>18.02</ele><time>2026-01-24T02:30:14Z</time></trkpt>
      <trkpt lat="21.009826" lon="105.847576"><ele>18.84</ele><time>2026-01-24T02:30:26Z</time></trkpt>
      <trkpt lat="21.009831" lon="105.84732"><ele>19</ele><time>2026-01-24T02:30:47Z</time></trkpt>
      <trkpt lat="21.009856" lon="105.84707"><ele>19.43</ele><time>2026-01-24T02:31:09Z</time></trkpt>
      <trkpt lat="21.009963" lon="105.846655"><ele>19.84</ele><time>2026-01-24T02:31:45Z</time></trkpt>
      <trkpt lat="21.009985" lon="105.846536"><ele>19.7</ele><time>2026-01-24T02:31:56Z</time></trkpt>
      <trkpt lat="21.010047" lon="105.846437"><ele>19.28</ele><time>2026-01-24T02:32:06Z</time></trkpt>
      <trkpt lat="21.0101" lon="105.846278"><ele>19</ele><time>2026-01-24T02:32:20Z</time></trkpt>
      <trkpt lat="21.010419" lon="105.846373"><ele>19</ele><time>2026-01-24T02:32:50Z</time></trkpt>
      <trkpt lat="21.010538" lon="105.846093"><ele>18.03</ele><time>2026-01-24T02:33:16Z</time></trkpt>
      <trkpt lat="21.01066" lon="105.84604"><ele>16.37</ele><time>2026-01-24T02:33:28Z</time></trkpt>
      <trkpt lat="21.010818" lon="105.845871"><ele>14.31</ele><time>2026-01-24T02:33:49Z</time></trkpt>
      <trkpt lat="21.010635" lon="105.845796"><ele>15.37</ele><time>2026-01-24T02:34:06Z</time></trkpt>
      <trkpt lat="21.010661" lon="105.845708"><ele>14.99</ele><time>2026-01-24T02:34:14Z</time></trkpt>
      <trkpt lat="21.010618" lon="105.845692"><ele>15.29</ele><time>2026-01-24T02:34:18Z</time></trkpt>
      <trkpt lat="21.010688" lon="105.845447"><ele>15.59</ele><time>2026-01-24T02:34:40Z</time></trkpt>
      <trkpt lat="21.010683" lon="105.84538"><ele>15.64</ele><time>2026-01-24T02:34:46Z</time></trkpt>
      <trkpt lat="21.010664" lon="105.845323"><ele>15.52</ele><time>2026-01-24T02:34:51Z</time></trkpt>
      <trkpt lat="21.010617" lon="105.845207"><ele>14.71</ele><time>2026-01-24T02:35:02Z</time></trkpt>
      <trkpt lat="21.010694" lon="105.845208"><ele>15.2</ele><time>2026-01-24T02:35:09Z</time></trkpt>
      <trkpt lat="21.010916" lon="105.84519"><ele>15.09</ele><time>2026-01-24T02:35:29Z</time></trkpt>
      <trkpt lat="21.011002" lon="105.845165"><ele>13.73</ele><time>2026-01-24T02:35:37Z</time></trkpt>
      <trkpt lat="21.011039" lon="105.84517"><ele>13.32</ele><time>2026-01-24T02:35:41Z</time></trkpt>
      <trkpt lat="21.011433" lon="105.845496"><ele>12.5</ele><time>2026-01-24T02:36:26Z</time></trkpt>
      <trkpt lat="21.01159" lon="105.845585"><ele>11.65</ele><time>2026-01-24T02:36:42Z</time></trkpt>
      <trkpt lat="21.011713" lon="105.84563"><ele>11.14</ele><time>2026-01-24T02:36:54Z</time></trkpt>
      <trkpt lat="21.011969" lon="105.84567"><ele>9.78</ele><time>2026-01-24T02:37:17Z</time></trkpt>
      <trkpt lat="21.012141" lon="105.845668"><ele>8.7</ele><time>2026-01-24T02:37:33Z</time></trkpt>
      <trkpt lat="21.012306" lon="105.845645"><ele>8.28</ele><time>2026-01-24T02:37:48Z</time></trkpt>
      <trkpt lat="21.012464" lon="105.845602"><ele>8.74</ele><time>2026-01-24T02:38:03Z</time></trkpt>
      <trkpt lat="21.012588" lon="105.845544"><ele>8.85</ele><time>2026-01-24T02:38:15Z</time></trkpt>
      <trkpt lat="21.012704" lon="105.845478"><ele>9.23</ele><time>2026-01-24T02:38:27Z</time></trkpt>
      <trkpt lat="21.012873" lon="105.845339"><ele>9.79</ele><time>2026-01-24T02:38:47Z</time></trkpt>
      <trkpt lat="21.012951" lon="105.845294"><ele>10.01</ele><time>2026-01-24T02:38:55Z</time></trkpt>
      <trkpt lat="21.013042" lon="105.845271"><ele>10.48</ele><time>2026-01-24T02:39:03Z</time></trkpt>
      <trkpt lat="21.013147" lon="105.845266"><ele>11.15</ele><time>2026-01-24T02:39:13Z</time></trkpt>
      <trkpt lat="21.013452" lon="105.845298"><ele>12.54</ele><time>2026-01-24T02:39:41Z</time></trkpt>
      <trkpt lat="21.013584" lon="105.845302"><ele>12.58</ele><time>2026-01-24T02:39:53Z</time></trkpt>
      <trkpt lat="21.013744" lon="105.845253"><ele>11.3</ele><time>2026-01-24T02:40:08Z</time></trkpt>
      <trkpt lat="21.013961" lon="105.84512"><ele>10.58</ele><time>2026-01-24T02:40:31Z</time></trkpt>
      <trkpt lat="21.01399" lon="105.845094"><ele>10.73</ele><time>2026-01-24T02:40:34Z</time></trkpt>
      <trkpt lat="21.01406" lon="105.845032"><ele>11.07</ele><time>2026-01-24T02:40:42Z</time></trkpt>
      <trkpt lat="21.014259" lon="105.845205"><ele>13.71</ele><time>2026-01-24T02:41:06Z</time></trkpt>
      <trkpt lat="21.014317" lon="105.845229"><ele>13.86</ele><time>2026-01-24T02:41:11Z</time></trkpt>
      <trkpt lat="21.014398" lon="105.845164"><ele>13.48</ele><time>2026-01-24T02:41:20Z</time></trkpt>
      <trkpt lat="21.014626" lon="105.844947"><ele>12.58</ele><time>2026-01-24T02:41:48Z</time></trkpt>
      <trkpt lat="21.015105" lon="105.844544"><ele>19.98</ele><time>2026-01-24T02:42:44Z</time></trkpt>
      <trkpt lat="21.015406" lon="105.844286"><ele>16.71</ele><time>2026-01-24T02:43:19Z</time></trkpt>
      <trkpt lat="21.015437" lon="105.844319"><ele>16.89</ele><time>2026-01-24T02:43:23Z</time></trkpt>
      <trkpt lat="21.015476" lon="105.84434"><ele>16.9</ele><time>2026-01-24T02:43:27Z</time></trkpt>
      <trkpt lat="21.015518" lon="105.844348"><ele>16.72</ele><time>2026-01-24T02:43:30Z</time></trkpt>
      <trkpt lat="21.015583" lon="105.844333"><ele>16.53</ele><time>2026-01-24T02:43:37Z</time></trkpt>
      <trkpt lat="21.015616" lon="105.844311"><ele>16.59</ele><time>2026-01-24T02:43:40Z</time></trkpt>
      <trkpt lat="21.015641" lon="105.84428"><ele>16.56</ele><time>2026-01-24T02:43:44Z</time></trkpt>
      <trkpt lat="21.015658" lon="105.844243"><ele>16.44</ele><time>2026-01-24T02:43:47Z</time></trkpt>
      <trkpt lat="21.016111" lon="105.844297"><ele>21</ele><time>2026-01-24T02:44:29Z</time></trkpt>
      <trkpt lat="21.016123" lon="105.844185"><ele>20.79</ele><time>2026-01-24T02:44:38Z</time></trkpt>
      <trkpt lat="21.016403" lon="105.844218"><ele>20.72</ele><time>2026-01-24T02:45:04Z</time></trkpt>
      <trkpt lat="21.016724" lon="105.844256"><ele>18.32</ele><time>2026-01-24T02:45:33Z</time></trkpt>
      <trkpt lat="21.016827" lon="105.844329"><ele>16.91</ele><time>2026-01-24T02:45:44Z</time></trkpt>
      <trkpt lat="21.017001" lon="105.844356"><ele>13.01</ele><time>2026-01-24T02:46:00Z</time></trkpt>
      <trkpt lat="21.017054" lon="105.844198"><ele>12.67</ele><time>2026-01-24T02:46:15Z</time></trkpt>
      <trkpt lat="21.017087" lon="105.843844"><ele>12.85</ele><time>2026-01-24T02:46:45Z</time></trkpt>
      <trkpt lat="21.017481" lon="105.843882"><ele>12.98</ele><time>2026-01-24T02:47:21Z</time></trkpt>
      <trkpt lat="21.017605" lon="105.843832"><ele>13.46</ele><time>2026-01-24T02:47:33Z</time></trkpt>
      <trkpt lat="21.017731" lon="105.843804"><ele>14.38</ele><time>2026-01-24T02:47:45Z</time></trkpt>
      <trkpt lat="21.018269" lon="105.84393"><ele>13.78</ele><time>2026-01-24T02:48:35Z</time></trkpt>
      <trkpt lat="21.018539" lon="105.844006"><ele>14.64</ele><time>2026-01-24T02:49:00Z</time></trkpt>
      <trkpt lat="21.019062" lon="105.844155"><ele>13.38</ele><time>2026-01-24T02:49:49Z</time></trkpt>
      <trkpt lat="21.019568" lon="105.844301"><ele>16.45</ele><time>2026-01-24T02:50:37Z</time></trkpt>
      <trkpt lat="21.019588" lon="105.844237"><ele>16.19</ele><time>2026-01-24T02:50:43Z</time></trkpt>
      <trkpt lat="21.019819" lon="105.844316"><ele>16.46</ele><time>2026-01-24T02:51:05Z</time></trkpt>
      <trkpt lat="21.019801" lon="105.844369"><ele>16.57</ele><time>2026-01-24T02:51:10Z</time></trkpt>
      <trkpt lat="21.019753" lon="105.844512"><ele>16.86</ele><time>2026-01-24T02:51:22Z</time></trkpt>
      <trkpt lat="21.019811" lon="105.844523"><ele>16.5</ele><time>2026-01-24T02:51:28Z</time></trkpt>
      <trkpt lat="21.01956" lon="105.845623"><ele>15.93</ele><time>2026-01-24T02:53:04Z</time></trkpt>
      <trkpt lat="21.019566" lon="105.845658"><ele>15.97</ele><time>2026-01-24T02:53:07Z</time></trkpt>
      <trkpt lat="21.019579" lon="105.845677"><ele>15.95</ele><time>2026-01-24T02:53:09Z</time></trkpt>
      <trkpt lat="21.019608" lon="105.845693"><ele>15.77</ele><time>2026-01-24T02:53:12Z</time></trkpt>
      <trkpt lat="21.020058" lon="105.845867"><ele>13.98</ele><time>2026-01-24T02:53:55Z</time></trkpt>
      <trkpt lat="21.020049" lon="105.845903"><ele>14</ele><time>2026-01-24T02:53:59Z</time></trkpt>
      <trkpt lat="21.020186" lon="105.845954"><ele>13.17</ele><time>2026-01-24T02:54:12Z</time></trkpt>
      <trkpt lat="21.020686" lon="105.846135"><ele>14.87</ele><time>2026-01-24T02:55:00Z</time></trkpt>
      <trkpt lat="21.020502" lon="105.846745"><ele>14.14</ele><time>2026-01-24T02:55:54Z</time></trkpt>
      <trkpt lat="21.020707" lon="105.846784"><ele>13.98</ele><time>2026-01-24T02:56:13Z</time></trkpt>
      <trkpt lat="21.020999" lon="105.846849"><ele>16.18</ele><time>2026-01-24T02:56:40Z</time></trkpt>
      <trkpt lat="21.021204" lon="105.846915"><ele>18.06</ele><time>2026-01-24T02:57:00Z</time></trkpt>
      <trkpt lat="21.021338" lon="105.846988"><ele>18</ele><time>2026-01-24T02:57:14Z</time></trkpt>
      <trkpt lat="21.021454" lon="105.847085"><ele>17.52</ele><time>2026-01-24T02:57:27Z</time></trkpt>
      <trkpt lat="21.021344" lon="105.847326"><ele>17.01</ele><time>2026-01-24T02:57:50Z</time></trkpt>
      <trkpt lat="21.021489" lon="105.847396"><ele>16.08</ele><time>2026-01-24T02:58:04Z</time></trkpt>
      <trkpt lat="21.021607" lon="105.847477"><ele>16</ele><time>2026-01-24T02:58:17Z</time></trkpt>
      <trkpt lat="21.021803" lon="105.847582"><ele>15.1</ele><time>2026-01-24T02:58:37Z</time></trkpt>
      <trkpt lat="21.021849" lon="105.847593"><ele>15.07</ele><time>2026-01-24T02:58:41Z</time></trkpt>
      <trkpt lat="21.021995" lon="105.847651"><ele>15.05</ele><time>2026-01-24T02:58:55Z</time></trkpt>
      <trkpt lat="21.02213" lon="105.847718"><ele>15</ele><time>2026-01-24T02:59:09Z</time></trkpt>
      <trkpt lat="21.022223" lon="105.847751"><ele>15</ele><time>2026-01-24T02:59:18Z</time></trkpt>
      <trkpt lat="21.02201" lon="105.848482"><ele>14.81</ele><time>2026-01-24T03:00:23Z</time></trkpt>
      <trkpt lat="21.022144" lon="105.848528"><ele>14.05</ele><time>2026-01-24T03:00:36Z</time></trkpt>
      <trkpt lat="21.022152" lon="105.848585"><ele>14.38</ele><time>2026-01-24T03:00:40Z</time></trkpt>
      <trkpt lat="21.022156" lon="105.848597"><ele>14.45</ele><time>2026-01-24T03:00:42Z</time></trkpt>
      <trkpt lat="21.022184" lon="105.848615"><ele>14.55</ele><time>2026-01-24T03:00:45Z</time></trkpt>
      <trkpt lat="21.022653" lon="105.848762"><ele>15.52</ele><time>2026-01-24T03:01:29Z</time></trkpt>
      <trkpt lat="21.022717" lon="105.848757"><ele>15.75</ele><time>2026-01-24T03:01:35Z</time></trkpt>
      <trkpt lat="21.022775" lon="105.848717"><ele>15.97</ele><time>2026-01-24T03:01:41Z</time></trkpt>
      <trkpt lat="21.022803" lon="105.848739"><ele>16</ele><time>2026-01-24T03:01:44Z</time></trkpt>
      <trkpt lat="21.022788" lon="105.848787"><ele>16</ele><time>2026-01-24T03:01:49Z</time></trkpt>
      <trkpt lat="21.022809" lon="105.848817"><ele>16</ele><time>2026-01-24T03:01:52Z</time></trkpt>
      <trkpt lat="21.023537" lon="105.849061"><ele>15.9</ele><time>2026-01-24T03:03:01Z</time></trkpt>
      <trkpt lat="21.023588" lon="105.849061"><ele>15.86</ele><time>2026-01-24T03:03:06Z</time></trkpt>
      <trkpt lat="21.02364" lon="105.849037"><ele>16</ele><time>2026-01-24T03:03:11Z</time></trkpt>
      <trkpt lat="21.023675" lon="105.848996"><ele>16.23</ele><time>2026-01-24T03:03:16Z</time></trkpt>
      <trkpt lat="21.023799" lon="105.849036"><ele>16</ele><time>2026-01-24T03:03:27Z</time></trkpt>
      <trkpt lat="21.023781" lon="105.849111"><ele>15.66</ele><time>2026-01-24T03:03:34Z</time></trkpt>
      <trkpt lat="21.02379" lon="105.849145"><ele>15.54</ele><time>2026-01-24T03:03:37Z</time></trkpt>
      <trkpt lat="21.023805" lon="105.849157"><ele>15.57</ele><time>2026-01-24T03:03:39Z</time></trkpt>
      <trkpt lat="21.023847" lon="105.84918"><ele>15.69</ele><time>2026-01-24T03:03:43Z</time></trkpt>
      <trkpt lat="21.023811" lon="105.849308"><ele>15.41</ele><time>2026-01-24T03:03:54Z</time></trkpt>
      <trkpt lat="21.02499" lon="105.849701"><ele>17.13</ele><time>2026-01-24T03:05:47Z</time></trkpt>
      <trkpt lat="21.02504" lon="105.84973"><ele>17.03</ele><time>2026-01-24T03:05:52Z</time></trkpt>
      <trkpt lat="21.025058" lon="105.849759"><ele>17.17</ele><time>2026-01-24T03:05:55Z</time></trkpt>
      <trkpt lat="21.025066" lon="105.849816"><ele>17.41</ele><time>2026-01-24T03:06:00Z</time></trkpt>
      <trkpt lat="21.024771" lon="105.850853"><ele>17</ele><time>2026-01-24T03:07:32Z</time></trkpt>
      <trkpt lat="21.024682" lon="105.851163"><ele>18.84</ele><time>2026-01-24T03:07:59Z</time></trkpt>
      <trkpt lat="21.024822" lon="105.851206"><ele>19.23</ele><time>2026-01-24T03:08:13Z</time></trkpt>
      <trkpt lat="21.024818" lon="105.851237"><ele>19.59</ele><time>2026-01-24T03:08:15Z</time></trkpt>
      <trkpt lat="21.024831" lon="105.851266"><ele>19.93</ele><time>2026-01-24T03:08:18Z</time></trkpt>
      <trkpt lat="21.024867" lon="105.851284"><ele>20.07</ele><time>2026-01-24T03:08:22Z</time></trkpt>
      <trkpt lat="21.025826" lon="105.851593"><ele>21.86</ele><time>2026-01-24T03:09:53Z</time></trkpt>
      <trkpt lat="21.025808" lon="105.851666"><ele>22.25</ele><time>2026-01-24T03:09:59Z</time></trkpt>
      <trkpt lat="21.025885" lon="105.85168"><ele>22.37</ele><time>2026-01-24T03:10:06Z</time></trkpt>
      <trkpt lat="21.025945" lon="105.851679"><ele>22.36</ele><time>2026-01-24T03:10:12Z</time></trkpt>
      <trkpt lat="21.026153" lon="105.851686"><ele>21.01</ele><time>2026-01-24T03:10:31Z</time></trkpt>
      <trkpt lat="21.026161" lon="105.85174"><ele>20.9</ele><time>2026-01-24T03:10:35Z</time></trkpt>
      <trkpt lat="21.026124" lon="105.851754"><ele>21.33</ele><time>2026-01-24T03:10:39Z</time></trkpt>
      <trkpt lat="21.026201" lon="105.851945"><ele>20.14</ele><time>2026-01-24T03:10:56Z</time></trkpt>
      <trkpt lat="21.026266" lon="105.852019"><ele>18.31</ele><time>2026-01-24T03:11:05Z</time></trkpt>
      <trkpt lat="21.026297" lon="105.851976"><ele>18.14</ele><time>2026-01-24T03:11:10Z</time></trkpt>
      <trkpt lat="21.026326" lon="105.851937"><ele>17.98</ele><time>2026-01-24T03:11:14Z</time></trkpt>
      <trkpt lat="21.026406" lon="105.851871"><ele>17.37</ele><time>2026-01-24T03:11:23Z</time></trkpt>
      <trkpt lat="21.026485" lon="105.851838"><ele>16.61</ele><time>2026-01-24T03:11:31Z</time></trkpt>
      <trkpt lat="21.026571" lon="105.851843"><ele>15.7</ele><time>2026-01-24T03:11:39Z</time></trkpt>
      <trkpt lat="21.026966" lon="105.851648"><ele>13.57</ele><time>2026-01-24T03:12:18Z</time></trkpt>
      <trkpt lat="21.027041" lon="105.851621"><ele>13.42</ele><time>2026-01-24T03:12:25Z</time></trkpt>
      <trkpt lat="21.0276" lon="105.851456"><ele>14.78</ele><time>2026-01-24T03:13:18Z</time></trkpt>
      <trkpt lat="21.027679" lon="105.851448"><ele>14.44</ele><time>2026-01-24T03:13:25Z</time></trkpt>
      <trkpt lat="21.027891" lon="105.85145"><ele>13.93</ele><time>2026-01-24T03:13:45Z</time></trkpt>
      <trkpt lat="21.028072" lon="105.851424"><ele>13.28</ele><time>2026-01-24T03:14:01Z</time></trkpt>
      <trkpt lat="21.028079" lon="105.851452"><ele>12.96</ele><time>2026-01-24T03:14:04Z</time></trkpt>
      <trkpt lat="21.028164" lon="105.85144"><ele>12.53</ele><time>2026-01-24T03:14:12Z</time></trkpt>
      <trkpt lat="21.028311" lon="105.851448"><ele>11.99</ele><time>2026-01-24T03:14:25Z</time></trkpt>
      <trkpt lat="21.028334" lon="105.851458"><ele>11.95</ele><time>2026-01-24T03:14:27Z</time></trkpt>
      <trkpt lat="21.028936" lon="105.851518"><ele>11.57</ele><time>2026-01-24T03:15:22Z</time></trkpt>
      <trkpt lat="21.029198" lon="105.851517"><ele>11.58</ele><time>2026-01-24T03:15:46Z</time></trkpt>
      <trkpt lat="21.029603" lon="105.851444"><ele>12.01</ele><time>2026-01-24T03:16:23Z</time></trkpt>
      <trkpt lat="21.030294" lon="105.851339"><ele>13.22</ele><time>2026-01-24T03:17:27Z</time></trkpt>
      <trkpt lat="21.030398" lon="105.851312"><ele>13.54</ele><time>2026-01-24T03:17:37Z</time></trkpt>
      <trkpt lat="21.030406" lon="105.851274"><ele>14.02</ele><time>2026-01-24T03:17:40Z</time></trkpt>
      <trkpt lat="21.030398" lon="105.851312"><ele>13.54</ele><time>2026-01-24T03:17:43Z</time></trkpt>
      <trkpt lat="21.03077" lon="105.851207"><ele>14.66</ele><time>2026-01-24T03:18:18Z</time></trkpt>
      <trkpt lat="21.030745" lon="105.85108"><ele>17.66</ele><time>2026-01-24T03:18:29Z</time></trkpt>
      <trkpt lat="21.030978" lon="105.85102"><ele>18.71</ele><time>2026-01-24T03:18:51Z</time></trkpt>
      <trkpt lat="21.031066" lon="105.85102"><ele>17.9</ele><time>2026-01-24T03:18:59Z</time></trkpt>
      <trkpt lat="21.031151" lon="105.85103"><ele>16.85</ele><time>2026-01-24T03:19:07Z</time></trkpt>
      <trkpt lat="21.031248" lon="105.851051"><ele>15.48</ele><time>2026-01-24T03:19:16Z</time></trkpt>
      <trkpt lat="21.031325" lon="105.851084"><ele>14.36</ele><time>2026-01-24T03:19:23Z</time></trkpt>
      <trkpt lat="21.031392" lon="105.851122"><ele>13.82</ele><time>2026-01-24T03:19:30Z</time></trkpt>
      <trkpt lat="21.031476" lon="105.851188"><ele>13.49</ele><time>2026-01-24T03:19:40Z</time></trkpt>
      <trkpt lat="21.031644" lon="105.851354"><ele>12.72</ele><time>2026-01-24T03:20:01Z</time></trkpt>
      <trkpt lat="21.031574" lon="105.851433"><ele>12.06</ele><time>2026-01-24T03:20:10Z</time></trkpt>
      <trkpt lat="21.031624" lon="105.851503"><ele>12.07</ele><time>2026-01-24T03:20:17Z</time></trkpt>
      <trkpt lat="21.031657" lon="105.851609"><ele>12.28</ele><time>2026-01-24T03:20:27Z</time></trkpt>
      <trkpt lat="21.031649" lon="105.851922"><ele>12.41</ele><time>2026-01-24T03:20:53Z</time></trkpt>
      <trkpt lat="21.031623" lon="105.852205"><ele>12.14</ele><time>2026-01-24T03:21:18Z</time></trkpt>
      <trkpt lat="21.031586" lon="105.852533"><ele>11.89</ele><time>2026-01-24T03:21:46Z</time></trkpt>
      <trkpt lat="21.03154" lon="105.852807"><ele>12.51</ele><time>2026-01-24T03:22:09Z</time></trkpt>
      <trkpt lat="21.031463" lon="105.852954"><ele>12.85</ele><time>2026-01-24T03:22:24Z</time></trkpt>
      <trkpt lat="21.031369" lon="105.853061"><ele>13.59</ele><time>2026-01-24T03:22:36Z</time></trkpt>
      <trkpt lat="21.03118" lon="105.853165"><ele>14.01</ele><time>2026-01-24T03:22:55Z</time></trkpt>
      <trkpt lat="21.030969" lon="105.853222"><ele>15.33</ele><time>2026-01-24T03:23:15Z</time></trkpt>
      <trkpt lat="21.03094" lon="105.853215"><ele>15.11</ele><time>2026-01-24T03:23:18Z</time></trkpt>
      <trkpt lat="21.030878" lon="105.853166"><ele>14.44</ele><time>2026-01-24T03:23:25Z</time></trkpt>
      <trkpt lat="21.030841" lon="105.853109"><ele>13.81</ele><time>2026-01-24T03:23:31Z</time></trkpt>
      <trkpt lat="21.030822" lon="105.853064"><ele>13.45</ele><time>2026-01-24T03:23:35Z</time></trkpt>
      <trkpt lat="21.03075" lon="105.853061"><ele>13.03</ele><time>2026-01-24T03:23:42Z</time></trkpt>
      <trkpt lat="21.03075" lon="105.853045"><ele>13.06</ele><time>2026-01-24T03:23:43Z</time></trkpt>
      <trkpt lat="21.030749" lon="105.853004"><ele>12.69</ele><time>2026-01-24T03:23:46Z</time></trkpt>
    </trkseg>
  </trk>
</gpx>
