<?xml version="1.0" encoding="UTF-8"?>
<gpx version="1.1" creator="HoldMyTrack" xmlns="http://www.topografix.com/GPX/1/1">
  <trk>
    <type>driving</type>
    <trkseg>
      <trkpt lat="41.464765411801636" lon="-81.88822452910244"><ele>167</ele><time>2026-09-27T19:02:34Z</time></trkpt>
      <trkpt lat="41.464810045436025" lon="-81.88823659904301"><ele>167</ele><time>2026-09-27T19:02:46Z</time></trkpt>
      <trkpt lat="41.46478976123035" lon="-81.8881768360734"><ele>167</ele><time>2026-09-27T19:02:52Z</time></trkpt>
      <trkpt lat="41.4647801220417" lon="-81.88806024380028"><ele>166</ele><time>2026-09-27T19:02:55Z</time></trkpt>
      <trkpt lat="41.46476084366441" lon="-81.8879231158644"><ele>167</ele><time>2026-09-27T19:02:58Z</time></trkpt>
      <trkpt lat="41.464736075140536" lon="-81.88779185526073"><ele>168</ele><time>2026-09-27T19:03:01Z</time></trkpt>
      <trkpt lat="41.46468704100698" lon="-81.88769328407943"><ele>168</ele><time>2026-09-27T19:03:04Z</time></trkpt>
      <trkpt lat="41.46456776652485" lon="-81.88767836429179"><ele>168</ele><time>2026-09-27T19:03:07Z</time></trkpt>
      <trkpt lat="41.46445184480399" lon="-81.8876482732594"><ele>168</ele><time>2026-09-27T19:03:10Z</time></trkpt>
      <trkpt lat="41.464300425723195" lon="-81.88757115975022"><ele>168</ele><time>2026-09-27T19:03:13Z</time></trkpt>
      <trkpt lat="41.46410265471786" lon="-81.88751961104572"><ele>168</ele><time>2026-09-27T19:03:16Z</time></trkpt>
      <trkpt lat="41.46390039939433" lon="-81.88745280727744"><ele>168</ele><time>2026-09-27T19:03:19Z</time></trkpt>
      <trkpt lat="41.46368108689785" lon="-81.8873895239085"><ele>167</ele><time>2026-09-27T19:03:22Z</time></trkpt>
      <trkpt lat="41.46348650101572" lon="-81.88728022389114"><ele>168</ele><time>2026-09-27T19:03:25Z</time></trkpt>
      <trkpt lat="41.46331299562007" lon="-81.88714150339365"><ele>169</ele><time>2026-09-27T19:03:28Z</time></trkpt>
      <trkpt lat="41.463133580982685" lon="-81.88703840598464"><ele>169</ele><time>2026-09-27T19:03:31Z</time></trkpt>
      <trkpt lat="41.46291275974363" lon="-81.88701678067446"><ele>168</ele><time>2026-09-27T19:03:34Z</time></trkpt>
      <trkpt lat="41.4627408888191" lon="-81.88707369379699"><ele>168</ele><time>2026-09-27T19:03:37Z</time></trkpt>
      <trkpt lat="41.462659165263176" lon="-81.88708794303238"><ele>169</ele><time>2026-09-27T19:03:40Z</time></trkpt>
      <trkpt lat="41.46259986329824" lon="-81.88713018782437"><ele>169</ele><time>2026-09-27T19:03:44Z</time></trkpt>
      <trkpt lat="41.46248540841043" lon="-81.88710956834257"><ele>169</ele><time>2026-09-27T19:03:47Z</time></trkpt>
      <trkpt lat="41.462444295175374" lon="-81.88694989308715"><ele>170</ele><time>2026-09-27T19:03:50Z</time></trkpt>
      <trkpt lat="41.46245586220175" lon="-81.88667396083474"><ele>169</ele><time>2026-09-27T19:03:53Z</time></trkpt>
      <trkpt lat="41.462461268529296" lon="-81.88628110103309"><ele>170</ele><time>2026-09-27T19:03:56Z</time></trkpt>
      <trkpt lat="41.46245313808322" lon="-81.88581707887352"><ele>171</ele><time>2026-09-27T19:03:59Z</time></trkpt>
      <trkpt lat="41.46243549417704" lon="-81.8853307608515"><ele>171</ele><time>2026-09-27T19:04:02Z</time></trkpt>
      <trkpt lat="41.46242287941277" lon="-81.88482541590929"><ele>171</ele><time>2026-09-27T19:04:05Z</time></trkpt>
      <trkpt lat="41.46241022273898" lon="-81.88435695134103"><ele>171</ele><time>2026-09-27T19:04:08Z</time></trkpt>
      <trkpt lat="41.462407456710935" lon="-81.88390315510333"><ele>171</ele><time>2026-09-27T19:04:11Z</time></trkpt>
      <trkpt lat="41.462410390377045" lon="-81.88351490534842"><ele>170</ele><time>2026-09-27T19:04:14Z</time></trkpt>
      <trkpt lat="41.46241558715701" lon="-81.88321298919618"><ele>169</ele><time>2026-09-27T19:04:17Z</time></trkpt>
      <trkpt lat="41.46242686081678" lon="-81.88300620764494"><ele>170</ele><time>2026-09-27T19:04:20Z</time></trkpt>
      <trkpt lat="41.462437212467194" lon="-81.88294686377048"><ele>170</ele><time>2026-09-27T19:04:47Z</time></trkpt>
      <trkpt lat="41.46248218137771" lon="-81.8828301038593"><ele>170</ele><time>2026-09-27T19:04:50Z</time></trkpt>
      <trkpt lat="41.462643700651824" lon="-81.88276313245296"><ele>169</ele><time>2026-09-27T19:04:53Z</time></trkpt>
      <trkpt lat="41.4628727780655" lon="-81.88273455016315"><ele>171</ele><time>2026-09-27T19:04:56Z</time></trkpt>
      <trkpt lat="41.463187308982015" lon="-81.8827201332897"><ele>171</ele><time>2026-09-27T19:04:59Z</time></trkpt>
      <trkpt lat="41.463527237065136" lon="-81.88270630314946"><ele>171</ele><time>2026-09-27T19:05:02Z</time></trkpt>
      <trkpt lat="41.46388786844909" lon="-81.88267579302192"><ele>171</ele><time>2026-09-27T19:05:05Z</time></trkpt>
      <trkpt lat="41.46425616927445" lon="-81.88266741111875"><ele>173</ele><time>2026-09-27T19:05:08Z</time></trkpt>
      <trkpt lat="41.464627529494464" lon="-81.88266053795815"><ele>172</ele><time>2026-09-27T19:05:11Z</time></trkpt>
      <trkpt lat="41.46499712951481" lon="-81.88264729455113"><ele>172</ele><time>2026-09-27T19:05:14Z</time></trkpt>
      <trkpt lat="41.465386217460036" lon="-81.88262575305998"><ele>172</ele><time>2026-09-27T19:05:17Z</time></trkpt>
      <trkpt lat="41.46577714942396" lon="-81.88260605558753"><ele>171</ele><time>2026-09-27T19:05:20Z</time></trkpt>
      <trkpt lat="41.46619486156851" lon="-81.88258300535381"><ele>171</ele><time>2026-09-27T19:05:23Z</time></trkpt>
      <trkpt lat="41.46661588456482" lon="-81.88256397843361"><ele>172</ele><time>2026-09-27T19:05:26Z</time></trkpt>
      <trkpt lat="41.46704352926463" lon="-81.88254939392209"><ele>173</ele><time>2026-09-27T19:05:29Z</time></trkpt>
      <trkpt lat="41.46747016813606" lon="-81.8825319595635"><ele>173</ele><time>2026-09-27T19:05:32Z</time></trkpt>
      <trkpt lat="41.46789441816509" lon="-81.88251368701458"><ele>173</ele><time>2026-09-27T19:05:35Z</time></trkpt>
      <trkpt lat="41.468334761448205" lon="-81.88250748440623"><ele>172</ele><time>2026-09-27T19:05:38Z</time></trkpt>
      <trkpt lat="41.46880272310227" lon="-81.88248778693378"><ele>173</ele><time>2026-09-27T19:05:41Z</time></trkpt>
      <trkpt lat="41.46925333421677" lon="-81.88246414996684"><ele>174</ele><time>2026-09-27T19:05:44Z</time></trkpt>
      <trkpt lat="41.469691917300224" lon="-81.88243783079088"><ele>172</ele><time>2026-09-27T19:05:47Z</time></trkpt>
      <trkpt lat="41.47013276349753" lon="-81.88240891322494"><ele>171</ele><time>2026-09-27T19:05:50Z</time></trkpt>
      <trkpt lat="41.47052734158933" lon="-81.88238485716283"><ele>171</ele><time>2026-09-27T19:05:53Z</time></trkpt>
      <trkpt lat="41.4708787528798" lon="-81.88237018883228"><ele>170</ele><time>2026-09-27T19:05:56Z</time></trkpt>
      <trkpt lat="41.47115774452686" lon="-81.88234814442694"><ele>169</ele><time>2026-09-27T19:05:59Z</time></trkpt>
      <trkpt lat="41.47129772230983" lon="-81.88235971145332"><ele>168</ele><time>2026-09-27T19:06:02Z</time></trkpt>
      <trkpt lat="41.471342775039375" lon="-81.88235661014915"><ele>169</ele><time>2026-09-27T19:06:59Z</time></trkpt>
      <trkpt lat="41.471474287100136" lon="-81.88237060792744"><ele>169</ele><time>2026-09-27T19:07:02Z</time></trkpt>
      <trkpt lat="41.47171451244503" lon="-81.88235132955015"><ele>168</ele><time>2026-09-27T19:07:05Z</time></trkpt>
      <trkpt lat="41.47204739972949" lon="-81.88233783468604"><ele>167</ele><time>2026-09-27T19:07:08Z</time></trkpt>
      <trkpt lat="41.4724491443485" lon="-81.8823607172817"><ele>166</ele><time>2026-09-27T19:07:11Z</time></trkpt>
      <trkpt lat="41.47288764361292" lon="-81.88240296207368"><ele>165</ele><time>2026-09-27T19:07:14Z</time></trkpt>
      <trkpt lat="41.47334701381624" lon="-81.88244487158954"><ele>163</ele><time>2026-09-27T19:07:17Z</time></trkpt>
      <trkpt lat="41.47377696353942" lon="-81.88248569145799"><ele>163</ele><time>2026-09-27T19:07:20Z</time></trkpt>
      <trkpt lat="41.474109599366784" lon="-81.88249910250306"><ele>161</ele><time>2026-09-27T19:07:23Z</time></trkpt>
      <trkpt lat="41.47425192408264" lon="-81.88264201395214"><ele>162</ele><time>2026-09-27T19:07:26Z</time></trkpt>
      <trkpt lat="41.47424488328397" lon="-81.88291283324361"><ele>161</ele><time>2026-09-27T19:07:29Z</time></trkpt>
      <trkpt lat="41.474218564108014" lon="-81.88329823315144"><ele>160</ele><time>2026-09-27T19:07:32Z</time></trkpt>
      <trkpt lat="41.47423985414207" lon="-81.88375739380717"><ele>161</ele><time>2026-09-27T19:07:35Z</time></trkpt>
      <trkpt lat="41.474372958764434" lon="-81.88415578566492"><ele>164</ele><time>2026-09-27T19:07:38Z</time></trkpt>
      <trkpt lat="41.47466582246125" lon="-81.88441537320614"><ele>164</ele><time>2026-09-27T19:07:41Z</time></trkpt>
      <trkpt lat="41.475018952041864" lon="-81.88443356193602"><ele>163</ele><time>2026-09-27T19:07:44Z</time></trkpt>
      <trkpt lat="41.47534525953233" lon="-81.88420532271266"><ele>165</ele><time>2026-09-27T19:07:47Z</time></trkpt>
      <trkpt lat="41.475528362207115" lon="-81.8837368581444"><ele>164</ele><time>2026-09-27T19:07:50Z</time></trkpt>
      <trkpt lat="41.4755885861814" lon="-81.88316194340587"><ele>165</ele><time>2026-09-27T19:07:53Z</time></trkpt>
      <trkpt lat="41.47562622092664" lon="-81.88248024322093"><ele>163</ele><time>2026-09-27T19:07:56Z</time></trkpt>
      <trkpt lat="41.47566741798073" lon="-81.88168681226671"><ele>163</ele><time>2026-09-27T19:07:59Z</time></trkpt>
      <trkpt lat="41.47571347653866" lon="-81.88079078681767"><ele>162</ele><time>2026-09-27T19:08:02Z</time></trkpt>
      <trkpt lat="41.475794739089906" lon="-81.87984027899802"><ele>161</ele><time>2026-09-27T19:08:05Z</time></trkpt>
      <trkpt lat="41.47584197111428" lon="-81.87884752638638"><ele>161</ele><time>2026-09-27T19:08:08Z</time></trkpt>
      <trkpt lat="41.475895321927965" lon="-81.87784044072032"><ele>158</ele><time>2026-09-27T19:08:11Z</time></trkpt>
      <trkpt lat="41.475936686620116" lon="-81.87678968533874"><ele>158</ele><time>2026-09-27T19:08:14Z</time></trkpt>
      <trkpt lat="41.47596883121878" lon="-81.87574815005064"><ele>155</ele><time>2026-09-27T19:08:17Z</time></trkpt>
      <trkpt lat="41.476009944453835" lon="-81.87472849152982"><ele>152</ele><time>2026-09-27T19:08:20Z</time></trkpt>
      <trkpt lat="41.47604594472796" lon="-81.87370204366744"><ele>154</ele><time>2026-09-27T19:08:23Z</time></trkpt>
      <trkpt lat="41.47609347011894" lon="-81.87266981229186"><ele>151</ele><time>2026-09-27T19:08:26Z</time></trkpt>
      <trkpt lat="41.47613361943513" lon="-81.8716228287667"><ele>152</ele><time>2026-09-27T19:08:29Z</time></trkpt>
      <trkpt lat="41.476174062117934" lon="-81.8705831374973"><ele>153</ele><time>2026-09-27T19:08:32Z</time></trkpt>
      <trkpt lat="41.47619648370892" lon="-81.86953908763826"><ele>151</ele><time>2026-09-27T19:08:35Z</time></trkpt>
      <trkpt lat="41.47615910042077" lon="-81.86850786209106"><ele>151</ele><time>2026-09-27T19:08:38Z</time></trkpt>
      <trkpt lat="41.47604410070926" lon="-81.86749088577926"><ele>151</ele><time>2026-09-27T19:08:41Z</time></trkpt>
      <trkpt lat="41.475847461260855" lon="-81.86648975126445"><ele>150</ele><time>2026-09-27T19:08:44Z</time></trkpt>
      <trkpt lat="41.47556180600077" lon="-81.86551904305816"><ele>152</ele><time>2026-09-27T19:08:47Z</time></trkpt>
      <trkpt lat="41.47520980797708" lon="-81.8645841255784"><ele>156</ele><time>2026-09-27T19:08:50Z</time></trkpt>
      <trkpt lat="41.474821851588786" lon="-81.86366119422019"><ele>162</ele><time>2026-09-27T19:08:53Z</time></trkpt>
      <trkpt lat="41.47442295681685" lon="-81.86277053318918"><ele>161</ele><time>2026-09-27T19:08:56Z</time></trkpt>
      <trkpt lat="41.47403357550502" lon="-81.86187048442662"><ele>164</ele><time>2026-09-27T19:08:59Z</time></trkpt>
      <trkpt lat="41.4736503129825" lon="-81.86095836572349"><ele>166</ele><time>2026-09-27T19:09:02Z</time></trkpt>
      <trkpt lat="41.473272372968495" lon="-81.86004205606878"><ele>167</ele><time>2026-09-27T19:09:05Z</time></trkpt>
      <trkpt lat="41.472923308610916" lon="-81.8591047078371"><ele>168</ele><time>2026-09-27T19:09:08Z</time></trkpt>
      <trkpt lat="41.47262763697654" lon="-81.85814548283815"><ele>168</ele><time>2026-09-27T19:09:11Z</time></trkpt>
      <trkpt lat="41.47239491343498" lon="-81.85717720538378"><ele>163</ele><time>2026-09-27T19:09:14Z</time></trkpt>
      <trkpt lat="41.472209841012955" lon="-81.85616986826062"><ele>163</ele><time>2026-09-27T19:09:17Z</time></trkpt>
      <trkpt lat="41.47206642664969" lon="-81.85515465214849"><ele>162</ele><time>2026-09-27T19:09:20Z</time></trkpt>
      <trkpt lat="41.471978542394936" lon="-81.85412602499127"><ele>162</ele><time>2026-09-27T19:09:23Z</time></trkpt>
      <trkpt lat="41.47195318713784" lon="-81.85308490879834"><ele>160</ele><time>2026-09-27T19:09:26Z</time></trkpt>
      <trkpt lat="41.471938979811966" lon="-81.85203230939806"><ele>159</ele><time>2026-09-27T19:09:29Z</time></trkpt>
      <trkpt lat="41.47192657459527" lon="-81.85098733752966"><ele>159</ele><time>2026-09-27T19:09:32Z</time></trkpt>
      <trkpt lat="41.4719105232507" lon="-81.84994412586093"><ele>159</ele><time>2026-09-27T19:09:35Z</time></trkpt>
      <trkpt lat="41.47190679330379" lon="-81.84887677431107"><ele>161</ele><time>2026-09-27T19:09:38Z</time></trkpt>
      <trkpt lat="41.47190771531314" lon="-81.84783658012748"><ele>160</ele><time>2026-09-27T19:09:41Z</time></trkpt>
      <trkpt lat="41.47189753130078" lon="-81.8467956315726"><ele>162</ele><time>2026-09-27T19:09:44Z</time></trkpt>
      <trkpt lat="41.471927957609296" lon="-81.84577102772892"><ele>160</ele><time>2026-09-27T19:09:47Z</time></trkpt>
      <trkpt lat="41.471927370876074" lon="-81.84473016299307"><ele>160</ele><time>2026-09-27T19:09:50Z</time></trkpt>
      <trkpt lat="41.471922299824655" lon="-81.84370170347393"><ele>161</ele><time>2026-09-27T19:09:53Z</time></trkpt>
      <trkpt lat="41.47192527540028" lon="-81.84272387064993"><ele>161</ele><time>2026-09-27T19:09:56Z</time></trkpt>
      <trkpt lat="41.47193244192749" lon="-81.84198425151408"><ele>161</ele><time>2026-09-27T19:09:59Z</time></trkpt>
      <trkpt lat="41.47193290293217" lon="-81.84145417995751"><ele>161</ele><time>2026-09-27T19:10:02Z</time></trkpt>
      <trkpt lat="41.471938686445355" lon="-81.84098898433149"><ele>161</ele><time>2026-09-27T19:10:05Z</time></trkpt>
      <trkpt lat="41.47195008583367" lon="-81.84062210842967"><ele>164</ele><time>2026-09-27T19:10:08Z</time></trkpt>
      <trkpt lat="41.47195884492248" lon="-81.84025011956692"><ele>161</ele><time>2026-09-27T19:10:11Z</time></trkpt>
      <trkpt lat="41.47195683326572" lon="-81.83984979987144"><ele>164</ele><time>2026-09-27T19:10:14Z</time></trkpt>
      <trkpt lat="41.47195025347173" lon="-81.83944889344275"><ele>167</ele><time>2026-09-27T19:10:17Z</time></trkpt>
      <trkpt lat="41.47195511497557" lon="-81.83911730535328"><ele>168</ele><time>2026-09-27T19:10:20Z</time></trkpt>
      <trkpt lat="41.47195926401764" lon="-81.8388467375189"><ele>167</ele><time>2026-09-27T19:10:23Z</time></trkpt>
      <trkpt lat="41.471959641203284" lon="-81.83859100565314"><ele>168</ele><time>2026-09-27T19:10:26Z</time></trkpt>
      <trkpt lat="41.47198059596121" lon="-81.83826168067753"><ele>168</ele><time>2026-09-27T19:10:29Z</time></trkpt>
      <trkpt lat="41.47199702449143" lon="-81.83775960467756"><ele>168</ele><time>2026-09-27T19:10:32Z</time></trkpt>
      <trkpt lat="41.47198621183634" lon="-81.83717027306557"><ele>169</ele><time>2026-09-27T19:10:35Z</time></trkpt>
      <trkpt lat="41.47197154350579" lon="-81.83649754151702"><ele>170</ele><time>2026-09-27T19:10:38Z</time></trkpt>
      <trkpt lat="41.471974602900445" lon="-81.83575255796313"><ele>171</ele><time>2026-09-27T19:10:41Z</time></trkpt>
      <trkpt lat="41.47198566701263" lon="-81.8349186424166"><ele>173</ele><time>2026-09-27T19:10:44Z</time></trkpt>
      <trkpt lat="41.471990486606956" lon="-81.8340726569295"><ele>174</ele><time>2026-09-27T19:10:47Z</time></trkpt>
      <trkpt lat="41.47199107334018" lon="-81.83319808915257"><ele>175</ele><time>2026-09-27T19:10:50Z</time></trkpt>
      <trkpt lat="41.47198524791747" lon="-81.8322765827179"><ele>178</ele><time>2026-09-27T19:10:53Z</time></trkpt>
      <trkpt lat="41.471955995075405" lon="-81.8313264939934"><ele>180</ele><time>2026-09-27T19:10:56Z</time></trkpt>
      <trkpt lat="41.47193931508809" lon="-81.83035570196807"><ele>182</ele><time>2026-09-27T19:10:59Z</time></trkpt>
      <trkpt lat="41.47192527540028" lon="-81.82940846309066"><ele>181</ele><time>2026-09-27T19:11:02Z</time></trkpt>
      <trkpt lat="41.47191530093551" lon="-81.8284859508276"><ele>181</ele><time>2026-09-27T19:11:05Z</time></trkpt>
      <trkpt lat="41.47189803421497" lon="-81.82757366448641"><ele>180</ele><time>2026-09-27T19:11:08Z</time></trkpt>
      <trkpt lat="41.471884958446026" lon="-81.8266571033746"><ele>177</ele><time>2026-09-27T19:11:11Z</time></trkpt>
      <trkpt lat="41.4718751097098" lon="-81.82573794387281"><ele>177</ele><time>2026-09-27T19:11:14Z</time></trkpt>
      <trkpt lat="41.471858052536845" lon="-81.82480696588755"><ele>179</ele><time>2026-09-27T19:11:17Z</time></trkpt>
      <trkpt lat="41.471845395863056" lon="-81.82387322187424"><ele>179</ele><time>2026-09-27T19:11:20Z</time></trkpt>
      <trkpt lat="41.47183667868376" lon="-81.82292866520584"><ele>178</ele><time>2026-09-27T19:11:23Z</time></trkpt>
      <trkpt lat="41.47180549800396" lon="-81.82201277464628"><ele>180</ele><time>2026-09-27T19:11:26Z</time></trkpt>
      <trkpt lat="41.47172779776156" lon="-81.82110132649541"><ele>181</ele><time>2026-09-27T19:11:29Z</time></trkpt>
      <trkpt lat="41.47160001564771" lon="-81.82013028301299"><ele>183</ele><time>2026-09-27T19:11:32Z</time></trkpt>
      <trkpt lat="41.471418547444046" lon="-81.81915471330285"><ele>182</ele><time>2026-09-27T19:11:35Z</time></trkpt>
      <trkpt lat="41.471188087016344" lon="-81.8181817419827"><ele>182</ele><time>2026-09-27T19:11:38Z</time></trkpt>
      <trkpt lat="41.47094023413956" lon="-81.81719678454101"><ele>182</ele><time>2026-09-27T19:11:41Z</time></trkpt>
      <trkpt lat="41.47069439291954" lon="-81.81622716598213"><ele>180</ele><time>2026-09-27T19:11:44Z</time></trkpt>
      <trkpt lat="41.4704548381269" lon="-81.81526232510805"><ele>179</ele><time>2026-09-27T19:11:47Z</time></trkpt>
      <trkpt lat="41.47021591197699" lon="-81.81428876705468"><ele>180</ele><time>2026-09-27T19:11:50Z</time></trkpt>
      <trkpt lat="41.46997614763677" lon="-81.81329173967242"><ele>178</ele><time>2026-09-27T19:11:53Z</time></trkpt>
      <trkpt lat="41.46979270968586" lon="-81.81229311972857"><ele>176</ele><time>2026-09-27T19:11:56Z</time></trkpt>
      <trkpt lat="41.46966496948153" lon="-81.8112466391176"><ele>175</ele><time>2026-09-27T19:11:59Z</time></trkpt>
      <trkpt lat="41.46958249155432" lon="-81.81020862422884"><ele>176</ele><time>2026-09-27T19:12:02Z</time></trkpt>
      <trkpt lat="41.469533876515925" lon="-81.80916692130268"><ele>178</ele><time>2026-09-27T19:12:05Z</time></trkpt>
      <trkpt lat="41.469503827393055" lon="-81.80813477374613"><ele>178</ele><time>2026-09-27T19:12:08Z</time></trkpt>
      <trkpt lat="41.469479938969016" lon="-81.80709307081997"><ele>179</ele><time>2026-09-27T19:12:11Z</time></trkpt>
      <trkpt lat="41.46945923566818" lon="-81.80605203844607"><ele>180</ele><time>2026-09-27T19:12:14Z</time></trkpt>
      <trkpt lat="41.46945005748421" lon="-81.80501787923276"><ele>181</ele><time>2026-09-27T19:12:17Z</time></trkpt>
      <trkpt lat="41.469442932866514" lon="-81.80399637669325"><ele>184</ele><time>2026-09-27T19:12:20Z</time></trkpt>
      <trkpt lat="41.46938782185316" lon="-81.80303773842752"><ele>184</ele><time>2026-09-27T19:12:23Z</time></trkpt>
      <trkpt lat="41.46931183990091" lon="-81.80209670215845"><ele>184</ele><time>2026-09-27T19:12:26Z</time></trkpt>
      <trkpt lat="41.46924830507487" lon="-81.80114787071943"><ele>184</ele><time>2026-09-27T19:12:29Z</time></trkpt>
      <trkpt lat="41.46919600199908" lon="-81.80018864572048"><ele>183</ele><time>2026-09-27T19:12:32Z</time></trkpt>
      <trkpt lat="41.46914906334132" lon="-81.79924727417529"><ele>184</ele><time>2026-09-27T19:12:35Z</time></trkpt>
      <trkpt lat="41.469118972308934" lon="-81.79833364672959"><ele>181</ele><time>2026-09-27T19:12:38Z</time></trkpt>
      <trkpt lat="41.46910271141678" lon="-81.79740459658206"><ele>181</ele><time>2026-09-27T19:12:41Z</time></trkpt>
      <trkpt lat="41.46909474860877" lon="-81.79647571407259"><ele>182</ele><time>2026-09-27T19:12:44Z</time></trkpt>
      <trkpt lat="41.46908812690526" lon="-81.7955267149955"><ele>185</ele><time>2026-09-27T19:12:47Z</time></trkpt>
      <trkpt lat="41.469077272340655" lon="-81.79455927573144"><ele>186</ele><time>2026-09-27T19:12:50Z</time></trkpt>
      <trkpt lat="41.46907287184149" lon="-81.79359183646739"><ele>188</ele><time>2026-09-27T19:12:53Z</time></trkpt>
      <trkpt lat="41.4690610114485" lon="-81.79264392703772"><ele>191</ele><time>2026-09-27T19:12:56Z</time></trkpt>
      <trkpt lat="41.469038925133646" lon="-81.79177287966013"><ele>194</ele><time>2026-09-27T19:12:59Z</time></trkpt>
      <trkpt lat="41.468996931798756" lon="-81.79092345759273"><ele>195</ele><time>2026-09-27T19:13:02Z</time></trkpt>
      <trkpt lat="41.46890887990594" lon="-81.79006422869861"><ele>196</ele><time>2026-09-27T19:13:05Z</time></trkpt>
      <trkpt lat="41.46874731872231" lon="-81.78919091820717"><ele>195</ele><time>2026-09-27T19:13:08Z</time></trkpt>
      <trkpt lat="41.468531526625156" lon="-81.78829908370972"><ele>194</ele><time>2026-09-27T19:13:11Z</time></trkpt>
      <trkpt lat="41.46825936622918" lon="-81.78739509545267"><ele>196</ele><time>2026-09-27T19:13:14Z</time></trkpt>
      <trkpt lat="41.46793234627694" lon="-81.78651063703"><ele>199</ele><time>2026-09-27T19:13:17Z</time></trkpt>
      <trkpt lat="41.46757904905826" lon="-81.78564730100334"><ele>200</ele><time>2026-09-27T19:13:20Z</time></trkpt>
      <trkpt lat="41.467214981094" lon="-81.78477910347283"><ele>201</ele><time>2026-09-27T19:13:23Z</time></trkpt>
      <trkpt lat="41.46685321815312" lon="-81.78390076383948"><ele>200</ele><time>2026-09-27T19:13:26Z</time></trkpt>
      <trkpt lat="41.4664924191311" lon="-81.7830294650048"><ele>199</ele><time>2026-09-27T19:13:29Z</time></trkpt>
      <trkpt lat="41.466143019497395" lon="-81.78219026885927"><ele>196</ele><time>2026-09-27T19:13:32Z</time></trkpt>
      <trkpt lat="41.465845671482384" lon="-81.78133849985898"><ele>195</ele><time>2026-09-27T19:13:35Z</time></trkpt>
      <trkpt lat="41.465637842193246" lon="-81.78046728484333"><ele>192</ele><time>2026-09-27T19:13:38Z</time></trkpt>
      <trkpt lat="41.46552305202931" lon="-81.77956581115723"><ele>191</ele><time>2026-09-27T19:13:41Z</time></trkpt>
      <trkpt lat="41.465505408123136" lon="-81.77865654230118"><ele>189</ele><time>2026-09-27T19:13:44Z</time></trkpt>
      <trkpt lat="41.4655668893829" lon="-81.77775573916733"><ele>187</ele><time>2026-09-27T19:13:47Z</time></trkpt>
      <trkpt lat="41.46565175615251" lon="-81.77686516195536"><ele>186</ele><time>2026-09-27T19:13:50Z</time></trkpt>
      <trkpt lat="41.46574244834483" lon="-81.77596544846892"><ele>186</ele><time>2026-09-27T19:13:53Z</time></trkpt>
      <trkpt lat="41.46582475863397" lon="-81.77507998421788"><ele>185</ele><time>2026-09-27T19:13:56Z</time></trkpt>
      <trkpt lat="41.4658837672323" lon="-81.77421840839088"><ele>186</ele><time>2026-09-27T19:13:59Z</time></trkpt>
      <trkpt lat="41.46595652215183" lon="-81.7733901925385"><ele>185</ele><time>2026-09-27T19:14:02Z</time></trkpt>
      <trkpt lat="41.46601569838822" lon="-81.7726237513125"><ele>184</ele><time>2026-09-27T19:14:05Z</time></trkpt>
      <trkpt lat="41.465987409465015" lon="-81.77190911024809"><ele>183</ele><time>2026-09-27T19:14:08Z</time></trkpt>
      <trkpt lat="41.46586541086435" lon="-81.77129077725112"><ele>181</ele><time>2026-09-27T19:14:11Z</time></trkpt>
      <trkpt lat="41.465639476664364" lon="-81.77074762992561"><ele>179</ele><time>2026-09-27T19:14:14Z</time></trkpt>
      <trkpt lat="41.46536241285503" lon="-81.77036105655134"><ele>178</ele><time>2026-09-27T19:14:17Z</time></trkpt>
      <trkpt lat="41.465179519727826" lon="-81.7700070887804"><ele>178</ele><time>2026-09-27T19:14:20Z</time></trkpt>
      <trkpt lat="41.465146536938846" lon="-81.76964549347758"><ele>175</ele><time>2026-09-27T19:14:23Z</time></trkpt>
      <trkpt lat="41.46513991523534" lon="-81.76938339136541"><ele>175</ele><time>2026-09-27T19:14:26Z</time></trkpt>
      <trkpt lat="41.46512688137591" lon="-81.76924215629697"><ele>175</ele><time>2026-09-27T19:14:29Z</time></trkpt>
      <trkpt lat="41.4651117939502" lon="-81.76917174831033"><ele>176</ele><time>2026-09-27T19:14:41Z</time></trkpt>
      <trkpt lat="41.465090503916144" lon="-81.76910008303821"><ele>177</ele><time>2026-09-27T19:14:46Z</time></trkpt>
      <trkpt lat="41.464956854470074" lon="-81.76903327926993"><ele>180</ele><time>2026-09-27T19:14:49Z</time></trkpt>
      <trkpt lat="41.46467166021466" lon="-81.76903679966927"><ele>182</ele><time>2026-09-27T19:14:52Z</time></trkpt>
      <trkpt lat="41.46436706185341" lon="-81.76902481354773"><ele>184</ele><time>2026-09-27T19:14:55Z</time></trkpt>
      <trkpt lat="41.464092805981636" lon="-81.76898810081184"><ele>188</ele><time>2026-09-27T19:14:58Z</time></trkpt>
      <trkpt lat="41.463856771588326" lon="-81.76897041499615"><ele>190</ele><time>2026-09-27T19:15:01Z</time></trkpt>
      <trkpt lat="41.46374349016696" lon="-81.76896991208196"><ele>192</ele><time>2026-09-27T19:15:04Z</time></trkpt>
      <trkpt lat="41.46368833724409" lon="-81.76898734644055"><ele>191</ele><time>2026-09-27T19:15:17Z</time></trkpt>
      <trkpt lat="41.46350699476898" lon="-81.76898684352636"><ele>190</ele><time>2026-09-27T19:15:20Z</time></trkpt>
      <trkpt lat="41.46323169115931" lon="-81.76899028010666"><ele>191</ele><time>2026-09-27T19:15:23Z</time></trkpt>
      <trkpt lat="41.46297466009855" lon="-81.76896655932069"><ele>192</ele><time>2026-09-27T19:15:26Z</time></trkpt>
      <trkpt lat="41.46272198762745" lon="-81.76895247772336"><ele>192</ele><time>2026-09-27T19:15:29Z</time></trkpt>
      <trkpt lat="41.462481720373034" lon="-81.76894786767662"><ele>193</ele><time>2026-09-27T19:15:32Z</time></trkpt>
      <trkpt lat="41.46229145117104" lon="-81.76894937641919"><ele>193</ele><time>2026-09-27T19:15:35Z</time></trkpt>
      <trkpt lat="41.46218269597739" lon="-81.76895373500884"><ele>192</ele><time>2026-09-27T19:15:38Z</time></trkpt>
      <trkpt lat="41.462109102867544" lon="-81.76895440556109"><ele>192</ele><time>2026-09-27T19:15:58Z</time></trkpt>
      <trkpt lat="41.46193266380578" lon="-81.76896111108363"><ele>194</ele><time>2026-09-27T19:16:01Z</time></trkpt>
      <trkpt lat="41.46165979094803" lon="-81.76896245218813"><ele>195</ele><time>2026-09-27T19:16:04Z</time></trkpt>
      <trkpt lat="41.46132078487426" lon="-81.76896278746426"><ele>196</ele><time>2026-09-27T19:16:07Z</time></trkpt>
      <trkpt lat="41.460956213995814" lon="-81.76897393539548"><ele>196</ele><time>2026-09-27T19:16:10Z</time></trkpt>
      <trkpt lat="41.46059989929199" lon="-81.76897343248129"><ele>196</ele><time>2026-09-27T19:16:13Z</time></trkpt>
      <trkpt lat="41.460221079178154" lon="-81.76897519268095"><ele>196</ele><time>2026-09-27T19:16:16Z</time></trkpt>
      <trkpt lat="41.45982038229704" lon="-81.76896655932069"><ele>195</ele><time>2026-09-27T19:16:19Z</time></trkpt>
      <trkpt lat="41.45939940121025" lon="-81.76897058263421"><ele>196</ele><time>2026-09-27T19:16:22Z</time></trkpt>
      <trkpt lat="41.45897787529975" lon="-81.76897158846259"><ele>196</ele><time>2026-09-27T19:16:25Z</time></trkpt>
      <trkpt lat="41.45854163914919" lon="-81.7689570877701"><ele>196</ele><time>2026-09-27T19:16:28Z</time></trkpt>
      <trkpt lat="41.45808591507375" lon="-81.76897007972002"><ele>197</ele><time>2026-09-27T19:16:31Z</time></trkpt>
      <trkpt lat="41.45762507803738" lon="-81.76898198202252"><ele>197</ele><time>2026-09-27T19:16:34Z</time></trkpt>
      <trkpt lat="41.457159128040075" lon="-81.76898935809731"><ele>196</ele><time>2026-09-27T19:16:37Z</time></trkpt>
      <trkpt lat="41.45669653080404" lon="-81.76899245940149"><ele>195</ele><time>2026-09-27T19:16:40Z</time></trkpt>
      <trkpt lat="41.456230748444796" lon="-81.76900302059948"><ele>195</ele><time>2026-09-27T19:16:43Z</time></trkpt>
      <trkpt lat="41.455767271108925" lon="-81.76900796592236"><ele>194</ele><time>2026-09-27T19:16:46Z</time></trkpt>
      <trkpt lat="41.45530119538307" lon="-81.76902414299548"><ele>195</ele><time>2026-09-27T19:16:49Z</time></trkpt>
      <trkpt lat="41.454840106889606" lon="-81.76903143525124"><ele>194</ele><time>2026-09-27T19:16:52Z</time></trkpt>
      <trkpt lat="41.45441388711333" lon="-81.7690368834883"><ele>194</ele><time>2026-09-27T19:16:55Z</time></trkpt>
      <trkpt lat="41.454063607379794" lon="-81.76904601976275"><ele>194</ele><time>2026-09-27T19:16:58Z</time></trkpt>
      <trkpt lat="41.45379249472171" lon="-81.76903671585023"><ele>192</ele><time>2026-09-27T19:17:01Z</time></trkpt>
      <trkpt lat="41.45363009534776" lon="-81.7690405715257"><ele>192</ele><time>2026-09-27T19:17:04Z</time></trkpt>
      <trkpt lat="41.45358445588499" lon="-81.76903948187828"><ele>192</ele><time>2026-09-27T19:17:24Z</time></trkpt>
      <trkpt lat="41.453508054837584" lon="-81.76904627121985"><ele>193</ele><time>2026-09-27T19:17:27Z</time></trkpt>
      <trkpt lat="41.45331154111773" lon="-81.76905389875174"><ele>193</ele><time>2026-09-27T19:17:30Z</time></trkpt>
      <trkpt lat="41.45301670767367" lon="-81.7690588440746"><ele>194</ele><time>2026-09-27T19:17:33Z</time></trkpt>
      <trkpt lat="41.45265632774681" lon="-81.76905792206526"><ele>194</ele><time>2026-09-27T19:17:36Z</time></trkpt>
      <trkpt lat="41.452250853180885" lon="-81.76907133311033"><ele>194</ele><time>2026-09-27T19:17:39Z</time></trkpt>
      <trkpt lat="41.45182320848107" lon="-81.76907686516643"><ele>194</ele><time>2026-09-27T19:17:42Z</time></trkpt>
      <trkpt lat="41.451380853541195" lon="-81.76908097229898"><ele>193</ele><time>2026-09-27T19:17:45Z</time></trkpt>
      <trkpt lat="41.45094625186175" lon="-81.76907292567194"><ele>192</ele><time>2026-09-27T19:17:48Z</time></trkpt>
      <trkpt lat="41.45051588304341" lon="-81.76907686516643"><ele>192</ele><time>2026-09-27T19:17:51Z</time></trkpt>
      <trkpt lat="41.45008807070553" lon="-81.76906504668295"><ele>193</ele><time>2026-09-27T19:17:54Z</time></trkpt>
      <trkpt lat="41.44966784399003" lon="-81.76907510496676"><ele>192</ele><time>2026-09-27T19:17:57Z</time></trkpt>
      <trkpt lat="41.4492375170812" lon="-81.76908549852669"><ele>193</ele><time>2026-09-27T19:18:00Z</time></trkpt>
      <trkpt lat="41.44881402142346" lon="-81.76906655542552"><ele>194</ele><time>2026-09-27T19:18:03Z</time></trkpt>
      <trkpt lat="41.448421496897936" lon="-81.76893579773605"><ele>194</ele><time>2026-09-27T19:18:06Z</time></trkpt>
      <trkpt lat="41.44806358963251" lon="-81.76865081302822"><ele>193</ele><time>2026-09-27T19:18:09Z</time></trkpt>
      <trkpt lat="41.44776150584221" lon="-81.7682887148112"><ele>193</ele><time>2026-09-27T19:18:12Z</time></trkpt>
      <trkpt lat="41.44745263271034" lon="-81.76794991828501"><ele>195</ele><time>2026-09-27T19:18:15Z</time></trkpt>
      <trkpt lat="41.44717066548765" lon="-81.76761682145298"><ele>195</ele><time>2026-09-27T19:18:18Z</time></trkpt>
      <trkpt lat="41.446946952492" lon="-81.7673462536186"><ele>193</ele><time>2026-09-27T19:18:21Z</time></trkpt>
      <trkpt lat="41.44678438547999" lon="-81.76714844070375"><ele>192</ele><time>2026-09-27T19:18:24Z</time></trkpt>
      <trkpt lat="41.44660044461489" lon="-81.76692405715585"><ele>191</ele><time>2026-09-27T19:18:27Z</time></trkpt>
      <trkpt lat="41.44638498779386" lon="-81.76665483042598"><ele>191</ele><time>2026-09-27T19:18:30Z</time></trkpt>
      <trkpt lat="41.446171374991536" lon="-81.76638568751514"><ele>191</ele><time>2026-09-27T19:18:33Z</time></trkpt>
      <trkpt lat="41.44596694037318" lon="-81.76611662842333"><ele>190</ele><time>2026-09-27T19:18:36Z</time></trkpt>
      <trkpt lat="41.445755967870355" lon="-81.76586366258562"><ele>188</ele><time>2026-09-27T19:18:39Z</time></trkpt>
      <trkpt lat="41.445543402805924" lon="-81.76559074781835"><ele>187</ele><time>2026-09-27T19:18:42Z</time></trkpt>
      <trkpt lat="41.44530393183231" lon="-81.76533711142838"><ele>185</ele><time>2026-09-27T19:18:45Z</time></trkpt>
      <trkpt lat="41.44508252386004" lon="-81.76509629935026"><ele>184</ele><time>2026-09-27T19:18:48Z</time></trkpt>
      <trkpt lat="41.44488014280796" lon="-81.76485724747181"><ele>183</ele><time>2026-09-27T19:18:51Z</time></trkpt>
      <trkpt lat="41.44468065351248" lon="-81.76461861468852"><ele>182</ele><time>2026-09-27T19:18:54Z</time></trkpt>
      <trkpt lat="41.444484097883105" lon="-81.76437268964946"><ele>182</ele><time>2026-09-27T19:18:57Z</time></trkpt>
      <trkpt lat="41.44428959582001" lon="-81.76413347013295"><ele>182</ele><time>2026-09-27T19:19:00Z</time></trkpt>
      <trkpt lat="41.44405758474022" lon="-81.7638339009136"><ele>182</ele><time>2026-09-27T19:19:03Z</time></trkpt>
      <trkpt lat="41.443871883675456" lon="-81.76357313990593"><ele>184</ele><time>2026-09-27T19:19:06Z</time></trkpt>
      <trkpt lat="41.4436727296561" lon="-81.76330198533833"><ele>185</ele><time>2026-09-27T19:19:09Z</time></trkpt>
      <trkpt lat="41.44345915876329" lon="-81.76302672363818"><ele>184</ele><time>2026-09-27T19:19:12Z</time></trkpt>
      <trkpt lat="41.44324022345245" lon="-81.7627921141684"><ele>185</ele><time>2026-09-27T19:19:15Z</time></trkpt>
      <trkpt lat="41.44301751628518" lon="-81.7625299282372"><ele>186</ele><time>2026-09-27T19:19:18Z</time></trkpt>
      <trkpt lat="41.442784373648465" lon="-81.76227293908596"><ele>188</ele><time>2026-09-27T19:19:21Z</time></trkpt>
      <trkpt lat="41.44256296567619" lon="-81.76202131435275"><ele>191</ele><time>2026-09-27T19:19:24Z</time></trkpt>
      <trkpt lat="41.44234017468989" lon="-81.7617703601718"><ele>192</ele><time>2026-09-27T19:19:27Z</time></trkpt>
      <trkpt lat="41.44216541200876" lon="-81.76157120615244"><ele>192</ele><time>2026-09-27T19:19:30Z</time></trkpt>
      <trkpt lat="41.44207865931094" lon="-81.7614796757698"><ele>192</ele><time>2026-09-27T19:19:33Z</time></trkpt>
      <trkpt lat="41.442025769501925" lon="-81.76142058335245"><ele>193</ele><time>2026-09-27T19:19:50Z</time></trkpt>
      <trkpt lat="41.44194974564016" lon="-81.7613591440022"><ele>192</ele><time>2026-09-27T19:19:53Z</time></trkpt>
      <trkpt lat="41.441789735108614" lon="-81.76118404604495"><ele>192</ele><time>2026-09-27T19:19:56Z</time></trkpt>
      <trkpt lat="41.441587773151696" lon="-81.7609566450119"><ele>191</ele><time>2026-09-27T19:19:59Z</time></trkpt>
      <trkpt lat="41.44137403462082" lon="-81.76071843132377"><ele>190</ele><time>2026-09-27T19:20:02Z</time></trkpt>
      <trkpt lat="41.441160631366074" lon="-81.76047032698989"><ele>191</ele><time>2026-09-27T19:20:05Z</time></trkpt>
      <trkpt lat="41.44094131886959" lon="-81.76021836698055"><ele>191</ele><time>2026-09-27T19:20:08Z</time></trkpt>
      <trkpt lat="41.440731855109334" lon="-81.75995827652514"><ele>192</ele><time>2026-09-27T19:20:11Z</time></trkpt>
      <trkpt lat="41.440559439361095" lon="-81.75966440699995"><ele>194</ele><time>2026-09-27T19:20:14Z</time></trkpt>
      <trkpt lat="41.44041087012738" lon="-81.75933466292918"><ele>194</ele><time>2026-09-27T19:20:17Z</time></trkpt>
      <trkpt lat="41.4402922661975" lon="-81.7589900828898"><ele>196</ele><time>2026-09-27T19:20:20Z</time></trkpt>
      <trkpt lat="41.440195790492" lon="-81.75859269686043"><ele>195</ele><time>2026-09-27T19:20:23Z</time></trkpt>
      <trkpt lat="41.44013971555978" lon="-81.75817075185478"><ele>193</ele><time>2026-09-27T19:20:26Z</time></trkpt>
      <trkpt lat="41.440112264826894" lon="-81.75775584764779"><ele>191</ele><time>2026-09-27T19:20:29Z</time></trkpt>
      <trkpt lat="41.44011314492673" lon="-81.7573634069413"><ele>189</ele><time>2026-09-27T19:20:32Z</time></trkpt>
      <trkpt lat="41.44011486321688" lon="-81.75698873586953"><ele>188</ele><time>2026-09-27T19:20:35Z</time></trkpt>
      <trkpt lat="41.44010979216546" lon="-81.75664491020143"><ele>188</ele><time>2026-09-27T19:20:38Z</time></trkpt>
      <trkpt lat="41.44010660704225" lon="-81.75631365738809"><ele>188</ele><time>2026-09-27T19:20:41Z</time></trkpt>
      <trkpt lat="41.4400039287284" lon="-81.75604686141014"><ele>188</ele><time>2026-09-27T19:20:44Z</time></trkpt>
      <trkpt lat="41.43977246247232" lon="-81.75607628189027"><ele>187</ele><time>2026-09-27T19:20:47Z</time></trkpt>
      <trkpt lat="41.439504199661314" lon="-81.75625305622816"><ele>188</ele><time>2026-09-27T19:20:50Z</time></trkpt>
      <trkpt lat="41.4391965419054" lon="-81.75651960074902"><ele>188</ele><time>2026-09-27T19:20:53Z</time></trkpt>
      <trkpt lat="41.43887492828071" lon="-81.75677985884249"><ele>189</ele><time>2026-09-27T19:20:56Z</time></trkpt>
      <trkpt lat="41.438548997975886" lon="-81.75703760236502"><ele>190</ele><time>2026-09-27T19:20:59Z</time></trkpt>
      <trkpt lat="41.438243351876736" lon="-81.7572838626802"><ele>193</ele><time>2026-09-27T19:21:02Z</time></trkpt>
      <trkpt lat="41.43793410155922" lon="-81.7575373314321"><ele>194</ele><time>2026-09-27T19:21:05Z</time></trkpt>
      <trkpt lat="41.43760247156024" lon="-81.75779934972525"><ele>195</ele><time>2026-09-27T19:21:08Z</time></trkpt>
      <trkpt lat="41.437280774116516" lon="-81.75806052982807"><ele>195</ele><time>2026-09-27T19:21:11Z</time></trkpt>
      <trkpt lat="41.4369535446167" lon="-81.75832891836762"><ele>196</ele><time>2026-09-27T19:21:14Z</time></trkpt>
      <trkpt lat="41.43662036396563" lon="-81.75861071795225"><ele>195</ele><time>2026-09-27T19:21:17Z</time></trkpt>
      <trkpt lat="41.436270754784346" lon="-81.75889452919364"><ele>197</ele><time>2026-09-27T19:21:20Z</time></trkpt>
      <trkpt lat="41.435922319069505" lon="-81.75917884334922"><ele>196</ele><time>2026-09-27T19:21:23Z</time></trkpt>
      <trkpt lat="41.435580546967685" lon="-81.75946122966707"><ele>196</ele><time>2026-09-27T19:21:26Z</time></trkpt>
      <trkpt lat="41.435222094878554" lon="-81.75974998623133"><ele>198</ele><time>2026-09-27T19:21:29Z</time></trkpt>
      <trkpt lat="41.4348672889173" lon="-81.76002667285502"><ele>200</ele><time>2026-09-27T19:21:32Z</time></trkpt>
      <trkpt lat="41.43452228978276" lon="-81.76031836308539"><ele>200</ele><time>2026-09-27T19:21:35Z</time></trkpt>
      <trkpt lat="41.434164214879274" lon="-81.7606128193438"><ele>202</ele><time>2026-09-27T19:21:38Z</time></trkpt>
      <trkpt lat="41.433791178278625" lon="-81.7609133105725"><ele>203</ele><time>2026-09-27T19:21:41Z</time></trkpt>
      <trkpt lat="41.43340091686696" lon="-81.76123718731105"><ele>203</ele><time>2026-09-27T19:21:44Z</time></trkpt>
      <trkpt lat="41.43300985917449" lon="-81.76154589280486"><ele>204</ele><time>2026-09-27T19:21:47Z</time></trkpt>
      <trkpt lat="41.432634349912405" lon="-81.76187069155276"><ele>203</ele><time>2026-09-27T19:21:50Z</time></trkpt>
      <trkpt lat="41.432245639152825" lon="-81.76218098960817"><ele>203</ele><time>2026-09-27T19:21:53Z</time></trkpt>
      <trkpt lat="41.43186979461461" lon="-81.76248776726425"><ele>204</ele><time>2026-09-27T19:21:56Z</time></trkpt>
      <trkpt lat="41.431507989764214" lon="-81.76277644000947"><ele>205</ele><time>2026-09-27T19:21:59Z</time></trkpt>
      <trkpt lat="41.431150836870074" lon="-81.76297249272466"><ele>206</ele><time>2026-09-27T19:22:02Z</time></trkpt>
      <trkpt lat="41.43077381886542" lon="-81.76309227012098"><ele>205</ele><time>2026-09-27T19:22:05Z</time></trkpt>
      <trkpt lat="41.430360339581966" lon="-81.76314474083483"><ele>203</ele><time>2026-09-27T19:22:08Z</time></trkpt>
      <trkpt lat="41.42993952613324" lon="-81.76312345080078"><ele>202</ele><time>2026-09-27T19:22:11Z</time></trkpt>
      <trkpt lat="41.42951242625713" lon="-81.76301381550729"><ele>200</ele><time>2026-09-27T19:22:14Z</time></trkpt>
      <trkpt lat="41.42908461391926" lon="-81.76283318549395"><ele>200</ele><time>2026-09-27T19:22:17Z</time></trkpt>
      <trkpt lat="41.42867373302579" lon="-81.76264191046357"><ele>197</ele><time>2026-09-27T19:22:20Z</time></trkpt>
      <trkpt lat="41.4282493153587" lon="-81.76245214417577"><ele>196</ele><time>2026-09-27T19:22:23Z</time></trkpt>
      <trkpt lat="41.42781354021281" lon="-81.76225542090833"><ele>197</ele><time>2026-09-27T19:22:26Z</time></trkpt>
      <trkpt lat="41.427372065372765" lon="-81.76206037402153"><ele>198</ele><time>2026-09-27T19:22:29Z</time></trkpt>
      <trkpt lat="41.42697975039482" lon="-81.76187605597079"><ele>199</ele><time>2026-09-27T19:22:32Z</time></trkpt>
      <trkpt lat="41.42659367993474" lon="-81.76168151199818"><ele>200</ele><time>2026-09-27T19:22:35Z</time></trkpt>
      <trkpt lat="41.42620291560888" lon="-81.76147950813174"><ele>202</ele><time>2026-09-27T19:22:38Z</time></trkpt>
      <trkpt lat="41.425838763825595" lon="-81.76129108294845"><ele>202</ele><time>2026-09-27T19:22:41Z</time></trkpt>
      <trkpt lat="41.42548047937453" lon="-81.76112914457917"><ele>202</ele><time>2026-09-27T19:22:44Z</time></trkpt>
      <trkpt lat="41.42512843944132" lon="-81.76096770912409"><ele>199</ele><time>2026-09-27T19:22:47Z</time></trkpt>
      <trkpt lat="41.42477346584201" lon="-81.76078179851174"><ele>198</ele><time>2026-09-27T19:22:50Z</time></trkpt>
      <trkpt lat="41.424394603818655" lon="-81.76059387624264"><ele>199</ele><time>2026-09-27T19:22:53Z</time></trkpt>
      <trkpt lat="41.424016831442714" lon="-81.76042112521827"><ele>198</ele><time>2026-09-27T19:22:56Z</time></trkpt>
      <trkpt lat="41.42363901715726" lon="-81.76025147549808"><ele>200</ele><time>2026-09-27T19:22:59Z</time></trkpt>
      <trkpt lat="41.42327205743641" lon="-81.76007998175919"><ele>199</ele><time>2026-09-27T19:23:02Z</time></trkpt>
      <trkpt lat="41.42290145158768" lon="-81.75990412943065"><ele>200</ele><time>2026-09-27T19:23:05Z</time></trkpt>
      <trkpt lat="41.4225227991119" lon="-81.75973355770111"><ele>198</ele><time>2026-09-27T19:23:08Z</time></trkpt>
      <trkpt lat="41.42213563900441" lon="-81.75955737009645"><ele>197</ele><time>2026-09-27T19:23:11Z</time></trkpt>
      <trkpt lat="41.4217597944662" lon="-81.75938906148076"><ele>196</ele><time>2026-09-27T19:23:14Z</time></trkpt>
      <trkpt lat="41.42138420138508" lon="-81.75922427326441"><ele>195</ele><time>2026-09-27T19:23:17Z</time></trkpt>
      <trkpt lat="41.421001525595784" lon="-81.75904917530715"><ele>194</ele><time>2026-09-27T19:23:20Z</time></trkpt>
      <trkpt lat="41.420604097656906" lon="-81.75887282006443"><ele>194</ele><time>2026-09-27T19:23:23Z</time></trkpt>
      <trkpt lat="41.42021857202053" lon="-81.75869160331786"><ele>193</ele><time>2026-09-27T19:23:26Z</time></trkpt>
      <trkpt lat="41.41982805915177" lon="-81.75851499661803"><ele>193</ele><time>2026-09-27T19:23:29Z</time></trkpt>
      <trkpt lat="41.41948435921222" lon="-81.75836487673223"><ele>191</ele><time>2026-09-27T19:23:32Z</time></trkpt>
      <trkpt lat="41.419256161898375" lon="-81.75826513208449"><ele>191</ele><time>2026-09-27T19:23:35Z</time></trkpt>
      <trkpt lat="41.41918403562158" lon="-81.7582281678915"><ele>191</ele><time>2026-09-27T19:23:38Z</time></trkpt>
      <trkpt lat="41.41911823768169" lon="-81.75819262862206"><ele>195</ele><time>2026-09-27T19:24:40Z</time></trkpt>
      <trkpt lat="41.41893295571208" lon="-81.75810981541872"><ele>195</ele><time>2026-09-27T19:24:43Z</time></trkpt>
      <trkpt lat="41.41866775229573" lon="-81.7579813208431"><ele>196</ele><time>2026-09-27T19:24:46Z</time></trkpt>
      <trkpt lat="41.41837652307004" lon="-81.7578467912972"><ele>196</ele><time>2026-09-27T19:24:49Z</time></trkpt>
      <trkpt lat="41.418070290237665" lon="-81.75770086236298"><ele>196</ele><time>2026-09-27T19:24:52Z</time></trkpt>
      <trkpt lat="41.41773920506239" lon="-81.75753347575665"><ele>197</ele><time>2026-09-27T19:24:55Z</time></trkpt>
      <trkpt lat="41.4173848181963" lon="-81.75735343247652"><ele>199</ele><time>2026-09-27T19:24:58Z</time></trkpt>
      <trkpt lat="41.41700465697795" lon="-81.7571921646595"><ele>200</ele><time>2026-09-27T19:25:01Z</time></trkpt>
      <trkpt lat="41.416618251241744" lon="-81.75704858265817"><ele>202</ele><time>2026-09-27T19:25:04Z</time></trkpt>
      <trkpt lat="41.41624018549919" lon="-81.75692109391093"><ele>203</ele><time>2026-09-27T19:25:07Z</time></trkpt>
      <trkpt lat="41.41585004981607" lon="-81.75683551467955"><ele>204</ele><time>2026-09-27T19:25:10Z</time></trkpt>
      <trkpt lat="41.41545404680073" lon="-81.7567708902061"><ele>204</ele><time>2026-09-27T19:25:13Z</time></trkpt>
      <trkpt lat="41.41505687031895" lon="-81.75674331374466"><ele>206</ele><time>2026-09-27T19:25:16Z</time></trkpt>
      <trkpt lat="41.41466757282615" lon="-81.75672143697739"><ele>206</ele><time>2026-09-27T19:25:19Z</time></trkpt>
      <trkpt lat="41.41428560949862" lon="-81.75670576281846"><ele>207</ele><time>2026-09-27T19:25:22Z</time></trkpt>
      <trkpt lat="41.41388273332268" lon="-81.75668908283114"><ele>208</ele><time>2026-09-27T19:25:25Z</time></trkpt>
      <trkpt lat="41.413475247099996" lon="-81.75667156465352"><ele>207</ele><time>2026-09-27T19:25:28Z</time></trkpt>
      <trkpt lat="41.41305849887431" lon="-81.75666326656938"><ele>207</ele><time>2026-09-27T19:25:31Z</time></trkpt>
      <trkpt lat="41.41263047698885" lon="-81.7566498555243"><ele>208</ele><time>2026-09-27T19:25:34Z</time></trkpt>
      <trkpt lat="41.412218045443296" lon="-81.75663367845118"><ele>208</ele><time>2026-09-27T19:25:37Z</time></trkpt>
      <trkpt lat="41.4118060329929" lon="-81.7566223628819"><ele>209</ele><time>2026-09-27T19:25:40Z</time></trkpt>
      <trkpt lat="41.411398965865374" lon="-81.75661079585552"><ele>210</ele><time>2026-09-27T19:25:43Z</time></trkpt>
      <trkpt lat="41.41099106054753" lon="-81.75664130598307"><ele>211</ele><time>2026-09-27T19:25:46Z</time></trkpt>
      <trkpt lat="41.4105860888958" lon="-81.7567293997854"><ele>210</ele><time>2026-09-27T19:25:49Z</time></trkpt>
      <trkpt lat="41.41016934067011" lon="-81.75692989490926"><ele>209</ele><time>2026-09-27T19:25:52Z</time></trkpt>
      <trkpt lat="41.40975271817297" lon="-81.75714455544949"><ele>209</ele><time>2026-09-27T19:25:55Z</time></trkpt>
      <trkpt lat="41.409345106221735" lon="-81.75735108554363"><ele>210</ele><time>2026-09-27T19:25:58Z</time></trkpt>
      <trkpt lat="41.40894742682576" lon="-81.7575613874942"><ele>211</ele><time>2026-09-27T19:26:01Z</time></trkpt>
      <trkpt lat="41.40853776130825" lon="-81.75777520984411"><ele>212</ele><time>2026-09-27T19:26:04Z</time></trkpt>
      <trkpt lat="41.408143476583064" lon="-81.75792725756764"><ele>213</ele><time>2026-09-27T19:26:07Z</time></trkpt>
      <trkpt lat="41.407764153555036" lon="-81.75801275298"><ele>212</ele><time>2026-09-27T19:26:10Z</time></trkpt>
      <trkpt lat="41.407345100305974" lon="-81.75802222453058"><ele>215</ele><time>2026-09-27T19:26:13Z</time></trkpt>
      <trkpt lat="41.406924915499985" lon="-81.75802951678634"><ele>218</ele><time>2026-09-27T19:26:16Z</time></trkpt>
      <trkpt lat="41.406514160335064" lon="-81.75801895558834"><ele>217</ele><time>2026-09-27T19:26:19Z</time></trkpt>
      <trkpt lat="41.406120881438255" lon="-81.75800604745746"><ele>216</ele><time>2026-09-27T19:26:22Z</time></trkpt>
      <trkpt lat="41.40577722340822" lon="-81.75799062475562"><ele>216</ele><time>2026-09-27T19:26:25Z</time></trkpt>
      <trkpt lat="41.40551176853478" lon="-81.75796858035028"><ele>214</ele><time>2026-09-27T19:26:28Z</time></trkpt>
      <trkpt lat="41.405347902327776" lon="-81.75795215182006"><ele>213</ele><time>2026-09-27T19:26:31Z</time></trkpt>
      <trkpt lat="41.40529052820057" lon="-81.75794502720237"><ele>211</ele><time>2026-09-27T19:27:37Z</time></trkpt>
      <trkpt lat="41.40523860231042" lon="-81.75793714821339"><ele>211</ele><time>2026-09-27T19:27:40Z</time></trkpt>
      <trkpt lat="41.40513026621193" lon="-81.75793522037566"><ele>210</ele><time>2026-09-27T19:27:43Z</time></trkpt>
      <trkpt lat="41.40496937558055" lon="-81.75785676576197"><ele>210</ele><time>2026-09-27T19:27:46Z</time></trkpt>
      <trkpt lat="41.40492558013648" lon="-81.75760488957167"><ele>209</ele><time>2026-09-27T19:27:49Z</time></trkpt>
      <trkpt lat="41.40492222737521" lon="-81.75722083076835"><ele>207</ele><time>2026-09-27T19:27:52Z</time></trkpt>
      <trkpt lat="41.404914683662355" lon="-81.75676887854934"><ele>206</ele><time>2026-09-27T19:27:55Z</time></trkpt>
      <trkpt lat="41.40489335171878" lon="-81.756234113127"><ele>205</ele><time>2026-09-27T19:27:58Z</time></trkpt>
      <trkpt lat="41.40488425735384" lon="-81.75564721226692"><ele>206</ele><time>2026-09-27T19:28:01Z</time></trkpt>
      <trkpt lat="41.40488379634917" lon="-81.75502250902355"><ele>208</ele><time>2026-09-27T19:28:04Z</time></trkpt>
      <trkpt lat="41.404874324798584" lon="-81.75441306084394"><ele>211</ele><time>2026-09-27T19:28:07Z</time></trkpt>
      <trkpt lat="41.40486657153815" lon="-81.75379606895149"><ele>211</ele><time>2026-09-27T19:28:10Z</time></trkpt>
      <trkpt lat="41.40486032702029" lon="-81.7531567811966"><ele>212</ele><time>2026-09-27T19:28:13Z</time></trkpt>
      <trkpt lat="41.404858231544495" lon="-81.7525019031018"><ele>212</ele><time>2026-09-27T19:28:16Z</time></trkpt>
      <trkpt lat="41.40485705807805" lon="-81.75184794701636"><ele>213</ele><time>2026-09-27T19:28:19Z</time></trkpt>
      <trkpt lat="41.40485927928239" lon="-81.75122031010687"><ele>214</ele><time>2026-09-27T19:28:22Z</time></trkpt>
      <trkpt lat="41.404853579588234" lon="-81.7506196629256"><ele>216</ele><time>2026-09-27T19:28:25Z</time></trkpt>
      <trkpt lat="41.40484959818423" lon="-81.75001700408757"><ele>217</ele><time>2026-09-27T19:28:28Z</time></trkpt>
      <trkpt lat="41.404849220998585" lon="-81.7494007665664"><ele>215</ele><time>2026-09-27T19:28:31Z</time></trkpt>
      <trkpt lat="41.4048442337662" lon="-81.74877882935107"><ele>216</ele><time>2026-09-27T19:28:34Z</time></trkpt>
      <trkpt lat="41.404839497990906" lon="-81.74817097373307"><ele>218</ele><time>2026-09-27T19:28:37Z</time></trkpt>
      <trkpt lat="41.404837276786566" lon="-81.74758424051106"><ele>218</ele><time>2026-09-27T19:28:40Z</time></trkpt>
      <trkpt lat="41.40483316965401" lon="-81.74698434770107"><ele>219</ele><time>2026-09-27T19:28:43Z</time></trkpt>
      <trkpt lat="41.40482927206904" lon="-81.74643265083432"><ele>218</ele><time>2026-09-27T19:28:46Z</time></trkpt>
      <trkpt lat="41.40483149327338" lon="-81.74586444161832"><ele>217</ele><time>2026-09-27T19:28:49Z</time></trkpt>
      <trkpt lat="41.40483031980693" lon="-81.74531266093254"><ele>217</ele><time>2026-09-27T19:28:52Z</time></trkpt>
      <trkpt lat="41.404834259301424" lon="-81.74483170732856"><ele>217</ele><time>2026-09-27T19:28:55Z</time></trkpt>
      <trkpt lat="41.40477168839425" lon="-81.74458536319435"><ele>217</ele><time>2026-09-27T19:28:58Z</time></trkpt>
      <trkpt lat="41.40462366398424" lon="-81.74460246227682"><ele>217</ele><time>2026-09-27T19:29:01Z</time></trkpt>
    </trkseg>
  </trk>
</gpx>
