<?xml version="1.0" encoding="UTF-8"?>
<gpx version="1.1" creator="HoldMyTrack" xmlns="http://www.topografix.com/GPX/1/1" xmlns:gpxtpx="http://www.garmin.com/xmlschemas/TrackPointExtension/v1">
  <trk>
    <type>walking</type>
    <trkseg>
      <trkpt lat="59.432672" lon="24.798874"><ele>42.08</ele><time>2026-05-09T08:20:00Z</time></trkpt>
      <trkpt lat="59.432674" lon="24.798782"><ele>42</ele><time>2026-05-09T08:20:04Z</time></trkpt>
      <trkpt lat="59.43299" lon="24.798844"><ele>42</ele><time>2026-05-09T08:20:33Z</time></trkpt>
      <trkpt lat="59.433341" lon="24.798574"><ele>42</ele><time>2026-05-09T08:21:07Z</time></trkpt>
      <trkpt lat="59.433444" lon="24.798567"><ele>42.03</ele><time>2026-05-09T08:21:17Z</time></trkpt>
      <trkpt lat="59.433609" lon="24.798134"><ele>43</ele><time>2026-05-09T08:21:42Z</time></trkpt>
      <trkpt lat="59.433737" lon="24.798243"><ele>43</ele><time>2026-05-09T08:21:55Z</time></trkpt>
      <trkpt lat="59.434047" lon="24.798308"><ele>43.42</ele><time>2026-05-09T08:22:23Z</time></trkpt>
      <trkpt lat="59.434046" lon="24.79814"><ele>43</ele><time>2026-05-09T08:22:31Z</time></trkpt>
      <trkpt lat="59.434056" lon="24.797991"><ele>43</ele><time>2026-05-09T08:22:38Z</time></trkpt>
      <trkpt lat="59.434566" lon="24.798132"><ele>43</ele><time>2026-05-09T08:23:24Z</time></trkpt>
      <trkpt lat="59.434611" lon="24.798165"><ele>43</ele><time>2026-05-09T08:23:29Z</time></trkpt>
      <trkpt lat="59.434713" lon="24.798209"><ele>42.88</ele><time>2026-05-09T08:23:38Z</time></trkpt>
      <trkpt lat="59.435363" lon="24.798362"><ele>42.97</ele><time>2026-05-09T08:24:38Z</time></trkpt>
      <trkpt lat="59.435429" lon="24.798346"><ele>42.98</ele><time>2026-05-09T08:24:44Z</time></trkpt>
      <trkpt lat="59.436484" lon="24.798568"><ele>42.98</ele><time>2026-05-09T08:26:20Z</time></trkpt>
      <trkpt lat="59.436521" lon="24.798613"><ele>42.86</ele><time>2026-05-09T08:26:24Z</time></trkpt>
      <trkpt lat="59.436554" lon="24.798695"><ele>42.84</ele><time>2026-05-09T08:26:29Z</time></trkpt>
      <trkpt lat="59.437084" lon="24.797653"><ele>37.65</ele><time>2026-05-09T08:27:37Z</time></trkpt>
      <trkpt lat="59.437113" lon="24.797569"><ele>37.17</ele><time>2026-05-09T08:27:42Z</time></trkpt>
      <trkpt lat="59.437336" lon="24.797783"><ele>36.46</ele><time>2026-05-09T08:28:05Z</time></trkpt>
      <trkpt lat="59.437512" lon="24.798011"><ele>35.14</ele><time>2026-05-09T08:28:24Z</time></trkpt>
      <trkpt lat="59.437688" lon="24.798239"><ele>28.81</ele><time>2026-05-09T08:28:43Z</time></trkpt>
      <trkpt lat="59.437785" lon="24.798295"><ele>27.19</ele><time>2026-05-09T08:28:52Z</time></trkpt>
      <trkpt lat="59.437874" lon="24.79824"><ele>23.86</ele><time>2026-05-09T08:29:01Z</time></trkpt>
      <trkpt lat="59.438053" lon="24.798109"><ele>21.09</ele><time>2026-05-09T08:29:18Z</time></trkpt>
      <trkpt lat="59.43807" lon="24.798167"><ele>21.07</ele><time>2026-05-09T08:29:21Z</time></trkpt>
      <trkpt lat="59.438317" lon="24.79814"><ele>19.14</ele><time>2026-05-09T08:29:44Z</time></trkpt>
      <trkpt lat="59.438685" lon="24.798092"><ele>19</ele><time>2026-05-09T08:30:17Z</time></trkpt>
      <trkpt lat="59.438786" lon="24.798096"><ele>18.71</ele><time>2026-05-09T08:30:26Z</time></trkpt>
      <trkpt lat="59.438958" lon="24.798138"><ele>18</ele><time>2026-05-09T08:30:42Z</time></trkpt>
      <trkpt lat="59.439217" lon="24.798226"><ele>18</ele><time>2026-05-09T08:31:06Z</time></trkpt>
      <trkpt lat="59.439321" lon="24.79823"><ele>18</ele><time>2026-05-09T08:31:16Z</time></trkpt>
      <trkpt lat="59.439405" lon="24.798202"><ele>18</ele><time>2026-05-09T08:31:23Z</time></trkpt>
      <trkpt lat="59.439525" lon="24.798114"><ele>18</ele><time>2026-05-09T08:31:35Z</time></trkpt>
      <trkpt lat="59.43959" lon="24.798056"><ele>18</ele><time>2026-05-09T08:31:42Z</time></trkpt>
      <trkpt lat="59.43978" lon="24.797779"><ele>17</ele><time>2026-05-09T08:32:03Z</time></trkpt>
      <trkpt lat="59.439944" lon="24.797451"><ele>16.68</ele><time>2026-05-09T08:32:24Z</time></trkpt>
      <trkpt lat="59.440108" lon="24.796979"><ele>16</ele><time>2026-05-09T08:32:51Z</time></trkpt>
      <trkpt lat="59.440226" lon="24.796689"><ele>16</ele><time>2026-05-09T08:33:08Z</time></trkpt>
      <trkpt lat="59.440395" lon="24.796453"><ele>16</ele><time>2026-05-09T08:33:27Z</time></trkpt>
      <trkpt lat="59.440552" lon="24.796284"><ele>16</ele><time>2026-05-09T08:33:43Z</time></trkpt>
      <trkpt lat="59.440654" lon="24.796154"><ele>15.52</ele><time>2026-05-09T08:33:54Z</time></trkpt>
      <trkpt lat="59.44072" lon="24.796023"><ele>15</ele><time>2026-05-09T08:34:03Z</time></trkpt>
      <trkpt lat="59.440761" lon="24.795883"><ele>15</ele><time>2026-05-09T08:34:10Z</time></trkpt>
      <trkpt lat="59.440817" lon="24.795751"><ele>15</ele><time>2026-05-09T08:34:18Z</time></trkpt>
      <trkpt lat="59.440951" lon="24.795569"><ele>14.61</ele><time>2026-05-09T08:34:33Z</time></trkpt>
      <trkpt lat="59.441242" lon="24.795583"><ele>12.83</ele><time>2026-05-09T08:34:59Z</time></trkpt>
      <trkpt lat="59.441333" lon="24.795557"><ele>11.8</ele><time>2026-05-09T08:35:08Z</time></trkpt>
      <trkpt lat="59.441417" lon="24.79548"><ele>10.83</ele><time>2026-05-09T08:35:16Z</time></trkpt>
      <trkpt lat="59.44152" lon="24.79542"><ele>9.66</ele><time>2026-05-09T08:35:26Z</time></trkpt>
      <trkpt lat="59.441616" lon="24.7954"><ele>8.8</ele><time>2026-05-09T08:35:35Z</time></trkpt>
      <trkpt lat="59.441862" lon="24.795399"><ele>7</ele><time>2026-05-09T08:35:57Z</time></trkpt>
      <trkpt lat="59.442" lon="24.795411"><ele>7</ele><time>2026-05-09T08:36:10Z</time></trkpt>
      <trkpt lat="59.442032" lon="24.795441"><ele>7</ele><time>2026-05-09T08:36:13Z</time></trkpt>
      <trkpt lat="59.442271" lon="24.795479"><ele>6.99</ele><time>2026-05-09T08:36:35Z</time></trkpt>
      <trkpt lat="59.442342" lon="24.795518"><ele>6.94</ele><time>2026-05-09T08:36:41Z</time></trkpt>
      <trkpt lat="59.442473" lon="24.79572"><ele>6.76</ele><time>2026-05-09T08:36:57Z</time></trkpt>
      <trkpt lat="59.442857" lon="24.796012"><ele>5.04</ele><time>2026-05-09T08:37:34Z</time></trkpt>
      <trkpt lat="59.44292" lon="24.796085"><ele>4.84</ele><time>2026-05-09T08:37:41Z</time></trkpt>
      <trkpt lat="59.443055" lon="24.796006"><ele>4.01</ele><time>2026-05-09T08:37:54Z</time></trkpt>
      <trkpt lat="59.443165" lon="24.795937"><ele>4</ele><time>2026-05-09T08:38:04Z</time></trkpt>
      <trkpt lat="59.44329" lon="24.795901"><ele>4</ele><time>2026-05-09T08:38:16Z</time></trkpt>
      <trkpt lat="59.443317" lon="24.795892"><ele>4</ele><time>2026-05-09T08:38:18Z</time></trkpt>
      <trkpt lat="59.443325" lon="24.795868"><ele>4</ele><time>2026-05-09T08:38:19Z</time></trkpt>
      <trkpt lat="59.443538" lon="24.795342"><ele>4</ele><time>2026-05-09T08:38:50Z</time></trkpt>
      <trkpt lat="59.443799" lon="24.795442"><ele>3.12</ele><time>2026-05-09T08:39:15Z</time></trkpt>
      <trkpt lat="59.443839" lon="24.795505"><ele>3.02</ele><time>2026-05-09T08:39:19Z</time></trkpt>
      <trkpt lat="59.444018" lon="24.79507"><ele>3</ele><time>2026-05-09T08:39:45Z</time></trkpt>
      <trkpt lat="59.444099" lon="24.794845"><ele>3</ele><time>2026-05-09T08:39:58Z</time></trkpt>
      <trkpt lat="59.444126" lon="24.794796"><ele>3</ele><time>2026-05-09T08:40:01Z</time></trkpt>
      <trkpt lat="59.444148" lon="24.794666"><ele>3</ele><time>2026-05-09T08:40:08Z</time></trkpt>
      <trkpt lat="59.444225" lon="24.794737"><ele>3</ele><time>2026-05-09T08:40:15Z</time></trkpt>
      <trkpt lat="59.446547" lon="24.799549"><ele>1.65</ele><time>2026-05-09T08:45:22Z</time></trkpt>
      <trkpt lat="59.446559" lon="24.79952"><ele>1.07</ele><time>2026-05-09T08:45:24Z</time></trkpt>
      <trkpt lat="59.446416" lon="24.799224"><ele>1.22</ele><time>2026-05-09T08:45:43Z</time></trkpt>
      <trkpt lat="59.446559" lon="24.79952"><ele>1.07</ele><time>2026-05-09T08:46:02Z</time></trkpt>
      <trkpt lat="59.446547" lon="24.799549"><ele>1.65</ele><time>2026-05-09T08:46:03Z</time></trkpt>
      <trkpt lat="59.446574" lon="24.799756"><ele>2.73</ele><time>2026-05-09T08:46:13Z</time></trkpt>
      <trkpt lat="59.446839" lon="24.800262"><ele>2.62</ele><time>2026-05-09T08:46:47Z</time></trkpt>
      <trkpt lat="59.446907" lon="24.800306"><ele>2.12</ele><time>2026-05-09T08:46:53Z</time></trkpt>
      <trkpt lat="59.447627" lon="24.801485"><ele>2.5</ele><time>2026-05-09T08:48:19Z</time></trkpt>
      <trkpt lat="59.448045" lon="24.802101"><ele>2.08</ele><time>2026-05-09T08:49:06Z</time></trkpt>
      <trkpt lat="59.448452" lon="24.802733"><ele>2.18</ele><time>2026-05-09T08:49:53Z</time></trkpt>
      <trkpt lat="59.450015" lon="24.805077"><ele>2.64</ele><time>2026-05-09T08:52:52Z</time></trkpt>
      <trkpt lat="59.450897" lon="24.805966"><ele>2.98</ele><time>2026-05-09T08:54:22Z</time></trkpt>
      <trkpt lat="59.452278" lon="24.806956"><ele>2.39</ele><time>2026-05-09T08:56:36Z</time></trkpt>
      <trkpt lat="59.45307" lon="24.807433"><ele>2.37</ele><time>2026-05-09T08:57:51Z</time></trkpt>
      <trkpt lat="59.453365" lon="24.80761"><ele>2.28</ele><time>2026-05-09T08:58:19Z</time></trkpt>
      <trkpt lat="59.454447" lon="24.808308"><ele>2.14</ele><time>2026-05-09T09:00:03Z</time></trkpt>
      <trkpt lat="59.454839" lon="24.808623"><ele>2.18</ele><time>2026-05-09T09:00:42Z</time></trkpt>
      <trkpt lat="59.456093" lon="24.809717"><ele>2.58</ele><time>2026-05-09T09:02:46Z</time></trkpt>
      <trkpt lat="59.456071" lon="24.809806"><ele>3.07</ele><time>2026-05-09T09:02:51Z</time></trkpt>
      <trkpt lat="59.45654" lon="24.810214"><ele>2.95</ele><time>2026-05-09T09:03:38Z</time></trkpt>
      <trkpt lat="59.456566" lon="24.810103"><ele>2.58</ele><time>2026-05-09T09:03:43Z</time></trkpt>
      <trkpt lat="59.458394" lon="24.811768"><ele>2.09</ele><time>2026-05-09T09:06:46Z</time></trkpt>
      <trkpt lat="59.459078" lon="24.812868"><ele>1.97</ele><time>2026-05-09T09:08:07Z</time></trkpt>
      <trkpt lat="59.460728" lon="24.815774"><ele>2.89</ele><time>2026-05-09T09:11:28Z</time></trkpt>
      <trkpt lat="59.46127" lon="24.816747"><ele>2.67</ele><time>2026-05-09T09:12:35Z</time></trkpt>
      <trkpt lat="59.461308" lon="24.816809"><ele>3</ele><time>2026-05-09T09:12:40Z</time></trkpt>
      <trkpt lat="59.461587" lon="24.816728"><ele>2</ele><time>2026-05-09T09:13:05Z</time></trkpt>
      <trkpt lat="59.461697" lon="24.81693"><ele>2.73</ele><time>2026-05-09T09:13:19Z</time></trkpt>
      <trkpt lat="59.464444" lon="24.821377"><ele>2</ele><time>2026-05-09T09:18:42Z</time></trkpt>
      <trkpt lat="59.465577" lon="24.82325"><ele>2</ele><time>2026-05-09T09:20:57Z</time></trkpt>
      <trkpt lat="59.466079" lon="24.823426"><ele>2</ele><time>2026-05-09T09:21:43Z</time></trkpt>
      <trkpt lat="59.466061" lon="24.823658"><ele>2</ele><time>2026-05-09T09:21:54Z</time></trkpt>
      <trkpt lat="59.466448" lon="24.823816"><ele>2</ele><time>2026-05-09T09:22:30Z</time></trkpt>
      <trkpt lat="59.466867" lon="24.823898"><ele>2</ele><time>2026-05-09T09:23:09Z</time></trkpt>
      <trkpt lat="59.467232" lon="24.824427"><ele>2</ele><time>2026-05-09T09:23:50Z</time></trkpt>
      <trkpt lat="59.467332" lon="24.824237"><ele>2</ele><time>2026-05-09T09:24:02Z</time></trkpt>
      <trkpt lat="59.467466" lon="24.824466"><ele>2</ele><time>2026-05-09T09:24:19Z</time></trkpt>
      <trkpt lat="59.467332" lon="24.824237"><ele>2</ele><time>2026-05-09T09:24:35Z</time></trkpt>
      <trkpt lat="59.467232" lon="24.824427"><ele>2</ele><time>2026-05-09T09:24:47Z</time></trkpt>
      <trkpt lat="59.467161" lon="24.824731"><ele>2</ele><time>2026-05-09T09:25:03Z</time></trkpt>
      <trkpt lat="59.465933" lon="24.827595"><ele>1.54</ele><time>2026-05-09T09:27:56Z</time></trkpt>
      <trkpt lat="59.46567" lon="24.828205"><ele>3</ele><time>2026-05-09T09:28:33Z</time></trkpt>
      <trkpt lat="59.465556" lon="24.828026"><ele>3</ele><time>2026-05-09T09:28:46Z</time></trkpt>
      <trkpt lat="59.465357" lon="24.828538"><ele>3</ele><time>2026-05-09T09:29:16Z</time></trkpt>
      <trkpt lat="59.464946" lon="24.829445"><ele>4</ele><time>2026-05-09T09:30:12Z</time></trkpt>
      <trkpt lat="59.464886" lon="24.829609"><ele>4</ele><time>2026-05-09T09:30:22Z</time></trkpt>
      <trkpt lat="59.464936" lon="24.829707"><ele>4.01</ele><time>2026-05-09T09:30:28Z</time></trkpt>
      <trkpt lat="59.465075" lon="24.830061"><ele>5</ele><time>2026-05-09T09:30:49Z</time></trkpt>
      <trkpt lat="59.4655" lon="24.830925"><ele>5.03</ele><time>2026-05-09T09:31:44Z</time></trkpt>
      <trkpt lat="59.465538" lon="24.831008"><ele>4.85</ele><time>2026-05-09T09:31:49Z</time></trkpt>
      <trkpt lat="59.466221" lon="24.832356"><ele>4.54</ele><time>2026-05-09T09:33:17Z</time></trkpt>
      <trkpt lat="59.466345" lon="24.832559"><ele>5</ele><time>2026-05-09T09:33:32Z</time></trkpt>
      <trkpt lat="59.466393" lon="24.832536"><ele>5</ele><time>2026-05-09T09:33:37Z</time></trkpt>
      <trkpt lat="59.466435" lon="24.832484"><ele>5</ele><time>2026-05-09T09:33:41Z</time></trkpt>
      <trkpt lat="59.467388" lon="24.830636"><ele>3.58</ele><time>2026-05-09T09:35:43Z</time></trkpt>
      <trkpt lat="59.467698" lon="24.83"><ele>2.95</ele><time>2026-05-09T09:36:24Z</time></trkpt>
      <trkpt lat="59.467824" lon="24.829743"><ele>3</ele><time>2026-05-09T09:36:40Z</time></trkpt>
      <trkpt lat="59.467838" lon="24.829669"><ele>2.88</ele><time>2026-05-09T09:36:44Z</time></trkpt>
      <trkpt lat="59.467973" lon="24.82938"><ele>3.08</ele><time>2026-05-09T09:37:02Z</time></trkpt>
      <trkpt lat="59.467985" lon="24.829411"><ele>3.37</ele><time>2026-05-09T09:37:04Z</time></trkpt>
      <trkpt lat="59.467986" lon="24.829446"><ele>3.56</ele><time>2026-05-09T09:37:05Z</time></trkpt>
      <trkpt lat="59.467985" lon="24.829411"><ele>3.37</ele><time>2026-05-09T09:37:07Z</time></trkpt>
      <trkpt lat="59.468158" lon="24.829408"><ele>3</ele><time>2026-05-09T09:37:23Z</time></trkpt>
      <trkpt lat="59.468248" lon="24.829555"><ele>3</ele><time>2026-05-09T09:37:33Z</time></trkpt>
      <trkpt lat="59.468285" lon="24.829633"><ele>3</ele><time>2026-05-09T09:37:38Z</time></trkpt>
      <trkpt lat="59.468349" lon="24.829672"><ele>3</ele><time>2026-05-09T09:37:44Z</time></trkpt>
      <trkpt lat="59.468405" lon="24.829461"><ele>3</ele><time>2026-05-09T09:37:55Z</time></trkpt>
      <trkpt lat="59.468449" lon="24.829355"><ele>3</ele><time>2026-05-09T09:38:02Z</time></trkpt>
      <trkpt lat="59.468563" lon="24.829579"><ele>2.92</ele><time>2026-05-09T09:38:16Z</time></trkpt>
      <trkpt lat="59.468821" lon="24.830035"><ele>2</ele><time>2026-05-09T09:38:48Z</time></trkpt>
      <trkpt lat="59.469033" lon="24.830261"><ele>2.79</ele><time>2026-05-09T09:39:10Z</time></trkpt>
      <trkpt lat="59.46955" lon="24.830681"><ele>2.32</ele><time>2026-05-09T09:40:01Z</time></trkpt>
      <trkpt lat="59.471687" lon="24.832539"><ele>3.48</ele><time>2026-05-09T09:43:33Z</time></trkpt>
      <trkpt lat="59.471844" lon="24.831856"><ele>3</ele><time>2026-05-09T09:44:08Z</time></trkpt>
      <trkpt lat="59.471848" lon="24.83181"><ele>3</ele><time>2026-05-09T09:44:10Z</time></trkpt>
      <trkpt lat="59.47177" lon="24.831745"><ele>3</ele><time>2026-05-09T09:44:18Z</time></trkpt>
      <trkpt lat="59.471848" lon="24.83181"><ele>3</ele><time>2026-05-09T09:44:25Z</time></trkpt>
      <trkpt lat="59.471844" lon="24.831856"><ele>3</ele><time>2026-05-09T09:44:28Z</time></trkpt>
      <trkpt lat="59.471687" lon="24.832539"><ele>3.48</ele><time>2026-05-09T09:45:02Z</time></trkpt>
      <trkpt lat="59.471958" lon="24.832765"><ele>3</ele><time>2026-05-09T09:45:29Z</time></trkpt>
      <trkpt lat="59.472054" lon="24.832811"><ele>3</ele><time>2026-05-09T09:45:38Z</time></trkpt>
      <trkpt lat="59.472395" lon="24.832925"><ele>3</ele><time>2026-05-09T09:46:09Z</time></trkpt>
      <trkpt lat="59.472612" lon="24.833041"><ele>3</ele><time>2026-05-09T09:46:30Z</time></trkpt>
      <trkpt lat="59.472716" lon="24.833028"><ele>2.83</ele><time>2026-05-09T09:46:39Z</time></trkpt>
      <trkpt lat="59.472957" lon="24.832852"><ele>2.01</ele><time>2026-05-09T09:47:03Z</time></trkpt>
      <trkpt lat="59.473036" lon="24.832825"><ele>2.92</ele><time>2026-05-09T09:47:10Z</time></trkpt>
      <trkpt lat="59.473087" lon="24.832833"><ele>2.5</ele><time>2026-05-09T09:47:15Z</time></trkpt>
      <trkpt lat="59.473202" lon="24.832914"><ele>2</ele><time>2026-05-09T09:47:26Z</time></trkpt>
      <trkpt lat="59.473513" lon="24.833101"><ele>2.09</ele><time>2026-05-09T09:47:55Z</time></trkpt>
      <trkpt lat="59.473579" lon="24.833205"><ele>2</ele><time>2026-05-09T09:48:03Z</time></trkpt>
      <trkpt lat="59.473605" lon="24.833231"><ele>2</ele><time>2026-05-09T09:48:06Z</time></trkpt>
      <trkpt lat="59.473649" lon="24.833233"><ele>2</ele><time>2026-05-09T09:48:10Z</time></trkpt>
      <trkpt lat="59.473725" lon="24.833267"><ele>2</ele><time>2026-05-09T09:48:17Z</time></trkpt>
      <trkpt lat="59.473854" lon="24.833378"><ele>3</ele><time>2026-05-09T09:48:30Z</time></trkpt>
      <trkpt lat="59.473941" lon="24.833433"><ele>3</ele><time>2026-05-09T09:48:38Z</time></trkpt>
      <trkpt lat="59.474035" lon="24.833461"><ele>3</ele><time>2026-05-09T09:48:47Z</time></trkpt>
      <trkpt lat="59.474091" lon="24.833507"><ele>3</ele><time>2026-05-09T09:48:52Z</time></trkpt>
      <trkpt lat="59.474249" lon="24.833732"><ele>3.42</ele><time>2026-05-09T09:49:10Z</time></trkpt>
      <trkpt lat="59.474375" lon="24.833936"><ele>4</ele><time>2026-05-09T09:49:25Z</time></trkpt>
      <trkpt lat="59.474522" lon="24.834208"><ele>4</ele><time>2026-05-09T09:49:43Z</time></trkpt>
      <trkpt lat="59.474651" lon="24.834319"><ele>4</ele><time>2026-05-09T09:49:56Z</time></trkpt>
      <trkpt lat="59.4747" lon="24.834318"><ele>4</ele><time>2026-05-09T09:50:00Z</time></trkpt>
      <trkpt lat="59.475361" lon="24.834669"><ele>3</ele><time>2026-05-09T09:51:03Z</time></trkpt>
      <trkpt lat="59.475597" lon="24.834704"><ele>3.21</ele><time>2026-05-09T09:51:24Z</time></trkpt>
      <trkpt lat="59.475634" lon="24.834731"><ele>3.51</ele><time>2026-05-09T09:51:28Z</time></trkpt>
      <trkpt lat="59.4757" lon="24.834825"><ele>3.22</ele><time>2026-05-09T09:51:35Z</time></trkpt>
      <trkpt lat="59.475892" lon="24.835048"><ele>1.97</ele><time>2026-05-09T09:51:55Z</time></trkpt>
      <trkpt lat="59.4763" lon="24.835342"><ele>3.21</ele><time>2026-05-09T09:52:35Z</time></trkpt>
      <trkpt lat="59.476435" lon="24.835405"><ele>4</ele><time>2026-05-09T09:52:48Z</time></trkpt>
      <trkpt lat="59.476598" lon="24.835342"><ele>3.24</ele><time>2026-05-09T09:53:03Z</time></trkpt>
      <trkpt lat="59.47668" lon="24.835257"><ele>3.18</ele><time>2026-05-09T09:53:11Z</time></trkpt>
      <trkpt lat="59.476795" lon="24.835209"><ele>3.01</ele><time>2026-05-09T09:53:22Z</time></trkpt>
      <trkpt lat="59.477076" lon="24.835329"><ele>3</ele><time>2026-05-09T09:53:48Z</time></trkpt>
      <trkpt lat="59.477374" lon="24.835488"><ele>3</ele><time>2026-05-09T09:54:16Z</time></trkpt>
      <trkpt lat="59.477486" lon="24.835547"><ele>3</ele><time>2026-05-09T09:54:27Z</time></trkpt>
      <trkpt lat="59.477789" lon="24.835877"><ele>3.11</ele><time>2026-05-09T09:54:58Z</time></trkpt>
      <trkpt lat="59.478079" lon="24.836305"><ele>3</ele><time>2026-05-09T09:55:31Z</time></trkpt>
      <trkpt lat="59.478423" lon="24.836528"><ele>3.19</ele><time>2026-05-09T09:56:04Z</time></trkpt>
      <trkpt lat="59.478578" lon="24.836556"><ele>4</ele><time>2026-05-09T09:56:18Z</time></trkpt>
      <trkpt lat="59.478772" lon="24.836528"><ele>3.14</ele><time>2026-05-09T09:56:36Z</time></trkpt>
      <trkpt lat="59.479329" lon="24.836778"><ele>3</ele><time>2026-05-09T09:57:28Z</time></trkpt>
      <trkpt lat="59.479614" lon="24.837135"><ele>3.79</ele><time>2026-05-09T09:57:59Z</time></trkpt>
      <trkpt lat="59.480027" lon="24.837488"><ele>3.99</ele><time>2026-05-09T09:58:40Z</time></trkpt>
      <trkpt lat="59.480149" lon="24.837511"><ele>4</ele><time>2026-05-09T09:58:51Z</time></trkpt>
      <trkpt lat="59.480252" lon="24.837475"><ele>4</ele><time>2026-05-09T09:59:00Z</time></trkpt>
      <trkpt lat="59.480344" lon="24.837391"><ele>4</ele><time>2026-05-09T09:59:10Z</time></trkpt>
      <trkpt lat="59.480396" lon="24.837386"><ele>3.94</ele><time>2026-05-09T09:59:14Z</time></trkpt>
      <trkpt lat="59.480494" lon="24.837485"><ele>4</ele><time>2026-05-09T09:59:24Z</time></trkpt>
      <trkpt lat="59.480562" lon="24.83751"><ele>4</ele><time>2026-05-09T09:59:31Z</time></trkpt>
      <trkpt lat="59.480697" lon="24.837592"><ele>4</ele><time>2026-05-09T09:59:43Z</time></trkpt>
      <trkpt lat="59.480943" lon="24.837686"><ele>4</ele><time>2026-05-09T10:00:06Z</time></trkpt>
      <trkpt lat="59.480985" lon="24.837749"><ele>4</ele><time>2026-05-09T10:00:11Z</time></trkpt>
      <trkpt lat="59.481148" lon="24.837908"><ele>4</ele><time>2026-05-09T10:00:28Z</time></trkpt>
      <trkpt lat="59.481314" lon="24.838018"><ele>4</ele><time>2026-05-09T10:00:44Z</time></trkpt>
      <trkpt lat="59.481407" lon="24.838073"><ele>3.78</ele><time>2026-05-09T10:00:52Z</time></trkpt>
      <trkpt lat="59.481625" lon="24.838134"><ele>3.74</ele><time>2026-05-09T10:01:12Z</time></trkpt>
      <trkpt lat="59.481919" lon="24.83831"><ele>3.68</ele><time>2026-05-09T10:01:40Z</time></trkpt>
      <trkpt lat="59.481964" lon="24.838317"><ele>3.67</ele><time>2026-05-09T10:01:44Z</time></trkpt>
      <trkpt lat="59.482197" lon="24.838234"><ele>3.64</ele><time>2026-05-09T10:02:06Z</time></trkpt>
      <trkpt lat="59.482661" lon="24.838097"><ele>3.57</ele><time>2026-05-09T10:02:49Z</time></trkpt>
      <trkpt lat="59.482862" lon="24.83805"><ele>3.53</ele><time>2026-05-09T10:03:07Z</time></trkpt>
      <trkpt lat="59.483299" lon="24.83809"><ele>3.46</ele><time>2026-05-09T10:03:47Z</time></trkpt>
      <trkpt lat="59.483469" lon="24.838173"><ele>3.43</ele><time>2026-05-09T10:04:03Z</time></trkpt>
      <trkpt lat="59.483541" lon="24.838245"><ele>3.42</ele><time>2026-05-09T10:04:10Z</time></trkpt>
      <trkpt lat="59.483755" lon="24.838326"><ele>3.38</ele><time>2026-05-09T10:04:30Z</time></trkpt>
      <trkpt lat="59.484132" lon="24.838423"><ele>3.32</ele><time>2026-05-09T10:05:05Z</time></trkpt>
      <trkpt lat="59.484513" lon="24.838477"><ele>3.26</ele><time>2026-05-09T10:05:39Z</time></trkpt>
      <trkpt lat="59.484639" lon="24.838427"><ele>3.23</ele><time>2026-05-09T10:05:51Z</time></trkpt>
      <trkpt lat="59.484722" lon="24.838353"><ele>3.22</ele><time>2026-05-09T10:05:59Z</time></trkpt>
      <trkpt lat="59.484772" lon="24.838338"><ele>3.21</ele><time>2026-05-09T10:06:04Z</time></trkpt>
      <trkpt lat="59.484955" lon="24.838376"><ele>3.18</ele><time>2026-05-09T10:06:21Z</time></trkpt>
      <trkpt lat="59.48509" lon="24.838382"><ele>3.16</ele><time>2026-05-09T10:06:33Z</time></trkpt>
      <trkpt lat="59.485201" lon="24.838424"><ele>3.14</ele><time>2026-05-09T10:06:43Z</time></trkpt>
      <trkpt lat="59.485249" lon="24.838429"><ele>3.13</ele><time>2026-05-09T10:06:48Z</time></trkpt>
      <trkpt lat="59.48536" lon="24.838362"><ele>3.11</ele><time>2026-05-09T10:06:58Z</time></trkpt>
      <trkpt lat="59.485458" lon="24.838353"><ele>3.1</ele><time>2026-05-09T10:07:07Z</time></trkpt>
      <trkpt lat="59.485753" lon="24.838417"><ele>3.05</ele><time>2026-05-09T10:07:34Z</time></trkpt>
      <trkpt lat="59.485896" lon="24.838397"><ele>3.03</ele><time>2026-05-09T10:07:47Z</time></trkpt>
      <trkpt lat="59.486055" lon="24.838312"><ele>3</ele><time>2026-05-09T10:08:02Z</time></trkpt>
      <trkpt lat="59.486171" lon="24.838274"><ele>2.98</ele><time>2026-05-09T10:08:13Z</time></trkpt>
      <trkpt lat="59.486259" lon="24.838262"><ele>2.96</ele><time>2026-05-09T10:08:21Z</time></trkpt>
      <trkpt lat="59.486817" lon="24.838109"><ele>2.87</ele><time>2026-05-09T10:09:12Z</time></trkpt>
      <trkpt lat="59.486977" lon="24.837955"><ele>2.48</ele><time>2026-05-09T10:09:28Z</time></trkpt>
      <trkpt lat="59.487257" lon="24.837805"><ele>2.1</ele><time>2026-05-09T10:09:55Z</time></trkpt>
      <trkpt lat="59.487424" lon="24.837658"><ele>1.97</ele><time>2026-05-09T10:10:11Z</time></trkpt>
      <trkpt lat="59.487467" lon="24.837642"><ele>2.15</ele><time>2026-05-09T10:10:15Z</time></trkpt>
      <trkpt lat="59.487617" lon="24.837632"><ele>2.86</ele><time>2026-05-09T10:10:29Z</time></trkpt>
      <trkpt lat="59.487942" lon="24.837464"><ele>3</ele><time>2026-05-09T10:11:00Z</time></trkpt>
      <trkpt lat="59.48805" lon="24.837531"><ele>3</ele><time>2026-05-09T10:11:10Z</time></trkpt>
      <trkpt lat="59.488377" lon="24.83718"><ele>3</ele><time>2026-05-09T10:11:44Z</time></trkpt>
      <trkpt lat="59.488326" lon="24.83707"><ele>2.52</ele><time>2026-05-09T10:11:51Z</time></trkpt>
    </trkseg>
  </trk>
</gpx>
