<?xml version="1.0" encoding="UTF-8"?>
<gpx version="1.1" creator="HoldMyTrack" xmlns="http://www.topografix.com/GPX/1/1">
  <trk>
    <type>driving</type>
    <trkseg>
      <trkpt lat="41.4032468944788" lon="-81.74598908051848"><ele>217</ele><time>2026-09-27T17:27:29Z</time></trkpt>
      <trkpt lat="41.40329672489315" lon="-81.74603207968175"><ele>218</ele><time>2026-09-27T17:27:40Z</time></trkpt>
      <trkpt lat="41.40334873460233" lon="-81.74616015516222"><ele>218</ele><time>2026-09-27T17:27:43Z</time></trkpt>
      <trkpt lat="41.4032397698611" lon="-81.7463456466794"><ele>218</ele><time>2026-09-27T17:27:46Z</time></trkpt>
      <trkpt lat="41.40304795000702" lon="-81.74656567163765"><ele>218</ele><time>2026-09-27T17:27:49Z</time></trkpt>
      <trkpt lat="41.40292607713491" lon="-81.74680396914482"><ele>218</ele><time>2026-09-27T17:27:52Z</time></trkpt>
      <trkpt lat="41.40297381207347" lon="-81.74699918366969"><ele>218</ele><time>2026-09-27T17:27:55Z</time></trkpt>
      <trkpt lat="41.40311483759433" lon="-81.74714963883162"><ele>217</ele><time>2026-09-27T17:27:58Z</time></trkpt>
      <trkpt lat="41.403320990502834" lon="-81.74724561162293"><ele>217</ele><time>2026-09-27T17:28:01Z</time></trkpt>
      <trkpt lat="41.40361385419965" lon="-81.74726204015315"><ele>216</ele><time>2026-09-27T17:28:04Z</time></trkpt>
      <trkpt lat="41.40386573038995" lon="-81.74728441983461"><ele>216</ele><time>2026-09-27T17:28:07Z</time></trkpt>
      <trkpt lat="41.404145560227334" lon="-81.74729565158486"><ele>216</ele><time>2026-09-27T17:28:10Z</time></trkpt>
      <trkpt lat="41.40442589297891" lon="-81.74729120917618"><ele>216</ele><time>2026-09-27T17:28:13Z</time></trkpt>
      <trkpt lat="41.40464361291379" lon="-81.74726648256183"><ele>216</ele><time>2026-09-27T17:28:16Z</time></trkpt>
      <trkpt lat="41.40473355073482" lon="-81.7472762055695"><ele>216</ele><time>2026-09-27T17:28:19Z</time></trkpt>
      <trkpt lat="41.40479716937989" lon="-81.74728525802493"><ele>216</ele><time>2026-09-27T17:28:37Z</time></trkpt>
      <trkpt lat="41.404897291213274" lon="-81.7474178597331"><ele>216</ele><time>2026-09-27T17:28:40Z</time></trkpt>
      <trkpt lat="41.40491371974349" lon="-81.7477651219815"><ele>217</ele><time>2026-09-27T17:28:43Z</time></trkpt>
      <trkpt lat="41.40492738224566" lon="-81.74825998954475"><ele>215</ele><time>2026-09-27T17:28:46Z</time></trkpt>
      <trkpt lat="41.40494213439524" lon="-81.74880749545991"><ele>215</ele><time>2026-09-27T17:28:49Z</time></trkpt>
      <trkpt lat="41.40495349187404" lon="-81.74938534386456"><ele>216</ele><time>2026-09-27T17:28:52Z</time></trkpt>
      <trkpt lat="41.404958395287395" lon="-81.74997040070593"><ele>216</ele><time>2026-09-27T17:28:55Z</time></trkpt>
      <trkpt lat="41.404941380023956" lon="-81.75054900348186"><ele>216</ele><time>2026-09-27T17:28:58Z</time></trkpt>
      <trkpt lat="41.404949803836644" lon="-81.75114923156798"><ele>215</ele><time>2026-09-27T17:29:01Z</time></trkpt>
      <trkpt lat="41.404959191568196" lon="-81.75175834447145"><ele>214</ele><time>2026-09-27T17:29:04Z</time></trkpt>
      <trkpt lat="41.40496174804866" lon="-81.75234918482602"><ele>213</ele><time>2026-09-27T17:29:07Z</time></trkpt>
      <trkpt lat="41.40495177358389" lon="-81.75293851643801"><ele>212</ele><time>2026-09-27T17:29:10Z</time></trkpt>
      <trkpt lat="41.404954539611936" lon="-81.75351535901427"><ele>212</ele><time>2026-09-27T17:29:13Z</time></trkpt>
      <trkpt lat="41.40495441388339" lon="-81.75408432260156"><ele>211</ele><time>2026-09-27T17:29:16Z</time></trkpt>
      <trkpt lat="41.40496124513447" lon="-81.7546571418643"><ele>210</ele><time>2026-09-27T17:29:19Z</time></trkpt>
      <trkpt lat="41.404985594563186" lon="-81.75526189617813"><ele>210</ele><time>2026-09-27T17:29:22Z</time></trkpt>
      <trkpt lat="41.404994018375874" lon="-81.75585667602718"><ele>209</ele><time>2026-09-27T17:29:25Z</time></trkpt>
      <trkpt lat="41.40500742942095" lon="-81.7564030084759"><ele>207</ele><time>2026-09-27T17:29:28Z</time></trkpt>
      <trkpt lat="41.405014176853" lon="-81.75693584606051"><ele>207</ele><time>2026-09-27T17:29:31Z</time></trkpt>
      <trkpt lat="41.40501057263464" lon="-81.7574929073453"><ele>208</ele><time>2026-09-27T17:29:34Z</time></trkpt>
      <trkpt lat="41.40501325484365" lon="-81.75806463696063"><ele>208</ele><time>2026-09-27T17:29:37Z</time></trkpt>
      <trkpt lat="41.40500428620726" lon="-81.75860627554357"><ele>208</ele><time>2026-09-27T17:29:40Z</time></trkpt>
      <trkpt lat="41.40498362481594" lon="-81.75917884334922"><ele>207</ele><time>2026-09-27T17:29:43Z</time></trkpt>
      <trkpt lat="41.40498375054449" lon="-81.7597528360784"><ele>207</ele><time>2026-09-27T17:29:46Z</time></trkpt>
      <trkpt lat="41.404992802999914" lon="-81.76029849797487"><ele>207</ele><time>2026-09-27T17:29:49Z</time></trkpt>
      <trkpt lat="41.4050038671121" lon="-81.76079629920423"><ele>207</ele><time>2026-09-27T17:29:52Z</time></trkpt>
      <trkpt lat="41.40502084046602" lon="-81.76119100302458"><ele>207</ele><time>2026-09-27T17:29:55Z</time></trkpt>
      <trkpt lat="41.40503492206335" lon="-81.76139057613909"><ele>210</ele><time>2026-09-27T17:29:58Z</time></trkpt>
      <trkpt lat="41.40503282658756" lon="-81.76145880483091"><ele>210</ele><time>2026-09-27T17:30:01Z</time></trkpt>
      <trkpt lat="41.405030731111765" lon="-81.76152242347598"><ele>210</ele><time>2026-09-27T17:30:10Z</time></trkpt>
      <trkpt lat="41.40502666588873" lon="-81.76180187612772"><ele>208</ele><time>2026-09-27T17:30:13Z</time></trkpt>
      <trkpt lat="41.40503379050642" lon="-81.76226506009698"><ele>208</ele><time>2026-09-27T17:30:16Z</time></trkpt>
      <trkpt lat="41.405032742768526" lon="-81.76280871033669"><ele>208</ele><time>2026-09-27T17:30:19Z</time></trkpt>
      <trkpt lat="41.405040537938476" lon="-81.76336317323148"><ele>208</ele><time>2026-09-27T17:30:22Z</time></trkpt>
      <trkpt lat="41.40504091512412" lon="-81.76392526365817"><ele>209</ele><time>2026-09-27T17:30:25Z</time></trkpt>
      <trkpt lat="41.40504979994148" lon="-81.7644814029336"><ele>209</ele><time>2026-09-27T17:30:28Z</time></trkpt>
      <trkpt lat="41.40506446827203" lon="-81.76505388692021"><ele>210</ele><time>2026-09-27T17:30:31Z</time></trkpt>
      <trkpt lat="41.40507578384131" lon="-81.76561740227044"><ele>212</ele><time>2026-09-27T17:30:34Z</time></trkpt>
      <trkpt lat="41.40507092233747" lon="-81.766173876822"><ele>210</ele><time>2026-09-27T17:30:37Z</time></trkpt>
      <trkpt lat="41.40508554875851" lon="-81.76672213710845"><ele>211</ele><time>2026-09-27T17:30:40Z</time></trkpt>
      <trkpt lat="41.405082950368524" lon="-81.76723133772612"><ele>211</ele><time>2026-09-27T17:30:43Z</time></trkpt>
      <trkpt lat="41.40508483629674" lon="-81.76767197437584"><ele>211</ele><time>2026-09-27T17:30:46Z</time></trkpt>
      <trkpt lat="41.40509099699557" lon="-81.76794623024762"><ele>210</ele><time>2026-09-27T17:30:49Z</time></trkpt>
      <trkpt lat="41.40509263146669" lon="-81.76805444061756"><ele>209</ele><time>2026-09-27T17:30:52Z</time></trkpt>
      <trkpt lat="41.405090326443315" lon="-81.76817539148033"><ele>209</ele><time>2026-09-27T17:31:05Z</time></trkpt>
      <trkpt lat="41.40508135780692" lon="-81.76849029958248"><ele>211</ele><time>2026-09-27T17:31:08Z</time></trkpt>
      <trkpt lat="41.40510373748839" lon="-81.76879447884858"><ele>211</ele><time>2026-09-27T17:31:11Z</time></trkpt>
      <trkpt lat="41.40523101668805" lon="-81.76892230287194"><ele>212</ele><time>2026-09-27T17:31:14Z</time></trkpt>
      <trkpt lat="41.405483395792544" lon="-81.76889212802052"><ele>212</ele><time>2026-09-27T17:31:17Z</time></trkpt>
      <trkpt lat="41.40581263694912" lon="-81.7688920442015"><ele>211</ele><time>2026-09-27T17:31:20Z</time></trkpt>
      <trkpt lat="41.406209017150104" lon="-81.76886840723455"><ele>209</ele><time>2026-09-27T17:31:23Z</time></trkpt>
      <trkpt lat="41.40663800295442" lon="-81.76885256543756"><ele>209</ele><time>2026-09-27T17:31:26Z</time></trkpt>
      <trkpt lat="41.40700810588896" lon="-81.76888081245124"><ele>209</ele><time>2026-09-27T17:31:29Z</time></trkpt>
      <trkpt lat="41.4074154663831" lon="-81.76887033507228"><ele>208</ele><time>2026-09-27T17:31:32Z</time></trkpt>
      <trkpt lat="41.40783950686455" lon="-81.7688672337681"><ele>208</ele><time>2026-09-27T17:31:35Z</time></trkpt>
      <trkpt lat="41.408270839601755" lon="-81.76885667257011"><ele>209</ele><time>2026-09-27T17:31:38Z</time></trkpt>
      <trkpt lat="41.408697185106575" lon="-81.76885357126594"><ele>206</ele><time>2026-09-27T17:31:41Z</time></trkpt>
      <trkpt lat="41.40915123280138" lon="-81.76886337809265"><ele>207</ele><time>2026-09-27T17:31:44Z</time></trkpt>
      <trkpt lat="41.40957921277732" lon="-81.76886253990233"><ele>207</ele><time>2026-09-27T17:31:47Z</time></trkpt>
      <trkpt lat="41.41002244781703" lon="-81.76885843276978"><ele>207</ele><time>2026-09-27T17:31:50Z</time></trkpt>
      <trkpt lat="41.410472597926855" lon="-81.76884770393372"><ele>205</ele><time>2026-09-27T17:31:53Z</time></trkpt>
      <trkpt lat="41.410937500186265" lon="-81.76884803920984"><ele>205</ele><time>2026-09-27T17:31:56Z</time></trkpt>
      <trkpt lat="41.41140106134117" lon="-81.76882691681385"><ele>204</ele><time>2026-09-27T17:31:59Z</time></trkpt>
      <trkpt lat="41.411865754053" lon="-81.76881895400584"><ele>204</ele><time>2026-09-27T17:32:02Z</time></trkpt>
      <trkpt lat="41.41231904737651" lon="-81.76881451159716"><ele>204</ele><time>2026-09-27T17:32:05Z</time></trkpt>
      <trkpt lat="41.41271295491606" lon="-81.76879967562854"><ele>203</ele><time>2026-09-27T17:32:08Z</time></trkpt>
      <trkpt lat="41.413060552440584" lon="-81.76878752186894"><ele>203</ele><time>2026-09-27T17:32:11Z</time></trkpt>
      <trkpt lat="41.41338476445526" lon="-81.76878467202187"><ele>204</ele><time>2026-09-27T17:32:14Z</time></trkpt>
      <trkpt lat="41.41371580772102" lon="-81.76878173835576"><ele>205</ele><time>2026-09-27T17:32:17Z</time></trkpt>
      <trkpt lat="41.414056196808815" lon="-81.76876690238714"><ele>205</ele><time>2026-09-27T17:32:20Z</time></trkpt>
      <trkpt lat="41.414436819031835" lon="-81.76875893957913"><ele>205</ele><time>2026-09-27T17:32:23Z</time></trkpt>
      <trkpt lat="41.414833534508944" lon="-81.76875986158848"><ele>206</ele><time>2026-09-27T17:32:26Z</time></trkpt>
      <trkpt lat="41.41522559802979" lon="-81.76875240169466"><ele>205</ele><time>2026-09-27T17:32:29Z</time></trkpt>
      <trkpt lat="41.415629354305565" lon="-81.76874762400985"><ele>204</ele><time>2026-09-27T17:32:32Z</time></trkpt>
      <trkpt lat="41.41605305951089" lon="-81.76876162178814"><ele>204</ele><time>2026-09-27T17:32:35Z</time></trkpt>
      <trkpt lat="41.41646997537464" lon="-81.76874276250601"><ele>204</ele><time>2026-09-27T17:32:38Z</time></trkpt>
      <trkpt lat="41.416877042502165" lon="-81.76873119547963"><ele>204</ele><time>2026-09-27T17:32:41Z</time></trkpt>
      <trkpt lat="41.41726072411984" lon="-81.76872348412871"><ele>204</ele><time>2026-09-27T17:32:44Z</time></trkpt>
      <trkpt lat="41.41757814679295" lon="-81.76871325820684"><ele>205</ele><time>2026-09-27T17:32:47Z</time></trkpt>
      <trkpt lat="41.41780357807875" lon="-81.76874586381018"><ele>204</ele><time>2026-09-27T17:32:50Z</time></trkpt>
      <trkpt lat="41.41797088086605" lon="-81.7687503900379"><ele>203</ele><time>2026-09-27T17:32:53Z</time></trkpt>
      <trkpt lat="41.41815930604935" lon="-81.76873999647796"><ele>203</ele><time>2026-09-27T17:32:56Z</time></trkpt>
      <trkpt lat="41.4183743018657" lon="-81.76875131204724"><ele>202</ele><time>2026-09-27T17:32:59Z</time></trkpt>
      <trkpt lat="41.41850870568305" lon="-81.76894258707762"><ele>201</ele><time>2026-09-27T17:33:02Z</time></trkpt>
      <trkpt lat="41.41851427964866" lon="-81.7693289089948"><ele>201</ele><time>2026-09-27T17:33:05Z</time></trkpt>
      <trkpt lat="41.41849621664733" lon="-81.76982469856739"><ele>200</ele><time>2026-09-27T17:33:08Z</time></trkpt>
      <trkpt lat="41.418475890532136" lon="-81.77038913592696"><ele>202</ele><time>2026-09-27T17:33:11Z</time></trkpt>
      <trkpt lat="41.418481757864356" lon="-81.77099942229688"><ele>202</ele><time>2026-09-27T17:33:14Z</time></trkpt>
      <trkpt lat="41.418470735661685" lon="-81.77161515690386"><ele>202</ele><time>2026-09-27T17:33:17Z</time></trkpt>
      <trkpt lat="41.41846302431077" lon="-81.77223407663405"><ele>204</ele><time>2026-09-27T17:33:20Z</time></trkpt>
      <trkpt lat="41.418467718176544" lon="-81.77284352481365"><ele>203</ele><time>2026-09-27T17:33:23Z</time></trkpt>
      <trkpt lat="41.41846792772412" lon="-81.77347258664668"><ele>203</ele><time>2026-09-27T17:33:26Z</time></trkpt>
      <trkpt lat="41.418463443405926" lon="-81.77409485913813"><ele>202</ele><time>2026-09-27T17:33:29Z</time></trkpt>
      <trkpt lat="41.41846612561494" lon="-81.77472459152341"><ele>202</ele><time>2026-09-27T17:33:32Z</time></trkpt>
      <trkpt lat="41.4184776507318" lon="-81.77536924369633"><ele>201</ele><time>2026-09-27T17:33:35Z</time></trkpt>
      <trkpt lat="41.41850074287504" lon="-81.77598187699914"><ele>202</ele><time>2026-09-27T17:33:38Z</time></trkpt>
      <trkpt lat="41.418497348204255" lon="-81.7765465658158"><ele>204</ele><time>2026-09-27T17:33:41Z</time></trkpt>
      <trkpt lat="41.41848871484399" lon="-81.77706599235535"><ele>205</ele><time>2026-09-27T17:33:44Z</time></trkpt>
      <trkpt lat="41.41849609091878" lon="-81.77756798453629"><ele>205</ele><time>2026-09-27T17:33:47Z</time></trkpt>
      <trkpt lat="41.41849680338055" lon="-81.77807433530688"><ele>204</ele><time>2026-09-27T17:33:50Z</time></trkpt>
      <trkpt lat="41.418497348204255" lon="-81.77859744988382"><ele>204</ele><time>2026-09-27T17:33:53Z</time></trkpt>
      <trkpt lat="41.418523541651666" lon="-81.77910002879798"><ele>206</ele><time>2026-09-27T17:33:56Z</time></trkpt>
      <trkpt lat="41.418553716503084" lon="-81.77959925495088"><ele>206</ele><time>2026-09-27T17:33:59Z</time></trkpt>
      <trkpt lat="41.41855488996953" lon="-81.78008481860161"><ele>207</ele><time>2026-09-27T17:34:02Z</time></trkpt>
      <trkpt lat="41.41855941619724" lon="-81.78049662150443"><ele>206</ele><time>2026-09-27T17:34:05Z</time></trkpt>
      <trkpt lat="41.418606312945485" lon="-81.78071103058755"><ele>205</ele><time>2026-09-27T17:34:08Z</time></trkpt>
      <trkpt lat="41.418678145855665" lon="-81.78076408803463"><ele>204</ele><time>2026-09-27T17:34:11Z</time></trkpt>
      <trkpt lat="41.41882793046534" lon="-81.78076618351042"><ele>202</ele><time>2026-09-27T17:34:14Z</time></trkpt>
      <trkpt lat="41.41912033315748" lon="-81.78066425956786"><ele>201</ele><time>2026-09-27T17:34:17Z</time></trkpt>
      <trkpt lat="41.41954579856247" lon="-81.78054003976285"><ele>200</ele><time>2026-09-27T17:34:20Z</time></trkpt>
      <trkpt lat="41.420006761327386" lon="-81.78043199703097"><ele>200</ele><time>2026-09-27T17:34:23Z</time></trkpt>
      <trkpt lat="41.42042531166226" lon="-81.78037307225168"><ele>200</ele><time>2026-09-27T17:34:26Z</time></trkpt>
      <trkpt lat="41.42084977123886" lon="-81.78024373948574"><ele>200</ele><time>2026-09-27T17:34:34Z</time></trkpt>
      <trkpt lat="41.42079671379179" lon="-81.78025706671178"><ele>201</ele><time>2026-09-27T17:34:40Z</time></trkpt>
      <trkpt lat="41.42084532883018" lon="-81.78028833121061"><ele>201</ele><time>2026-09-27T17:34:43Z</time></trkpt>
      <trkpt lat="41.420987150631845" lon="-81.78030668757856"><ele>204</ele><time>2026-09-27T17:34:46Z</time></trkpt>
      <trkpt lat="41.42103488557041" lon="-81.78032311610878"><ele>204</ele><time>2026-09-27T17:35:14Z</time></trkpt>
      <trkpt lat="41.421109065413475" lon="-81.78033526986837"><ele>203</ele><time>2026-09-27T17:35:17Z</time></trkpt>
      <trkpt lat="41.42118643037975" lon="-81.78056459873915"><ele>202</ele><time>2026-09-27T17:35:20Z</time></trkpt>
      <trkpt lat="41.421099971048534" lon="-81.78091336973011"><ele>201</ele><time>2026-09-27T17:35:23Z</time></trkpt>
      <trkpt lat="41.42097428441048" lon="-81.78140371106565"><ele>200</ele><time>2026-09-27T17:35:26Z</time></trkpt>
      <trkpt lat="41.42081033438444" lon="-81.78205942735076"><ele>200</ele><time>2026-09-27T17:35:29Z</time></trkpt>
      <trkpt lat="41.420631716027856" lon="-81.78284933790565"><ele>200</ele><time>2026-09-27T17:35:32Z</time></trkpt>
      <trkpt lat="41.42054433468729" lon="-81.78375315852463"><ele>202</ele><time>2026-09-27T17:35:35Z</time></trkpt>
      <trkpt lat="41.42051671631634" lon="-81.78475169464946"><ele>201</ele><time>2026-09-27T17:35:38Z</time></trkpt>
      <trkpt lat="41.42049701884389" lon="-81.78575861267745"><ele>202</ele><time>2026-09-27T17:35:41Z</time></trkpt>
      <trkpt lat="41.42049932386726" lon="-81.78679855540395"><ele>203</ele><time>2026-09-27T17:35:44Z</time></trkpt>
      <trkpt lat="41.42051726114005" lon="-81.78784034214914"><ele>203</ele><time>2026-09-27T17:35:47Z</time></trkpt>
      <trkpt lat="41.42052669078112" lon="-81.78888405673206"><ele>204</ele><time>2026-09-27T17:35:50Z</time></trkpt>
      <trkpt lat="41.42052493058145" lon="-81.7899212334305"><ele>203</ele><time>2026-09-27T17:35:53Z</time></trkpt>
      <trkpt lat="41.420526816509664" lon="-81.79093955084682"><ele>204</ele><time>2026-09-27T17:35:56Z</time></trkpt>
      <trkpt lat="41.42054010182619" lon="-81.79195334203541"><ele>205</ele><time>2026-09-27T17:35:59Z</time></trkpt>
      <trkpt lat="41.42054848372936" lon="-81.79294802248478"><ele>205</ele><time>2026-09-27T17:36:02Z</time></trkpt>
      <trkpt lat="41.42056369688362" lon="-81.79393549449742"><ele>205</ele><time>2026-09-27T17:36:05Z</time></trkpt>
      <trkpt lat="41.420575683005154" lon="-81.79492288269103"><ele>207</ele><time>2026-09-27T17:36:08Z</time></trkpt>
      <trkpt lat="41.42056419979781" lon="-81.79588705301285"><ele>209</ele><time>2026-09-27T17:36:11Z</time></trkpt>
      <trkpt lat="41.420554015785456" lon="-81.79685608483851"><ele>211</ele><time>2026-09-27T17:36:14Z</time></trkpt>
      <trkpt lat="41.420563445426524" lon="-81.79784514941275"><ele>212</ele><time>2026-09-27T17:36:17Z</time></trkpt>
      <trkpt lat="41.420570528134704" lon="-81.79884670302272"><ele>213</ele><time>2026-09-27T17:36:20Z</time></trkpt>
      <trkpt lat="41.420573838986456" lon="-81.79986451752484"><ele>214</ele><time>2026-09-27T17:36:23Z</time></trkpt>
      <trkpt lat="41.420583478175104" lon="-81.80088568478823"><ele>211</ele><time>2026-09-27T17:36:26Z</time></trkpt>
      <trkpt lat="41.42059202771634" lon="-81.80190450511873"><ele>208</ele><time>2026-09-27T17:36:29Z</time></trkpt>
      <trkpt lat="41.42059026751667" lon="-81.80292516946793"><ele>205</ele><time>2026-09-27T17:36:32Z</time></trkpt>
      <trkpt lat="41.42057191114873" lon="-81.80394331924617"><ele>202</ele><time>2026-09-27T17:36:35Z</time></trkpt>
      <trkpt lat="41.420574258081615" lon="-81.80496172048151"><ele>201</ele><time>2026-09-27T17:36:38Z</time></trkpt>
      <trkpt lat="41.420575054362416" lon="-81.80598556995392"><ele>200</ele><time>2026-09-27T17:36:41Z</time></trkpt>
      <trkpt lat="41.42058058641851" lon="-81.80700573138893"><ele>200</ele><time>2026-09-27T17:36:44Z</time></trkpt>
      <trkpt lat="41.42059315927327" lon="-81.80802807211876"><ele>200</ele><time>2026-09-27T17:36:47Z</time></trkpt>
      <trkpt lat="41.42060707323253" lon="-81.80905192159116"><ele>200</ele><time>2026-09-27T17:36:50Z</time></trkpt>
      <trkpt lat="41.42060887534171" lon="-81.81006965227425"><ele>201</ele><time>2026-09-27T17:36:53Z</time></trkpt>
      <trkpt lat="41.420607240870595" lon="-81.8110994528979"><ele>201</ele><time>2026-09-27T17:36:56Z</time></trkpt>
      <trkpt lat="41.4206183468923" lon="-81.81212640367448"><ele>201</ele><time>2026-09-27T17:36:59Z</time></trkpt>
      <trkpt lat="41.42062270548195" lon="-81.81314807385206"><ele>201</ele><time>2026-09-27T17:37:02Z</time></trkpt>
      <trkpt lat="41.42063427250832" lon="-81.81417510844767"><ele>202</ele><time>2026-09-27T17:37:05Z</time></trkpt>
      <trkpt lat="41.42064718063921" lon="-81.81516543030739"><ele>202</ele><time>2026-09-27T17:37:08Z</time></trkpt>
      <trkpt lat="41.42063569743186" lon="-81.81611970998347"><ele>204</ele><time>2026-09-27T17:37:11Z</time></trkpt>
      <trkpt lat="41.42064554616809" lon="-81.81710232049227"><ele>206</ele><time>2026-09-27T17:37:14Z</time></trkpt>
      <trkpt lat="41.4206508686766" lon="-81.81808493100107"><ele>208</ele><time>2026-09-27T17:37:17Z</time></trkpt>
      <trkpt lat="41.42065728083253" lon="-81.81908749043941"><ele>209</ele><time>2026-09-27T17:37:20Z</time></trkpt>
      <trkpt lat="41.4206606335938" lon="-81.82010639458895"><ele>211</ele><time>2026-09-27T17:37:23Z</time></trkpt>
      <trkpt lat="41.42067060805857" lon="-81.82111850939691"><ele>214</ele><time>2026-09-27T17:37:26Z</time></trkpt>
      <trkpt lat="41.420697891153395" lon="-81.82215224951506"><ele>217</ele><time>2026-09-27T17:37:29Z</time></trkpt>
      <trkpt lat="41.42070694360882" lon="-81.82315438985825"><ele>218</ele><time>2026-09-27T17:37:32Z</time></trkpt>
      <trkpt lat="41.42072261776775" lon="-81.82417564094067"><ele>217</ele><time>2026-09-27T17:37:35Z</time></trkpt>
      <trkpt lat="41.420697891153395" lon="-81.8251963891089"><ele>217</ele><time>2026-09-27T17:37:38Z</time></trkpt>
      <trkpt lat="41.42062345985323" lon="-81.82621562853456"><ele>216</ele><time>2026-09-27T17:37:41Z</time></trkpt>
      <trkpt lat="41.42054194584489" lon="-81.82720804587007"><ele>214</ele><time>2026-09-27T17:37:44Z</time></trkpt>
      <trkpt lat="41.420443248935044" lon="-81.82820348069072"><ele>213</ele><time>2026-09-27T17:37:47Z</time></trkpt>
      <trkpt lat="41.42035234719515" lon="-81.82922062464058"><ele>210</ele><time>2026-09-27T17:37:50Z</time></trkpt>
      <trkpt lat="41.42026186455041" lon="-81.83022871613503"><ele>209</ele><time>2026-09-27T17:37:53Z</time></trkpt>
      <trkpt lat="41.42017628531903" lon="-81.83125717565417"><ele>208</ele><time>2026-09-27T17:37:56Z</time></trkpt>
      <trkpt lat="41.42009037081152" lon="-81.8322673626244"><ele>206</ele><time>2026-09-27T17:37:59Z</time></trkpt>
      <trkpt lat="41.42003433778882" lon="-81.8332880269736"><ele>205</ele><time>2026-09-27T17:38:02Z</time></trkpt>
      <trkpt lat="41.42004519235343" lon="-81.83431246317923"><ele>203</ele><time>2026-09-27T17:38:05Z</time></trkpt>
      <trkpt lat="41.420101267285645" lon="-81.83532684110105"><ele>202</ele><time>2026-09-27T17:38:08Z</time></trkpt>
      <trkpt lat="41.42021308187395" lon="-81.83632629923522"><ele>200</ele><time>2026-09-27T17:38:11Z</time></trkpt>
      <trkpt lat="41.42040062695742" lon="-81.83732223697007"><ele>197</ele><time>2026-09-27T17:38:14Z</time></trkpt>
      <trkpt lat="41.42065451480448" lon="-81.83830501511693"><ele>194</ele><time>2026-09-27T17:38:17Z</time></trkpt>
      <trkpt lat="41.42093903850764" lon="-81.83925577439368"><ele>193</ele><time>2026-09-27T17:38:20Z</time></trkpt>
      <trkpt lat="41.42124627716839" lon="-81.84019463136792"><ele>191</ele><time>2026-09-27T17:38:23Z</time></trkpt>
      <trkpt lat="41.42156487330794" lon="-81.84112519025803"><ele>190</ele><time>2026-09-27T17:38:26Z</time></trkpt>
      <trkpt lat="41.42187814693898" lon="-81.842060694471"><ele>190</ele><time>2026-09-27T17:38:29Z</time></trkpt>
      <trkpt lat="41.422204077243805" lon="-81.8430171534419"><ele>191</ele><time>2026-09-27T17:38:32Z</time></trkpt>
      <trkpt lat="41.42252078745514" lon="-81.84396204538643"><ele>190</ele><time>2026-09-27T17:38:35Z</time></trkpt>
      <trkpt lat="41.422828026115894" lon="-81.84490249492228"><ele>189</ele><time>2026-09-27T17:38:38Z</time></trkpt>
      <trkpt lat="41.423154207877815" lon="-81.84581821784377"><ele>190</ele><time>2026-09-27T17:38:41Z</time></trkpt>
      <trkpt lat="41.42341794446111" lon="-81.84670183807611"><ele>191</ele><time>2026-09-27T17:38:44Z</time></trkpt>
      <trkpt lat="41.423641364090145" lon="-81.84760356321931"><ele>192</ele><time>2026-09-27T17:38:47Z</time></trkpt>
      <trkpt lat="41.423825807869434" lon="-81.84853957034647"><ele>192</ele><time>2026-09-27T17:38:50Z</time></trkpt>
      <trkpt lat="41.42398334573954" lon="-81.8494987115264"><ele>191</ele><time>2026-09-27T17:38:53Z</time></trkpt>
      <trkpt lat="41.424095747061074" lon="-81.85047059319913"><ele>191</ele><time>2026-09-27T17:38:56Z</time></trkpt>
      <trkpt lat="41.424160790629685" lon="-81.85143266804516"><ele>191</ele><time>2026-09-27T17:38:59Z</time></trkpt>
      <trkpt lat="41.42422344535589" lon="-81.85239817947149"><ele>191</ele><time>2026-09-27T17:39:02Z</time></trkpt>
      <trkpt lat="41.42429511062801" lon="-81.853372072801"><ele>192</ele><time>2026-09-27T17:39:05Z</time></trkpt>
      <trkpt lat="41.42435399349779" lon="-81.85433205217123"><ele>192</ele><time>2026-09-27T17:39:08Z</time></trkpt>
      <trkpt lat="41.42442159354687" lon="-81.85530829243362"><ele>193</ele><time>2026-09-27T17:39:11Z</time></trkpt>
      <trkpt lat="41.4244933007285" lon="-81.85629785992205"><ele>191</ele><time>2026-09-27T17:39:14Z</time></trkpt>
      <trkpt lat="41.42455817665905" lon="-81.85729639604688"><ele>191</ele><time>2026-09-27T17:39:17Z</time></trkpt>
      <trkpt lat="41.42465326935053" lon="-81.8582935910672"><ele>192</ele><time>2026-09-27T17:39:20Z</time></trkpt>
      <trkpt lat="41.42473428044468" lon="-81.85930109582841"><ele>192</ele><time>2026-09-27T17:39:23Z</time></trkpt>
      <trkpt lat="41.4247953845188" lon="-81.86031262390316"><ele>193</ele><time>2026-09-27T17:39:26Z</time></trkpt>
      <trkpt lat="41.42486227210611" lon="-81.86132490634918"><ele>193</ele><time>2026-09-27T17:39:29Z</time></trkpt>
      <trkpt lat="41.4249153714627" lon="-81.86235001310706"><ele>194</ele><time>2026-09-27T17:39:32Z</time></trkpt>
      <trkpt lat="41.42494454048574" lon="-81.86337679624557"><ele>193</ele><time>2026-09-27T17:39:35Z</time></trkpt>
      <trkpt lat="41.424940433353186" lon="-81.864398047328"><ele>192</ele><time>2026-09-27T17:39:38Z</time></trkpt>
      <trkpt lat="41.42490661237389" lon="-81.86541745439172"><ele>194</ele><time>2026-09-27T17:39:41Z</time></trkpt>
      <trkpt lat="41.42484890297055" lon="-81.86643560416996"><ele>196</ele><time>2026-09-27T17:39:44Z</time></trkpt>
      <trkpt lat="41.42475904896855" lon="-81.86744084581733"><ele>198</ele><time>2026-09-27T17:39:47Z</time></trkpt>
      <trkpt lat="41.424640570767224" lon="-81.86843493953347"><ele>200</ele><time>2026-09-27T17:39:50Z</time></trkpt>
      <trkpt lat="41.424506711773574" lon="-81.86943942680955"><ele>197</ele><time>2026-09-27T17:39:53Z</time></trkpt>
      <trkpt lat="41.42433597240597" lon="-81.87044265680015"><ele>195</ele><time>2026-09-27T17:39:56Z</time></trkpt>
      <trkpt lat="41.42414846923202" lon="-81.87143985182047"><ele>191</ele><time>2026-09-27T17:39:59Z</time></trkpt>
      <trkpt lat="41.423926767893136" lon="-81.87242497690022"><ele>192</ele><time>2026-09-27T17:40:02Z</time></trkpt>
      <trkpt lat="41.423707539215684" lon="-81.87340079806745"><ele>194</ele><time>2026-09-27T17:40:05Z</time></trkpt>
      <trkpt lat="41.42349983565509" lon="-81.87438324093819"><ele>196</ele><time>2026-09-27T17:40:08Z</time></trkpt>
      <trkpt lat="41.423321552574635" lon="-81.87529049813747"><ele>200</ele><time>2026-09-27T17:40:11Z</time></trkpt>
      <trkpt lat="41.423160075210035" lon="-81.87609013170004"><ele>200</ele><time>2026-09-27T17:40:14Z</time></trkpt>
      <trkpt lat="41.4230254618451" lon="-81.87679865397513"><ele>198</ele><time>2026-09-27T17:40:17Z</time></trkpt>
      <trkpt lat="41.42295932862908" lon="-81.87721012160182"><ele>195</ele><time>2026-09-27T17:40:20Z</time></trkpt>
      <trkpt lat="41.4229607116431" lon="-81.87732964754105"><ele>195</ele><time>2026-09-27T17:40:23Z</time></trkpt>
      <trkpt lat="41.42298137303442" lon="-81.87742285430431"><ele>195</ele><time>2026-09-27T17:40:29Z</time></trkpt>
      <trkpt lat="41.42314477823675" lon="-81.8775153066963"><ele>194</ele><time>2026-09-27T17:40:32Z</time></trkpt>
      <trkpt lat="41.423421506769955" lon="-81.8775790091604"><ele>194</ele><time>2026-09-27T17:40:35Z</time></trkpt>
      <trkpt lat="41.42381616868079" lon="-81.87762016430497"><ele>195</ele><time>2026-09-27T17:40:38Z</time></trkpt>
      <trkpt lat="41.42426749225706" lon="-81.87765914015472"><ele>194</ele><time>2026-09-27T17:40:41Z</time></trkpt>
      <trkpt lat="41.424709344282746" lon="-81.87768680043519"><ele>195</ele><time>2026-09-27T17:40:44Z</time></trkpt>
      <trkpt lat="41.4251590333879" lon="-81.87771680764854"><ele>195</ele><time>2026-09-27T17:40:47Z</time></trkpt>
      <trkpt lat="41.425606459379196" lon="-81.87771437689662"><ele>195</ele><time>2026-09-27T17:40:50Z</time></trkpt>
      <trkpt lat="41.42604206688702" lon="-81.87773474492133"><ele>194</ele><time>2026-09-27T17:40:53Z</time></trkpt>
      <trkpt lat="41.42647897358984" lon="-81.87772301025689"><ele>194</ele><time>2026-09-27T17:40:56Z</time></trkpt>
      <trkpt lat="41.42691127024591" lon="-81.87770172022283"><ele>196</ele><time>2026-09-27T17:40:59Z</time></trkpt>
      <trkpt lat="41.42731041647494" lon="-81.87769484706223"><ele>194</ele><time>2026-09-27T17:41:02Z</time></trkpt>
      <trkpt lat="41.427652104757726" lon="-81.87770121730864"><ele>193</ele><time>2026-09-27T17:41:05Z</time></trkpt>
      <trkpt lat="41.42787330318242" lon="-81.87768529169261"><ele>192</ele><time>2026-09-27T17:41:08Z</time></trkpt>
      <trkpt lat="41.42811310943216" lon="-81.87768906354904"><ele>190</ele><time>2026-09-27T17:41:11Z</time></trkpt>
      <trkpt lat="41.42841707915068" lon="-81.87768227420747"><ele>190</ele><time>2026-09-27T17:41:14Z</time></trkpt>
      <trkpt lat="41.428786679171026" lon="-81.87767154537141"><ele>190</ele><time>2026-09-27T17:41:17Z</time></trkpt>
      <trkpt lat="41.42919667996466" lon="-81.87766316346824"><ele>190</ele><time>2026-09-27T17:41:20Z</time></trkpt>
      <trkpt lat="41.42962084617466" lon="-81.87766718678176"><ele>190</ele><time>2026-09-27T17:41:23Z</time></trkpt>
      <trkpt lat="41.43005414865911" lon="-81.87765972688794"><ele>192</ele><time>2026-09-27T17:41:26Z</time></trkpt>
      <trkpt lat="41.43048476893455" lon="-81.87763893976808"><ele>193</ele><time>2026-09-27T17:41:29Z</time></trkpt>
      <trkpt lat="41.43089187797159" lon="-81.87763659283519"><ele>194</ele><time>2026-09-27T17:41:32Z</time></trkpt>
      <trkpt lat="41.43126680050045" lon="-81.87771873548627"><ele>194</ele><time>2026-09-27T17:41:35Z</time></trkpt>
      <trkpt lat="41.431581121869385" lon="-81.87801168300211"><ele>193</ele><time>2026-09-27T17:41:38Z</time></trkpt>
      <trkpt lat="41.43190131057054" lon="-81.87839356251061"><ele>192</ele><time>2026-09-27T17:41:41Z</time></trkpt>
      <trkpt lat="41.43222254700959" lon="-81.87878457829356"><ele>192</ele><time>2026-09-27T17:41:44Z</time></trkpt>
      <trkpt lat="41.432486535049975" lon="-81.87914625741541"><ele>192</ele><time>2026-09-27T17:41:47Z</time></trkpt>
      <trkpt lat="41.43281104043126" lon="-81.87952847220004"><ele>191</ele><time>2026-09-27T17:41:50Z</time></trkpt>
      <trkpt lat="41.43312527798116" lon="-81.87985427677631"><ele>190</ele><time>2026-09-27T17:41:53Z</time></trkpt>
      <trkpt lat="41.43346541561186" lon="-81.88009140081704"><ele>191</ele><time>2026-09-27T17:41:56Z</time></trkpt>
      <trkpt lat="41.433833674527705" lon="-81.88028594478965"><ele>192</ele><time>2026-09-27T17:41:59Z</time></trkpt>
      <trkpt lat="41.43419120460749" lon="-81.88047395087779"><ele>193</ele><time>2026-09-27T17:42:02Z</time></trkpt>
      <trkpt lat="41.43455699086189" lon="-81.88067955896258"><ele>192</ele><time>2026-09-27T17:42:05Z</time></trkpt>
      <trkpt lat="41.434937068261206" lon="-81.88087443821132"><ele>193</ele><time>2026-09-27T17:42:08Z</time></trkpt>
      <trkpt lat="41.43531966023147" lon="-81.88107568770647"><ele>193</ele><time>2026-09-27T17:42:11Z</time></trkpt>
      <trkpt lat="41.43571042455733" lon="-81.88128548674285"><ele>192</ele><time>2026-09-27T17:42:14Z</time></trkpt>
      <trkpt lat="41.43610529601574" lon="-81.88148028217256"><ele>191</ele><time>2026-09-27T17:42:17Z</time></trkpt>
      <trkpt lat="41.436518146656454" lon="-81.88169351778924"><ele>189</ele><time>2026-09-27T17:42:20Z</time></trkpt>
      <trkpt lat="41.43692056182772" lon="-81.88191563822329"><ele>189</ele><time>2026-09-27T17:42:23Z</time></trkpt>
      <trkpt lat="41.43733479548246" lon="-81.88211881555617"><ele>189</ele><time>2026-09-27T17:42:26Z</time></trkpt>
      <trkpt lat="41.43773775547743" lon="-81.88232207670808"><ele>190</ele><time>2026-09-27T17:42:29Z</time></trkpt>
      <trkpt lat="41.43813468050212" lon="-81.88250849023461"><ele>191</ele><time>2026-09-27T17:42:32Z</time></trkpt>
      <trkpt lat="41.438524732366204" lon="-81.88270848244429"><ele>190</ele><time>2026-09-27T17:42:35Z</time></trkpt>
      <trkpt lat="41.4388989424333" lon="-81.88290227204561"><ele>191</ele><time>2026-09-27T17:42:38Z</time></trkpt>
      <trkpt lat="41.4392702607438" lon="-81.88307234086096"><ele>191</ele><time>2026-09-27T17:42:41Z</time></trkpt>
      <trkpt lat="41.43962473142892" lon="-81.8832450080663"><ele>189</ele><time>2026-09-27T17:42:44Z</time></trkpt>
      <trkpt lat="41.43997102975845" lon="-81.88340527005494"><ele>188</ele><time>2026-09-27T17:42:47Z</time></trkpt>
      <trkpt lat="41.44029633142054" lon="-81.88357005827129"><ele>187</ele><time>2026-09-27T17:42:50Z</time></trkpt>
      <trkpt lat="41.44061895087361" lon="-81.88368950039148"><ele>187</ele><time>2026-09-27T17:42:53Z</time></trkpt>
      <trkpt lat="41.44096244126558" lon="-81.8836958706379"><ele>186</ele><time>2026-09-27T17:42:56Z</time></trkpt>
      <trkpt lat="41.4412481803447" lon="-81.88370031304657"><ele>184</ele><time>2026-09-27T17:42:59Z</time></trkpt>
      <trkpt lat="41.44156455527991" lon="-81.88368120230734"><ele>182</ele><time>2026-09-27T17:43:02Z</time></trkpt>
      <trkpt lat="41.44191961269826" lon="-81.88367650844157"><ele>180</ele><time>2026-09-27T17:43:05Z</time></trkpt>
      <trkpt lat="41.44232165068388" lon="-81.88367374241352"><ele>182</ele><time>2026-09-27T17:43:08Z</time></trkpt>
      <trkpt lat="41.44276287406683" lon="-81.88366041518748"><ele>183</ele><time>2026-09-27T17:43:11Z</time></trkpt>
      <trkpt lat="41.44321206025779" lon="-81.88365370966494"><ele>182</ele><time>2026-09-27T17:43:14Z</time></trkpt>
      <trkpt lat="41.443648505955935" lon="-81.88364272937179"><ele>183</ele><time>2026-09-27T17:43:17Z</time></trkpt>
      <trkpt lat="41.44409886561334" lon="-81.88362604938447"><ele>183</ele><time>2026-09-27T17:43:20Z</time></trkpt>
      <trkpt lat="41.44454201683402" lon="-81.88359067775309"><ele>183</ele><time>2026-09-27T17:43:23Z</time></trkpt>
      <trkpt lat="41.4449901971966" lon="-81.88357165083289"><ele>183</ele><time>2026-09-27T17:43:26Z</time></trkpt>
      <trkpt lat="41.44543318077922" lon="-81.88355069607496"><ele>181</ele><time>2026-09-27T17:43:29Z</time></trkpt>
      <trkpt lat="41.44587721209973" lon="-81.88354239799082"><ele>181</ele><time>2026-09-27T17:43:32Z</time></trkpt>
      <trkpt lat="41.44631462171674" lon="-81.88353368081152"><ele>181</ele><time>2026-09-27T17:43:35Z</time></trkpt>
      <trkpt lat="41.44674825947732" lon="-81.88351783901453"><ele>182</ele><time>2026-09-27T17:43:38Z</time></trkpt>
      <trkpt lat="41.447179885581136" lon="-81.88350509852171"><ele>182</ele><time>2026-09-27T17:43:41Z</time></trkpt>
      <trkpt lat="41.44760778173804" lon="-81.88349244184792"><ele>182</ele><time>2026-09-27T17:43:44Z</time></trkpt>
      <trkpt lat="41.447971975430846" lon="-81.8834744207561"><ele>182</ele><time>2026-09-27T17:43:47Z</time></trkpt>
      <trkpt lat="41.44823093432933" lon="-81.8834638595581"><ele>183</ele><time>2026-09-27T17:43:50Z</time></trkpt>
      <trkpt lat="41.448505190201104" lon="-81.88344583846629"><ele>182</ele><time>2026-09-27T17:43:53Z</time></trkpt>
      <trkpt lat="41.448856350034475" lon="-81.88342203386128"><ele>183</ele><time>2026-09-27T17:43:56Z</time></trkpt>
      <trkpt lat="41.449269535951316" lon="-81.8833742570132"><ele>183</ele><time>2026-09-27T17:43:59Z</time></trkpt>
      <trkpt lat="41.44971193280071" lon="-81.88336134888232"><ele>183</ele><time>2026-09-27T17:44:02Z</time></trkpt>
      <trkpt lat="41.45016137044877" lon="-81.88332539051771"><ele>184</ele><time>2026-09-27T17:44:05Z</time></trkpt>
      <trkpt lat="41.45059743896127" lon="-81.88330619595945"><ele>184</ele><time>2026-09-27T17:44:08Z</time></trkpt>
      <trkpt lat="41.45106493961066" lon="-81.88328700140119"><ele>183</ele><time>2026-09-27T17:44:11Z</time></trkpt>
      <trkpt lat="41.45153830759227" lon="-81.88326495699584"><ele>180</ele><time>2026-09-27T17:44:14Z</time></trkpt>
      <trkpt lat="41.451995708048344" lon="-81.8832497857511"><ele>179</ele><time>2026-09-27T17:44:17Z</time></trkpt>
      <trkpt lat="41.45243441686034" lon="-81.88322505913675"><ele>180</ele><time>2026-09-27T17:44:20Z</time></trkpt>
      <trkpt lat="41.45286612678319" lon="-81.8832067027688"><ele>183</ele><time>2026-09-27T17:44:23Z</time></trkpt>
      <trkpt lat="41.45331455860287" lon="-81.88317828811705"><ele>185</ele><time>2026-09-27T17:44:26Z</time></trkpt>
      <trkpt lat="41.45376135595143" lon="-81.88315632753074"><ele>188</ele><time>2026-09-27T17:44:29Z</time></trkpt>
      <trkpt lat="41.45420689601451" lon="-81.88313780352473"><ele>187</ele><time>2026-09-27T17:44:32Z</time></trkpt>
      <trkpt lat="41.45464891567826" lon="-81.88311316072941"><ele>187</ele><time>2026-09-27T17:44:35Z</time></trkpt>
      <trkpt lat="41.45508682820946" lon="-81.88308382406831"><ele>187</ele><time>2026-09-27T17:44:38Z</time></trkpt>
      <trkpt lat="41.45549364387989" lon="-81.88306387513876"><ele>186</ele><time>2026-09-27T17:44:41Z</time></trkpt>
      <trkpt lat="41.45580666605383" lon="-81.88302942551672"><ele>186</ele><time>2026-09-27T17:44:44Z</time></trkpt>
      <trkpt lat="41.45602120086551" lon="-81.8830187804997"><ele>183</ele><time>2026-09-27T17:44:47Z</time></trkpt>
      <trkpt lat="41.45612354390323" lon="-81.88301626592875"><ele>182</ele><time>2026-09-27T17:44:50Z</time></trkpt>
      <trkpt lat="41.456187665462494" lon="-81.88301366753876"><ele>184</ele><time>2026-09-27T17:45:01Z</time></trkpt>
      <trkpt lat="41.456385436467826" lon="-81.88299480825663"><ele>185</ele><time>2026-09-27T17:45:04Z</time></trkpt>
      <trkpt lat="41.456688065081835" lon="-81.8829857558012"><ele>185</ele><time>2026-09-27T17:45:07Z</time></trkpt>
      <trkpt lat="41.45705112721771" lon="-81.8829738534987"><ele>184</ele><time>2026-09-27T17:45:10Z</time></trkpt>
      <trkpt lat="41.45745312329382" lon="-81.88295566476882"><ele>184</ele><time>2026-09-27T17:45:13Z</time></trkpt>
      <trkpt lat="41.45787138026208" lon="-81.8829426728189"><ele>182</ele><time>2026-09-27T17:45:16Z</time></trkpt>
      <trkpt lat="41.45829072687775" lon="-81.88292825594544"><ele>182</ele><time>2026-09-27T17:45:19Z</time></trkpt>
      <trkpt lat="41.45871413871646" lon="-81.8829083070159"><ele>182</ele><time>2026-09-27T17:45:22Z</time></trkpt>
      <trkpt lat="41.45913218613714" lon="-81.88288835808635"><ele>182</ele><time>2026-09-27T17:45:25Z</time></trkpt>
      <trkpt lat="41.459549772553146" lon="-81.882866313681"><ele>181</ele><time>2026-09-27T17:45:28Z</time></trkpt>
      <trkpt lat="41.45996002480388" lon="-81.88285164535046"><ele>181</ele><time>2026-09-27T17:45:31Z</time></trkpt>
      <trkpt lat="41.46034739445895" lon="-81.88282792456448"><ele>180</ele><time>2026-09-27T17:45:34Z</time></trkpt>
      <trkpt lat="41.46072214934975" lon="-81.88281484879553"><ele>180</ele><time>2026-09-27T17:45:37Z</time></trkpt>
      <trkpt lat="41.4610304357484" lon="-81.88280688598752"><ele>180</ele><time>2026-09-27T17:45:40Z</time></trkpt>
      <trkpt lat="41.461217729374766" lon="-81.88278819434345"><ele>181</ele><time>2026-09-27T17:45:43Z</time></trkpt>
      <trkpt lat="41.46133117843419" lon="-81.8827819917351"><ele>180</ele><time>2026-09-27T17:45:46Z</time></trkpt>
      <trkpt lat="41.461409884504974" lon="-81.88278324902058"><ele>179</ele><time>2026-09-27T17:45:53Z</time></trkpt>
      <trkpt lat="41.46163263358176" lon="-81.88278433866799"><ele>179</ele><time>2026-09-27T17:45:56Z</time></trkpt>
      <trkpt lat="41.461929101496935" lon="-81.88279666006565"><ele>179</ele><time>2026-09-27T17:45:59Z</time></trkpt>
      <trkpt lat="41.462216852232814" lon="-81.88280487433076"><ele>180</ele><time>2026-09-27T17:46:02Z</time></trkpt>
      <trkpt lat="41.46239182446152" lon="-81.88283982686698"><ele>179</ele><time>2026-09-27T17:46:05Z</time></trkpt>
      <trkpt lat="41.46245376672596" lon="-81.88305348157883"><ele>178</ele><time>2026-09-27T17:46:08Z</time></trkpt>
      <trkpt lat="41.462452886626124" lon="-81.88339361920953"><ele>177</ele><time>2026-09-27T17:46:11Z</time></trkpt>
      <trkpt lat="41.46245992742479" lon="-81.88380592502654"><ele>176</ele><time>2026-09-27T17:46:14Z</time></trkpt>
      <trkpt lat="41.46245552692562" lon="-81.88421672210097"><ele>177</ele><time>2026-09-27T17:46:17Z</time></trkpt>
      <trkpt lat="41.46247061435133" lon="-81.88466087915003"><ele>177</ele><time>2026-09-27T17:46:20Z</time></trkpt>
      <trkpt lat="41.462478283792734" lon="-81.88512523658574"><ele>176</ele><time>2026-09-27T17:46:23Z</time></trkpt>
      <trkpt lat="41.4624885097146" lon="-81.88561365008354"><ele>176</ele><time>2026-09-27T17:46:26Z</time></trkpt>
      <trkpt lat="41.46250359714031" lon="-81.88609653152525"><ele>175</ele><time>2026-09-27T17:46:29Z</time></trkpt>
      <trkpt lat="41.46251604426652" lon="-81.88655083067715"><ele>176</ele><time>2026-09-27T17:46:32Z</time></trkpt>
      <trkpt lat="41.46252899430692" lon="-81.8868969194591"><ele>177</ele><time>2026-09-27T17:46:35Z</time></trkpt>
      <trkpt lat="41.46258221939206" lon="-81.88704393804073"><ele>177</ele><time>2026-09-27T17:46:38Z</time></trkpt>
      <trkpt lat="41.462689843028784" lon="-81.88702231273055"><ele>177</ele><time>2026-09-27T17:46:41Z</time></trkpt>
      <trkpt lat="41.46284620743245" lon="-81.88697009347379"><ele>177</ele><time>2026-09-27T17:46:44Z</time></trkpt>
      <trkpt lat="41.46304661873728" lon="-81.88697109930217"><ele>178</ele><time>2026-09-27T17:46:47Z</time></trkpt>
      <trkpt lat="41.46324543748051" lon="-81.88702357001603"><ele>177</ele><time>2026-09-27T17:46:50Z</time></trkpt>
      <trkpt lat="41.46340385545045" lon="-81.88712934963405"><ele>177</ele><time>2026-09-27T17:46:53Z</time></trkpt>
      <trkpt lat="41.46353440359235" lon="-81.88722716644406"><ele>177</ele><time>2026-09-27T17:46:56Z</time></trkpt>
      <trkpt lat="41.463716961443424" lon="-81.88728634268045"><ele>178</ele><time>2026-09-27T17:46:59Z</time></trkpt>
      <trkpt lat="41.46396192256361" lon="-81.88736622221768"><ele>177</ele><time>2026-09-27T17:47:02Z</time></trkpt>
      <trkpt lat="41.46413144655526" lon="-81.8874202016741"><ele>175</ele><time>2026-09-27T17:47:05Z</time></trkpt>
      <trkpt lat="41.46429983898997" lon="-81.88748465850949"><ele>174</ele><time>2026-09-27T17:47:08Z</time></trkpt>
      <trkpt lat="41.46437795832753" lon="-81.88751290552318"><ele>174</ele><time>2026-09-27T17:47:11Z</time></trkpt>
      <trkpt lat="41.46450406406075" lon="-81.88755054026842"><ele>173</ele><time>2026-09-27T17:47:14Z</time></trkpt>
      <trkpt lat="41.464637839235365" lon="-81.88757191412151"><ele>172</ele><time>2026-09-27T17:47:17Z</time></trkpt>
      <trkpt lat="41.46471356973052" lon="-81.88763067126274"><ele>172</ele><time>2026-09-27T17:47:20Z</time></trkpt>
      <trkpt lat="41.46470049396157" lon="-81.8877553101629"><ele>172</ele><time>2026-09-27T17:47:23Z</time></trkpt>
      <trkpt lat="41.46472366992384" lon="-81.88787056133151"><ele>171</ele><time>2026-09-27T17:47:26Z</time></trkpt>
      <trkpt lat="41.46476344205439" lon="-81.88795899040997"><ele>172</ele><time>2026-09-27T17:47:29Z</time></trkpt>
      <trkpt lat="41.46477966103703" lon="-81.88805521465838"><ele>172</ele><time>2026-09-27T17:47:32Z</time></trkpt>
      <trkpt lat="41.4647827623412" lon="-81.88814640976489"><ele>172</ele><time>2026-09-27T17:47:35Z</time></trkpt>
      <trkpt lat="41.46473896689713" lon="-81.88819795846939"><ele>171</ele><time>2026-09-27T17:47:38Z</time></trkpt>
    </trkseg>
  </trk>
</gpx>
