<?xml version="1.0" encoding="UTF-8"?>
<gpx version="1.1" creator="HoldMyTrack" xmlns="http://www.topografix.com/GPX/1/1" xmlns:gpxtpx="http://www.garmin.com/xmlschemas/TrackPointExtension/v1">
  <trk>
    <type>driving</type>
    <trkseg>
      <trkpt lat="41.32008156739175" lon="-81.62574699148536"><ele>228</ele><time>2026-09-26T20:33:23Z</time></trkpt>
      <trkpt lat="41.32006400730461" lon="-81.62585344165564"><ele>228</ele><time>2026-09-26T20:34:14Z</time></trkpt>
      <trkpt lat="41.32005407474935" lon="-81.62610498256981"><ele>228</ele><time>2026-09-26T20:34:17Z</time></trkpt>
      <trkpt lat="41.3200557930395" lon="-81.62639139220119"><ele>228</ele><time>2026-09-26T20:34:20Z</time></trkpt>
      <trkpt lat="41.320051308721304" lon="-81.62671082653105"><ele>228</ele><time>2026-09-26T20:34:23Z</time></trkpt>
      <trkpt lat="41.32004313636571" lon="-81.62704761140049"><ele>228</ele><time>2026-09-26T20:34:26Z</time></trkpt>
      <trkpt lat="41.32003902923316" lon="-81.62743544206023"><ele>228</ele><time>2026-09-26T20:34:29Z</time></trkpt>
      <trkpt lat="41.32004607003182" lon="-81.62785755470395"><ele>227</ele><time>2026-09-26T20:34:32Z</time></trkpt>
      <trkpt lat="41.32005294319242" lon="-81.62831948138773"><ele>227</ele><time>2026-09-26T20:34:35Z</time></trkpt>
      <trkpt lat="41.320079723373055" lon="-81.62879901006818"><ele>228</ele><time>2026-09-26T20:34:38Z</time></trkpt>
      <trkpt lat="41.320136887952685" lon="-81.62928784266114"><ele>230</ele><time>2026-09-26T20:34:41Z</time></trkpt>
      <trkpt lat="41.32019644137472" lon="-81.62979603745043"><ele>230</ele><time>2026-09-26T20:34:44Z</time></trkpt>
      <trkpt lat="41.320282481610775" lon="-81.6302814334631"><ele>230</ele><time>2026-09-26T20:34:47Z</time></trkpt>
      <trkpt lat="41.32037166506052" lon="-81.63078585639596"><ele>231</ele><time>2026-09-26T20:34:50Z</time></trkpt>
      <trkpt lat="41.3204641174525" lon="-81.63125398568809"><ele>233</ele><time>2026-09-26T20:34:53Z</time></trkpt>
      <trkpt lat="41.32058464922011" lon="-81.631732089445"><ele>235</ele><time>2026-09-26T20:34:56Z</time></trkpt>
      <trkpt lat="41.32069956511259" lon="-81.63223223760724"><ele>238</ele><time>2026-09-26T20:34:59Z</time></trkpt>
      <trkpt lat="41.32081230171025" lon="-81.63274856284261"><ele>239</ele><time>2026-09-26T20:35:02Z</time></trkpt>
      <trkpt lat="41.32093861699104" lon="-81.63328844122589"><ele>241</ele><time>2026-09-26T20:35:05Z</time></trkpt>
      <trkpt lat="41.321066776290536" lon="-81.6338802035898"><ele>243</ele><time>2026-09-26T20:35:08Z</time></trkpt>
      <trkpt lat="41.3211739808321" lon="-81.63451722823083"><ele>246</ele><time>2026-09-26T20:35:11Z</time></trkpt>
      <trkpt lat="41.32124593947083" lon="-81.63518945686519"><ele>247</ele><time>2026-09-26T20:35:14Z</time></trkpt>
      <trkpt lat="41.321265092119575" lon="-81.63590820506215"><ele>247</ele><time>2026-09-26T20:35:17Z</time></trkpt>
      <trkpt lat="41.321237976662815" lon="-81.63666559383273"><ele>247</ele><time>2026-09-26T20:35:20Z</time></trkpt>
      <trkpt lat="41.321132658049464" lon="-81.63741619326174"><ele>246</ele><time>2026-09-26T20:35:23Z</time></trkpt>
      <trkpt lat="41.320955799892545" lon="-81.63815933279693"><ele>245</ele><time>2026-09-26T20:35:26Z</time></trkpt>
      <trkpt lat="41.3207265548408" lon="-81.63888839073479"><ele>243</ele><time>2026-09-26T20:35:29Z</time></trkpt>
      <trkpt lat="41.320448820479214" lon="-81.63957419805229"><ele>245</ele><time>2026-09-26T20:35:32Z</time></trkpt>
      <trkpt lat="41.32015725597739" lon="-81.64022890850902"><ele>245</ele><time>2026-09-26T20:35:35Z</time></trkpt>
      <trkpt lat="41.3198789767921" lon="-81.6408877260983"><ele>244</ele><time>2026-09-26T20:35:38Z</time></trkpt>
      <trkpt lat="41.31960727740079" lon="-81.64151444099844"><ele>244</ele><time>2026-09-26T20:35:41Z</time></trkpt>
      <trkpt lat="41.31940007675439" lon="-81.64202146232128"><ele>245</ele><time>2026-09-26T20:35:44Z</time></trkpt>
      <trkpt lat="41.31927824579179" lon="-81.64232371374965"><ele>245</ele><time>2026-09-26T20:35:47Z</time></trkpt>
      <trkpt lat="41.31921018473804" lon="-81.6424554772675"><ele>246</ele><time>2026-09-26T20:35:50Z</time></trkpt>
      <trkpt lat="41.319195264950395" lon="-81.64251867681742"><ele>245</ele><time>2026-09-26T20:35:59Z</time></trkpt>
      <trkpt lat="41.31913189776242" lon="-81.64265991188586"><ele>245</ele><time>2026-09-26T20:36:02Z</time></trkpt>
      <trkpt lat="41.319017149508" lon="-81.64290483109653"><ele>246</ele><time>2026-09-26T20:36:05Z</time></trkpt>
      <trkpt lat="41.318880817852914" lon="-81.643236419186"><ele>247</ele><time>2026-09-26T20:36:08Z</time></trkpt>
      <trkpt lat="41.318691805936396" lon="-81.64365685544908"><ele>247</ele><time>2026-09-26T20:36:11Z</time></trkpt>
      <trkpt lat="41.31848955061287" lon="-81.64416689425707"><ele>248</ele><time>2026-09-26T20:36:14Z</time></trkpt>
      <trkpt lat="41.3182771531865" lon="-81.64473275654018"><ele>251</ele><time>2026-09-26T20:36:17Z</time></trkpt>
      <trkpt lat="41.318078208714724" lon="-81.64535117335618"><ele>253</ele><time>2026-09-26T20:36:20Z</time></trkpt>
      <trkpt lat="41.31790604442358" lon="-81.6460077278316"><ele>255</ele><time>2026-09-26T20:36:23Z</time></trkpt>
      <trkpt lat="41.31784699391574" lon="-81.64666696451604"><ele>257</ele><time>2026-09-26T20:36:26Z</time></trkpt>
      <trkpt lat="41.31791647989303" lon="-81.64737213402987"><ele>260</ele><time>2026-09-26T20:36:29Z</time></trkpt>
      <trkpt lat="41.31816148292273" lon="-81.6480022855103"><ele>262</ele><time>2026-09-26T20:36:32Z</time></trkpt>
      <trkpt lat="41.318614818155766" lon="-81.64841995574534"><ele>263</ele><time>2026-09-26T20:36:35Z</time></trkpt>
      <trkpt lat="41.31918197963387" lon="-81.64859362877905"><ele>262</ele><time>2026-09-26T20:36:38Z</time></trkpt>
      <trkpt lat="41.31983715109527" lon="-81.64863545447588"><ele>261</ele><time>2026-09-26T20:36:41Z</time></trkpt>
      <trkpt lat="41.320552001707256" lon="-81.648662192747"><ele>261</ele><time>2026-09-26T20:36:44Z</time></trkpt>
      <trkpt lat="41.32129568606615" lon="-81.64871156215668"><ele>261</ele><time>2026-09-26T20:36:47Z</time></trkpt>
      <trkpt lat="41.32207080256194" lon="-81.64875137619674"><ele>260</ele><time>2026-09-26T20:36:50Z</time></trkpt>
      <trkpt lat="41.32289537228644" lon="-81.64874198846519"><ele>258</ele><time>2026-09-26T20:36:53Z</time></trkpt>
      <trkpt lat="41.32373339496553" lon="-81.64874559268355"><ele>256</ele><time>2026-09-26T20:36:56Z</time></trkpt>
      <trkpt lat="41.324545056559145" lon="-81.64874944835901"><ele>255</ele><time>2026-09-26T20:36:59Z</time></trkpt>
      <trkpt lat="41.325348587706685" lon="-81.64874668233097"><ele>258</ele><time>2026-09-26T20:37:02Z</time></trkpt>
      <trkpt lat="41.32614855654538" lon="-81.64874609559774"><ele>259</ele><time>2026-09-26T20:37:05Z</time></trkpt>
      <trkpt lat="41.326966169290245" lon="-81.64876461960375"><ele>267</ele><time>2026-09-26T20:37:08Z</time></trkpt>
      <trkpt lat="41.32776592858136" lon="-81.648770570755"><ele>269</ele><time>2026-09-26T20:37:11Z</time></trkpt>
      <trkpt lat="41.32857469841838" lon="-81.64877023547888"><ele>270</ele><time>2026-09-26T20:37:14Z</time></trkpt>
      <trkpt lat="41.32938304916024" lon="-81.64877828210592"><ele>271</ele><time>2026-09-26T20:37:17Z</time></trkpt>
      <trkpt lat="41.33019621949643" lon="-81.64878708310425"><ele>273</ele><time>2026-09-26T20:37:20Z</time></trkpt>
      <trkpt lat="41.33100549224764" lon="-81.64882312528789"><ele>276</ele><time>2026-09-26T20:37:23Z</time></trkpt>
      <trkpt lat="41.33179787546396" lon="-81.64888825267553"><ele>278</ele><time>2026-09-26T20:37:26Z</time></trkpt>
      <trkpt lat="41.3325757579878" lon="-81.64894214831293"><ele>279</ele><time>2026-09-26T20:37:29Z</time></trkpt>
      <trkpt lat="41.33334789890796" lon="-81.64899000898004"><ele>281</ele><time>2026-09-26T20:37:32Z</time></trkpt>
      <trkpt lat="41.33412863127887" lon="-81.64904147386551"><ele>284</ele><time>2026-09-26T20:37:35Z</time></trkpt>
      <trkpt lat="41.33491359651089" lon="-81.64910333231091"><ele>286</ele><time>2026-09-26T20:37:38Z</time></trkpt>
      <trkpt lat="41.33569525089115" lon="-81.64916602894664"><ele>288</ele><time>2026-09-26T20:37:41Z</time></trkpt>
      <trkpt lat="41.33648972958326" lon="-81.6492127161473"><ele>290</ele><time>2026-09-26T20:37:44Z</time></trkpt>
      <trkpt lat="41.337282322347164" lon="-81.64926686324179"><ele>289</ele><time>2026-09-26T20:37:47Z</time></trkpt>
      <trkpt lat="41.3380723586306" lon="-81.64932243525982"><ele>289</ele><time>2026-09-26T20:37:50Z</time></trkpt>
      <trkpt lat="41.3388493610546" lon="-81.64938136003911"><ele>291</ele><time>2026-09-26T20:37:53Z</time></trkpt>
      <trkpt lat="41.339616808108985" lon="-81.64943877607584"><ele>291</ele><time>2026-09-26T20:37:56Z</time></trkpt>
      <trkpt lat="41.340355379506946" lon="-81.64949133060873"><ele>289</ele><time>2026-09-26T20:37:59Z</time></trkpt>
      <trkpt lat="41.34111465420574" lon="-81.64954195730388"><ele>288</ele><time>2026-09-26T20:38:02Z</time></trkpt>
      <trkpt lat="41.3418886391446" lon="-81.64960482157767"><ele>286</ele><time>2026-09-26T20:38:05Z</time></trkpt>
      <trkpt lat="41.34270725771785" lon="-81.64964715018868"><ele>286</ele><time>2026-09-26T20:38:08Z</time></trkpt>
      <trkpt lat="41.34352939669043" lon="-81.64967112243176"><ele>286</ele><time>2026-09-26T20:38:11Z</time></trkpt>
      <trkpt lat="41.34436586871743" lon="-81.64968034252524"><ele>284</ele><time>2026-09-26T20:38:14Z</time></trkpt>
      <trkpt lat="41.34519680868834" lon="-81.64965737611055"><ele>282</ele><time>2026-09-26T20:38:17Z</time></trkpt>
      <trkpt lat="41.34600847028196" lon="-81.64962854236364"><ele>280</ele><time>2026-09-26T20:38:20Z</time></trkpt>
      <trkpt lat="41.34682247880846" lon="-81.6496046539396"><ele>279</ele><time>2026-09-26T20:38:23Z</time></trkpt>
      <trkpt lat="41.34763116482645" lon="-81.6495671030134"><ele>276</ele><time>2026-09-26T20:38:26Z</time></trkpt>
      <trkpt lat="41.348408460617065" lon="-81.64955385960639"><ele>274</ele><time>2026-09-26T20:38:29Z</time></trkpt>
      <trkpt lat="41.34918055962771" lon="-81.64951949380338"><ele>273</ele><time>2026-09-26T20:38:32Z</time></trkpt>
      <trkpt lat="41.349919005297124" lon="-81.6494888998568"><ele>271</ele><time>2026-09-26T20:38:35Z</time></trkpt>
      <trkpt lat="41.3506333110854" lon="-81.64946115575731"><ele>269</ele><time>2026-09-26T20:38:38Z</time></trkpt>
      <trkpt lat="41.35133902542293" lon="-81.64943584240973"><ele>268</ele><time>2026-09-26T20:38:41Z</time></trkpt>
      <trkpt lat="41.352046080864966" lon="-81.64940918795764"><ele>267</ele><time>2026-09-26T20:38:44Z</time></trkpt>
      <trkpt lat="41.35276549961418" lon="-81.64937800727785"><ele>265</ele><time>2026-09-26T20:38:47Z</time></trkpt>
      <trkpt lat="41.3535121595487" lon="-81.64934640750289"><ele>264</ele><time>2026-09-26T20:38:50Z</time></trkpt>
      <trkpt lat="41.3542487192899" lon="-81.64931992068887"><ele>263</ele><time>2026-09-26T20:38:53Z</time></trkpt>
      <trkpt lat="41.354980459436774" lon="-81.6492890752852"><ele>261</ele><time>2026-09-26T20:38:56Z</time></trkpt>
      <trkpt lat="41.355716893449426" lon="-81.64927650243044"><ele>258</ele><time>2026-09-26T20:38:59Z</time></trkpt>
      <trkpt lat="41.35646858252585" lon="-81.64928630925715"><ele>257</ele><time>2026-09-26T20:39:02Z</time></trkpt>
      <trkpt lat="41.357230455614626" lon="-81.64933157153428"><ele>256</ele><time>2026-09-26T20:39:05Z</time></trkpt>
      <trkpt lat="41.35791781358421" lon="-81.64942293427885"><ele>256</ele><time>2026-09-26T20:39:08Z</time></trkpt>
      <trkpt lat="41.358586018905044" lon="-81.6495205834508"><ele>257</ele><time>2026-09-26T20:39:11Z</time></trkpt>
      <trkpt lat="41.35925460141152" lon="-81.64962091483176"><ele>256</ele><time>2026-09-26T20:39:14Z</time></trkpt>
      <trkpt lat="41.35994351003319" lon="-81.64971311576664"><ele>254</ele><time>2026-09-26T20:39:17Z</time></trkpt>
      <trkpt lat="41.36064708698541" lon="-81.64984244853258"><ele>253</ele><time>2026-09-26T20:39:20Z</time></trkpt>
      <trkpt lat="41.36134697590023" lon="-81.64997018873692"><ele>253</ele><time>2026-09-26T20:39:23Z</time></trkpt>
      <trkpt lat="41.36204204522073" lon="-81.65009709075093"><ele>253</ele><time>2026-09-26T20:39:26Z</time></trkpt>
      <trkpt lat="41.3627515733242" lon="-81.6502333804965"><ele>252</ele><time>2026-09-26T20:39:29Z</time></trkpt>
      <trkpt lat="41.363486498594284" lon="-81.65035835467279"><ele>251</ele><time>2026-09-26T20:39:32Z</time></trkpt>
      <trkpt lat="41.3642257405445" lon="-81.65049531497061"><ele>251</ele><time>2026-09-26T20:39:35Z</time></trkpt>
      <trkpt lat="41.364964437671006" lon="-81.6506269108504"><ele>248</ele><time>2026-09-26T20:39:38Z</time></trkpt>
      <trkpt lat="41.36570703238249" lon="-81.65076211094856"><ele>246</ele><time>2026-09-26T20:39:41Z</time></trkpt>
      <trkpt lat="41.366456458345056" lon="-81.65089848451316"><ele>245</ele><time>2026-09-26T20:39:44Z</time></trkpt>
      <trkpt lat="41.36721179354936" lon="-81.6510436590761"><ele>244</ele><time>2026-09-26T20:39:47Z</time></trkpt>
      <trkpt lat="41.36795472353697" lon="-81.65117600932717"><ele>244</ele><time>2026-09-26T20:39:50Z</time></trkpt>
      <trkpt lat="41.36870201211423" lon="-81.65130685083568"><ele>245</ele><time>2026-09-26T20:39:53Z</time></trkpt>
      <trkpt lat="41.36944816913456" lon="-81.65144582279027"><ele>245</ele><time>2026-09-26T20:39:56Z</time></trkpt>
      <trkpt lat="41.37020824011415" lon="-81.65158529765904"><ele>245</ele><time>2026-09-26T20:39:59Z</time></trkpt>
      <trkpt lat="41.370964203961194" lon="-81.65171965956688"><ele>245</ele><time>2026-09-26T20:40:02Z</time></trkpt>
      <trkpt lat="41.37171383947134" lon="-81.65185930207372"><ele>244</ele><time>2026-09-26T20:40:05Z</time></trkpt>
      <trkpt lat="41.37246745638549" lon="-81.65199911221862"><ele>243</ele><time>2026-09-26T20:40:08Z</time></trkpt>
      <trkpt lat="41.37321860063821" lon="-81.65213607251644"><ele>242</ele><time>2026-09-26T20:40:11Z</time></trkpt>
      <trkpt lat="41.37397276237607" lon="-81.65226154960692"><ele>241</ele><time>2026-09-26T20:40:14Z</time></trkpt>
      <trkpt lat="41.37473103124648" lon="-81.65236783213913"><ele>239</ele><time>2026-09-26T20:40:17Z</time></trkpt>
      <trkpt lat="41.375503591261804" lon="-81.65245475247502"><ele>240</ele><time>2026-09-26T20:40:20Z</time></trkpt>
      <trkpt lat="41.37627003248781" lon="-81.65252046659589"><ele>239</ele><time>2026-09-26T20:40:23Z</time></trkpt>
      <trkpt lat="41.37703886255622" lon="-81.65256413631141"><ele>237</ele><time>2026-09-26T20:40:26Z</time></trkpt>
      <trkpt lat="41.377798221074045" lon="-81.65258173830807"><ele>236</ele><time>2026-09-26T20:40:29Z</time></trkpt>
      <trkpt lat="41.37856210581958" lon="-81.65260361507535"><ele>233</ele><time>2026-09-26T20:40:32Z</time></trkpt>
      <trkpt lat="41.37932385317981" lon="-81.65262364782393"><ele>231</ele><time>2026-09-26T20:40:35Z</time></trkpt>
      <trkpt lat="41.38008166104555" lon="-81.65265088900924"><ele>231</ele><time>2026-09-26T20:40:38Z</time></trkpt>
      <trkpt lat="41.38085807673633" lon="-81.65266195312142"><ele>229</ele><time>2026-09-26T20:40:41Z</time></trkpt>
      <trkpt lat="41.38163025956601" lon="-81.65268240496516"><ele>226</ele><time>2026-09-26T20:40:44Z</time></trkpt>
      <trkpt lat="41.38239980209619" lon="-81.65270729921758"><ele>225</ele><time>2026-09-26T20:40:47Z</time></trkpt>
      <trkpt lat="41.383176343515515" lon="-81.65272221900523"><ele>223</ele><time>2026-09-26T20:40:50Z</time></trkpt>
      <trkpt lat="41.38396910391748" lon="-81.65273370221257"><ele>221</ele><time>2026-09-26T20:40:53Z</time></trkpt>
      <trkpt lat="41.38474945910275" lon="-81.6527496278286"><ele>219</ele><time>2026-09-26T20:40:56Z</time></trkpt>
      <trkpt lat="41.385526210069656" lon="-81.65276899002492"><ele>218</ele><time>2026-09-26T20:40:59Z</time></trkpt>
      <trkpt lat="41.38629772234708" lon="-81.65279011242092"><ele>217</ele><time>2026-09-26T20:41:02Z</time></trkpt>
      <trkpt lat="41.38707761652768" lon="-81.65280352346599"><ele>217</ele><time>2026-09-26T20:41:05Z</time></trkpt>
      <trkpt lat="41.38786212075502" lon="-81.65282372385263"><ele>217</ele><time>2026-09-26T20:41:08Z</time></trkpt>
      <trkpt lat="41.388649977743626" lon="-81.65283612906933"><ele>217</ele><time>2026-09-26T20:41:11Z</time></trkpt>
      <trkpt lat="41.38943385332823" lon="-81.65284710936248"><ele>216</ele><time>2026-09-26T20:41:14Z</time></trkpt>
      <trkpt lat="41.390213831327856" lon="-81.65287007577717"><ele>216</ele><time>2026-09-26T20:41:17Z</time></trkpt>
      <trkpt lat="41.39098400250077" lon="-81.65288885124028"><ele>216</ele><time>2026-09-26T20:41:20Z</time></trkpt>
      <trkpt lat="41.39176377095282" lon="-81.65289119817317"><ele>216</ele><time>2026-09-26T20:41:23Z</time></trkpt>
      <trkpt lat="41.39253976754844" lon="-81.65291651152074"><ele>215</ele><time>2026-09-26T20:41:26Z</time></trkpt>
      <trkpt lat="41.393315638415515" lon="-81.6529253963381"><ele>215</ele><time>2026-09-26T20:41:29Z</time></trkpt>
      <trkpt lat="41.39408782124519" lon="-81.65291575714946"><ele>214</ele><time>2026-09-26T20:41:32Z</time></trkpt>
      <trkpt lat="41.394876474514604" lon="-81.65291039273143"><ele>212</ele><time>2026-09-26T20:41:35Z</time></trkpt>
      <trkpt lat="41.395660853013396" lon="-81.65283864364028"><ele>208</ele><time>2026-09-26T20:41:38Z</time></trkpt>
      <trkpt lat="41.39643500559032" lon="-81.65268969722092"><ele>205</ele><time>2026-09-26T20:41:41Z</time></trkpt>
      <trkpt lat="41.39720404520631" lon="-81.65246296674013"><ele>202</ele><time>2026-09-26T20:41:44Z</time></trkpt>
      <trkpt lat="41.397962775081396" lon="-81.65217303670943"><ele>200</ele><time>2026-09-26T20:41:47Z</time></trkpt>
      <trkpt lat="41.39866760931909" lon="-81.6517931688577"><ele>197</ele><time>2026-09-26T20:41:50Z</time></trkpt>
      <trkpt lat="41.39929826371372" lon="-81.65138555690646"><ele>194</ele><time>2026-09-26T20:41:53Z</time></trkpt>
      <trkpt lat="41.39991877600551" lon="-81.6509517095983"><ele>191</ele><time>2026-09-26T20:41:56Z</time></trkpt>
      <trkpt lat="41.400520387105644" lon="-81.65050302632153"><ele>188</ele><time>2026-09-26T20:41:59Z</time></trkpt>
      <trkpt lat="41.40111948363483" lon="-81.650047050789"><ele>186</ele><time>2026-09-26T20:42:02Z</time></trkpt>
      <trkpt lat="41.40171874780208" lon="-81.64958872832358"><ele>182</ele><time>2026-09-26T20:42:05Z</time></trkpt>
      <trkpt lat="41.402339595369995" lon="-81.64911833591759"><ele>178</ele><time>2026-09-26T20:42:08Z</time></trkpt>
      <trkpt lat="41.402965555898845" lon="-81.6486429143697"><ele>174</ele><time>2026-09-26T20:42:11Z</time></trkpt>
      <trkpt lat="41.403588582761586" lon="-81.64816816337407"><ele>171</ele><time>2026-09-26T20:42:14Z</time></trkpt>
      <trkpt lat="41.40419195406139" lon="-81.64769215509295"><ele>167</ele><time>2026-09-26T20:42:17Z</time></trkpt>
      <trkpt lat="41.40482570976019" lon="-81.64728487841785"><ele>162</ele><time>2026-09-26T20:42:20Z</time></trkpt>
      <trkpt lat="41.405498147942126" lon="-81.64702001027763"><ele>158</ele><time>2026-09-26T20:42:23Z</time></trkpt>
      <trkpt lat="41.40622900798917" lon="-81.64692445658147"><ele>154</ele><time>2026-09-26T20:42:26Z</time></trkpt>
      <trkpt lat="41.40698656439781" lon="-81.64704968221486"><ele>151</ele><time>2026-09-26T20:42:29Z</time></trkpt>
      <trkpt lat="41.40767073724419" lon="-81.64748487062752"><ele>150</ele><time>2026-09-26T20:42:32Z</time></trkpt>
      <trkpt lat="41.4081562589854" lon="-81.64822490885854"><ele>149</ele><time>2026-09-26T20:42:35Z</time></trkpt>
      <trkpt lat="41.40842192340642" lon="-81.64910266175866"><ele>149</ele><time>2026-09-26T20:42:38Z</time></trkpt>
      <trkpt lat="41.40850641299039" lon="-81.6500438656658"><ele>151</ele><time>2026-09-26T20:42:41Z</time></trkpt>
      <trkpt lat="41.40851873438805" lon="-81.6510154120624"><ele>152</ele><time>2026-09-26T20:42:44Z</time></trkpt>
      <trkpt lat="41.408550795167685" lon="-81.65201260708272"><ele>153</ele><time>2026-09-26T20:42:47Z</time></trkpt>
      <trkpt lat="41.4086388470605" lon="-81.65299882180989"><ele>153</ele><time>2026-09-26T20:42:50Z</time></trkpt>
      <trkpt lat="41.40878586564213" lon="-81.65398051030934"><ele>155</ele><time>2026-09-26T20:42:53Z</time></trkpt>
      <trkpt lat="41.40894575044513" lon="-81.65497108362615"><ele>157</ele><time>2026-09-26T20:42:56Z</time></trkpt>
      <trkpt lat="41.409104503691196" lon="-81.65596056729555"><ele>159</ele><time>2026-09-26T20:42:59Z</time></trkpt>
      <trkpt lat="41.409259820356965" lon="-81.6569250728935"><ele>161</ele><time>2026-09-26T20:43:02Z</time></trkpt>
      <trkpt lat="41.409403905272484" lon="-81.6578352637589"><ele>163</ele><time>2026-09-26T20:43:05Z</time></trkpt>
      <trkpt lat="41.4095619879663" lon="-81.65875802747905"><ele>165</ele><time>2026-09-26T20:43:08Z</time></trkpt>
      <trkpt lat="41.40972841065377" lon="-81.65971532464027"><ele>167</ele><time>2026-09-26T20:43:11Z</time></trkpt>
      <trkpt lat="41.40990971121937" lon="-81.66069223545492"><ele>169</ele><time>2026-09-26T20:43:14Z</time></trkpt>
      <trkpt lat="41.41008007340133" lon="-81.66169110685587"><ele>171</ele><time>2026-09-26T20:43:17Z</time></trkpt>
      <trkpt lat="41.410260326229036" lon="-81.66269861161709"><ele>172</ele><time>2026-09-26T20:43:20Z</time></trkpt>
      <trkpt lat="41.41044539865106" lon="-81.66371097788215"><ele>173</ele><time>2026-09-26T20:43:23Z</time></trkpt>
      <trkpt lat="41.410623136907816" lon="-81.66471680626273"><ele>174</ele><time>2026-09-26T20:43:26Z</time></trkpt>
      <trkpt lat="41.410804856568575" lon="-81.66570402681828"><ele>175</ele><time>2026-09-26T20:43:29Z</time></trkpt>
      <trkpt lat="41.4109796192497" lon="-81.66666702367365"><ele>177</ele><time>2026-09-26T20:43:32Z</time></trkpt>
      <trkpt lat="41.41118853818625" lon="-81.66760420426726"><ele>178</ele><time>2026-09-26T20:43:35Z</time></trkpt>
      <trkpt lat="41.41145315486938" lon="-81.66852529160678"><ele>178</ele><time>2026-09-26T20:43:38Z</time></trkpt>
      <trkpt lat="41.4117645425722" lon="-81.66939709335566"><ele>180</ele><time>2026-09-26T20:43:41Z</time></trkpt>
      <trkpt lat="41.41210937406868" lon="-81.67023930698633"><ele>182</ele><time>2026-09-26T20:43:44Z</time></trkpt>
      <trkpt lat="41.412490122020245" lon="-81.67103114537895"><ele>183</ele><time>2026-09-26T20:43:47Z</time></trkpt>
      <trkpt lat="41.412902008742094" lon="-81.67177855968475"><ele>184</ele><time>2026-09-26T20:43:50Z</time></trkpt>
      <trkpt lat="41.41336464788765" lon="-81.67249445803463"><ele>184</ele><time>2026-09-26T20:43:53Z</time></trkpt>
      <trkpt lat="41.41386605333537" lon="-81.67318613268435"><ele>184</ele><time>2026-09-26T20:43:56Z</time></trkpt>
      <trkpt lat="41.414398974739015" lon="-81.67385710403323"><ele>184</ele><time>2026-09-26T20:43:59Z</time></trkpt>
      <trkpt lat="41.414931141771376" lon="-81.67452665045857"><ele>184</ele><time>2026-09-26T20:44:02Z</time></trkpt>
      <trkpt lat="41.41547533683479" lon="-81.67519477196038"><ele>186</ele><time>2026-09-26T20:44:05Z</time></trkpt>
      <trkpt lat="41.41601307783276" lon="-81.67585275135934"><ele>186</ele><time>2026-09-26T20:44:08Z</time></trkpt>
      <trkpt lat="41.416554590687156" lon="-81.67651374824345"><ele>186</ele><time>2026-09-26T20:44:11Z</time></trkpt>
      <trkpt lat="41.41709191258997" lon="-81.67719025164843"><ele>187</ele><time>2026-09-26T20:44:14Z</time></trkpt>
      <trkpt lat="41.417630701325834" lon="-81.67785921134055"><ele>186</ele><time>2026-09-26T20:44:17Z</time></trkpt>
      <trkpt lat="41.41817296855152" lon="-81.67852490209043"><ele>185</ele><time>2026-09-26T20:44:20Z</time></trkpt>
      <trkpt lat="41.41870865598321" lon="-81.67918464168906"><ele>184</ele><time>2026-09-26T20:44:23Z</time></trkpt>
      <trkpt lat="41.419248366728425" lon="-81.67985318228602"><ele>183</ele><time>2026-09-26T20:44:26Z</time></trkpt>
      <trkpt lat="41.419763434678316" lon="-81.68055759742856"><ele>183</ele><time>2026-09-26T20:44:29Z</time></trkpt>
      <trkpt lat="41.420223684981465" lon="-81.6813188418746"><ele>183</ele><time>2026-09-26T20:44:32Z</time></trkpt>
      <trkpt lat="41.42060942016542" lon="-81.6821373347193"><ele>185</ele><time>2026-09-26T20:44:35Z</time></trkpt>
      <trkpt lat="41.42094017006457" lon="-81.68301030993462"><ele>187</ele><time>2026-09-26T20:44:38Z</time></trkpt>
      <trkpt lat="41.421175533905625" lon="-81.68392376974225"><ele>189</ele><time>2026-09-26T20:44:41Z</time></trkpt>
      <trkpt lat="41.42132066655904" lon="-81.68487511575222"><ele>191</ele><time>2026-09-26T20:44:44Z</time></trkpt>
      <trkpt lat="41.42137984279543" lon="-81.68582185171545"><ele>194</ele><time>2026-09-26T20:44:47Z</time></trkpt>
      <trkpt lat="41.42138369847089" lon="-81.68681804090738"><ele>195</ele><time>2026-09-26T20:44:50Z</time></trkpt>
      <trkpt lat="41.421343381516635" lon="-81.68779428116977"><ele>198</ele><time>2026-09-26T20:44:53Z</time></trkpt>
      <trkpt lat="41.42130901571363" lon="-81.68878368102014"><ele>198</ele><time>2026-09-26T20:44:56Z</time></trkpt>
      <trkpt lat="41.421264382079244" lon="-81.68976210057735"><ele>199</ele><time>2026-09-26T20:44:59Z</time></trkpt>
      <trkpt lat="41.42121970653534" lon="-81.69075032696128"><ele>200</ele><time>2026-09-26T20:45:02Z</time></trkpt>
      <trkpt lat="41.42117046285421" lon="-81.69172656722367"><ele>199</ele><time>2026-09-26T20:45:05Z</time></trkpt>
      <trkpt lat="41.42114556860179" lon="-81.69269241392612"><ele>198</ele><time>2026-09-26T20:45:08Z</time></trkpt>
      <trkpt lat="41.42113400157541" lon="-81.69367066584527"><ele>198</ele><time>2026-09-26T20:45:11Z</time></trkpt>
      <trkpt lat="41.42114041373134" lon="-81.69464749284089"><ele>199</ele><time>2026-09-26T20:45:14Z</time></trkpt>
      <trkpt lat="41.42115826718509" lon="-81.69562306255102"><ele>200</ele><time>2026-09-26T20:45:17Z</time></trkpt>
      <trkpt lat="41.4211820717901" lon="-81.696587651968"><ele>199</ele><time>2026-09-26T20:45:20Z</time></trkpt>
      <trkpt lat="41.42120252363384" lon="-81.69756582006812"><ele>199</ele><time>2026-09-26T20:45:23Z</time></trkpt>
      <trkpt lat="41.421231189742684" lon="-81.6985320020467"><ele>198</ele><time>2026-09-26T20:45:26Z</time></trkpt>
      <trkpt lat="41.42125918529928" lon="-81.6995061468333"><ele>199</ele><time>2026-09-26T20:45:29Z</time></trkpt>
      <trkpt lat="41.421287725679576" lon="-81.70051373541355"><ele>201</ele><time>2026-09-26T20:45:32Z</time></trkpt>
      <trkpt lat="41.42131563741714" lon="-81.70153657905757"><ele>201</ele><time>2026-09-26T20:45:35Z</time></trkpt>
      <trkpt lat="41.4213443454355" lon="-81.70256042852998"><ele>201</ele><time>2026-09-26T20:45:38Z</time></trkpt>
      <trkpt lat="41.42137355636805" lon="-81.70359022915363"><ele>201</ele><time>2026-09-26T20:45:41Z</time></trkpt>
      <trkpt lat="41.421409053727984" lon="-81.70460041612387"><ele>201</ele><time>2026-09-26T20:45:44Z</time></trkpt>
      <trkpt lat="41.42144949641079" lon="-81.7055638320744"><ele>201</ele><time>2026-09-26T20:45:47Z</time></trkpt>
      <trkpt lat="41.42147439066321" lon="-81.70648215338588"><ele>201</ele><time>2026-09-26T20:45:50Z</time></trkpt>
      <trkpt lat="41.421492327935994" lon="-81.70738899149"><ele>203</ele><time>2026-09-26T20:45:53Z</time></trkpt>
      <trkpt lat="41.421516593545675" lon="-81.70829532667994"><ele>203</ele><time>2026-09-26T20:45:56Z</time></trkpt>
      <trkpt lat="41.421536626294255" lon="-81.7092144023627"><ele>203</ele><time>2026-09-26T20:45:59Z</time></trkpt>
      <trkpt lat="41.421560305170715" lon="-81.71012626960874"><ele>204</ele><time>2026-09-26T20:46:02Z</time></trkpt>
      <trkpt lat="41.42157828435302" lon="-81.71103671193123"><ele>203</ele><time>2026-09-26T20:46:05Z</time></trkpt>
      <trkpt lat="41.42159341368824" lon="-81.71199090778828"><ele>204</ele><time>2026-09-26T20:46:08Z</time></trkpt>
      <trkpt lat="41.421613614074886" lon="-81.71292264014482"><ele>203</ele><time>2026-09-26T20:46:11Z</time></trkpt>
      <trkpt lat="41.421636077575386" lon="-81.71385638415813"><ele>204</ele><time>2026-09-26T20:46:14Z</time></trkpt>
      <trkpt lat="41.42165485303849" lon="-81.71478820033371"><ele>204</ele><time>2026-09-26T20:46:17Z</time></trkpt>
      <trkpt lat="41.421681507490575" lon="-81.71572898514569"><ele>205</ele><time>2026-09-26T20:46:20Z</time></trkpt>
      <trkpt lat="41.421725428663194" lon="-81.71666692011058"><ele>204</ele><time>2026-09-26T20:46:23Z</time></trkpt>
      <trkpt lat="41.4217502810061" lon="-81.71760854311287"><ele>206</ele><time>2026-09-26T20:46:26Z</time></trkpt>
      <trkpt lat="41.42176880501211" lon="-81.71854932792485"><ele>205</ele><time>2026-09-26T20:46:29Z</time></trkpt>
      <trkpt lat="41.42179131042212" lon="-81.7194966506213"><ele>207</ele><time>2026-09-26T20:46:32Z</time></trkpt>
      <trkpt lat="41.421811426989734" lon="-81.72044388949871"><ele>207</ele><time>2026-09-26T20:46:35Z</time></trkpt>
      <trkpt lat="41.421840344555676" lon="-81.72139288857579"><ele>206</ele><time>2026-09-26T20:46:38Z</time></trkpt>
      <trkpt lat="41.42186264041811" lon="-81.72233861871064"><ele>205</ele><time>2026-09-26T20:46:41Z</time></trkpt>
      <trkpt lat="41.421886193566024" lon="-81.7232851870358"><ele>205</ele><time>2026-09-26T20:46:44Z</time></trkpt>
      <trkpt lat="41.421909746713936" lon="-81.72423326410353"><ele>203</ele><time>2026-09-26T20:46:47Z</time></trkpt>
      <trkpt lat="41.4219270972535" lon="-81.72518125735223"><ele>203</ele><time>2026-09-26T20:46:50Z</time></trkpt>
      <trkpt lat="41.4219487644732" lon="-81.72612472437322"><ele>202</ele><time>2026-09-26T20:46:53Z</time></trkpt>
      <trkpt lat="41.42196607310325" lon="-81.72706215642393"><ele>203</ele><time>2026-09-26T20:46:56Z</time></trkpt>
      <trkpt lat="41.421985728666186" lon="-81.72800067812204"><ele>204</ele><time>2026-09-26T20:46:59Z</time></trkpt>
      <trkpt lat="41.422011251561344" lon="-81.72894397750497"><ele>206</ele><time>2026-09-26T20:47:02Z</time></trkpt>
      <trkpt lat="41.42209243029356" lon="-81.72987135127187"><ele>204</ele><time>2026-09-26T20:47:05Z</time></trkpt>
      <trkpt lat="41.42224058043212" lon="-81.7307282332331"><ele>203</ele><time>2026-09-26T20:47:08Z</time></trkpt>
      <trkpt lat="41.42238889820874" lon="-81.73148905858397"><ele>202</ele><time>2026-09-26T20:47:11Z</time></trkpt>
      <trkpt lat="41.422530175186694" lon="-81.73214988783002"><ele>200</ele><time>2026-09-26T20:47:14Z</time></trkpt>
      <trkpt lat="41.422603223472834" lon="-81.73268985003233"><ele>199</ele><time>2026-09-26T20:47:17Z</time></trkpt>
      <trkpt lat="41.42262028064579" lon="-81.7330679576844"><ele>198</ele><time>2026-09-26T20:47:20Z</time></trkpt>
      <trkpt lat="41.4226232143119" lon="-81.73332754522562"><ele>198</ele><time>2026-09-26T20:47:23Z</time></trkpt>
      <trkpt lat="41.4226224180311" lon="-81.73340608365834"><ele>198</ele><time>2026-09-26T20:47:26Z</time></trkpt>
      <trkpt lat="41.42261931672692" lon="-81.73351110890508"><ele>197</ele><time>2026-09-26T20:48:13Z</time></trkpt>
      <trkpt lat="41.42261516768485" lon="-81.73374303616583"><ele>196</ele><time>2026-09-26T20:48:16Z</time></trkpt>
      <trkpt lat="41.422624262049794" lon="-81.73400044441223"><ele>197</ele><time>2026-09-26T20:48:19Z</time></trkpt>
      <trkpt lat="41.42262292094529" lon="-81.73423388041556"><ele>198</ele><time>2026-09-26T20:48:22Z</time></trkpt>
      <trkpt lat="41.42254752572626" lon="-81.73442959785461"><ele>198</ele><time>2026-09-26T20:48:25Z</time></trkpt>
      <trkpt lat="41.422364129684865" lon="-81.73447452485561"><ele>197</ele><time>2026-09-26T20:48:28Z</time></trkpt>
      <trkpt lat="41.42210797872394" lon="-81.73450386151671"><ele>197</ele><time>2026-09-26T20:48:31Z</time></trkpt>
      <trkpt lat="41.4218081580475" lon="-81.7345064599067"><ele>197</ele><time>2026-09-26T20:48:34Z</time></trkpt>
      <trkpt lat="41.42149861436337" lon="-81.73450101166964"><ele>196</ele><time>2026-09-26T20:48:37Z</time></trkpt>
      <trkpt lat="41.42113965936005" lon="-81.73449464142323"><ele>196</ele><time>2026-09-26T20:48:40Z</time></trkpt>
      <trkpt lat="41.42079587560147" lon="-81.73448751680553"><ele>197</ele><time>2026-09-26T20:48:43Z</time></trkpt>
      <trkpt lat="41.42044106964022" lon="-81.7344892770052"><ele>198</ele><time>2026-09-26T20:48:46Z</time></trkpt>
      <trkpt lat="41.42008693423122" lon="-81.73448919318616"><ele>200</ele><time>2026-09-26T20:48:49Z</time></trkpt>
      <trkpt lat="41.419775295071304" lon="-81.73447335138917"><ele>202</ele><time>2026-09-26T20:48:52Z</time></trkpt>
      <trkpt lat="41.4195302920416" lon="-81.73449103720486"><ele>203</ele><time>2026-09-26T20:48:55Z</time></trkpt>
      <trkpt lat="41.419278122484684" lon="-81.73449405469"><ele>205</ele><time>2026-09-26T20:48:58Z</time></trkpt>
      <trkpt lat="41.41906626988202" lon="-81.73449673689902"><ele>205</ele><time>2026-09-26T20:49:01Z</time></trkpt>
      <trkpt lat="41.41894075088203" lon="-81.73450469970703"><ele>205</ele><time>2026-09-26T20:49:04Z</time></trkpt>
      <trkpt lat="41.418884550221264" lon="-81.73449832946062"><ele>204</ele><time>2026-09-26T20:50:32Z</time></trkpt>
      <trkpt lat="41.41874863766134" lon="-81.73449791036546"><ele>205</ele><time>2026-09-26T20:50:35Z</time></trkpt>
      <trkpt lat="41.418520524166524" lon="-81.73449992202222"><ele>204</ele><time>2026-09-26T20:50:38Z</time></trkpt>
      <trkpt lat="41.418226906098425" lon="-81.73449983820319"><ele>204</ele><time>2026-09-26T20:50:41Z</time></trkpt>
      <trkpt lat="41.41790742985904" lon="-81.73450008966029"><ele>204</ele><time>2026-09-26T20:50:44Z</time></trkpt>
      <trkpt lat="41.4175891270861" lon="-81.73449983820319"><ele>204</ele><time>2026-09-26T20:50:47Z</time></trkpt>
      <trkpt lat="41.417280128225684" lon="-81.73450076021254"><ele>205</ele><time>2026-09-26T20:50:50Z</time></trkpt>
      <trkpt lat="41.416971632279456" lon="-81.73451920039952"><ele>205</ele><time>2026-09-26T20:50:53Z</time></trkpt>
      <trkpt lat="41.41665471252054" lon="-81.7345445137471"><ele>204</ele><time>2026-09-26T20:50:56Z</time></trkpt>
      <trkpt lat="41.41635049134493" lon="-81.73454836942255"><ele>205</ele><time>2026-09-26T20:50:59Z</time></trkpt>
      <trkpt lat="41.416025357320905" lon="-81.73454694449902"><ele>206</ele><time>2026-09-26T20:51:02Z</time></trkpt>
      <trkpt lat="41.41570630017668" lon="-81.7345527280122"><ele>207</ele><time>2026-09-26T20:51:05Z</time></trkpt>
      <trkpt lat="41.41539323609322" lon="-81.73455851152539"><ele>209</ele><time>2026-09-26T20:51:08Z</time></trkpt>
      <trkpt lat="41.4151059044525" lon="-81.73456639051437"><ele>211</ele><time>2026-09-26T20:51:11Z</time></trkpt>
      <trkpt lat="41.414889986626804" lon="-81.7345688212663"><ele>213</ele><time>2026-09-26T20:51:14Z</time></trkpt>
      <trkpt lat="41.414736178703606" lon="-81.73456571996212"><ele>214</ele><time>2026-09-26T20:51:17Z</time></trkpt>
      <trkpt lat="41.414632578380406" lon="-81.73456287011504"><ele>213</ele><time>2026-09-26T20:51:20Z</time></trkpt>
      <trkpt lat="41.41456300858408" lon="-81.73456446267664"><ele>213</ele><time>2026-09-26T20:51:42Z</time></trkpt>
      <trkpt lat="41.41438250429928" lon="-81.73456463031471"><ele>214</ele><time>2026-09-26T20:51:45Z</time></trkpt>
      <trkpt lat="41.41413737554103" lon="-81.73457317985594"><ele>215</ele><time>2026-09-26T20:51:48Z</time></trkpt>
      <trkpt lat="41.41385570168495" lon="-81.73457745462656"><ele>217</ele><time>2026-09-26T20:51:51Z</time></trkpt>
      <trkpt lat="41.413566526025534" lon="-81.73458449542522"><ele>218</ele><time>2026-09-26T20:51:54Z</time></trkpt>
      <trkpt lat="41.413301448337734" lon="-81.73458332195878"><ele>219</ele><time>2026-09-26T20:51:57Z</time></trkpt>
      <trkpt lat="41.41306977253407" lon="-81.73464057035744"><ele>221</ele><time>2026-09-26T20:52:00Z</time></trkpt>
      <trkpt lat="41.41287472564727" lon="-81.7348727490753"><ele>221</ele><time>2026-09-26T20:52:03Z</time></trkpt>
      <trkpt lat="41.41266358550638" lon="-81.73513258807361"><ele>222</ele><time>2026-09-26T20:52:06Z</time></trkpt>
      <trkpt lat="41.412447122856975" lon="-81.73538773320615"><ele>223</ele><time>2026-09-26T20:52:09Z</time></trkpt>
      <trkpt lat="41.41221800353378" lon="-81.73565763048828"><ele>223</ele><time>2026-09-26T20:52:12Z</time></trkpt>
      <trkpt lat="41.41198498662561" lon="-81.73592576757073"><ele>223</ele><time>2026-09-26T20:52:15Z</time></trkpt>
      <trkpt lat="41.41174849122763" lon="-81.73620320856571"><ele>222</ele><time>2026-09-26T20:52:18Z</time></trkpt>
      <trkpt lat="41.41150168608874" lon="-81.73648106865585"><ele>223</ele><time>2026-09-26T20:52:21Z</time></trkpt>
      <trkpt lat="41.411259532906115" lon="-81.73674928955734"><ele>223</ele><time>2026-09-26T20:52:24Z</time></trkpt>
      <trkpt lat="41.41101566143334" lon="-81.73702530562878"><ele>223</ele><time>2026-09-26T20:52:27Z</time></trkpt>
      <trkpt lat="41.41076445579529" lon="-81.73730727285147"><ele>223</ele><time>2026-09-26T20:52:30Z</time></trkpt>
      <trkpt lat="41.410514172166586" lon="-81.73759091645479"><ele>225</ele><time>2026-09-26T20:52:33Z</time></trkpt>
      <trkpt lat="41.410267911851406" lon="-81.73787095583975"><ele>224</ele><time>2026-09-26T20:52:36Z</time></trkpt>
      <trkpt lat="41.410023076459765" lon="-81.73815225251019"><ele>225</ele><time>2026-09-26T20:52:39Z</time></trkpt>
      <trkpt lat="41.40978808980435" lon="-81.73841821029782"><ele>226</ele><time>2026-09-26T20:52:42Z</time></trkpt>
      <trkpt lat="41.409541494213045" lon="-81.73869892023504"><ele>226</ele><time>2026-09-26T20:52:45Z</time></trkpt>
      <trkpt lat="41.409303238615394" lon="-81.73897912725806"><ele>226</ele><time>2026-09-26T20:52:48Z</time></trkpt>
      <trkpt lat="41.409060205332935" lon="-81.73925891518593"><ele>226</ele><time>2026-09-26T20:52:51Z</time></trkpt>
      <trkpt lat="41.40882743988186" lon="-81.73953996039927"><ele>225</ele><time>2026-09-26T20:52:54Z</time></trkpt>
      <trkpt lat="41.40858612488955" lon="-81.73982595093548"><ele>225</ele><time>2026-09-26T20:52:57Z</time></trkpt>
      <trkpt lat="41.408354616723955" lon="-81.74010716378689"><ele>223</ele><time>2026-09-26T20:53:00Z</time></trkpt>
      <trkpt lat="41.40811590012163" lon="-81.74039784818888"><ele>223</ele><time>2026-09-26T20:53:03Z</time></trkpt>
      <trkpt lat="41.407875339500606" lon="-81.74069297499955"><ele>223</ele><time>2026-09-26T20:53:06Z</time></trkpt>
      <trkpt lat="41.407636790536344" lon="-81.74097678624094"><ele>223</ele><time>2026-09-26T20:53:09Z</time></trkpt>
      <trkpt lat="41.40740339644253" lon="-81.74124869517982"><ele>223</ele><time>2026-09-26T20:53:12Z</time></trkpt>
      <trkpt lat="41.4071617461741" lon="-81.74153761938214"><ele>223</ele><time>2026-09-26T20:53:15Z</time></trkpt>
      <trkpt lat="41.40691950917244" lon="-81.74182310700417"><ele>223</ele><time>2026-09-26T20:53:18Z</time></trkpt>
      <trkpt lat="41.40668540261686" lon="-81.74210817553103"><ele>223</ele><time>2026-09-26T20:53:21Z</time></trkpt>
      <trkpt lat="41.40645087696612" lon="-81.74239316023886"><ele>223</ele><time>2026-09-26T20:53:24Z</time></trkpt>
      <trkpt lat="41.40621563885361" lon="-81.74267873167992"><ele>222</ele><time>2026-09-26T20:53:27Z</time></trkpt>
      <trkpt lat="41.40597939491272" lon="-81.74296053126454"><ele>221</ele><time>2026-09-26T20:53:30Z</time></trkpt>
      <trkpt lat="41.40574051067233" lon="-81.74324694089592"><ele>220</ele><time>2026-09-26T20:53:33Z</time></trkpt>
      <trkpt lat="41.40550112351775" lon="-81.74354173243046"><ele>217</ele><time>2026-09-26T20:53:36Z</time></trkpt>
      <trkpt lat="41.405258383601904" lon="-81.74384976737201"><ele>215</ele><time>2026-09-26T20:53:39Z</time></trkpt>
      <trkpt lat="41.40501773916185" lon="-81.7441402003169"><ele>215</ele><time>2026-09-26T20:53:42Z</time></trkpt>
      <trkpt lat="41.4047689223662" lon="-81.74443298019469"><ele>216</ele><time>2026-09-26T20:53:45Z</time></trkpt>
      <trkpt lat="41.404516878537834" lon="-81.74472986720502"><ele>217</ele><time>2026-09-26T20:53:48Z</time></trkpt>
      <trkpt lat="41.40425955411047" lon="-81.74504955299199"><ele>219</ele><time>2026-09-26T20:53:51Z</time></trkpt>
      <trkpt lat="41.403988022357225" lon="-81.74540846608579"><ele>217</ele><time>2026-09-26T20:53:54Z</time></trkpt>
      <trkpt lat="41.403693817555904" lon="-81.74575229175389"><ele>217</ele><time>2026-09-26T20:53:57Z</time></trkpt>
      <trkpt lat="41.403448856435716" lon="-81.74604867585003"><ele>218</ele><time>2026-09-26T20:54:00Z</time></trkpt>
      <trkpt lat="41.40327769797295" lon="-81.74608396366239"><ele>219</ele><time>2026-09-26T20:54:03Z</time></trkpt>
      <trkpt lat="41.403142120689154" lon="-81.7458844743669"><ele>220</ele><time>2026-09-26T20:54:06Z</time></trkpt>
      <trkpt lat="41.402947450987995" lon="-81.74564877524972"><ele>223</ele><time>2026-09-26T20:54:09Z</time></trkpt>
      <trkpt lat="41.40273350290954" lon="-81.74535901285708"><ele>225</ele><time>2026-09-26T20:54:12Z</time></trkpt>
      <trkpt lat="41.40251741744578" lon="-81.74505106173456"><ele>225</ele><time>2026-09-26T20:54:15Z</time></trkpt>
      <trkpt lat="41.40226109884679" lon="-81.74472601152956"><ele>225</ele><time>2026-09-26T20:54:18Z</time></trkpt>
      <trkpt lat="41.40198231674731" lon="-81.74452333711088"><ele>225</ele><time>2026-09-26T20:54:21Z</time></trkpt>
      <trkpt lat="41.4016995113343" lon="-81.74446810036898"><ele>226</ele><time>2026-09-26T20:54:24Z</time></trkpt>
      <trkpt lat="41.40152043197304" lon="-81.74449760466814"><ele>225</ele><time>2026-09-26T20:54:27Z</time></trkpt>
      <trkpt lat="41.40145358629525" lon="-81.74451763741672"><ele>221</ele><time>2026-09-26T20:54:31Z</time></trkpt>
      <trkpt lat="41.40135229099542" lon="-81.74454714171588"><ele>222</ele><time>2026-09-26T20:54:34Z</time></trkpt>
    </trkseg>
  </trk>
</gpx>
