<?xml version="1.0" encoding="UTF-8"?>
<gpx version="1.1" creator="HoldMyTrack" xmlns="http://www.topografix.com/GPX/1/1">
  <trk>
    <type>driving</type>
    <trkseg>
      <trkpt lat="41.409559808671474" lon="-81.66121744550765"><ele>169</ele><time>2026-10-03T14:50:32Z</time></trkpt>
      <trkpt lat="41.40937603544444" lon="-81.66024321690202"><ele>166</ele><time>2026-10-03T14:50:35Z</time></trkpt>
      <trkpt lat="41.40919783618301" lon="-81.65926706045866"><ele>164</ele><time>2026-10-03T14:50:38Z</time></trkpt>
      <trkpt lat="41.40902634244412" lon="-81.65827120654285"><ele>162</ele><time>2026-10-03T14:50:41Z</time></trkpt>
      <trkpt lat="41.40884696971625" lon="-81.6572604328394"><ele>158</ele><time>2026-10-03T14:50:44Z</time></trkpt>
      <trkpt lat="41.40866483096033" lon="-81.65621713735163"><ele>156</ele><time>2026-10-03T14:50:47Z</time></trkpt>
      <trkpt lat="41.408476112410426" lon="-81.65517627261579"><ele>152</ele><time>2026-10-03T14:50:50Z</time></trkpt>
      <trkpt lat="41.40828131698072" lon="-81.6541104298085"><ele>150</ele><time>2026-10-03T14:50:53Z</time></trkpt>
      <trkpt lat="41.40809657983482" lon="-81.65303260087967"><ele>148</ele><time>2026-10-03T14:50:56Z</time></trkpt>
      <trkpt lat="41.40789440833032" lon="-81.651965752244"><ele>146</ele><time>2026-10-03T14:50:59Z</time></trkpt>
      <trkpt lat="41.40769127290696" lon="-81.65089496411383"><ele>145</ele><time>2026-10-03T14:51:02Z</time></trkpt>
      <trkpt lat="41.40752987936139" lon="-81.64983465336263"><ele>144</ele><time>2026-10-03T14:51:05Z</time></trkpt>
      <trkpt lat="41.40733453910798" lon="-81.64880376309156"><ele>144</ele><time>2026-10-03T14:51:08Z</time></trkpt>
      <trkpt lat="41.407176246866584" lon="-81.64776683785021"><ele>146</ele><time>2026-10-03T14:51:11Z</time></trkpt>
      <trkpt lat="41.40698983334005" lon="-81.64673309773207"><ele>145</ele><time>2026-10-03T14:51:14Z</time></trkpt>
      <trkpt lat="41.406862302683294" lon="-81.64571142755449"><ele>147</ele><time>2026-10-03T14:51:17Z</time></trkpt>
      <trkpt lat="41.40676926355809" lon="-81.64466888643801"><ele>150</ele><time>2026-10-03T14:51:20Z</time></trkpt>
      <trkpt lat="41.40677726827562" lon="-81.64359541609883"><ele>156</ele><time>2026-10-03T14:51:23Z</time></trkpt>
      <trkpt lat="41.40683024190366" lon="-81.64251222275198"><ele>156</ele><time>2026-10-03T14:51:26Z</time></trkpt>
      <trkpt lat="41.40694436151534" lon="-81.64147697389126"><ele>159</ele><time>2026-10-03T14:51:29Z</time></trkpt>
      <trkpt lat="41.40712721273303" lon="-81.64045237004757"><ele>158</ele><time>2026-10-03T14:51:32Z</time></trkpt>
      <trkpt lat="41.40736676752567" lon="-81.63945601321757"><ele>161</ele><time>2026-10-03T14:51:35Z</time></trkpt>
      <trkpt lat="41.40758846886456" lon="-81.63846627809107"><ele>162</ele><time>2026-10-03T14:51:38Z</time></trkpt>
      <trkpt lat="41.407782970927656" lon="-81.63749565370381"><ele>165</ele><time>2026-10-03T14:51:41Z</time></trkpt>
      <trkpt lat="41.407953249290586" lon="-81.6364908311516"><ele>169</ele><time>2026-10-03T14:51:44Z</time></trkpt>
      <trkpt lat="41.40814075246453" lon="-81.635487601161"><ele>171</ele><time>2026-10-03T14:51:47Z</time></trkpt>
      <trkpt lat="41.40830566640943" lon="-81.63449384272099"><ele>176</ele><time>2026-10-03T14:51:50Z</time></trkpt>
      <trkpt lat="41.408487763255835" lon="-81.63348072208464"><ele>181</ele><time>2026-10-03T14:51:53Z</time></trkpt>
      <trkpt lat="41.408641026355326" lon="-81.63244983181357"><ele>187</ele><time>2026-10-03T14:51:56Z</time></trkpt>
      <trkpt lat="41.40881549566984" lon="-81.63146370090544"><ele>188</ele><time>2026-10-03T14:51:59Z</time></trkpt>
      <trkpt lat="41.408990593627095" lon="-81.63048083893955"><ele>190</ele><time>2026-10-03T14:52:02Z</time></trkpt>
      <trkpt lat="41.40916841570288" lon="-81.62946704775095"><ele>192</ele><time>2026-10-03T14:52:05Z</time></trkpt>
      <trkpt lat="41.409344477579" lon="-81.62846339866519"><ele>193</ele><time>2026-10-03T14:52:08Z</time></trkpt>
      <trkpt lat="41.409520749002695" lon="-81.62745664827526"><ele>196</ele><time>2026-10-03T14:52:11Z</time></trkpt>
      <trkpt lat="41.40969869680703" lon="-81.62645308300853"><ele>198</ele><time>2026-10-03T14:52:14Z</time></trkpt>
      <trkpt lat="41.40988188330084" lon="-81.62545882165432"><ele>200</ele><time>2026-10-03T14:52:17Z</time></trkpt>
      <trkpt lat="41.41005132347345" lon="-81.62446271628141"><ele>202</ele><time>2026-10-03T14:52:20Z</time></trkpt>
      <trkpt lat="41.41022709198296" lon="-81.62347348406911"><ele>203</ele><time>2026-10-03T14:52:23Z</time></trkpt>
      <trkpt lat="41.41039808280766" lon="-81.62246623076499"><ele>206</ele><time>2026-10-03T14:52:26Z</time></trkpt>
      <trkpt lat="41.41058152075857" lon="-81.62146610207856"><ele>207</ele><time>2026-10-03T14:52:29Z</time></trkpt>
      <trkpt lat="41.4107406930998" lon="-81.6204743552953"><ele>208</ele><time>2026-10-03T14:52:32Z</time></trkpt>
      <trkpt lat="41.410914617590606" lon="-81.61947079002857"><ele>210</ele><time>2026-10-03T14:52:35Z</time></trkpt>
      <trkpt lat="41.4110911404714" lon="-81.61846219561994"><ele>212</ele><time>2026-10-03T14:52:38Z</time></trkpt>
      <trkpt lat="41.41127964947373" lon="-81.61745603196323"><ele>214</ele><time>2026-10-03T14:52:41Z</time></trkpt>
      <trkpt lat="41.41146413516253" lon="-81.61646369844675"><ele>215</ele><time>2026-10-03T14:52:44Z</time></trkpt>
      <trkpt lat="41.411622134037316" lon="-81.61543481983244"><ele>216</ele><time>2026-10-03T14:52:47Z</time></trkpt>
      <trkpt lat="41.41179065220058" lon="-81.61440711468458"><ele>219</ele><time>2026-10-03T14:52:50Z</time></trkpt>
      <trkpt lat="41.41192564275116" lon="-81.61337270401418"><ele>223</ele><time>2026-10-03T14:52:53Z</time></trkpt>
      <trkpt lat="41.412077732384205" lon="-81.61235614679754"><ele>226</ele><time>2026-10-03T14:52:56Z</time></trkpt>
      <trkpt lat="41.41221565660089" lon="-81.61132710054517"><ele>230</ele><time>2026-10-03T14:52:59Z</time></trkpt>
      <trkpt lat="41.41237763687968" lon="-81.61027458496392"><ele>234</ele><time>2026-10-03T14:53:02Z</time></trkpt>
      <trkpt lat="41.4125399524346" lon="-81.60925157368183"><ele>235</ele><time>2026-10-03T14:53:05Z</time></trkpt>
      <trkpt lat="41.412710775621235" lon="-81.6082361061126"><ele>236</ele><time>2026-10-03T14:53:08Z</time></trkpt>
      <trkpt lat="41.41289840452373" lon="-81.60721669904888"><ele>238</ele><time>2026-10-03T14:53:11Z</time></trkpt>
      <trkpt lat="41.41309324186295" lon="-81.60621606744826"><ele>239</ele><time>2026-10-03T14:53:14Z</time></trkpt>
      <trkpt lat="41.41328024212271" lon="-81.60518174059689"><ele>240</ele><time>2026-10-03T14:53:17Z</time></trkpt>
      <trkpt lat="41.41346405725926" lon="-81.6041465755552"><ele>241</ele><time>2026-10-03T14:53:20Z</time></trkpt>
      <trkpt lat="41.41363605391234" lon="-81.60310294479132"><ele>243</ele><time>2026-10-03T14:53:23Z</time></trkpt>
      <trkpt lat="41.413797489367425" lon="-81.60209393128753"><ele>246</ele><time>2026-10-03T14:53:26Z</time></trkpt>
      <trkpt lat="41.413962906226516" lon="-81.60109598189592"><ele>248</ele><time>2026-10-03T14:53:29Z</time></trkpt>
      <trkpt lat="41.41416327562183" lon="-81.60009576939046"><ele>249</ele><time>2026-10-03T14:53:32Z</time></trkpt>
      <trkpt lat="41.41440379433334" lon="-81.59912405535579"><ele>247</ele><time>2026-10-03T14:53:35Z</time></trkpt>
      <trkpt lat="41.41469841822982" lon="-81.59815770573914"><ele>247</ele><time>2026-10-03T14:53:38Z</time></trkpt>
      <trkpt lat="41.41507053282112" lon="-81.59726092591882"><ele>245</ele><time>2026-10-03T14:53:41Z</time></trkpt>
      <trkpt lat="41.415524831973016" lon="-81.59639675170183"><ele>245</ele><time>2026-10-03T14:53:44Z</time></trkpt>
      <trkpt lat="41.41600402537733" lon="-81.59555830992758"><ele>245</ele><time>2026-10-03T14:53:47Z</time></trkpt>
      <trkpt lat="41.41647718381137" lon="-81.59472053870559"><ele>247</ele><time>2026-10-03T14:53:50Z</time></trkpt>
      <trkpt lat="41.41695704776794" lon="-81.59388796426356"><ele>246</ele><time>2026-10-03T14:53:53Z</time></trkpt>
      <trkpt lat="41.41743058338761" lon="-81.59305220469832"><ele>245</ele><time>2026-10-03T14:53:56Z</time></trkpt>
      <trkpt lat="41.417899508960545" lon="-81.59222373738885"><ele>244</ele><time>2026-10-03T14:53:59Z</time></trkpt>
      <trkpt lat="41.41836244147271" lon="-81.59137791953981"><ele>243</ele><time>2026-10-03T14:54:02Z</time></trkpt>
      <trkpt lat="41.4188214763999" lon="-81.59052765928209"><ele>241</ele><time>2026-10-03T14:54:05Z</time></trkpt>
      <trkpt lat="41.41931056044996" lon="-81.58969935961068"><ele>239</ele><time>2026-10-03T14:54:08Z</time></trkpt>
      <trkpt lat="41.419823658652604" lon="-81.58890006132424"><ele>235</ele><time>2026-10-03T14:54:11Z</time></trkpt>
      <trkpt lat="41.420339648611844" lon="-81.58811526373029"><ele>236</ele><time>2026-10-03T14:54:14Z</time></trkpt>
      <trkpt lat="41.4208377012983" lon="-81.58733859658241"><ele>238</ele><time>2026-10-03T14:54:17Z</time></trkpt>
      <trkpt lat="41.42133935820311" lon="-81.58654114231467"><ele>238</ele><time>2026-10-03T14:54:20Z</time></trkpt>
      <trkpt lat="41.4218139834702" lon="-81.5857192967087"><ele>239</ele><time>2026-10-03T14:54:23Z</time></trkpt>
      <trkpt lat="41.422256799414754" lon="-81.5848458185792"><ele>240</ele><time>2026-10-03T14:54:26Z</time></trkpt>
      <trkpt lat="41.4226652495563" lon="-81.58393319696188"><ele>237</ele><time>2026-10-03T14:54:29Z</time></trkpt>
      <trkpt lat="41.42305815126747" lon="-81.5830169711262"><ele>236</ele><time>2026-10-03T14:54:32Z</time></trkpt>
      <trkpt lat="41.42345583066344" lon="-81.58210753463209"><ele>233</ele><time>2026-10-03T14:54:35Z</time></trkpt>
      <trkpt lat="41.42382719088346" lon="-81.58117127604783"><ele>229</ele><time>2026-10-03T14:54:38Z</time></trkpt>
      <trkpt lat="41.424127598293126" lon="-81.58020501025021"><ele>226</ele><time>2026-10-03T14:54:41Z</time></trkpt>
      <trkpt lat="41.42435030546039" lon="-81.57918744720519"><ele>224</ele><time>2026-10-03T14:54:44Z</time></trkpt>
      <trkpt lat="41.424508430063725" lon="-81.57820005901158"><ele>221</ele><time>2026-10-03T14:54:47Z</time></trkpt>
      <trkpt lat="41.42458604648709" lon="-81.57718249596655"><ele>219</ele><time>2026-10-03T14:54:50Z</time></trkpt>
      <trkpt lat="41.42460310366005" lon="-81.57616241835058"><ele>219</ele><time>2026-10-03T14:54:53Z</time></trkpt>
      <trkpt lat="41.42460431903601" lon="-81.57512817531824"><ele>221</ele><time>2026-10-03T14:54:56Z</time></trkpt>
      <trkpt lat="41.42460389994085" lon="-81.57406962476671"><ele>223</ele><time>2026-10-03T14:54:59Z</time></trkpt>
      <trkpt lat="41.42460067290813" lon="-81.57300277613103"><ele>226</ele><time>2026-10-03T14:55:02Z</time></trkpt>
      <trkpt lat="41.424601092003286" lon="-81.57195503823459"><ele>227</ele><time>2026-10-03T14:55:05Z</time></trkpt>
      <trkpt lat="41.42461022827774" lon="-81.57093420624733"><ele>227</ele><time>2026-10-03T14:55:08Z</time></trkpt>
      <trkpt lat="41.42460955772549" lon="-81.56988764181733"><ele>230</ele><time>2026-10-03T14:55:11Z</time></trkpt>
      <trkpt lat="41.42461320385337" lon="-81.56885222531855"><ele>231</ele><time>2026-10-03T14:55:14Z</time></trkpt>
      <trkpt lat="41.4246072107926" lon="-81.56780775636435"><ele>235</ele><time>2026-10-03T14:55:17Z</time></trkpt>
      <trkpt lat="41.42462472897023" lon="-81.56678600236773"><ele>237</ele><time>2026-10-03T14:55:20Z</time></trkpt>
      <trkpt lat="41.424620621837676" lon="-81.56575259752572"><ele>237</ele><time>2026-10-03T14:55:23Z</time></trkpt>
      <trkpt lat="41.42462715972215" lon="-81.56469957903028"><ele>237</ele><time>2026-10-03T14:55:26Z</time></trkpt>
      <trkpt lat="41.4246270339936" lon="-81.56365653499961"><ele>238</ele><time>2026-10-03T14:55:29Z</time></trkpt>
      <trkpt lat="41.42463667318225" lon="-81.56260427087545"><ele>239</ele><time>2026-10-03T14:55:32Z</time></trkpt>
      <trkpt lat="41.424655532464385" lon="-81.5615657530725"><ele>240</ele><time>2026-10-03T14:55:35Z</time></trkpt>
      <trkpt lat="41.424679211340845" lon="-81.56051835045218"><ele>241</ele><time>2026-10-03T14:55:38Z</time></trkpt>
      <trkpt lat="41.42468981444836" lon="-81.55946985818446"><ele>243</ele><time>2026-10-03T14:55:41Z</time></trkpt>
      <trkpt lat="41.424684659577906" lon="-81.55842002481222"><ele>243</ele><time>2026-10-03T14:55:44Z</time></trkpt>
      <trkpt lat="41.424677702598274" lon="-81.55736382119358"><ele>245</ele><time>2026-10-03T14:55:47Z</time></trkpt>
      <trkpt lat="41.424677073955536" lon="-81.55631801113486"><ele>246</ele><time>2026-10-03T14:55:50Z</time></trkpt>
      <trkpt lat="41.42468428239226" lon="-81.55527538619936"><ele>246</ele><time>2026-10-03T14:55:53Z</time></trkpt>
      <trkpt lat="41.4246909879148" lon="-81.55422270298004"><ele>247</ele><time>2026-10-03T14:55:56Z</time></trkpt>
      <trkpt lat="41.42468998208642" lon="-81.55317756347358"><ele>247</ele><time>2026-10-03T14:55:59Z</time></trkpt>
      <trkpt lat="41.424696017056704" lon="-81.5521511156112"><ele>248</ele><time>2026-10-03T14:56:02Z</time></trkpt>
      <trkpt lat="41.4247020939365" lon="-81.55109943822026"><ele>248</ele><time>2026-10-03T14:56:05Z</time></trkpt>
      <trkpt lat="41.42470381222665" lon="-81.55006033368409"><ele>247</ele><time>2026-10-03T14:56:08Z</time></trkpt>
      <trkpt lat="41.42471915110946" lon="-81.54901293106377"><ele>249</ele><time>2026-10-03T14:56:11Z</time></trkpt>
      <trkpt lat="41.424724138341844" lon="-81.54794516041875"><ele>250</ele><time>2026-10-03T14:56:14Z</time></trkpt>
      <trkpt lat="41.424734867177904" lon="-81.5468926448375"><ele>251</ele><time>2026-10-03T14:56:17Z</time></trkpt>
      <trkpt lat="41.42474048305303" lon="-81.5458407998085"><ele>252</ele><time>2026-10-03T14:56:20Z</time></trkpt>
      <trkpt lat="41.42473633401096" lon="-81.54481527395546"><ele>252</ele><time>2026-10-03T14:56:23Z</time></trkpt>
      <trkpt lat="41.42473419662565" lon="-81.54382067732513"><ele>253</ele><time>2026-10-03T14:56:26Z</time></trkpt>
      <trkpt lat="41.424741530790925" lon="-81.54283865354955"><ele>254</ele><time>2026-10-03T14:56:29Z</time></trkpt>
      <trkpt lat="41.424745386466384" lon="-81.54184430837631"><ele>255</ele><time>2026-10-03T14:56:32Z</time></trkpt>
      <trkpt lat="41.4247523015365" lon="-81.54081668704748"><ele>257</ele><time>2026-10-03T14:56:35Z</time></trkpt>
      <trkpt lat="41.424766508862376" lon="-81.53977582231164"><ele>257</ele><time>2026-10-03T14:56:38Z</time></trkpt>
      <trkpt lat="41.42477803397924" lon="-81.53873747214675"><ele>259</ele><time>2026-10-03T14:56:41Z</time></trkpt>
      <trkpt lat="41.424786667339504" lon="-81.53770348057151"><ele>258</ele><time>2026-10-03T14:56:44Z</time></trkpt>
      <trkpt lat="41.42476797569543" lon="-81.53666881844401"><ele>259</ele><time>2026-10-03T14:56:47Z</time></trkpt>
      <trkpt lat="41.42474190797657" lon="-81.53566986322403"><ele>260</ele><time>2026-10-03T14:56:50Z</time></trkpt>
      <trkpt lat="41.424669488333166" lon="-81.53463025577366"><ele>262</ele><time>2026-10-03T14:56:53Z</time></trkpt>
      <trkpt lat="41.42455847002566" lon="-81.53358930721879"><ele>266</ele><time>2026-10-03T14:56:56Z</time></trkpt>
      <trkpt lat="41.42446890939027" lon="-81.53256939724088"><ele>268</ele><time>2026-10-03T14:56:59Z</time></trkpt>
      <trkpt lat="41.424380857497454" lon="-81.53155007399619"><ele>270</ele><time>2026-10-03T14:57:02Z</time></trkpt>
      <trkpt lat="41.42428375314921" lon="-81.53052580542862"><ele>274</ele><time>2026-10-03T14:57:05Z</time></trkpt>
      <trkpt lat="41.424193060956895" lon="-81.52948854491115"><ele>277</ele><time>2026-10-03T14:57:08Z</time></trkpt>
      <trkpt lat="41.42409490887076" lon="-81.5284582413733"><ele>280</ele><time>2026-10-03T14:57:11Z</time></trkpt>
      <trkpt lat="41.42401695717126" lon="-81.52742424979806"><ele>282</ele><time>2026-10-03T14:57:14Z</time></trkpt>
      <trkpt lat="41.423980495892465" lon="-81.52636528015137"><ele>284</ele><time>2026-10-03T14:57:17Z</time></trkpt>
      <trkpt lat="41.42400128301233" lon="-81.52531846426427"><ele>285</ele><time>2026-10-03T14:57:20Z</time></trkpt>
      <trkpt lat="41.42408606596291" lon="-81.52427366003394"><ele>284</ele><time>2026-10-03T14:57:23Z</time></trkpt>
      <trkpt lat="41.42420605290681" lon="-81.52323539368808"><ele>284</ele><time>2026-10-03T14:57:26Z</time></trkpt>
      <trkpt lat="41.42438333015889" lon="-81.52222311124206"><ele>283</ele><time>2026-10-03T14:57:29Z</time></trkpt>
      <trkpt lat="41.424629841931164" lon="-81.52125667780638"><ele>280</ele><time>2026-10-03T14:57:32Z</time></trkpt>
      <trkpt lat="41.424920191057026" lon="-81.52030264958739"><ele>277</ele><time>2026-10-03T14:57:35Z</time></trkpt>
      <trkpt lat="41.42523178830743" lon="-81.51935205794871"><ele>276</ele><time>2026-10-03T14:57:38Z</time></trkpt>
      <trkpt lat="41.425550929270685" lon="-81.51840607635677"><ele>277</ele><time>2026-10-03T14:57:41Z</time></trkpt>
      <trkpt lat="41.425863238982856" lon="-81.51744995266199"><ele>277</ele><time>2026-10-03T14:57:44Z</time></trkpt>
      <trkpt lat="41.426160712726414" lon="-81.51650556363165"><ele>279</ele><time>2026-10-03T14:57:47Z</time></trkpt>
      <trkpt lat="41.426464724354446" lon="-81.51558833196759"><ele>280</ele><time>2026-10-03T14:57:50Z</time></trkpt>
      <trkpt lat="41.42675972543657" lon="-81.51471326127648"><ele>283</ele><time>2026-10-03T14:57:53Z</time></trkpt>
      <trkpt lat="41.42704680562019" lon="-81.51384330354631"><ele>283</ele><time>2026-10-03T14:57:56Z</time></trkpt>
      <trkpt lat="41.42730400431901" lon="-81.51298860087991"><ele>285</ele><time>2026-10-03T14:57:59Z</time></trkpt>
      <trkpt lat="41.42755805980414" lon="-81.51216985657811"><ele>286</ele><time>2026-10-03T14:58:02Z</time></trkpt>
      <trkpt lat="41.42780587077141" lon="-81.51136879809201"><ele>286</ele><time>2026-10-03T14:58:05Z</time></trkpt>
      <trkpt lat="41.42804282717407" lon="-81.51053085923195"><ele>289</ele><time>2026-10-03T14:58:08Z</time></trkpt>
      <trkpt lat="41.4282873691991" lon="-81.50968730449677"><ele>290</ele><time>2026-10-03T14:58:11Z</time></trkpt>
      <trkpt lat="41.4285299833864" lon="-81.50880988687277"><ele>291</ele><time>2026-10-03T14:58:14Z</time></trkpt>
      <trkpt lat="41.42873504664749" lon="-81.5078598819673"><ele>290</ele><time>2026-10-03T14:58:17Z</time></trkpt>
      <trkpt lat="41.42895293422043" lon="-81.50687132030725"><ele>290</ele><time>2026-10-03T14:58:20Z</time></trkpt>
      <trkpt lat="41.42917321063578" lon="-81.50588535703719"><ele>289</ele><time>2026-10-03T14:58:23Z</time></trkpt>
      <trkpt lat="41.42937953118235" lon="-81.50488128885627"><ele>289</ele><time>2026-10-03T14:58:26Z</time></trkpt>
      <trkpt lat="41.42964284867048" lon="-81.50390530005097"><ele>286</ele><time>2026-10-03T14:58:29Z</time></trkpt>
      <trkpt lat="41.430041869170964" lon="-81.5029682032764"><ele>282</ele><time>2026-10-03T14:58:32Z</time></trkpt>
      <trkpt lat="41.4305478008464" lon="-81.50218449532986"><ele>279</ele><time>2026-10-03T14:58:35Z</time></trkpt>
      <trkpt lat="41.431163283996284" lon="-81.50154939852655"><ele>278</ele><time>2026-10-03T14:58:38Z</time></trkpt>
      <trkpt lat="41.4318343391642" lon="-81.50105000473559"><ele>280</ele><time>2026-10-03T14:58:41Z</time></trkpt>
      <trkpt lat="41.43255602102727" lon="-81.50066209025681"><ele>285</ele><time>2026-10-03T14:58:44Z</time></trkpt>
      <trkpt lat="41.433295933529735" lon="-81.50038314051926"><ele>288</ele><time>2026-10-03T14:58:47Z</time></trkpt>
      <trkpt lat="41.43403949216008" lon="-81.50010829791427"><ele>288</ele><time>2026-10-03T14:58:50Z</time></trkpt>
      <trkpt lat="41.434756983071566" lon="-81.49973438121378"><ele>289</ele><time>2026-10-03T14:58:53Z</time></trkpt>
      <trkpt lat="41.43542770296335" lon="-81.49918142706156"><ele>288</ele><time>2026-10-03T14:58:56Z</time></trkpt>
      <trkpt lat="41.43606460187584" lon="-81.4986130502075"><ele>290</ele><time>2026-10-03T14:58:59Z</time></trkpt>
      <trkpt lat="41.436702464707196" lon="-81.49805431254208"><ele>291</ele><time>2026-10-03T14:59:02Z</time></trkpt>
      <trkpt lat="41.43734657205641" lon="-81.4975062198937"><ele>293</ele><time>2026-10-03T14:59:05Z</time></trkpt>
      <trkpt lat="41.4380215248093" lon="-81.49703021161258"><ele>298</ele><time>2026-10-03T14:59:08Z</time></trkpt>
      <trkpt lat="41.43869169987738" lon="-81.49651891551912"><ele>302</ele><time>2026-10-03T14:59:11Z</time></trkpt>
      <trkpt lat="41.4393807342276" lon="-81.49599798023701"><ele>305</ele><time>2026-10-03T14:59:14Z</time></trkpt>
      <trkpt lat="41.44007253460586" lon="-81.49551560170949"><ele>306</ele><time>2026-10-03T14:59:17Z</time></trkpt>
      <trkpt lat="41.44075918011367" lon="-81.49502869695425"><ele>307</ele><time>2026-10-03T14:59:20Z</time></trkpt>
      <trkpt lat="41.4414596138522" lon="-81.4945771638304"><ele>309</ele><time>2026-10-03T14:59:23Z</time></trkpt>
      <trkpt lat="41.44216360989958" lon="-81.49412864819169"><ele>309</ele><time>2026-10-03T14:59:26Z</time></trkpt>
      <trkpt lat="41.44280101172626" lon="-81.4937290828675"><ele>310</ele><time>2026-10-03T14:59:29Z</time></trkpt>
      <trkpt lat="41.443433007225394" lon="-81.49340763688087"><ele>309</ele><time>2026-10-03T14:59:32Z</time></trkpt>
      <trkpt lat="41.44410523585975" lon="-81.49307956919074"><ele>311</ele><time>2026-10-03T14:59:35Z</time></trkpt>
      <trkpt lat="41.444800975732505" lon="-81.4927480649203"><ele>312</ele><time>2026-10-03T14:59:38Z</time></trkpt>
      <trkpt lat="41.4455309137702" lon="-81.49244220927358"><ele>315</ele><time>2026-10-03T14:59:41Z</time></trkpt>
      <trkpt lat="41.446284404955804" lon="-81.49214297533035"><ele>317</ele><time>2026-10-03T14:59:44Z</time></trkpt>
      <trkpt lat="41.447045020759106" lon="-81.49186712689698"><ele>316</ele><time>2026-10-03T14:59:47Z</time></trkpt>
      <trkpt lat="41.44782541785389" lon="-81.49164659902453"><ele>317</ele><time>2026-10-03T14:59:50Z</time></trkpt>
      <trkpt lat="41.448600073345006" lon="-81.49143319576979"><ele>317</ele><time>2026-10-03T14:59:53Z</time></trkpt>
      <trkpt lat="41.44936144351959" lon="-81.49125013500452"><ele>317</ele><time>2026-10-03T14:59:56Z</time></trkpt>
      <trkpt lat="41.45012281369418" lon="-81.49107269011438"><ele>319</ele><time>2026-10-03T14:59:59Z</time></trkpt>
      <trkpt lat="41.450882968492806" lon="-81.4909041300416"><ele>320</ele><time>2026-10-03T15:00:02Z</time></trkpt>
      <trkpt lat="41.451663742773235" lon="-81.49076851084828"><ele>321</ele><time>2026-10-03T15:00:05Z</time></trkpt>
      <trkpt lat="41.45243290811777" lon="-81.49066172540188"><ele>322</ele><time>2026-10-03T15:00:08Z</time></trkpt>
      <trkpt lat="41.45322843454778" lon="-81.490593329072"><ele>324</ele><time>2026-10-03T15:00:11Z</time></trkpt>
      <trkpt lat="41.45402865484357" lon="-81.49053071625531"><ele>325</ele><time>2026-10-03T15:00:14Z</time></trkpt>
      <trkpt lat="41.45481890067458" lon="-81.49048553779721"><ele>324</ele><time>2026-10-03T15:00:17Z</time></trkpt>
      <trkpt lat="41.45557620562613" lon="-81.49045720696449"><ele>324</ele><time>2026-10-03T15:00:20Z</time></trkpt>
      <trkpt lat="41.45636112894863" lon="-81.49044329300523"><ele>326</ele><time>2026-10-03T15:00:23Z</time></trkpt>
      <trkpt lat="41.457162774167955" lon="-81.49042996577919"><ele>327</ele><time>2026-10-03T15:00:26Z</time></trkpt>
      <trkpt lat="41.45791140384972" lon="-81.49040482006967"><ele>326</ele><time>2026-10-03T15:00:29Z</time></trkpt>
      <trkpt lat="41.458632750436664" lon="-81.49035410955548"><ele>324</ele><time>2026-10-03T15:00:32Z</time></trkpt>
      <trkpt lat="41.45926495548338" lon="-81.49025612510741"><ele>322</ele><time>2026-10-03T15:00:35Z</time></trkpt>
      <trkpt lat="41.459819208830595" lon="-81.48998974822462"><ele>325</ele><time>2026-10-03T15:00:38Z</time></trkpt>
      <trkpt lat="41.46027577109635" lon="-81.48951139301062"><ele>325</ele><time>2026-10-03T15:00:41Z</time></trkpt>
      <trkpt lat="41.46067441441119" lon="-81.48904586210847"><ele>321</ele><time>2026-10-03T15:00:44Z</time></trkpt>
      <trkpt lat="41.461067399941385" lon="-81.48877671919763"><ele>321</ele><time>2026-10-03T15:00:47Z</time></trkpt>
      <trkpt lat="41.46146457642317" lon="-81.48875299841166"><ele>321</ele><time>2026-10-03T15:00:50Z</time></trkpt>
      <trkpt lat="41.461738999933004" lon="-81.48875903338194"><ele>322</ele><time>2026-10-03T15:00:53Z</time></trkpt>
      <trkpt lat="41.461885096505284" lon="-81.48875425569713"><ele>321</ele><time>2026-10-03T15:00:56Z</time></trkpt>
      <trkpt lat="41.46194632630795" lon="-81.488740677014"><ele>320</ele><time>2026-10-03T15:00:59Z</time></trkpt>
      <trkpt lat="41.462010531686246" lon="-81.48874302394688"><ele>321</ele><time>2026-10-03T15:01:02Z</time></trkpt>
      <trkpt lat="41.46219304762781" lon="-81.4887005276978"><ele>321</ele><time>2026-10-03T15:01:05Z</time></trkpt>
      <trkpt lat="41.462394800037146" lon="-81.4886175468564"><ele>322</ele><time>2026-10-03T15:01:08Z</time></trkpt>
      <trkpt lat="41.46253708284348" lon="-81.48862165398896"><ele>321</ele><time>2026-10-03T15:01:11Z</time></trkpt>
      <trkpt lat="41.462617884390056" lon="-81.48883120156825"><ele>321</ele><time>2026-10-03T15:01:14Z</time></trkpt>
      <trkpt lat="41.46275890991092" lon="-81.48915474303067"><ele>322</ele><time>2026-10-03T15:01:17Z</time></trkpt>
      <trkpt lat="41.462962590157986" lon="-81.48955648764968"><ele>322</ele><time>2026-10-03T15:01:20Z</time></trkpt>
      <trkpt lat="41.463164845481515" lon="-81.48995605297387"><ele>321</ele><time>2026-10-03T15:01:23Z</time></trkpt>
      <trkpt lat="41.463361820206046" lon="-81.49037112481892"><ele>320</ele><time>2026-10-03T15:01:26Z</time></trkpt>
      <trkpt lat="41.46357006859034" lon="-81.49081603623927"><ele>321</ele><time>2026-10-03T15:01:29Z</time></trkpt>
      <trkpt lat="41.46376276854426" lon="-81.49124007672071"><ele>322</ele><time>2026-10-03T15:01:32Z</time></trkpt>
      <trkpt lat="41.46394092589617" lon="-81.49163729511201"><ele>321</ele><time>2026-10-03T15:01:35Z</time></trkpt>
      <trkpt lat="41.464066402986646" lon="-81.49191163480282"><ele>321</ele><time>2026-10-03T15:01:38Z</time></trkpt>
      <trkpt lat="41.46411866415292" lon="-81.49205077439547"><ele>320</ele><time>2026-10-03T15:01:41Z</time></trkpt>
      <trkpt lat="41.464151102118194" lon="-81.49212679825723"><ele>323</ele><time>2026-10-03T15:02:09Z</time></trkpt>
      <trkpt lat="41.46423022728413" lon="-81.49234531447291"><ele>323</ele><time>2026-10-03T15:02:12Z</time></trkpt>
      <trkpt lat="41.464350130409" lon="-81.49268821813166"><ele>324</ele><time>2026-10-03T15:02:15Z</time></trkpt>
      <trkpt lat="41.46443533245474" lon="-81.49309700354934"><ele>324</ele><time>2026-10-03T15:02:18Z</time></trkpt>
      <trkpt lat="41.46447430830449" lon="-81.49352515116334"><ele>323</ele><time>2026-10-03T15:02:21Z</time></trkpt>
      <trkpt lat="41.46450900938362" lon="-81.49394374340773"><ele>324</ele><time>2026-10-03T15:02:24Z</time></trkpt>
      <trkpt lat="41.46453440655023" lon="-81.49426728487015"><ele>324</ele><time>2026-10-03T15:02:27Z</time></trkpt>
      <trkpt lat="41.46469110623002" lon="-81.49441388435662"><ele>323</ele><time>2026-10-03T15:02:30Z</time></trkpt>
      <trkpt lat="41.464944407343864" lon="-81.49440893903375"><ele>322</ele><time>2026-10-03T15:02:33Z</time></trkpt>
      <trkpt lat="41.465242677368224" lon="-81.49443492293358"><ele>321</ele><time>2026-10-03T15:02:36Z</time></trkpt>
      <trkpt lat="41.4655729662627" lon="-81.49456987157464"><ele>321</ele><time>2026-10-03T15:02:39Z</time></trkpt>
      <trkpt lat="41.46589688491076" lon="-81.49462519213557"><ele>322</ele><time>2026-10-03T15:02:42Z</time></trkpt>
      <trkpt lat="41.46624896675348" lon="-81.49461085908115"><ele>321</ele><time>2026-10-03T15:02:45Z</time></trkpt>
      <trkpt lat="41.466593546792865" lon="-81.49460574612021"><ele>321</ele><time>2026-10-03T15:02:48Z</time></trkpt>
      <trkpt lat="41.46695317234844" lon="-81.49460499174893"><ele>322</ele><time>2026-10-03T15:02:51Z</time></trkpt>
      <trkpt lat="41.46729683037847" lon="-81.4946390222758"><ele>321</ele><time>2026-10-03T15:02:54Z</time></trkpt>
      <trkpt lat="41.46764488890767" lon="-81.49464807473123"><ele>322</ele><time>2026-10-03T15:02:57Z</time></trkpt>
      <trkpt lat="41.46800853777677" lon="-81.49465377442539"><ele>321</ele><time>2026-10-03T15:03:00Z</time></trkpt>
      <trkpt lat="41.46835567429662" lon="-81.49466391652822"><ele>320</ele><time>2026-10-03T15:03:03Z</time></trkpt>
      <trkpt lat="41.46872850134969" lon="-81.49466651491821"><ele>319</ele><time>2026-10-03T15:03:06Z</time></trkpt>
      <trkpt lat="41.46912282798439" lon="-81.49465570226312"><ele>319</ele><time>2026-10-03T15:03:09Z</time></trkpt>
      <trkpt lat="41.46951480768621" lon="-81.49463592097163"><ele>319</ele><time>2026-10-03T15:03:12Z</time></trkpt>
      <trkpt lat="41.469883443787694" lon="-81.49465444497764"><ele>320</ele><time>2026-10-03T15:03:15Z</time></trkpt>
      <trkpt lat="41.47020857781172" lon="-81.49464547634125"><ele>320</ele><time>2026-10-03T15:03:18Z</time></trkpt>
      <trkpt lat="41.47040035575628" lon="-81.49464656598866"><ele>319</ele><time>2026-10-03T15:03:21Z</time></trkpt>
      <trkpt lat="41.470459070988" lon="-81.49462904781103"><ele>317</ele><time>2026-10-03T15:03:24Z</time></trkpt>
      <trkpt lat="41.47054184228182" lon="-81.49450868368149"><ele>318</ele><time>2026-10-03T15:03:27Z</time></trkpt>
      <trkpt lat="41.470556552521884" lon="-81.49421908892691"><ele>318</ele><time>2026-10-03T15:03:30Z</time></trkpt>
      <trkpt lat="41.47054942790419" lon="-81.49381315335631"><ele>317</ele><time>2026-10-03T15:03:33Z</time></trkpt>
      <trkpt lat="41.47054356057197" lon="-81.493384167552"><ele>318</ele><time>2026-10-03T15:03:36Z</time></trkpt>
      <trkpt lat="41.47053383756429" lon="-81.49297907017171"><ele>317</ele><time>2026-10-03T15:03:39Z</time></trkpt>
      <trkpt lat="41.47053685504943" lon="-81.49256508797407"><ele>315</ele><time>2026-10-03T15:03:42Z</time></trkpt>
      <trkpt lat="41.470546033233404" lon="-81.49215638637543"><ele>323</ele><time>2026-10-03T15:03:45Z</time></trkpt>
      <trkpt lat="41.47055860608816" lon="-81.491893613711"><ele>318</ele><time>2026-10-03T15:03:48Z</time></trkpt>
      <trkpt lat="41.47056309040636" lon="-81.49178749881685"><ele>319</ele><time>2026-10-03T15:03:51Z</time></trkpt>
      <trkpt lat="41.470587900839746" lon="-81.49164659902453"><ele>320</ele><time>2026-10-03T15:03:54Z</time></trkpt>
      <trkpt lat="41.470750006847084" lon="-81.4915312640369"><ele>321</ele><time>2026-10-03T15:03:57Z</time></trkpt>
      <trkpt lat="41.470999284647405" lon="-81.49152447469532"><ele>319</ele><time>2026-10-03T15:04:00Z</time></trkpt>
      <trkpt lat="41.47130086552352" lon="-81.49152187630534"><ele>319</ele><time>2026-10-03T15:04:03Z</time></trkpt>
      <trkpt lat="41.471591759473085" lon="-81.4915220439434"><ele>320</ele><time>2026-10-03T15:04:06Z</time></trkpt>
      <trkpt lat="41.471899040043354" lon="-81.49151349440217"><ele>321</ele><time>2026-10-03T15:04:09Z</time></trkpt>
      <trkpt lat="41.47223314270377" lon="-81.49143646471202"><ele>322</ele><time>2026-10-03T15:04:12Z</time></trkpt>
      <trkpt lat="41.47257332224399" lon="-81.49141542613506"><ele>321</ele><time>2026-10-03T15:04:15Z</time></trkpt>
      <trkpt lat="41.47288374602795" lon="-81.4913978241384"><ele>324</ele><time>2026-10-03T15:04:18Z</time></trkpt>
      <trkpt lat="41.47318063303828" lon="-81.4913827367127"><ele>321</ele><time>2026-10-03T15:04:21Z</time></trkpt>
      <trkpt lat="41.47343590389937" lon="-81.49139882996678"><ele>321</ele><time>2026-10-03T15:04:24Z</time></trkpt>
      <trkpt lat="41.473533301614225" lon="-81.49140947498381"><ele>319</ele><time>2026-10-03T15:04:27Z</time></trkpt>
      <trkpt lat="41.47358870599419" lon="-81.49141031317413"><ele>318</ele><time>2026-10-03T15:05:02Z</time></trkpt>
      <trkpt lat="41.47375156637281" lon="-81.49140729568899"><ele>318</ele><time>2026-10-03T15:05:05Z</time></trkpt>
      <trkpt lat="41.47394581697881" lon="-81.49139069952071"><ele>319</ele><time>2026-10-03T15:05:08Z</time></trkpt>
      <trkpt lat="41.4741244353354" lon="-81.49136555381119"><ele>320</ele><time>2026-10-03T15:05:11Z</time></trkpt>
      <trkpt lat="41.47425464820117" lon="-81.49136329069734"><ele>320</ele><time>2026-10-03T15:05:14Z</time></trkpt>
      <trkpt lat="41.47430217359215" lon="-81.4913476165384"><ele>321</ele><time>2026-10-03T15:05:18Z</time></trkpt>
      <trkpt lat="41.4743731264025" lon="-81.49127494543791"><ele>321</ele><time>2026-10-03T15:05:21Z</time></trkpt>
      <trkpt lat="41.47444906644523" lon="-81.4911612868309"><ele>321</ele><time>2026-10-03T15:05:24Z</time></trkpt>
      <trkpt lat="41.47454612888396" lon="-81.49104653857648"><ele>320</ele><time>2026-10-03T15:05:27Z</time></trkpt>
      <trkpt lat="41.47464381996542" lon="-81.49098652414978"><ele>319</ele><time>2026-10-03T15:05:30Z</time></trkpt>
      <trkpt lat="41.47470961790532" lon="-81.49092114530504"><ele>319</ele><time>2026-10-03T15:05:33Z</time></trkpt>
      <trkpt lat="41.474716323427856" lon="-81.49079415947199"><ele>317</ele><time>2026-10-03T15:05:36Z</time></trkpt>
      <trkpt lat="41.47470555268228" lon="-81.49061570875347"><ele>316</ele><time>2026-10-03T15:05:39Z</time></trkpt>
      <trkpt lat="41.47473057266325" lon="-81.49050842039287"><ele>315</ele><time>2026-10-03T15:05:42Z</time></trkpt>
      <trkpt lat="41.474803243763745" lon="-81.49049928411841"><ele>315</ele><time>2026-10-03T15:05:45Z</time></trkpt>
      <trkpt lat="41.47487168200314" lon="-81.49051386862993"><ele>315</ele><time>2026-10-03T15:05:48Z</time></trkpt>
      <trkpt lat="41.47494120988995" lon="-81.49051303043962"><ele>315</ele><time>2026-10-03T15:05:51Z</time></trkpt>
    </trkseg>
  </trk>
</gpx>
