<?xml version="1.0" encoding="UTF-8"?>
<gpx version="1.1" creator="HoldMyTrack" xmlns="http://www.topografix.com/GPX/1/1">
  <trk>
    <type>Solowheel</type>
    <trkseg>
      <trkpt lat="41.4288822747767" lon="-81.62065255455673"><ele>229</ele><time>2026-10-05T21:40:22Z</time></trkpt>
      <trkpt lat="41.42893508076668" lon="-81.62082815542817"><ele>225</ele><time>2026-10-05T21:40:25Z</time></trkpt>
      <trkpt lat="41.42896751873195" lon="-81.62106620147824"><ele>225</ele><time>2026-10-05T21:40:28Z</time></trkpt>
      <trkpt lat="41.428969111293554" lon="-81.62128237076104"><ele>223</ele><time>2026-10-05T21:40:31Z</time></trkpt>
      <trkpt lat="41.42897099722177" lon="-81.62150943651795"><ele>221</ele><time>2026-10-05T21:40:34Z</time></trkpt>
      <trkpt lat="41.42903218511492" lon="-81.62175628356636"><ele>221</ele><time>2026-10-05T21:40:37Z</time></trkpt>
      <trkpt lat="41.42905758228153" lon="-81.62201511673629"><ele>221</ele><time>2026-10-05T21:40:40Z</time></trkpt>
      <trkpt lat="41.42907338216901" lon="-81.62226917222142"><ele>218</ele><time>2026-10-05T21:40:43Z</time></trkpt>
      <trkpt lat="41.429071999154985" lon="-81.62248483859003"><ele>219</ele><time>2026-10-05T21:40:46Z</time></trkpt>
      <trkpt lat="41.42909781541675" lon="-81.62266454659402"><ele>217</ele><time>2026-10-05T21:40:49Z</time></trkpt>
      <trkpt lat="41.429133312776685" lon="-81.62289127707481"><ele>217</ele><time>2026-10-05T21:40:52Z</time></trkpt>
      <trkpt lat="41.42915275879204" lon="-81.62313929758966"><ele>217</ele><time>2026-10-05T21:40:55Z</time></trkpt>
      <trkpt lat="41.429176521487534" lon="-81.62340165115893"><ele>217</ele><time>2026-10-05T21:40:58Z</time></trkpt>
      <trkpt lat="41.429171869531274" lon="-81.62360281683505"><ele>216</ele><time>2026-10-05T21:41:01Z</time></trkpt>
      <trkpt lat="41.429187040776014" lon="-81.6237760707736"><ele>215</ele><time>2026-10-05T21:41:04Z</time></trkpt>
      <trkpt lat="41.42922086175531" lon="-81.62397304549813"><ele>214</ele><time>2026-10-05T21:41:07Z</time></trkpt>
      <trkpt lat="41.42924994695932" lon="-81.62418988533318"><ele>213</ele><time>2026-10-05T21:41:10Z</time></trkpt>
      <trkpt lat="41.429273542016745" lon="-81.62443061359227"><ele>213</ele><time>2026-10-05T21:41:13Z</time></trkpt>
      <trkpt lat="41.42928703688085" lon="-81.62465223111212"><ele>214</ele><time>2026-10-05T21:41:16Z</time></trkpt>
      <trkpt lat="41.42928573768586" lon="-81.62476949393749"><ele>213</ele><time>2026-10-05T21:41:19Z</time></trkpt>
      <trkpt lat="41.429344872012734" lon="-81.62494635209441"><ele>212</ele><time>2026-10-05T21:41:22Z</time></trkpt>
      <trkpt lat="41.42943124752492" lon="-81.6251506190747"><ele>212</ele><time>2026-10-05T21:41:25Z</time></trkpt>
      <trkpt lat="41.42949373461306" lon="-81.62536075338721"><ele>211</ele><time>2026-10-05T21:41:28Z</time></trkpt>
      <trkpt lat="41.42954142764211" lon="-81.62557331845164"><ele>209</ele><time>2026-10-05T21:41:31Z</time></trkpt>
      <trkpt lat="41.42960554920137" lon="-81.6257584746927"><ele>209</ele><time>2026-10-05T21:41:34Z</time></trkpt>
      <trkpt lat="41.429696953855455" lon="-81.62596181966364"><ele>208</ele><time>2026-10-05T21:41:37Z</time></trkpt>
      <trkpt lat="41.42977469600737" lon="-81.6261263564229"><ele>209</ele><time>2026-10-05T21:41:40Z</time></trkpt>
      <trkpt lat="41.42983550671488" lon="-81.62627940997481"><ele>210</ele><time>2026-10-05T21:41:43Z</time></trkpt>
      <trkpt lat="41.42993529327214" lon="-81.6264974232763"><ele>209</ele><time>2026-10-05T21:41:46Z</time></trkpt>
      <trkpt lat="41.430068062618375" lon="-81.62672264501452"><ele>209</ele><time>2026-10-05T21:41:49Z</time></trkpt>
      <trkpt lat="41.430186121724546" lon="-81.62693252786994"><ele>208</ele><time>2026-10-05T21:41:52Z</time></trkpt>
      <trkpt lat="41.43026805482805" lon="-81.62710720673203"><ele>207</ele><time>2026-10-05T21:41:55Z</time></trkpt>
      <trkpt lat="41.43030610866845" lon="-81.62721164524555"><ele>207</ele><time>2026-10-05T21:41:58Z</time></trkpt>
      <trkpt lat="41.43033502623439" lon="-81.6273148264736"><ele>207</ele><time>2026-10-05T21:42:01Z</time></trkpt>
      <trkpt lat="41.43039877060801" lon="-81.62747349590063"><ele>207</ele><time>2026-10-05T21:42:04Z</time></trkpt>
      <trkpt lat="41.43051896709949" lon="-81.62764591164887"><ele>207</ele><time>2026-10-05T21:42:07Z</time></trkpt>
      <trkpt lat="41.43064239062369" lon="-81.62787339650095"><ele>207</ele><time>2026-10-05T21:42:10Z</time></trkpt>
      <trkpt lat="41.430751481093466" lon="-81.62809954024851"><ele>206</ele><time>2026-10-05T21:42:13Z</time></trkpt>
      <trkpt lat="41.43079858738929" lon="-81.62829433567822"><ele>206</ele><time>2026-10-05T21:42:16Z</time></trkpt>
      <trkpt lat="41.4308990444988" lon="-81.62847085855901"><ele>206</ele><time>2026-10-05T21:42:19Z</time></trkpt>
      <trkpt lat="41.43102783244103" lon="-81.62866892293096"><ele>207</ele><time>2026-10-05T21:42:22Z</time></trkpt>
      <trkpt lat="41.4311461430043" lon="-81.62889489904046"><ele>207</ele><time>2026-10-05T21:42:25Z</time></trkpt>
      <trkpt lat="41.43121910747141" lon="-81.62912607192993"><ele>206</ele><time>2026-10-05T21:42:28Z</time></trkpt>
      <trkpt lat="41.43130145967007" lon="-81.62930737249553"><ele>206</ele><time>2026-10-05T21:42:31Z</time></trkpt>
      <trkpt lat="41.43143557012081" lon="-81.6295181773603"><ele>206</ele><time>2026-10-05T21:42:34Z</time></trkpt>
      <trkpt lat="41.4315560599789" lon="-81.62976619787514"><ele>206</ele><time>2026-10-05T21:42:37Z</time></trkpt>
      <trkpt lat="41.431636065244675" lon="-81.629971973598"><ele>206</ele><time>2026-10-05T21:42:40Z</time></trkpt>
      <trkpt lat="41.4317312836647" lon="-81.63017548620701"><ele>205</ele><time>2026-10-05T21:42:43Z</time></trkpt>
      <trkpt lat="41.43185910768807" lon="-81.63035008125007"><ele>205</ele><time>2026-10-05T21:42:46Z</time></trkpt>
      <trkpt lat="41.43196312710643" lon="-81.63058703765273"><ele>205</ele><time>2026-10-05T21:42:49Z</time></trkpt>
      <trkpt lat="41.43205717206001" lon="-81.63079700432718"><ele>204</ele><time>2026-10-05T21:42:52Z</time></trkpt>
      <trkpt lat="41.43212946597487" lon="-81.63099649362266"><ele>203</ele><time>2026-10-05T21:42:55Z</time></trkpt>
      <trkpt lat="41.43224287312478" lon="-81.6311881877482"><ele>203</ele><time>2026-10-05T21:42:58Z</time></trkpt>
      <trkpt lat="41.432340228930116" lon="-81.63138926960528"><ele>202</ele><time>2026-10-05T21:43:01Z</time></trkpt>
      <trkpt lat="41.43241776153445" lon="-81.63155129179358"><ele>202</ele><time>2026-10-05T21:43:04Z</time></trkpt>
      <trkpt lat="41.43248129636049" lon="-81.63168104365468"><ele>202</ele><time>2026-10-05T21:43:07Z</time></trkpt>
      <trkpt lat="41.4325119741261" lon="-81.63185362704098"><ele>202</ele><time>2026-10-05T21:43:10Z</time></trkpt>
      <trkpt lat="41.43245925195515" lon="-81.63196946494281"><ele>201</ele><time>2026-10-05T21:43:13Z</time></trkpt>
      <trkpt lat="41.43233100883663" lon="-81.63208169862628"><ele>201</ele><time>2026-10-05T21:43:16Z</time></trkpt>
      <trkpt lat="41.432172381319106" lon="-81.63220365531743"><ele>201</ele><time>2026-10-05T21:43:19Z</time></trkpt>
      <trkpt lat="41.431986931711435" lon="-81.63236257620156"><ele>200</ele><time>2026-10-05T21:43:22Z</time></trkpt>
      <trkpt lat="41.43179037608206" lon="-81.63248780183494"><ele>199</ele><time>2026-10-05T21:43:25Z</time></trkpt>
      <trkpt lat="41.43160228617489" lon="-81.63258880376816"><ele>198</ele><time>2026-10-05T21:43:28Z</time></trkpt>
      <trkpt lat="41.43141859676689" lon="-81.63270539604127"><ele>198</ele><time>2026-10-05T21:43:31Z</time></trkpt>
      <trkpt lat="41.431222250685096" lon="-81.63280178792775"><ele>196</ele><time>2026-10-05T21:43:34Z</time></trkpt>
      <trkpt lat="41.4310200791806" lon="-81.63289105519652"><ele>195</ele><time>2026-10-05T21:43:37Z</time></trkpt>
      <trkpt lat="41.43080504145473" lon="-81.63297177292407"><ele>195</ele><time>2026-10-05T21:43:40Z</time></trkpt>
      <trkpt lat="41.430576969869435" lon="-81.6330566816032"><ele>195</ele><time>2026-10-05T21:43:43Z</time></trkpt>
      <trkpt lat="41.43034210894257" lon="-81.63313580676913"><ele>194</ele><time>2026-10-05T21:43:46Z</time></trkpt>
      <trkpt lat="41.430107122287154" lon="-81.6331999283284"><ele>194</ele><time>2026-10-05T21:43:49Z</time></trkpt>
      <trkpt lat="41.429857215844095" lon="-81.63324016146362"><ele>193</ele><time>2026-10-05T21:43:52Z</time></trkpt>
      <trkpt lat="41.42961326055229" lon="-81.63326111622155"><ele>193</ele><time>2026-10-05T21:43:55Z</time></trkpt>
      <trkpt lat="41.42937483731657" lon="-81.6332652233541"><ele>192</ele><time>2026-10-05T21:43:58Z</time></trkpt>
      <trkpt lat="41.42913578543812" lon="-81.6332684084773"><ele>192</ele><time>2026-10-05T21:44:01Z</time></trkpt>
      <trkpt lat="41.42891806550324" lon="-81.63327595219016"><ele>192</ele><time>2026-10-05T21:44:04Z</time></trkpt>
      <trkpt lat="41.42874497920275" lon="-81.63329204544425"><ele>192</ele><time>2026-10-05T21:44:07Z</time></trkpt>
      <trkpt lat="41.42859599087387" lon="-81.63327645510435"><ele>192</ele><time>2026-10-05T21:44:10Z</time></trkpt>
      <trkpt lat="41.42841045744717" lon="-81.63325918838382"><ele>192</ele><time>2026-10-05T21:44:13Z</time></trkpt>
      <trkpt lat="41.42819152213633" lon="-81.63324200548232"><ele>192</ele><time>2026-10-05T21:44:16Z</time></trkpt>
      <trkpt lat="41.42796537838876" lon="-81.63323865272105"><ele>191</ele><time>2026-10-05T21:44:19Z</time></trkpt>
      <trkpt lat="41.4277321100235" lon="-81.63322842679918"><ele>190</ele><time>2026-10-05T21:44:22Z</time></trkpt>
      <trkpt lat="41.427494692616165" lon="-81.63320604711771"><ele>190</ele><time>2026-10-05T21:44:25Z</time></trkpt>
      <trkpt lat="41.42725543119013" lon="-81.63319221697748"><ele>188</ele><time>2026-10-05T21:44:28Z</time></trkpt>
      <trkpt lat="41.4270164212212" lon="-81.63319347426295"><ele>188</ele><time>2026-10-05T21:44:31Z</time></trkpt>
      <trkpt lat="41.426781099289656" lon="-81.63317813538015"><ele>186</ele><time>2026-10-05T21:44:34Z</time></trkpt>
      <trkpt lat="41.42655876930803" lon="-81.63316455669701"><ele>186</ele><time>2026-10-05T21:44:37Z</time></trkpt>
      <trkpt lat="41.426375498995185" lon="-81.63320370018482"><ele>185</ele><time>2026-10-05T21:44:40Z</time></trkpt>
      <trkpt lat="41.42628044821322" lon="-81.63341123610735"><ele>184</ele><time>2026-10-05T21:44:43Z</time></trkpt>
      <trkpt lat="41.426366404630244" lon="-81.63365992717445"><ele>183</ele><time>2026-10-05T21:44:46Z</time></trkpt>
      <trkpt lat="41.4264928875491" lon="-81.63392529822886"><ele>182</ele><time>2026-10-05T21:44:49Z</time></trkpt>
      <trkpt lat="41.426586052402854" lon="-81.63416996598244"><ele>182</ele><time>2026-10-05T21:44:52Z</time></trkpt>
      <trkpt lat="41.42666287254542" lon="-81.63434573449194"><ele>182</ele><time>2026-10-05T21:44:55Z</time></trkpt>
      <trkpt lat="41.426603151485324" lon="-81.63442259654403"><ele>181</ele><time>2026-10-05T21:44:58Z</time></trkpt>
      <trkpt lat="41.426538401283324" lon="-81.63427205756307"><ele>180</ele><time>2026-10-05T21:45:01Z</time></trkpt>
      <trkpt lat="41.426449050195515" lon="-81.63402839563787"><ele>180</ele><time>2026-10-05T21:45:04Z</time></trkpt>
      <trkpt lat="41.42635831609368" lon="-81.63379336707294"><ele>179</ele><time>2026-10-05T21:45:07Z</time></trkpt>
      <trkpt lat="41.42623883206397" lon="-81.63363587111235"><ele>176</ele><time>2026-10-05T21:45:10Z</time></trkpt>
      <trkpt lat="41.42605531029403" lon="-81.63350469432771"><ele>175</ele><time>2026-10-05T21:45:13Z</time></trkpt>
      <trkpt lat="41.42582346685231" lon="-81.63347208872437"><ele>174</ele><time>2026-10-05T21:45:16Z</time></trkpt>
      <trkpt lat="41.42561601474881" lon="-81.63350142538548"><ele>172</ele><time>2026-10-05T21:45:19Z</time></trkpt>
      <trkpt lat="41.425436181016266" lon="-81.63342548534274"><ele>172</ele><time>2026-10-05T21:45:22Z</time></trkpt>
      <trkpt lat="41.42524473834783" lon="-81.63328777067363"><ele>171</ele><time>2026-10-05T21:45:25Z</time></trkpt>
      <trkpt lat="41.425000447779894" lon="-81.63325181230903"><ele>170</ele><time>2026-10-05T21:45:28Z</time></trkpt>
      <trkpt lat="41.42476089298725" lon="-81.63324234075844"><ele>169</ele><time>2026-10-05T21:45:31Z</time></trkpt>
      <trkpt lat="41.42453231848776" lon="-81.63328860886395"><ele>167</ele><time>2026-10-05T21:45:34Z</time></trkpt>
      <trkpt lat="41.424272395670414" lon="-81.63333873264492"><ele>166</ele><time>2026-10-05T21:45:37Z</time></trkpt>
      <trkpt lat="41.42402152530849" lon="-81.63337586447597"><ele>166</ele><time>2026-10-05T21:45:40Z</time></trkpt>
      <trkpt lat="41.42378486227244" lon="-81.63344359025359"><ele>165</ele><time>2026-10-05T21:45:43Z</time></trkpt>
      <trkpt lat="41.423533195629716" lon="-81.633529253304"><ele>164</ele><time>2026-10-05T21:45:46Z</time></trkpt>
      <trkpt lat="41.42326656728983" lon="-81.63362857885659"><ele>163</ele><time>2026-10-05T21:45:49Z</time></trkpt>
      <trkpt lat="41.42301749903709" lon="-81.63375011645257"><ele>161</ele><time>2026-10-05T21:45:52Z</time></trkpt>
      <trkpt lat="41.42277128063142" lon="-81.63386201485991"><ele>160</ele><time>2026-10-05T21:45:55Z</time></trkpt>
      <trkpt lat="41.422534408047795" lon="-81.6339695546776"><ele>158</ele><time>2026-10-05T21:45:58Z</time></trkpt>
      <trkpt lat="41.42229875084013" lon="-81.63407667540014"><ele>156</ele><time>2026-10-05T21:46:01Z</time></trkpt>
      <trkpt lat="41.422055549919605" lon="-81.63420827127993"><ele>155</ele><time>2026-10-05T21:46:04Z</time></trkpt>
      <trkpt lat="41.42183967400342" lon="-81.63431145250797"><ele>154</ele><time>2026-10-05T21:46:07Z</time></trkpt>
      <trkpt lat="41.42163523938507" lon="-81.63438647054136"><ele>153</ele><time>2026-10-05T21:46:10Z</time></trkpt>
      <trkpt lat="41.421446269378066" lon="-81.63447800092399"><ele>152</ele><time>2026-10-05T21:46:13Z</time></trkpt>
      <trkpt lat="41.421240996569395" lon="-81.63457590155303"><ele>151</ele><time>2026-10-05T21:46:16Z</time></trkpt>
      <trkpt lat="41.421032161451876" lon="-81.63466315716505"><ele>151</ele><time>2026-10-05T21:46:19Z</time></trkpt>
      <trkpt lat="41.42087873071432" lon="-81.63481227122247"><ele>150</ele><time>2026-10-05T21:46:22Z</time></trkpt>
      <trkpt lat="41.42083916813135" lon="-81.63505274802446"><ele>150</ele><time>2026-10-05T21:46:25Z</time></trkpt>
      <trkpt lat="41.42087521031499" lon="-81.63528987206519"><ele>150</ele><time>2026-10-05T21:46:28Z</time></trkpt>
      <trkpt lat="41.42085375264287" lon="-81.63548173382878"><ele>150</ele><time>2026-10-05T21:46:31Z</time></trkpt>
      <trkpt lat="41.420757989399135" lon="-81.6356152575463"><ele>148</ele><time>2026-10-05T21:46:34Z</time></trkpt>
      <trkpt lat="41.420645294710994" lon="-81.63574760779738"><ele>148</ele><time>2026-10-05T21:46:37Z</time></trkpt>
      <trkpt lat="41.42052593640983" lon="-81.63588616065681"><ele>146</ele><time>2026-10-05T21:46:40Z</time></trkpt>
      <trkpt lat="41.42038876656443" lon="-81.63600258529186"><ele>146</ele><time>2026-10-05T21:46:43Z</time></trkpt>
      <trkpt lat="41.4202010538429" lon="-81.63598280400038"><ele>146</ele><time>2026-10-05T21:46:46Z</time></trkpt>
      <trkpt lat="41.42005717847496" lon="-81.6360264737159"><ele>146</ele><time>2026-10-05T21:46:49Z</time></trkpt>
      <trkpt lat="41.41989758703858" lon="-81.63614809513092"><ele>146</ele><time>2026-10-05T21:46:52Z</time></trkpt>
      <trkpt lat="41.41974910162389" lon="-81.63634398020804"><ele>145</ele><time>2026-10-05T21:46:55Z</time></trkpt>
      <trkpt lat="41.41959613189101" lon="-81.63650709204376"><ele>144</ele><time>2026-10-05T21:46:58Z</time></trkpt>
      <trkpt lat="41.419513151049614" lon="-81.6367778275162"><ele>144</ele><time>2026-10-05T21:47:01Z</time></trkpt>
      <trkpt lat="41.419400833547115" lon="-81.63700640201569"><ele>143</ele><time>2026-10-05T21:47:04Z</time></trkpt>
      <trkpt lat="41.41935108695179" lon="-81.63726582191885"><ele>143</ele><time>2026-10-05T21:47:07Z</time></trkpt>
      <trkpt lat="41.41921576112509" lon="-81.63744360208511"><ele>144</ele><time>2026-10-05T21:47:10Z</time></trkpt>
      <trkpt lat="41.41901895403862" lon="-81.63747997954488"><ele>143</ele><time>2026-10-05T21:47:13Z</time></trkpt>
      <trkpt lat="41.418806221336126" lon="-81.63749783299863"><ele>143</ele><time>2026-10-05T21:47:16Z</time></trkpt>
      <trkpt lat="41.418607737869024" lon="-81.63748593069613"><ele>143</ele><time>2026-10-05T21:47:19Z</time></trkpt>
      <trkpt lat="41.41846897546202" lon="-81.63757109083235"><ele>143</ele><time>2026-10-05T21:47:22Z</time></trkpt>
      <trkpt lat="41.41841780394316" lon="-81.63781307637691"><ele>142</ele><time>2026-10-05T21:47:25Z</time></trkpt>
      <trkpt lat="41.418385156430304" lon="-81.63807232864201"><ele>141</ele><time>2026-10-05T21:47:28Z</time></trkpt>
      <trkpt lat="41.41830779146403" lon="-81.63832210935652"><ele>141</ele><time>2026-10-05T21:47:31Z</time></trkpt>
      <trkpt lat="41.418315335176885" lon="-81.63857063278556"><ele>141</ele><time>2026-10-05T21:47:34Z</time></trkpt>
      <trkpt lat="41.418401543051004" lon="-81.6387842874974"><ele>140</ele><time>2026-10-05T21:47:37Z</time></trkpt>
      <trkpt lat="41.418522032909095" lon="-81.6389740537852"><ele>140</ele><time>2026-10-05T21:47:40Z</time></trkpt>
      <trkpt lat="41.418541604653" lon="-81.63914630189538"><ele>141</ele><time>2026-10-05T21:47:43Z</time></trkpt>
      <trkpt lat="41.41845724079758" lon="-81.63926348090172"><ele>141</ele><time>2026-10-05T21:47:46Z</time></trkpt>
      <trkpt lat="41.418372709304094" lon="-81.63931452669203"><ele>142</ele><time>2026-10-05T21:47:49Z</time></trkpt>
      <trkpt lat="41.41832308843732" lon="-81.63929508067667"><ele>142</ele><time>2026-10-05T21:47:52Z</time></trkpt>
      <trkpt lat="41.4182783709839" lon="-81.63927714340389"><ele>143</ele><time>2026-10-05T21:47:55Z</time></trkpt>
    </trkseg>
  </trk>
</gpx>
