<?xml version="1.0" encoding="UTF-8"?>
<gpx version="1.1" creator="HoldMyTrack" xmlns="http://www.topografix.com/GPX/1/1">
  <trk>
    <type>Solowheel</type>
    <trkseg>
      <trkpt lat="41.43546223640442" lon="-81.8455407768488"><ele>149</ele><time>2026-09-27T21:23:15Z</time></trkpt>
      <trkpt lat="41.43558285199106" lon="-81.84549274854362"><ele>156</ele><time>2026-09-27T21:23:18Z</time></trkpt>
      <trkpt lat="41.435768427327275" lon="-81.8454059958458"><ele>157</ele><time>2026-09-27T21:23:21Z</time></trkpt>
      <trkpt lat="41.435967246070504" lon="-81.84537464752793"><ele>154</ele><time>2026-09-27T21:23:24Z</time></trkpt>
      <trkpt lat="41.43617926631123" lon="-81.84536995366216"><ele>154</ele><time>2026-09-27T21:23:27Z</time></trkpt>
      <trkpt lat="41.4363818988204" lon="-81.84538604691625"><ele>151</ele><time>2026-09-27T21:23:30Z</time></trkpt>
      <trkpt lat="41.43657149747014" lon="-81.84541353955865"><ele>151</ele><time>2026-09-27T21:23:33Z</time></trkpt>
      <trkpt lat="41.43677861429751" lon="-81.8454226758331"><ele>149</ele><time>2026-09-27T21:23:36Z</time></trkpt>
      <trkpt lat="41.43697516992688" lon="-81.8454992864281"><ele>150</ele><time>2026-09-27T21:23:39Z</time></trkpt>
      <trkpt lat="41.437178808264434" lon="-81.84554932639003"><ele>152</ele><time>2026-09-27T21:23:42Z</time></trkpt>
      <trkpt lat="41.43737796228379" lon="-81.84558000415564"><ele>157</ele><time>2026-09-27T21:23:45Z</time></trkpt>
      <trkpt lat="41.437487471848726" lon="-81.84559266082942"><ele>156</ele><time>2026-09-27T21:23:48Z</time></trkpt>
      <trkpt lat="41.437558718025684" lon="-81.84557220898569"><ele>156</ele><time>2026-09-27T21:23:51Z</time></trkpt>
      <trkpt lat="41.43762585707009" lon="-81.84555293060839"><ele>157</ele><time>2026-09-27T21:23:54Z</time></trkpt>
      <trkpt lat="41.43775967415422" lon="-81.84558997862041"><ele>157</ele><time>2026-09-27T21:23:57Z</time></trkpt>
      <trkpt lat="41.43793783150613" lon="-81.84559425339103"><ele>155</ele><time>2026-09-27T21:24:00Z</time></trkpt>
      <trkpt lat="41.438151192851365" lon="-81.84556919150054"><ele>154</ele><time>2026-09-27T21:24:03Z</time></trkpt>
      <trkpt lat="41.43835206516087" lon="-81.84557279571891"><ele>154</ele><time>2026-09-27T21:24:06Z</time></trkpt>
      <trkpt lat="41.438541831448674" lon="-81.8455748911947"><ele>155</ele><time>2026-09-27T21:24:09Z</time></trkpt>
      <trkpt lat="41.438712612725794" lon="-81.8455613963306"><ele>154</ele><time>2026-09-27T21:24:12Z</time></trkpt>
      <trkpt lat="41.438866085372865" lon="-81.84552426449955"><ele>153</ele><time>2026-09-27T21:24:15Z</time></trkpt>
      <trkpt lat="41.43902638927102" lon="-81.84551504440606"><ele>152</ele><time>2026-09-27T21:24:18Z</time></trkpt>
      <trkpt lat="41.43920215778053" lon="-81.84549953788519"><ele>151</ele><time>2026-09-27T21:24:21Z</time></trkpt>
      <trkpt lat="41.43938320688903" lon="-81.8454744759947"><ele>152</ele><time>2026-09-27T21:24:24Z</time></trkpt>
      <trkpt lat="41.43953512888402" lon="-81.84544555842876"><ele>153</ele><time>2026-09-27T21:24:27Z</time></trkpt>
      <trkpt lat="41.439697528257966" lon="-81.84542183764279"><ele>154</ele><time>2026-09-27T21:24:30Z</time></trkpt>
      <trkpt lat="41.43987300340086" lon="-81.84539811685681"><ele>155</ele><time>2026-09-27T21:24:33Z</time></trkpt>
      <trkpt lat="41.44006918184459" lon="-81.84537917375565"><ele>155</ele><time>2026-09-27T21:24:36Z</time></trkpt>
      <trkpt lat="41.44023803528398" lon="-81.84534003026783"><ele>156</ele><time>2026-09-27T21:24:39Z</time></trkpt>
      <trkpt lat="41.440391088835895" lon="-81.84529376216233"><ele>156</ele><time>2026-09-27T21:24:42Z</time></trkpt>
      <trkpt lat="41.44054208882153" lon="-81.8452627491206"><ele>156</ele><time>2026-09-27T21:24:45Z</time></trkpt>
      <trkpt lat="41.440678420476615" lon="-81.84522897005081"><ele>156</ele><time>2026-09-27T21:24:48Z</time></trkpt>
      <trkpt lat="41.44079673103988" lon="-81.8452106975019"><ele>156</ele><time>2026-09-27T21:24:51Z</time></trkpt>
      <trkpt lat="41.44090209156275" lon="-81.84521673247218"><ele>155</ele><time>2026-09-27T21:24:54Z</time></trkpt>
      <trkpt lat="41.44102082122117" lon="-81.84517758898437"><ele>156</ele><time>2026-09-27T21:24:57Z</time></trkpt>
      <trkpt lat="41.441131588071585" lon="-81.84513266198337"><ele>156</ele><time>2026-09-27T21:25:00Z</time></trkpt>
      <trkpt lat="41.441223453730345" lon="-81.84509762562811"><ele>156</ele><time>2026-09-27T21:25:03Z</time></trkpt>
      <trkpt lat="41.44130433909595" lon="-81.84506862424314"><ele>155</ele><time>2026-09-27T21:25:06Z</time></trkpt>
      <trkpt lat="41.441387361846864" lon="-81.84504750184715"><ele>155</ele><time>2026-09-27T21:25:09Z</time></trkpt>
      <trkpt lat="41.441497332416475" lon="-81.84498270973563"><ele>155</ele><time>2026-09-27T21:25:12Z</time></trkpt>
      <trkpt lat="41.44175524357706" lon="-81.84484499506652"><ele>155</ele><time>2026-09-27T21:25:17Z</time></trkpt>
      <trkpt lat="41.44194065127522" lon="-81.84473460540175"><ele>155</ele><time>2026-09-27T21:25:20Z</time></trkpt>
      <trkpt lat="41.442137751728296" lon="-81.8446041829884"><ele>156</ele><time>2026-09-27T21:25:23Z</time></trkpt>
      <trkpt lat="41.442336067557335" lon="-81.84447543695569"><ele>157</ele><time>2026-09-27T21:25:26Z</time></trkpt>
      <trkpt lat="41.44253643695265" lon="-81.8442830722779"><ele>158</ele><time>2026-09-27T21:25:29Z</time></trkpt>
      <trkpt lat="41.442709104157984" lon="-81.84403731487691"><ele>158</ele><time>2026-09-27T21:25:32Z</time></trkpt>
      <trkpt lat="41.44281915854663" lon="-81.8438047170639"><ele>157</ele><time>2026-09-27T21:25:35Z</time></trkpt>
      <trkpt lat="41.442871084436774" lon="-81.84355393052101"><ele>156</ele><time>2026-09-27T21:25:38Z</time></trkpt>
      <trkpt lat="41.44293281715363" lon="-81.84331504628062"><ele>155</ele><time>2026-09-27T21:25:41Z</time></trkpt>
      <trkpt lat="41.442979546263814" lon="-81.8430401198566"><ele>156</ele><time>2026-09-27T21:25:44Z</time></trkpt>
      <trkpt lat="41.44303453154862" lon="-81.84274717234075"><ele>156</ele><time>2026-09-27T21:25:47Z</time></trkpt>
      <trkpt lat="41.4430440030992" lon="-81.84241759590805"><ele>156</ele><time>2026-09-27T21:25:50Z</time></trkpt>
      <trkpt lat="41.44303222652525" lon="-81.8420657236129"><ele>155</ele><time>2026-09-27T21:25:53Z</time></trkpt>
      <trkpt lat="41.443037004210055" lon="-81.8417519889772"><ele>156</ele><time>2026-09-27T21:25:56Z</time></trkpt>
      <trkpt lat="41.44299505278468" lon="-81.8414514977485"><ele>156</ele><time>2026-09-27T21:25:59Z</time></trkpt>
      <trkpt lat="41.44297049380839" lon="-81.84113072231412"><ele>155</ele><time>2026-09-27T21:26:02Z</time></trkpt>
      <trkpt lat="41.4429594296962" lon="-81.84081514365971"><ele>155</ele><time>2026-09-27T21:26:05Z</time></trkpt>
      <trkpt lat="41.44299505278468" lon="-81.84052823111415"><ele>154</ele><time>2026-09-27T21:26:08Z</time></trkpt>
      <trkpt lat="41.44302137196064" lon="-81.84021977707744"><ele>153</ele><time>2026-09-27T21:26:11Z</time></trkpt>
      <trkpt lat="41.44310644827783" lon="-81.83994451537728"><ele>153</ele><time>2026-09-27T21:26:14Z</time></trkpt>
      <trkpt lat="41.44322957843542" lon="-81.83972306549549"><ele>154</ele><time>2026-09-27T21:26:17Z</time></trkpt>
      <trkpt lat="41.4433962944895" lon="-81.83959004469216"><ele>154</ele><time>2026-09-27T21:26:20Z</time></trkpt>
      <trkpt lat="41.443535182625055" lon="-81.8396070599556"><ele>155</ele><time>2026-09-27T21:26:23Z</time></trkpt>
      <trkpt lat="41.443682787939906" lon="-81.83963011018932"><ele>155</ele><time>2026-09-27T21:26:26Z</time></trkpt>
      <trkpt lat="41.44390712957829" lon="-81.83965475298464"><ele>155</ele><time>2026-09-27T21:26:29Z</time></trkpt>
      <trkpt lat="41.44412065856159" lon="-81.83967780321836"><ele>156</ele><time>2026-09-27T21:26:32Z</time></trkpt>
      <trkpt lat="41.444265791215" lon="-81.83977100998163"><ele>156</ele><time>2026-09-27T21:26:35Z</time></trkpt>
      <trkpt lat="41.44442902877927" lon="-81.83985600247979"><ele>156</ele><time>2026-09-27T21:26:38Z</time></trkpt>
      <trkpt lat="41.444560792297125" lon="-81.83998231776059"><ele>156</ele><time>2026-09-27T21:26:41Z</time></trkpt>
      <trkpt lat="41.44471019972116" lon="-81.84002690948546"><ele>157</ele><time>2026-09-27T21:26:44Z</time></trkpt>
      <trkpt lat="41.444925530813634" lon="-81.83999966830015"><ele>157</ele><time>2026-09-27T21:26:47Z</time></trkpt>
      <trkpt lat="41.44515452440828" lon="-81.8400920368731"><ele>158</ele><time>2026-09-27T21:26:50Z</time></trkpt>
      <trkpt lat="41.4453858230263" lon="-81.84014023281634"><ele>159</ele><time>2026-09-27T21:26:53Z</time></trkpt>
      <trkpt lat="41.44557613413781" lon="-81.84018683619797"><ele>161</ele><time>2026-09-27T21:26:56Z</time></trkpt>
      <trkpt lat="41.4457494718954" lon="-81.84027736075222"><ele>162</ele><time>2026-09-27T21:26:59Z</time></trkpt>
      <trkpt lat="41.445962456054986" lon="-81.84028398245573"><ele>162</ele><time>2026-09-27T21:27:02Z</time></trkpt>
      <trkpt lat="41.446176152676344" lon="-81.84033804573119"><ele>162</ele><time>2026-09-27T21:27:05Z</time></trkpt>
      <trkpt lat="41.446389514021575" lon="-81.84037886559963"><ele>162</ele><time>2026-09-27T21:27:08Z</time></trkpt>
      <trkpt lat="41.44659868441522" lon="-81.84041214175522"><ele>162</ele><time>2026-09-27T21:27:11Z</time></trkpt>
      <trkpt lat="41.446805549785495" lon="-81.84041323140264"><ele>162</ele><time>2026-09-27T21:27:14Z</time></trkpt>
      <trkpt lat="41.44702859222889" lon="-81.84037023223937"><ele>162</ele><time>2026-09-27T21:27:17Z</time></trkpt>
      <trkpt lat="41.44723101519048" lon="-81.84021927416325"><ele>162</ele><time>2026-09-27T21:27:20Z</time></trkpt>
      <trkpt lat="41.44742216449231" lon="-81.84002791531384"><ele>163</ele><time>2026-09-27T21:27:23Z</time></trkpt>
      <trkpt lat="41.44754072651267" lon="-81.83979070745409"><ele>162</ele><time>2026-09-27T21:27:26Z</time></trkpt>
      <trkpt lat="41.44765903707594" lon="-81.83953614905477"><ele>162</ele><time>2026-09-27T21:27:29Z</time></trkpt>
      <trkpt lat="41.44779960159212" lon="-81.83926591649652"><ele>160</ele><time>2026-09-27T21:27:32Z</time></trkpt>
      <trkpt lat="41.44794431515038" lon="-81.83899258263409"><ele>161</ele><time>2026-09-27T21:27:35Z</time></trkpt>
      <trkpt lat="41.44804758019745" lon="-81.83870935812593"><ele>160</ele><time>2026-09-27T21:27:38Z</time></trkpt>
      <trkpt lat="41.448123939335346" lon="-81.83846175670624"><ele>159</ele><time>2026-09-27T21:27:41Z</time></trkpt>
      <trkpt lat="41.448218654841185" lon="-81.83817140758038"><ele>158</ele><time>2026-09-27T21:27:44Z</time></trkpt>
      <trkpt lat="41.448274101130664" lon="-81.83789296075702"><ele>157</ele><time>2026-09-27T21:27:47Z</time></trkpt>
      <trkpt lat="41.448305449448526" lon="-81.83759305626154"><ele>155</ele><time>2026-09-27T21:27:50Z</time></trkpt>
      <trkpt lat="41.448320620693266" lon="-81.83729030191898"><ele>154</ele><time>2026-09-27T21:27:53Z</time></trkpt>
      <trkpt lat="41.448289481922984" lon="-81.83697648346424"><ele>153</ele><time>2026-09-27T21:27:56Z</time></trkpt>
      <trkpt lat="41.44825167953968" lon="-81.83666467666626"><ele>153</ele><time>2026-09-27T21:27:59Z</time></trkpt>
      <trkpt lat="41.44830792210996" lon="-81.83642897754908"><ele>153</ele><time>2026-09-27T21:28:02Z</time></trkpt>
      <trkpt lat="41.448413324542344" lon="-81.8361980561167"><ele>153</ele><time>2026-09-27T21:28:05Z</time></trkpt>
      <trkpt lat="41.44847681745887" lon="-81.83594634756446"><ele>152</ele><time>2026-09-27T21:28:08Z</time></trkpt>
      <trkpt lat="41.44850833341479" lon="-81.83566546998918"><ele>152</ele><time>2026-09-27T21:28:11Z</time></trkpt>
      <trkpt lat="41.44850208889693" lon="-81.8353412579745"><ele>152</ele><time>2026-09-27T21:28:14Z</time></trkpt>
      <trkpt lat="41.448491318151355" lon="-81.83503934182227"><ele>152</ele><time>2026-09-27T21:28:17Z</time></trkpt>
      <trkpt lat="41.44847363233566" lon="-81.83473625220358"><ele>153</ele><time>2026-09-27T21:28:20Z</time></trkpt>
      <trkpt lat="41.44847245886922" lon="-81.83444380760193"><ele>153</ele><time>2026-09-27T21:28:23Z</time></trkpt>
      <trkpt lat="41.44847560208291" lon="-81.83417743071914"><ele>153</ele><time>2026-09-27T21:28:26Z</time></trkpt>
      <trkpt lat="41.44851952325553" lon="-81.83388439938426"><ele>153</ele><time>2026-09-27T21:28:29Z</time></trkpt>
      <trkpt lat="41.44858821295202" lon="-81.83364618569613"><ele>153</ele><time>2026-09-27T21:28:32Z</time></trkpt>
      <trkpt lat="41.44870032090694" lon="-81.83345088735223"><ele>152</ele><time>2026-09-27T21:28:35Z</time></trkpt>
      <trkpt lat="41.44882475025952" lon="-81.83329875580966"><ele>152</ele><time>2026-09-27T21:28:38Z</time></trkpt>
      <trkpt lat="41.44897738471627" lon="-81.8331344705075"><ele>150</ele><time>2026-09-27T21:28:41Z</time></trkpt>
      <trkpt lat="41.44918714184314" lon="-81.83300404809415"><ele>150</ele><time>2026-09-27T21:28:44Z</time></trkpt>
      <trkpt lat="41.44939639605582" lon="-81.83292634785175"><ele>150</ele><time>2026-09-27T21:28:47Z</time></trkpt>
      <trkpt lat="41.44959798082709" lon="-81.83289684355259"><ele>150</ele><time>2026-09-27T21:28:50Z</time></trkpt>
      <trkpt lat="41.44980023615062" lon="-81.83281436562538"><ele>150</ele><time>2026-09-27T21:28:53Z</time></trkpt>
      <trkpt lat="41.45002294331789" lon="-81.8327634036541"><ele>151</ele><time>2026-09-27T21:28:56Z</time></trkpt>
      <trkpt lat="41.45024200435728" lon="-81.83280170895159"><ele>151</ele><time>2026-09-27T21:28:59Z</time></trkpt>
      <trkpt lat="41.45045574288815" lon="-81.83282333426178"><ele>151</ele><time>2026-09-27T21:29:02Z</time></trkpt>
      <trkpt lat="41.45068607758731" lon="-81.83282509446144"><ele>152</ele><time>2026-09-27T21:29:05Z</time></trkpt>
      <trkpt lat="41.45091813057661" lon="-81.83277664706111"><ele>153</ele><time>2026-09-27T21:29:08Z</time></trkpt>
      <trkpt lat="41.451165564358234" lon="-81.83270716108382"><ele>152</ele><time>2026-09-27T21:29:11Z</time></trkpt>
      <trkpt lat="41.45139212720096" lon="-81.832609847188"><ele>152</ele><time>2026-09-27T21:29:14Z</time></trkpt>
      <trkpt lat="41.45161240361631" lon="-81.8324821908027"><ele>152</ele><time>2026-09-27T21:29:17Z</time></trkpt>
      <trkpt lat="41.451753890141845" lon="-81.83223073370755"><ele>151</ele><time>2026-09-27T21:29:20Z</time></trkpt>
      <trkpt lat="41.45192827563733" lon="-81.83195010758936"><ele>150</ele><time>2026-09-27T21:29:23Z</time></trkpt>
      <trkpt lat="41.4520946983248" lon="-81.83173511177301"><ele>151</ele><time>2026-09-27T21:29:26Z</time></trkpt>
      <trkpt lat="41.45228308159858" lon="-81.83158792555332"><ele>152</ele><time>2026-09-27T21:29:29Z</time></trkpt>
      <trkpt lat="41.452338066883385" lon="-81.83133076876402"><ele>151</ele><time>2026-09-27T21:29:32Z</time></trkpt>
      <trkpt lat="41.45236476324499" lon="-81.8309826683253"><ele>150</ele><time>2026-09-27T21:29:35Z</time></trkpt>
      <trkpt lat="41.45233056508005" lon="-81.83067446574569"><ele>149</ele><time>2026-09-27T21:29:38Z</time></trkpt>
      <trkpt lat="41.45223584957421" lon="-81.83039191178977"><ele>150</ele><time>2026-09-27T21:29:41Z</time></trkpt>
      <trkpt lat="41.45211485680193" lon="-81.83008865453303"><ele>149</ele><time>2026-09-27T21:29:44Z</time></trkpt>
      <trkpt lat="41.45194604527205" lon="-81.82981657795608"><ele>149</ele><time>2026-09-27T21:29:47Z</time></trkpt>
      <trkpt lat="41.451769773848355" lon="-81.82955715805292"><ele>149</ele><time>2026-09-27T21:29:50Z</time></trkpt>
      <trkpt lat="41.451593837700784" lon="-81.8292978219688"><ele>148</ele><time>2026-09-27T21:29:53Z</time></trkpt>
      <trkpt lat="41.451403023675084" lon="-81.82905642315745"><ele>148</ele><time>2026-09-27T21:29:56Z</time></trkpt>
      <trkpt lat="41.45119728986174" lon="-81.82885165326297"><ele>149</ele><time>2026-09-27T21:29:59Z</time></trkpt>
      <trkpt lat="41.45098208449781" lon="-81.82862039655447"><ele>144</ele><time>2026-09-27T21:30:02Z</time></trkpt>
      <trkpt lat="41.45081444643438" lon="-81.82845560833812"><ele>142</ele><time>2026-09-27T21:30:05Z</time></trkpt>
      <trkpt lat="41.45070003345609" lon="-81.82823767885566"><ele>143</ele><time>2026-09-27T21:30:08Z</time></trkpt>
      <trkpt lat="41.450685700401664" lon="-81.82795755565166"><ele>143</ele><time>2026-09-27T21:30:11Z</time></trkpt>
      <trkpt lat="41.450719186104834" lon="-81.8277071043849"><ele>144</ele><time>2026-09-27T21:30:14Z</time></trkpt>
      <trkpt lat="41.450769058428705" lon="-81.82757349684834"><ele>145</ele><time>2026-09-27T21:30:17Z</time></trkpt>
      <trkpt lat="41.45090518053621" lon="-81.82752647437155"><ele>146</ele><time>2026-09-27T21:30:23Z</time></trkpt>
      <trkpt lat="41.45107445307076" lon="-81.82747752405703"><ele>146</ele><time>2026-09-27T21:30:26Z</time></trkpt>
      <trkpt lat="41.45124959293753" lon="-81.82733159512281"><ele>147</ele><time>2026-09-27T21:30:29Z</time></trkpt>
      <trkpt lat="41.45145742222667" lon="-81.82732111774385"><ele>148</ele><time>2026-09-27T21:30:32Z</time></trkpt>
      <trkpt lat="41.451627532951534" lon="-81.82744634337723"><ele>147</ele><time>2026-09-27T21:30:35Z</time></trkpt>
      <trkpt lat="41.45176608581096" lon="-81.82763015851378"><ele>147</ele><time>2026-09-27T21:30:38Z</time></trkpt>
      <trkpt lat="41.45192835945636" lon="-81.827680952847"><ele>147</ele><time>2026-09-27T21:30:41Z</time></trkpt>
      <trkpt lat="41.45211422815919" lon="-81.82759830728173"><ele>147</ele><time>2026-09-27T21:30:44Z</time></trkpt>
      <trkpt lat="41.452286560088396" lon="-81.8274362012744"><ele>146</ele><time>2026-09-27T21:30:47Z</time></trkpt>
      <trkpt lat="41.452386430464685" lon="-81.82725741527975"><ele>146</ele><time>2026-09-27T21:30:50Z</time></trkpt>
      <trkpt lat="41.45254170522094" lon="-81.82709748856723"><ele>145</ele><time>2026-09-27T21:30:53Z</time></trkpt>
      <trkpt lat="41.45271621644497" lon="-81.82693898677826"><ele>145</ele><time>2026-09-27T21:30:56Z</time></trkpt>
      <trkpt lat="41.45290531218052" lon="-81.82678760960698"><ele>145</ele><time>2026-09-27T21:30:59Z</time></trkpt>
      <trkpt lat="41.45311473403126" lon="-81.82662399485707"><ele>145</ele><time>2026-09-27T21:31:02Z</time></trkpt>
      <trkpt lat="41.453302069567144" lon="-81.82643163017929"><ele>146</ele><time>2026-09-27T21:31:05Z</time></trkpt>
      <trkpt lat="41.45348898600787" lon="-81.82623063214123"><ele>146</ele><time>2026-09-27T21:31:08Z</time></trkpt>
      <trkpt lat="41.45364639814943" lon="-81.82599007152021"><ele>146</ele><time>2026-09-27T21:31:11Z</time></trkpt>
      <trkpt lat="41.45378168206662" lon="-81.82579142041504"><ele>147</ele><time>2026-09-27T21:31:14Z</time></trkpt>
      <trkpt lat="41.453899405896664" lon="-81.82556343264878"><ele>147</ele><time>2026-09-27T21:31:17Z</time></trkpt>
      <trkpt lat="41.45399353466928" lon="-81.82530024088919"><ele>147</ele><time>2026-09-27T21:31:20Z</time></trkpt>
      <trkpt lat="41.45406792405993" lon="-81.82501542381942"><ele>146</ele><time>2026-09-27T21:31:23Z</time></trkpt>
      <trkpt lat="41.45416502840817" lon="-81.82473991066217"><ele>145</ele><time>2026-09-27T21:31:26Z</time></trkpt>
      <trkpt lat="41.45428623072803" lon="-81.82446012273431"><ele>146</ele><time>2026-09-27T21:31:29Z</time></trkpt>
      <trkpt lat="41.45441954489797" lon="-81.82427421212196"><ele>146</ele><time>2026-09-27T21:31:32Z</time></trkpt>
      <trkpt lat="41.45453291013837" lon="-81.82411629706621"><ele>146</ele><time>2026-09-27T21:31:35Z</time></trkpt>
      <trkpt lat="41.454580896534026" lon="-81.82395519688725"><ele>145</ele><time>2026-09-27T21:31:38Z</time></trkpt>
      <trkpt lat="41.454652645625174" lon="-81.82379149831831"><ele>145</ele><time>2026-09-27T21:31:41Z</time></trkpt>
      <trkpt lat="41.454758760519326" lon="-81.82371723465621"><ele>146</ele><time>2026-09-27T21:31:44Z</time></trkpt>
      <trkpt lat="41.4548514643684" lon="-81.82367079891264"><ele>147</ele><time>2026-09-27T21:31:47Z</time></trkpt>
      <trkpt lat="41.45492899697274" lon="-81.82356334291399"><ele>148</ele><time>2026-09-27T21:31:50Z</time></trkpt>
      <trkpt lat="41.45502199418843" lon="-81.82343275286257"><ele>149</ele><time>2026-09-27T21:31:53Z</time></trkpt>
      <trkpt lat="41.45513963419944" lon="-81.82326084002852"><ele>148</ele><time>2026-09-27T21:31:56Z</time></trkpt>
      <trkpt lat="41.45529922563583" lon="-81.82318456470966"><ele>149</ele><time>2026-09-27T21:31:59Z</time></trkpt>
      <trkpt lat="41.45545885898173" lon="-81.82309102267027"><ele>149</ele><time>2026-09-27T21:32:02Z</time></trkpt>
      <trkpt lat="41.45560470409691" lon="-81.82302463799715"><ele>149</ele><time>2026-09-27T21:32:05Z</time></trkpt>
      <trkpt lat="41.45575800910592" lon="-81.82298524305224"><ele>149</ele><time>2026-09-27T21:32:08Z</time></trkpt>
      <trkpt lat="41.455943123437464" lon="-81.82293478399515"><ele>150</ele><time>2026-09-27T21:32:11Z</time></trkpt>
      <trkpt lat="41.4561535930261" lon="-81.82293243706226"><ele>150</ele><time>2026-09-27T21:32:14Z</time></trkpt>
      <trkpt lat="41.456358153373" lon="-81.82285381481051"><ele>151</ele><time>2026-09-27T21:32:17Z</time></trkpt>
      <trkpt lat="41.45655445754528" lon="-81.82273420505226"><ele>152</ele><time>2026-09-27T21:32:20Z</time></trkpt>
      <trkpt lat="41.45676199346781" lon="-81.82271744124591"><ele>152</ele><time>2026-09-27T21:32:23Z</time></trkpt>
      <trkpt lat="41.456952136941254" lon="-81.8227269127965"><ele>154</ele><time>2026-09-27T21:32:26Z</time></trkpt>
      <trkpt lat="41.457135365344584" lon="-81.82279447093606"><ele>155</ele><time>2026-09-27T21:32:29Z</time></trkpt>
      <trkpt lat="41.45726817660034" lon="-81.82290486060083"><ele>155</ele><time>2026-09-27T21:32:32Z</time></trkpt>
      <trkpt lat="41.45738288294524" lon="-81.82300318032503"><ele>155</ele><time>2026-09-27T21:32:35Z</time></trkpt>
      <trkpt lat="41.45743803586811" lon="-81.82305213063955"><ele>155</ele><time>2026-09-27T21:32:38Z</time></trkpt>
      <trkpt lat="41.45750496536493" lon="-81.82308859191835"><ele>155</ele><time>2026-09-27T21:32:41Z</time></trkpt>
      <trkpt lat="41.457670759409666" lon="-81.82310937903821"><ele>154</ele><time>2026-09-27T21:32:44Z</time></trkpt>
      <trkpt lat="41.457763966172934" lon="-81.82316394522786"><ele>154</ele><time>2026-09-27T21:32:47Z</time></trkpt>
      <trkpt lat="41.457888395525515" lon="-81.8232031725347"><ele>154</ele><time>2026-09-27T21:32:50Z</time></trkpt>
      <trkpt lat="41.45807338412851" lon="-81.82325187139213"><ele>156</ele><time>2026-09-27T21:32:53Z</time></trkpt>
      <trkpt lat="41.4582845242694" lon="-81.8233569804579"><ele>157</ele><time>2026-09-27T21:32:56Z</time></trkpt>
      <trkpt lat="41.4584954129532" lon="-81.8234294001013"><ele>158</ele><time>2026-09-27T21:32:59Z</time></trkpt>
      <trkpt lat="41.45873576402664" lon="-81.82341716252267"><ele>159</ele><time>2026-09-27T21:33:02Z</time></trkpt>
      <trkpt lat="41.45895155612379" lon="-81.8234156537801"><ele>158</ele><time>2026-09-27T21:33:05Z</time></trkpt>
      <trkpt lat="41.45918490830809" lon="-81.82332881726325"><ele>159</ele><time>2026-09-27T21:33:08Z</time></trkpt>
      <trkpt lat="41.459409459494054" lon="-81.82324013672769"><ele>157</ele><time>2026-09-27T21:33:11Z</time></trkpt>
      <trkpt lat="41.459599854424596" lon="-81.82306562550366"><ele>156</ele><time>2026-09-27T21:33:14Z</time></trkpt>
      <trkpt lat="41.459743645973504" lon="-81.82282967492938"><ele>157</ele><time>2026-09-27T21:33:17Z</time></trkpt>
      <trkpt lat="41.45987457130104" lon="-81.82258425280452"><ele>155</ele><time>2026-09-27T21:33:20Z</time></trkpt>
      <trkpt lat="41.46001148968935" lon="-81.82238032110035"><ele>156</ele><time>2026-09-27T21:33:23Z</time></trkpt>
      <trkpt lat="41.46012644749135" lon="-81.82222684845328"><ele>154</ele><time>2026-09-27T21:33:26Z</time></trkpt>
      <trkpt lat="41.460276106372476" lon="-81.82202970609069"><ele>153</ele><time>2026-09-27T21:33:29Z</time></trkpt>
      <trkpt lat="41.46042253822088" lon="-81.8218183144927"><ele>153</ele><time>2026-09-27T21:33:32Z</time></trkpt>
      <trkpt lat="41.46055480465293" lon="-81.82166073471308"><ele>153</ele><time>2026-09-27T21:33:35Z</time></trkpt>
      <trkpt lat="41.46068552043289" lon="-81.82153073139489"><ele>155</ele><time>2026-09-27T21:33:38Z</time></trkpt>
      <trkpt lat="41.460820846259594" lon="-81.82159518823028"><ele>155</ele><time>2026-09-27T21:33:41Z</time></trkpt>
      <trkpt lat="41.4609448146075" lon="-81.82178830727935"><ele>154</ele><time>2026-09-27T21:33:44Z</time></trkpt>
      <trkpt lat="41.46107079461217" lon="-81.82201378047466"><ele>154</ele><time>2026-09-27T21:33:47Z</time></trkpt>
      <trkpt lat="41.46119484677911" lon="-81.8222327157855"><ele>155</ele><time>2026-09-27T21:33:50Z</time></trkpt>
      <trkpt lat="41.46132187452167" lon="-81.82242449373007"><ele>155</ele><time>2026-09-27T21:33:53Z</time></trkpt>
      <trkpt lat="41.46146918646991" lon="-81.82255667634308"><ele>155</ele><time>2026-09-27T21:33:56Z</time></trkpt>
      <trkpt lat="41.46164688281715" lon="-81.82269900105894"><ele>155</ele><time>2026-09-27T21:33:59Z</time></trkpt>
      <trkpt lat="41.46184473764151" lon="-81.82284375652671"><ele>154</ele><time>2026-09-27T21:34:02Z</time></trkpt>
      <trkpt lat="41.461993055418134" lon="-81.8230218719691"><ele>154</ele><time>2026-09-27T21:34:05Z</time></trkpt>
      <trkpt lat="41.46217846311629" lon="-81.82320116087794"><ele>154</ele><time>2026-09-27T21:34:08Z</time></trkpt>
      <trkpt lat="41.462334408424795" lon="-81.82327919639647"><ele>154</ele><time>2026-09-27T21:34:11Z</time></trkpt>
      <trkpt lat="41.46251805592328" lon="-81.82332437485456"><ele>153</ele><time>2026-09-27T21:34:14Z</time></trkpt>
      <trkpt lat="41.46272601094097" lon="-81.82333678007126"><ele>153</ele><time>2026-09-27T21:34:17Z</time></trkpt>
      <trkpt lat="41.46290672477335" lon="-81.82331423275173"><ele>153</ele><time>2026-09-27T21:34:20Z</time></trkpt>
      <trkpt lat="41.463094437494874" lon="-81.82327500544488"><ele>153</ele><time>2026-09-27T21:34:23Z</time></trkpt>
      <trkpt lat="41.463300129398704" lon="-81.82316176593304"><ele>153</ele><time>2026-09-27T21:34:26Z</time></trkpt>
      <trkpt lat="41.46348054986447" lon="-81.82296521030366"><ele>153</ele><time>2026-09-27T21:34:29Z</time></trkpt>
      <trkpt lat="41.46369303110987" lon="-81.82274476625025"><ele>151</ele><time>2026-09-27T21:34:32Z</time></trkpt>
      <trkpt lat="41.46382961422205" lon="-81.82255550287664"><ele>151</ele><time>2026-09-27T21:34:35Z</time></trkpt>
      <trkpt lat="41.46393061615527" lon="-81.82229499332607"><ele>150</ele><time>2026-09-27T21:34:38Z</time></trkpt>
      <trkpt lat="41.46400534082204" lon="-81.82208569720387"><ele>148</ele><time>2026-09-27T21:34:41Z</time></trkpt>
      <trkpt lat="41.464060451835394" lon="-81.82182460092008"><ele>146</ele><time>2026-09-27T21:34:44Z</time></trkpt>
      <trkpt lat="41.464119628071785" lon="-81.8215698748827"><ele>145</ele><time>2026-09-27T21:34:47Z</time></trkpt>
      <trkpt lat="41.46415043156594" lon="-81.82125957682729"><ele>144</ele><time>2026-09-27T21:34:50Z</time></trkpt>
      <trkpt lat="41.46417218260467" lon="-81.82091214694083"><ele>142</ele><time>2026-09-27T21:34:53Z</time></trkpt>
      <trkpt lat="41.46419032942504" lon="-81.82053236290812"><ele>142</ele><time>2026-09-27T21:34:56Z</time></trkpt>
      <trkpt lat="41.464203489013016" lon="-81.82016146369278"><ele>141</ele><time>2026-09-27T21:34:59Z</time></trkpt>
      <trkpt lat="41.464207847602665" lon="-81.8197981081903"><ele>141</ele><time>2026-09-27T21:35:02Z</time></trkpt>
      <trkpt lat="41.46421748679131" lon="-81.81943827308714"><ele>141</ele><time>2026-09-27T21:35:05Z</time></trkpt>
      <trkpt lat="41.46424481179565" lon="-81.81908573023975"><ele>141</ele><time>2026-09-27T21:35:08Z</time></trkpt>
      <trkpt lat="41.4642827399075" lon="-81.81871256791055"><ele>141</ele><time>2026-09-27T21:35:11Z</time></trkpt>
      <trkpt lat="41.46419686730951" lon="-81.81850939057767"><ele>143</ele><time>2026-09-27T21:35:14Z</time></trkpt>
      <trkpt lat="41.46404771134257" lon="-81.81836136616766"><ele>142</ele><time>2026-09-27T21:35:17Z</time></trkpt>
      <trkpt lat="41.46386238746345" lon="-81.81823982857168"><ele>143</ele><time>2026-09-27T21:35:20Z</time></trkpt>
      <trkpt lat="41.46365283988416" lon="-81.81812658905983"><ele>142</ele><time>2026-09-27T21:35:23Z</time></trkpt>
      <trkpt lat="41.46349664311856" lon="-81.81799809448421"><ele>143</ele><time>2026-09-27T21:35:26Z</time></trkpt>
      <trkpt lat="41.46349572110921" lon="-81.81781847029924"><ele>142</ele><time>2026-09-27T21:35:29Z</time></trkpt>
      <trkpt lat="41.463548191823065" lon="-81.81756441481411"><ele>143</ele><time>2026-09-27T21:35:32Z</time></trkpt>
      <trkpt lat="41.463632471859455" lon="-81.81733617559075"><ele>144</ele><time>2026-09-27T21:35:35Z</time></trkpt>
      <trkpt lat="41.46382320206612" lon="-81.81717499159276"><ele>143</ele><time>2026-09-27T21:35:38Z</time></trkpt>
      <trkpt lat="41.46403023507446" lon="-81.81698564440012"><ele>142</ele><time>2026-09-27T21:35:41Z</time></trkpt>
      <trkpt lat="41.464173858985305" lon="-81.8167242128402"><ele>142</ele><time>2026-09-27T21:35:44Z</time></trkpt>
      <trkpt lat="41.464323895052075" lon="-81.8164723366499"><ele>140</ele><time>2026-09-27T21:35:47Z</time></trkpt>
      <trkpt lat="41.464477283880115" lon="-81.81620671413839"><ele>140</ele><time>2026-09-27T21:35:50Z</time></trkpt>
      <trkpt lat="41.46460347343236" lon="-81.81600521318614"><ele>140</ele><time>2026-09-27T21:35:53Z</time></trkpt>
      <trkpt lat="41.464686705730855" lon="-81.81590035557747"><ele>141</ele><time>2026-09-27T21:35:56Z</time></trkpt>
      <trkpt lat="41.46477387752384" lon="-81.81576808914542"><ele>141</ele><time>2026-09-27T21:35:59Z</time></trkpt>
      <trkpt lat="41.46490480285138" lon="-81.81558729149401"><ele>141</ele><time>2026-09-27T21:36:02Z</time></trkpt>
      <trkpt lat="41.465059323236346" lon="-81.8153914064169"><ele>141</ele><time>2026-09-27T21:36:05Z</time></trkpt>
      <trkpt lat="41.465239115059376" lon="-81.81522351689637"><ele>141</ele><time>2026-09-27T21:36:08Z</time></trkpt>
      <trkpt lat="41.465439945459366" lon="-81.81513869203627"><ele>142</ele><time>2026-09-27T21:36:11Z</time></trkpt>
      <trkpt lat="41.46563800983131" lon="-81.81511220522225"><ele>142</ele><time>2026-09-27T21:36:14Z</time></trkpt>
      <trkpt lat="41.465785573236644" lon="-81.81514531373978"><ele>142</ele><time>2026-09-27T21:36:17Z</time></trkpt>
      <trkpt lat="41.4658991061151" lon="-81.81529023684561"><ele>142</ele><time>2026-09-27T21:36:20Z</time></trkpt>
      <trkpt lat="41.46610077470541" lon="-81.81535402312875"><ele>141</ele><time>2026-09-27T21:36:23Z</time></trkpt>
      <trkpt lat="41.46631870418787" lon="-81.81548109278083"><ele>140</ele><time>2026-09-27T21:36:26Z</time></trkpt>
      <trkpt lat="41.466548410244286" lon="-81.81567513383925"><ele>140</ele><time>2026-09-27T21:36:29Z</time></trkpt>
      <trkpt lat="41.46675347350538" lon="-81.81590722873807"><ele>141</ele><time>2026-09-27T21:36:32Z</time></trkpt>
      <trkpt lat="41.46691998001188" lon="-81.81614586152136"><ele>140</ele><time>2026-09-27T21:36:35Z</time></trkpt>
      <trkpt lat="41.467054300010204" lon="-81.81642623618245"><ele>140</ele><time>2026-09-27T21:36:38Z</time></trkpt>
      <trkpt lat="41.467202911153436" lon="-81.81671122089028"><ele>140</ele><time>2026-09-27T21:36:41Z</time></trkpt>
      <trkpt lat="41.467318749055266" lon="-81.81701858527958"><ele>140</ele><time>2026-09-27T21:36:44Z</time></trkpt>
      <trkpt lat="41.467401226982474" lon="-81.81734992191195"><ele>139</ele><time>2026-09-27T21:36:47Z</time></trkpt>
      <trkpt lat="41.467459900304675" lon="-81.81768972426653"><ele>139</ele><time>2026-09-27T21:36:50Z</time></trkpt>
      <trkpt lat="41.467493176460266" lon="-81.81799943558872"><ele>138</ele><time>2026-09-27T21:36:53Z</time></trkpt>
      <trkpt lat="41.46752305794507" lon="-81.81835164315999"><ele>137</ele><time>2026-09-27T21:36:56Z</time></trkpt>
      <trkpt lat="41.467500384896994" lon="-81.81871776469052"><ele>139</ele><time>2026-09-27T21:36:59Z</time></trkpt>
      <trkpt lat="41.46744971629232" lon="-81.8190726544708"><ele>139</ele><time>2026-09-27T21:37:02Z</time></trkpt>
      <trkpt lat="41.467399592511356" lon="-81.8194426316768"><ele>140</ele><time>2026-09-27T21:37:05Z</time></trkpt>
      <trkpt lat="41.46732172463089" lon="-81.81979576125741"><ele>141</ele><time>2026-09-27T21:37:08Z</time></trkpt>
      <trkpt lat="41.467216070741415" lon="-81.82012835517526"><ele>141</ele><time>2026-09-27T21:37:11Z</time></trkpt>
      <trkpt lat="41.46711062639952" lon="-81.820465978235"><ele>141</ele><time>2026-09-27T21:37:14Z</time></trkpt>
      <trkpt lat="41.46701117511839" lon="-81.82081156410277"><ele>142</ele><time>2026-09-27T21:37:17Z</time></trkpt>
      <trkpt lat="41.466896468773484" lon="-81.82115882635117"><ele>142</ele><time>2026-09-27T21:37:20Z</time></trkpt>
      <trkpt lat="41.46679705940187" lon="-81.82148697786033"><ele>142</ele><time>2026-09-27T21:37:23Z</time></trkpt>
      <trkpt lat="41.46669773384929" lon="-81.82172066532075"><ele>142</ele><time>2026-09-27T21:37:26Z</time></trkpt>
      <trkpt lat="41.466636336408556" lon="-81.82188905775547"><ele>143</ele><time>2026-09-27T21:37:29Z</time></trkpt>
      <trkpt lat="41.46656806580722" lon="-81.82212601415813"><ele>142</ele><time>2026-09-27T21:37:32Z</time></trkpt>
      <trkpt lat="41.46645658649504" lon="-81.82237772271037"><ele>141</ele><time>2026-09-27T21:37:35Z</time></trkpt>
      <trkpt lat="41.46635084878653" lon="-81.82269346900284"><ele>142</ele><time>2026-09-27T21:37:38Z</time></trkpt>
      <trkpt lat="41.46622960455716" lon="-81.82299773208797"><ele>142</ele><time>2026-09-27T21:37:41Z</time></trkpt>
      <trkpt lat="41.46612210664898" lon="-81.82329780422151"><ele>143</ele><time>2026-09-27T21:37:44Z</time></trkpt>
      <trkpt lat="41.46603895816952" lon="-81.82359619997442"><ele>143</ele><time>2026-09-27T21:37:47Z</time></trkpt>
      <trkpt lat="41.465966161340475" lon="-81.82393516413867"><ele>143</ele><time>2026-09-27T21:37:50Z</time></trkpt>
      <trkpt lat="41.4659337233752" lon="-81.8242806661874"><ele>143</ele><time>2026-09-27T21:37:53Z</time></trkpt>
      <trkpt lat="41.46591268479824" lon="-81.82464385405183"><ele>144</ele><time>2026-09-27T21:37:56Z</time></trkpt>
      <trkpt lat="41.465901201590896" lon="-81.82500192895532"><ele>145</ele><time>2026-09-27T21:37:59Z</time></trkpt>
      <trkpt lat="41.46588820964098" lon="-81.82532002218068"><ele>145</ele><time>2026-09-27T21:38:02Z</time></trkpt>
      <trkpt lat="41.46587819326669" lon="-81.82568220421672"><ele>145</ele><time>2026-09-27T21:38:05Z</time></trkpt>
      <trkpt lat="41.46587039809674" lon="-81.82606835849583"><ele>145</ele><time>2026-09-27T21:38:08Z</time></trkpt>
      <trkpt lat="41.46583498455584" lon="-81.82643003761768"><ele>143</ele><time>2026-09-27T21:38:11Z</time></trkpt>
      <trkpt lat="41.465794374234974" lon="-81.82677503675222"><ele>143</ele><time>2026-09-27T21:38:14Z</time></trkpt>
      <trkpt lat="41.4657584996894" lon="-81.82711877860129"><ele>143</ele><time>2026-09-27T21:38:17Z</time></trkpt>
      <trkpt lat="41.465666885487735" lon="-81.8274528812617"><ele>143</ele><time>2026-09-27T21:38:20Z</time></trkpt>
      <trkpt lat="41.46561931818724" lon="-81.82779628783464"><ele>142</ele><time>2026-09-27T21:38:23Z</time></trkpt>
      <trkpt lat="41.465588472783566" lon="-81.82813399471343"><ele>144</ele><time>2026-09-27T21:38:26Z</time></trkpt>
      <trkpt lat="41.46557636093348" lon="-81.82845585979521"><ele>145</ele><time>2026-09-27T21:38:29Z</time></trkpt>
      <trkpt lat="41.46556735038757" lon="-81.82879314757884"><ele>146</ele><time>2026-09-27T21:38:32Z</time></trkpt>
      <trkpt lat="41.46553055383265" lon="-81.8291350454092"><ele>146</ele><time>2026-09-27T21:38:35Z</time></trkpt>
      <trkpt lat="41.465467480011284" lon="-81.82948239147663"><ele>145</ele><time>2026-09-27T21:38:38Z</time></trkpt>
      <trkpt lat="41.46539045032114" lon="-81.82979545556009"><ele>145</ele><time>2026-09-27T21:38:41Z</time></trkpt>
      <trkpt lat="41.465342715382576" lon="-81.83010449633002"><ele>145</ele><time>2026-09-27T21:38:44Z</time></trkpt>
      <trkpt lat="41.46530399098992" lon="-81.83044991455972"><ele>145</ele><time>2026-09-27T21:38:47Z</time></trkpt>
      <trkpt lat="41.46529410034418" lon="-81.83079415932298"><ele>145</ele><time>2026-09-27T21:38:50Z</time></trkpt>
      <trkpt lat="41.46527264267206" lon="-81.83112474158406"><ele>145</ele><time>2026-09-27T21:38:53Z</time></trkpt>
      <trkpt lat="41.46530734375119" lon="-81.83143948204815"><ele>144</ele><time>2026-09-27T21:38:56Z</time></trkpt>
      <trkpt lat="41.46542058326304" lon="-81.83169160969555"><ele>145</ele><time>2026-09-27T21:38:59Z</time></trkpt>
      <trkpt lat="41.465539396740496" lon="-81.83197357691824"><ele>145</ele><time>2026-09-27T21:39:02Z</time></trkpt>
      <trkpt lat="41.4656842360273" lon="-81.83225118555129"><ele>145</ele><time>2026-09-27T21:39:05Z</time></trkpt>
      <trkpt lat="41.465877019800246" lon="-81.83244883082807"><ele>144</ele><time>2026-09-27T21:39:08Z</time></trkpt>
      <trkpt lat="41.46608204115182" lon="-81.83265033178031"><ele>144</ele><time>2026-09-27T21:39:11Z</time></trkpt>
      <trkpt lat="41.46627021487802" lon="-81.83288326486945"><ele>144</ele><time>2026-09-27T21:39:14Z</time></trkpt>
      <trkpt lat="41.46640449296683" lon="-81.83314779773355"><ele>144</ele><time>2026-09-27T21:39:17Z</time></trkpt>
      <trkpt lat="41.4664889825508" lon="-81.83336681686342"><ele>144</ele><time>2026-09-27T21:39:20Z</time></trkpt>
      <trkpt lat="41.4666642062366" lon="-81.83348416350782"><ele>143</ele><time>2026-09-27T21:39:23Z</time></trkpt>
      <trkpt lat="41.466796388849616" lon="-81.8334629572928"><ele>144</ele><time>2026-09-27T21:39:26Z</time></trkpt>
      <trkpt lat="41.466961931437254" lon="-81.83337528258562"><ele>144</ele><time>2026-09-27T21:39:29Z</time></trkpt>
      <trkpt lat="41.46716808434576" lon="-81.83338307775557"><ele>144</ele><time>2026-09-27T21:39:32Z</time></trkpt>
      <trkpt lat="41.46741564385593" lon="-81.83342088013887"><ele>146</ele><time>2026-09-27T21:39:35Z</time></trkpt>
      <trkpt lat="41.467683403752744" lon="-81.83344434946775"><ele>145</ele><time>2026-09-27T21:39:38Z</time></trkpt>
      <trkpt lat="41.467944332398474" lon="-81.83341400697827"><ele>145</ele><time>2026-09-27T21:39:41Z</time></trkpt>
      <trkpt lat="41.468204548582435" lon="-81.83334100060165"><ele>145</ele><time>2026-09-27T21:39:44Z</time></trkpt>
      <trkpt lat="41.46843366790563" lon="-81.83324133977294"><ele>146</ele><time>2026-09-27T21:39:47Z</time></trkpt>
      <trkpt lat="41.46864602342248" lon="-81.8331104144454"><ele>145</ele><time>2026-09-27T21:39:50Z</time></trkpt>
      <trkpt lat="41.46886881440878" lon="-81.83294579386711"><ele>146</ele><time>2026-09-27T21:39:53Z</time></trkpt>
      <trkpt lat="41.46905661094934" lon="-81.8327530939132"><ele>145</ele><time>2026-09-27T21:39:56Z</time></trkpt>
      <trkpt lat="41.46915333811194" lon="-81.83253390714526"><ele>145</ele><time>2026-09-27T21:39:59Z</time></trkpt>
      <trkpt lat="41.46928183268756" lon="-81.83233668096364"><ele>145</ele><time>2026-09-27T21:40:02Z</time></trkpt>
      <trkpt lat="41.46941942162812" lon="-81.83217097073793"><ele>145</ele><time>2026-09-27T21:40:05Z</time></trkpt>
      <trkpt lat="41.469562207348645" lon="-81.83201062493026"><ele>145</ele><time>2026-09-27T21:40:08Z</time></trkpt>
      <trkpt lat="41.46971471607685" lon="-81.83183711953461"><ele>145</ele><time>2026-09-27T21:40:11Z</time></trkpt>
      <trkpt lat="41.46986533887684" lon="-81.83164768852293"><ele>144</ele><time>2026-09-27T21:40:14Z</time></trkpt>
      <trkpt lat="41.46999982651323" lon="-81.83147015981376"><ele>143</ele><time>2026-09-27T21:40:17Z</time></trkpt>
      <trkpt lat="41.47015149705112" lon="-81.83128190226853"><ele>142</ele><time>2026-09-27T21:40:20Z</time></trkpt>
      <trkpt lat="41.47026821505278" lon="-81.83104637078941"><ele>141</ele><time>2026-09-27T21:40:23Z</time></trkpt>
      <trkpt lat="41.470364104025066" lon="-81.83076708577573"><ele>141</ele><time>2026-09-27T21:40:26Z</time></trkpt>
      <trkpt lat="41.47041938267648" lon="-81.83053214102983"><ele>141</ele><time>2026-09-27T21:40:29Z</time></trkpt>
      <trkpt lat="41.470441804267466" lon="-81.83044354431331"><ele>141</ele><time>2026-09-27T21:40:32Z</time></trkpt>
      <trkpt lat="41.470364523120224" lon="-81.83051621541381"><ele>140</ele><time>2026-09-27T21:40:38Z</time></trkpt>
      <trkpt lat="41.47018313873559" lon="-81.83049995452166"><ele>142</ele><time>2026-09-27T21:40:41Z</time></trkpt>
      <trkpt lat="41.469963868148625" lon="-81.8304873816669"><ele>142</ele><time>2026-09-27T21:40:44Z</time></trkpt>
      <trkpt lat="41.4698002114892" lon="-81.83044765144587"><ele>142</ele><time>2026-09-27T21:40:47Z</time></trkpt>
      <trkpt lat="41.469676829874516" lon="-81.83038269169629"><ele>142</ele><time>2026-09-27T21:40:50Z</time></trkpt>
      <trkpt lat="41.4695877302438" lon="-81.8302199151367"><ele>142</ele><time>2026-09-27T21:40:53Z</time></trkpt>
      <trkpt lat="41.46948920097202" lon="-81.82996049523354"><ele>141</ele><time>2026-09-27T21:40:56Z</time></trkpt>
      <trkpt lat="41.46938136778772" lon="-81.8296567350626"><ele>141</ele><time>2026-09-27T21:40:59Z</time></trkpt>
      <trkpt lat="41.46929909940809" lon="-81.82934886775911"><ele>140</ele><time>2026-09-27T21:41:02Z</time></trkpt>
      <trkpt lat="41.46922219544649" lon="-81.82903219945729"><ele>140</ele><time>2026-09-27T21:41:05Z</time></trkpt>
      <trkpt lat="41.46915895398706" lon="-81.82868879288435"><ele>138</ele><time>2026-09-27T21:41:08Z</time></trkpt>
      <trkpt lat="41.469109249301255" lon="-81.82835745625198"><ele>136</ele><time>2026-09-27T21:41:11Z</time></trkpt>
      <trkpt lat="41.469071698375046" lon="-81.82802410796285"><ele>136</ele><time>2026-09-27T21:41:14Z</time></trkpt>
      <trkpt lat="41.46905313245952" lon="-81.82769319042563"><ele>135</ele><time>2026-09-27T21:41:17Z</time></trkpt>
      <trkpt lat="41.469056024216115" lon="-81.82737467810512"><ele>135</ele><time>2026-09-27T21:41:20Z</time></trkpt>
      <trkpt lat="41.469063316471875" lon="-81.82708600535989"><ele>134</ele><time>2026-09-27T21:41:23Z</time></trkpt>
      <trkpt lat="41.469081421382725" lon="-81.82679289020598"><ele>133</ele><time>2026-09-27T21:41:26Z</time></trkpt>
      <trkpt lat="41.46914411801845" lon="-81.8265416007489"><ele>132</ele><time>2026-09-27T21:41:29Z</time></trkpt>
      <trkpt lat="41.469280952587724" lon="-81.82632518000901"><ele>130</ele><time>2026-09-27T21:41:32Z</time></trkpt>
      <trkpt lat="41.46944854874164" lon="-81.82617640122771"><ele>130</ele><time>2026-09-27T21:41:35Z</time></trkpt>
      <trkpt lat="41.46960960701108" lon="-81.82596023194492"><ele>130</ele><time>2026-09-27T21:41:38Z</time></trkpt>
      <trkpt lat="41.46974727977067" lon="-81.82575738988817"><ele>129</ele><time>2026-09-27T21:41:41Z</time></trkpt>
      <trkpt lat="41.469853897579014" lon="-81.82554189115763"><ele>128</ele><time>2026-09-27T21:41:44Z</time></trkpt>
      <trkpt lat="41.46998423617333" lon="-81.82537467218935"><ele>128</ele><time>2026-09-27T21:41:47Z</time></trkpt>
      <trkpt lat="41.470142737962306" lon="-81.82528163306415"><ele>128</ele><time>2026-09-27T21:41:50Z</time></trkpt>
      <trkpt lat="41.47031439933926" lon="-81.82519328780472"><ele>128</ele><time>2026-09-27T21:41:53Z</time></trkpt>
      <trkpt lat="41.470472482033074" lon="-81.82511969469488"><ele>128</ele><time>2026-09-27T21:41:56Z</time></trkpt>
      <trkpt lat="41.47059100214392" lon="-81.82502992451191"><ele>130</ele><time>2026-09-27T21:41:59Z</time></trkpt>
      <trkpt lat="41.47073362022638" lon="-81.82494945824146"><ele>132</ele><time>2026-09-27T21:42:02Z</time></trkpt>
      <trkpt lat="41.470923512242734" lon="-81.82492255233228"><ele>131</ele><time>2026-09-27T21:42:05Z</time></trkpt>
      <trkpt lat="41.47104601375759" lon="-81.82498139329255"><ele>131</ele><time>2026-09-27T21:42:08Z</time></trkpt>
      <trkpt lat="41.47115183528513" lon="-81.82505783624947"><ele>130</ele><time>2026-09-27T21:42:11Z</time></trkpt>
      <trkpt lat="41.4712794078514" lon="-81.82513092644513"><ele>128</ele><time>2026-09-27T21:42:14Z</time></trkpt>
      <trkpt lat="41.471422612667084" lon="-81.82504543103278"><ele>128</ele><time>2026-09-27T21:42:17Z</time></trkpt>
      <trkpt lat="41.471613510511816" lon="-81.82485214434564"><ele>124</ele><time>2026-09-27T21:42:20Z</time></trkpt>
      <trkpt lat="41.47180415689945" lon="-81.82482180185616"><ele>123</ele><time>2026-09-27T21:42:23Z</time></trkpt>
      <trkpt lat="41.472012656740844" lon="-81.82485516183078"><ele>124</ele><time>2026-09-27T21:42:26Z</time></trkpt>
      <trkpt lat="41.47225803695619" lon="-81.82487368583679"><ele>125</ele><time>2026-09-27T21:42:29Z</time></trkpt>
      <trkpt lat="41.47250069305301" lon="-81.82482272386551"><ele>125</ele><time>2026-09-27T21:42:32Z</time></trkpt>
      <trkpt lat="41.47269875742495" lon="-81.82473563589156"><ele>126</ele><time>2026-09-27T21:42:35Z</time></trkpt>
      <trkpt lat="41.4728793874383" lon="-81.82469464838505"><ele>128</ele><time>2026-09-27T21:42:38Z</time></trkpt>
      <trkpt lat="41.4730424573645" lon="-81.82468878105283"><ele>129</ele><time>2026-09-27T21:42:41Z</time></trkpt>
      <trkpt lat="41.473245047964156" lon="-81.82463681325316"><ele>130</ele><time>2026-09-27T21:42:44Z</time></trkpt>
      <trkpt lat="41.47346042096615" lon="-81.82459850795567"><ele>130</ele><time>2026-09-27T21:42:47Z</time></trkpt>
      <trkpt lat="41.47362126968801" lon="-81.82455969974399"><ele>132</ele><time>2026-09-27T21:42:50Z</time></trkpt>
      <trkpt lat="41.47377650253475" lon="-81.82452793233097"><ele>132</ele><time>2026-09-27T21:42:53Z</time></trkpt>
      <trkpt lat="41.47399279754609" lon="-81.8244125135243"><ele>133</ele><time>2026-09-27T21:42:56Z</time></trkpt>
      <trkpt lat="41.474222210235894" lon="-81.82433607056737"><ele>134</ele><time>2026-09-27T21:42:59Z</time></trkpt>
      <trkpt lat="41.47444009780884" lon="-81.82433749549091"><ele>134</ele><time>2026-09-27T21:43:02Z</time></trkpt>
      <trkpt lat="41.47466804366559" lon="-81.82434470392764"><ele>134</ele><time>2026-09-27T21:43:05Z</time></trkpt>
      <trkpt lat="41.47486979607493" lon="-81.82427966035903"><ele>134</ele><time>2026-09-27T21:43:08Z</time></trkpt>
      <trkpt lat="41.47506848908961" lon="-81.82417429983616"><ele>134</ele><time>2026-09-27T21:43:11Z</time></trkpt>
      <trkpt lat="41.4752650866285" lon="-81.8240755610168"><ele>135</ele><time>2026-09-27T21:43:14Z</time></trkpt>
      <trkpt lat="41.47544077131897" lon="-81.82401755824685"><ele>136</ele><time>2026-09-27T21:43:17Z</time></trkpt>
      <trkpt lat="41.475619305856526" lon="-81.82394664734602"><ele>137</ele><time>2026-09-27T21:43:20Z</time></trkpt>
      <trkpt lat="41.475786357186735" lon="-81.82386727072299"><ele>138</ele><time>2026-09-27T21:43:23Z</time></trkpt>
      <trkpt lat="41.47593844681978" lon="-81.82380063459277"><ele>138</ele><time>2026-09-27T21:43:26Z</time></trkpt>
      <trkpt lat="41.47610206156969" lon="-81.82376434095204"><ele>139</ele><time>2026-09-27T21:43:29Z</time></trkpt>
      <trkpt lat="41.47624023724347" lon="-81.82378806173801"><ele>140</ele><time>2026-09-27T21:43:32Z</time></trkpt>
      <trkpt lat="41.47639547009021" lon="-81.82381873950362"><ele>141</ele><time>2026-09-27T21:43:35Z</time></trkpt>
      <trkpt lat="41.47654206957668" lon="-81.82386073283851"><ele>143</ele><time>2026-09-27T21:43:38Z</time></trkpt>
      <trkpt lat="41.47667328827083" lon="-81.82399023324251"><ele>142</ele><time>2026-09-27T21:43:41Z</time></trkpt>
      <trkpt lat="41.47683082614094" lon="-81.82415686547756"><ele>142</ele><time>2026-09-27T21:43:44Z</time></trkpt>
      <trkpt lat="41.47696870844811" lon="-81.82437538169324"><ele>142</ele><time>2026-09-27T21:43:47Z</time></trkpt>
      <trkpt lat="41.477034757845104" lon="-81.82463128119707"><ele>142</ele><time>2026-09-27T21:43:50Z</time></trkpt>
      <trkpt lat="41.47707599680871" lon="-81.82490704581141"><ele>142</ele><time>2026-09-27T21:43:53Z</time></trkpt>
      <trkpt lat="41.47711715195328" lon="-81.82518188841641"><ele>142</ele><time>2026-09-27T21:43:56Z</time></trkpt>
      <trkpt lat="41.47716073784977" lon="-81.82539504021406"><ele>142</ele><time>2026-09-27T21:43:59Z</time></trkpt>
      <trkpt lat="41.477192882448435" lon="-81.82565345428884"><ele>141</ele><time>2026-09-27T21:44:02Z</time></trkpt>
      <trkpt lat="41.47720616776496" lon="-81.82592553086579"><ele>139</ele><time>2026-09-27T21:44:05Z</time></trkpt>
      <trkpt lat="41.4772662660107" lon="-81.82626617141068"><ele>136</ele><time>2026-09-27T21:44:08Z</time></trkpt>
      <trkpt lat="41.47734275087714" lon="-81.8266050517559"><ele>134</ele><time>2026-09-27T21:44:11Z</time></trkpt>
      <trkpt lat="41.47745406255126" lon="-81.82688534259796"><ele>134</ele><time>2026-09-27T21:44:14Z</time></trkpt>
      <trkpt lat="41.47761516273022" lon="-81.8271409906447"><ele>133</ele><time>2026-09-27T21:44:17Z</time></trkpt>
      <trkpt lat="41.47771147079766" lon="-81.82733084075153"><ele>133</ele><time>2026-09-27T21:44:20Z</time></trkpt>
      <trkpt lat="41.47778087295592" lon="-81.82755136862397"><ele>133</ele><time>2026-09-27T21:44:23Z</time></trkpt>
      <trkpt lat="41.477888957597315" lon="-81.82779578492045"><ele>135</ele><time>2026-09-27T21:44:26Z</time></trkpt>
      <trkpt lat="41.4780202601105" lon="-81.82806023396552"><ele>136</ele><time>2026-09-27T21:44:29Z</time></trkpt>
      <trkpt lat="41.4781653508544" lon="-81.82828629389405"><ele>139</ele><time>2026-09-27T21:44:32Z</time></trkpt>
      <trkpt lat="41.47832196671516" lon="-81.82845971547067"><ele>140</ele><time>2026-09-27T21:44:35Z</time></trkpt>
      <trkpt lat="41.4784552808851" lon="-81.82862157002091"><ele>140</ele><time>2026-09-27T21:44:38Z</time></trkpt>
      <trkpt lat="41.47856881376356" lon="-81.82874763384461"><ele>141</ele><time>2026-09-27T21:44:41Z</time></trkpt>
      <trkpt lat="41.478663654997945" lon="-81.82889406569302"><ele>142</ele><time>2026-09-27T21:44:44Z</time></trkpt>
      <trkpt lat="41.47875929251313" lon="-81.82904628105462"><ele>143</ele><time>2026-09-27T21:44:47Z</time></trkpt>
      <trkpt lat="41.4786788681522" lon="-81.82920536957681"><ele>144</ele><time>2026-09-27T21:44:50Z</time></trkpt>
      <trkpt lat="41.478529712185264" lon="-81.8293839879334"><ele>145</ele><time>2026-09-27T21:44:53Z</time></trkpt>
      <trkpt lat="41.47846445906907" lon="-81.82961465790868"><ele>145</ele><time>2026-09-27T21:44:56Z</time></trkpt>
      <trkpt lat="41.478610429912806" lon="-81.82980065234005"><ele>144</ele><time>2026-09-27T21:44:59Z</time></trkpt>
      <trkpt lat="41.47876993753016" lon="-81.8299794383347"><ele>144</ele><time>2026-09-27T21:45:02Z</time></trkpt>
      <trkpt lat="41.47896188311279" lon="-81.83016702532768"><ele>143</ele><time>2026-09-27T21:45:05Z</time></trkpt>
      <trkpt lat="41.47932909429073" lon="-81.83057203888893"><ele>141</ele><time>2026-09-27T21:45:11Z</time></trkpt>
      <trkpt lat="41.47949220612645" lon="-81.83073691092432"><ele>142</ele><time>2026-09-27T21:45:14Z</time></trkpt>
      <trkpt lat="41.47968109231442" lon="-81.83084227144718"><ele>141</ele><time>2026-09-27T21:45:17Z</time></trkpt>
      <trkpt lat="41.47988485638052" lon="-81.8309173732996"><ele>141</ele><time>2026-09-27T21:45:20Z</time></trkpt>
      <trkpt lat="41.48006842005998" lon="-81.83095626533031"><ele>142</ele><time>2026-09-27T21:45:23Z</time></trkpt>
      <trkpt lat="41.4802167378366" lon="-81.83095140382648"><ele>142</ele><time>2026-09-27T21:45:26Z</time></trkpt>
    </trkseg>
  </trk>
</gpx>
