<?xml version="1.0" encoding="UTF-8"?>
<gpx version="1.1" creator="HoldMyTrack" xmlns="http://www.topografix.com/GPX/1/1">
  <trk>
    <type>Solowheel</type>
    <trkseg>
      <trkpt lat="41.35796353686601" lon="-81.56875382177532"><ele>238</ele><time>2026-10-10T19:57:26Z</time></trkpt>
      <trkpt lat="41.35804324876517" lon="-81.56873655505478"><ele>241</ele><time>2026-10-10T19:57:29Z</time></trkpt>
      <trkpt lat="41.35798130650073" lon="-81.5686496347189"><ele>232</ele><time>2026-10-10T19:57:32Z</time></trkpt>
      <trkpt lat="41.35799668729305" lon="-81.56853186897933"><ele>235</ele><time>2026-10-10T19:57:35Z</time></trkpt>
      <trkpt lat="41.35801261290908" lon="-81.56842424534261"><ele>236</ele><time>2026-10-10T19:57:38Z</time></trkpt>
      <trkpt lat="41.35804153047502" lon="-81.56831008382142"><ele>236</ele><time>2026-10-10T19:57:41Z</time></trkpt>
      <trkpt lat="41.35806206613779" lon="-81.5682331379503"><ele>237</ele><time>2026-10-10T19:57:44Z</time></trkpt>
      <trkpt lat="41.35812861844897" lon="-81.56826029531658"><ele>234</ele><time>2026-10-10T19:57:50Z</time></trkpt>
      <trkpt lat="41.358224214054644" lon="-81.56821117736399"><ele>234</ele><time>2026-10-10T19:57:56Z</time></trkpt>
      <trkpt lat="41.35826863814145" lon="-81.56813029199839"><ele>234</ele><time>2026-10-10T19:57:59Z</time></trkpt>
      <trkpt lat="41.35824759956449" lon="-81.56796449795365"><ele>230</ele><time>2026-10-10T19:58:02Z</time></trkpt>
      <trkpt lat="41.35824290569872" lon="-81.5677153877914"><ele>229</ele><time>2026-10-10T19:58:05Z</time></trkpt>
      <trkpt lat="41.35823691263795" lon="-81.56745915301144"><ele>228</ele><time>2026-10-10T19:58:08Z</time></trkpt>
      <trkpt lat="41.35822291485965" lon="-81.56716687604785"><ele>228</ele><time>2026-10-10T19:58:11Z</time></trkpt>
      <trkpt lat="41.35822320822626" lon="-81.56687585636973"><ele>227</ele><time>2026-10-10T19:58:14Z</time></trkpt>
      <trkpt lat="41.35821931064129" lon="-81.56654745340347"><ele>227</ele><time>2026-10-10T19:58:17Z</time></trkpt>
      <trkpt lat="41.35823288932443" lon="-81.56623162329197"><ele>224</ele><time>2026-10-10T19:58:20Z</time></trkpt>
      <trkpt lat="41.35823808610439" lon="-81.56594169326127"><ele>223</ele><time>2026-10-10T19:58:23Z</time></trkpt>
      <trkpt lat="41.358248940669" lon="-81.56563214957714"><ele>221</ele><time>2026-10-10T19:58:26Z</time></trkpt>
      <trkpt lat="41.358283390291035" lon="-81.56529620289803"><ele>218</ele><time>2026-10-10T19:58:29Z</time></trkpt>
      <trkpt lat="41.35832261759788" lon="-81.56497567892075"><ele>215</ele><time>2026-10-10T19:58:32Z</time></trkpt>
      <trkpt lat="41.358419973403215" lon="-81.5647036023438"><ele>215</ele><time>2026-10-10T19:58:35Z</time></trkpt>
      <trkpt lat="41.358358073048294" lon="-81.56442381441593"><ele>215</ele><time>2026-10-10T19:58:38Z</time></trkpt>
      <trkpt lat="41.35832110885531" lon="-81.56417571008205"><ele>213</ele><time>2026-10-10T19:58:41Z</time></trkpt>
      <trkpt lat="41.358305434696376" lon="-81.56400639563799"><ele>213</ele><time>2026-10-10T19:58:44Z</time></trkpt>
      <trkpt lat="41.358292107470334" lon="-81.56390681862831"><ele>213</ele><time>2026-10-10T19:58:47Z</time></trkpt>
      <trkpt lat="41.35827840305865" lon="-81.56377019360662"><ele>213</ele><time>2026-10-10T19:58:50Z</time></trkpt>
      <trkpt lat="41.35831804946065" lon="-81.56362527050078"><ele>213</ele><time>2026-10-10T19:58:53Z</time></trkpt>
      <trkpt lat="41.35841004084796" lon="-81.56359937041998"><ele>213</ele><time>2026-10-10T19:58:56Z</time></trkpt>
      <trkpt lat="41.358531075529754" lon="-81.56369266100228"><ele>214</ele><time>2026-10-10T19:58:59Z</time></trkpt>
      <trkpt lat="41.35867415461689" lon="-81.5638552699238"><ele>213</ele><time>2026-10-10T19:59:02Z</time></trkpt>
      <trkpt lat="41.35883001610637" lon="-81.56401502899826"><ele>213</ele><time>2026-10-10T19:59:05Z</time></trkpt>
      <trkpt lat="41.35897032916546" lon="-81.56411200761795"><ele>214</ele><time>2026-10-10T19:59:08Z</time></trkpt>
      <trkpt lat="41.35908465832472" lon="-81.56423890963197"><ele>214</ele><time>2026-10-10T19:59:11Z</time></trkpt>
      <trkpt lat="41.35923255700618" lon="-81.56440403312445"><ele>214</ele><time>2026-10-10T19:59:14Z</time></trkpt>
      <trkpt lat="41.35935304686427" lon="-81.56459203921258"><ele>214</ele><time>2026-10-10T19:59:17Z</time></trkpt>
      <trkpt lat="41.35948774404824" lon="-81.56478767283261"><ele>213</ele><time>2026-10-10T19:59:20Z</time></trkpt>
      <trkpt lat="41.359592895023525" lon="-81.5649454202503"><ele>213</ele><time>2026-10-10T19:59:23Z</time></trkpt>
      <trkpt lat="41.359706930816174" lon="-81.56515538692474"><ele>213</ele><time>2026-10-10T19:59:26Z</time></trkpt>
      <trkpt lat="41.35987544897944" lon="-81.56539653427899"><ele>212</ele><time>2026-10-10T19:59:29Z</time></trkpt>
      <trkpt lat="41.360084409825504" lon="-81.56564933247864"><ele>213</ele><time>2026-10-10T19:59:32Z</time></trkpt>
      <trkpt lat="41.36026537511498" lon="-81.56586491502821"><ele>213</ele><time>2026-10-10T19:59:35Z</time></trkpt>
      <trkpt lat="41.36042496655136" lon="-81.56598737463355"><ele>213</ele><time>2026-10-10T19:59:38Z</time></trkpt>
      <trkpt lat="41.360575798898935" lon="-81.56616473570466"><ele>213</ele><time>2026-10-10T19:59:41Z</time></trkpt>
      <trkpt lat="41.360764601267874" lon="-81.56632809899747"><ele>211</ele><time>2026-10-10T19:59:44Z</time></trkpt>
      <trkpt lat="41.360931526869535" lon="-81.56651174649596"><ele>212</ele><time>2026-10-10T19:59:47Z</time></trkpt>
      <trkpt lat="41.36108537670225" lon="-81.56668424606323"><ele>211</ele><time>2026-10-10T19:59:50Z</time></trkpt>
      <trkpt lat="41.36131219100207" lon="-81.56687594018877"><ele>208</ele><time>2026-10-10T19:59:53Z</time></trkpt>
      <trkpt lat="41.3615445792675" lon="-81.56709621660411"><ele>208</ele><time>2026-10-10T19:59:56Z</time></trkpt>
      <trkpt lat="41.36181372217834" lon="-81.56725161708891"><ele>212</ele><time>2026-10-10T19:59:59Z</time></trkpt>
      <trkpt lat="41.36217175517231" lon="-81.5672209393233"><ele>214</ele><time>2026-10-10T20:00:02Z</time></trkpt>
      <trkpt lat="41.36241562664509" lon="-81.56716327182949"><ele>215</ele><time>2026-10-10T20:00:05Z</time></trkpt>
      <trkpt lat="41.36260204017162" lon="-81.56712387688458"><ele>216</ele><time>2026-10-10T20:00:08Z</time></trkpt>
      <trkpt lat="41.362779065966606" lon="-81.56712538562715"><ele>217</ele><time>2026-10-10T20:00:11Z</time></trkpt>
      <trkpt lat="41.36299322359264" lon="-81.56709680333734"><ele>217</ele><time>2026-10-10T20:00:14Z</time></trkpt>
      <trkpt lat="41.3632000470534" lon="-81.5670171752572"><ele>218</ele><time>2026-10-10T20:00:17Z</time></trkpt>
      <trkpt lat="41.36343972757459" lon="-81.56694307923317"><ele>220</ele><time>2026-10-10T20:00:20Z</time></trkpt>
      <trkpt lat="41.36366834398359" lon="-81.56691340729594"><ele>221</ele><time>2026-10-10T20:00:23Z</time></trkpt>
      <trkpt lat="41.36387659236789" lon="-81.56691944226623"><ele>222</ele><time>2026-10-10T20:00:26Z</time></trkpt>
      <trkpt lat="41.364012085832655" lon="-81.56692472286522"><ele>222</ele><time>2026-10-10T20:00:29Z</time></trkpt>
      <trkpt lat="41.36412289459258" lon="-81.56693167984486"><ele>221</ele><time>2026-10-10T20:00:32Z</time></trkpt>
      <trkpt lat="41.36421157512814" lon="-81.56692841090262"><ele>222</ele><time>2026-10-10T20:00:35Z</time></trkpt>
      <trkpt lat="41.364291328936815" lon="-81.56694307923317"><ele>222</ele><time>2026-10-10T20:00:38Z</time></trkpt>
      <trkpt lat="41.36438688263297" lon="-81.56694919802248"><ele>222</ele><time>2026-10-10T20:00:41Z</time></trkpt>
      <trkpt lat="41.364480634219944" lon="-81.56690301373601"><ele>222</ele><time>2026-10-10T20:00:44Z</time></trkpt>
      <trkpt lat="41.36462023481727" lon="-81.5667446795851"><ele>223</ele><time>2026-10-10T20:00:47Z</time></trkpt>
      <trkpt lat="41.36469625867903" lon="-81.56651074066758"><ele>224</ele><time>2026-10-10T20:00:50Z</time></trkpt>
      <trkpt lat="41.36480111628771" lon="-81.56624461524189"><ele>227</ele><time>2026-10-10T20:00:53Z</time></trkpt>
      <trkpt lat="41.36499654036015" lon="-81.56599324196577"><ele>230</ele><time>2026-10-10T20:00:56Z</time></trkpt>
      <trkpt lat="41.365208183415234" lon="-81.56578629277647"><ele>232</ele><time>2026-10-10T20:00:59Z</time></trkpt>
      <trkpt lat="41.36533005628735" lon="-81.56574974767864"><ele>233</ele><time>2026-10-10T20:01:02Z</time></trkpt>
      <trkpt lat="41.365530719049275" lon="-81.56554229557514"><ele>241</ele><time>2026-10-10T20:01:05Z</time></trkpt>
      <trkpt lat="41.36576562188566" lon="-81.56550382263958"><ele>244</ele><time>2026-10-10T20:01:08Z</time></trkpt>
      <trkpt lat="41.36597915086895" lon="-81.56551723368466"><ele>243</ele><time>2026-10-10T20:01:11Z</time></trkpt>
      <trkpt lat="41.366152320988476" lon="-81.56552955508232"><ele>243</ele><time>2026-10-10T20:01:14Z</time></trkpt>
      <trkpt lat="41.366327251307666" lon="-81.56549057923257"><ele>244</ele><time>2026-10-10T20:01:17Z</time></trkpt>
      <trkpt lat="41.366526489146054" lon="-81.5654790122062"><ele>239</ele><time>2026-10-10T20:01:20Z</time></trkpt>
      <trkpt lat="41.36673285160214" lon="-81.56551203690469"><ele>237</ele><time>2026-10-10T20:01:23Z</time></trkpt>
      <trkpt lat="41.366989966481924" lon="-81.56557632610202"><ele>238</ele><time>2026-10-10T20:01:26Z</time></trkpt>
      <trkpt lat="41.36721129063517" lon="-81.56561530195177"><ele>239</ele><time>2026-10-10T20:01:29Z</time></trkpt>
      <trkpt lat="41.367385759949684" lon="-81.56563935801387"><ele>239</ele><time>2026-10-10T20:01:32Z</time></trkpt>
      <trkpt lat="41.36754497420043" lon="-81.56568864360452"><ele>238</ele><time>2026-10-10T20:01:35Z</time></trkpt>
      <trkpt lat="41.36775862891227" lon="-81.56577304936945"><ele>237</ele><time>2026-10-10T20:01:38Z</time></trkpt>
      <trkpt lat="41.36798397637904" lon="-81.56585636548698"><ele>237</ele><time>2026-10-10T20:01:41Z</time></trkpt>
      <trkpt lat="41.368201109580696" lon="-81.56594068743289"><ele>238</ele><time>2026-10-10T20:01:44Z</time></trkpt>
      <trkpt lat="41.368450219742954" lon="-81.5659761428833"><ele>238</ele><time>2026-10-10T20:01:47Z</time></trkpt>
      <trkpt lat="41.368723972700536" lon="-81.56600967049599"><ele>238</ele><time>2026-10-10T20:01:50Z</time></trkpt>
      <trkpt lat="41.36896926909685" lon="-81.566001791507"><ele>238</ele><time>2026-10-10T20:01:53Z</time></trkpt>
      <trkpt lat="41.369224078953266" lon="-81.56600061804056"><ele>240</ele><time>2026-10-10T20:01:56Z</time></trkpt>
      <trkpt lat="41.36946459766477" lon="-81.56599525362253"><ele>242</ele><time>2026-10-10T20:01:59Z</time></trkpt>
      <trkpt lat="41.36971500702202" lon="-81.56599299050868"><ele>244</ele><time>2026-10-10T20:02:02Z</time></trkpt>
      <trkpt lat="41.36990779079497" lon="-81.56595971435308"><ele>245</ele><time>2026-10-10T20:02:05Z</time></trkpt>
      <trkpt lat="41.37004328425974" lon="-81.56593364663422"><ele>246</ele><time>2026-10-10T20:02:08Z</time></trkpt>
      <trkpt lat="41.37015870306641" lon="-81.56588964164257"><ele>247</ele><time>2026-10-10T20:02:11Z</time></trkpt>
      <trkpt lat="41.3703423505649" lon="-81.5658014640212"><ele>248</ele><time>2026-10-10T20:02:14Z</time></trkpt>
      <trkpt lat="41.3705881498754" lon="-81.56570121645927"><ele>248</ele><time>2026-10-10T20:02:17Z</time></trkpt>
      <trkpt lat="41.370821543969214" lon="-81.56563374213874"><ele>249</ele><time>2026-10-10T20:02:20Z</time></trkpt>
      <trkpt lat="41.371043706312776" lon="-81.56555444933474"><ele>249</ele><time>2026-10-10T20:02:23Z</time></trkpt>
      <trkpt lat="41.3712824229151" lon="-81.56547624617815"><ele>249</ele><time>2026-10-10T20:02:26Z</time></trkpt>
      <trkpt lat="41.37153220362961" lon="-81.56541262753308"><ele>247</ele><time>2026-10-10T20:02:29Z</time></trkpt>
      <trkpt lat="41.37174996547401" lon="-81.56534322537482"><ele>246</ele><time>2026-10-10T20:02:32Z</time></trkpt>
      <trkpt lat="41.3720076251775" lon="-81.56530022621155"><ele>245</ele><time>2026-10-10T20:02:35Z</time></trkpt>
      <trkpt lat="41.37227626517415" lon="-81.56525990925729"><ele>244</ele><time>2026-10-10T20:02:38Z</time></trkpt>
      <trkpt lat="41.37255358044058" lon="-81.56524163670838"><ele>242</ele><time>2026-10-10T20:02:41Z</time></trkpt>
      <trkpt lat="41.372780688107014" lon="-81.56522889621556"><ele>242</ele><time>2026-10-10T20:02:44Z</time></trkpt>
      <trkpt lat="41.37301990762353" lon="-81.56518338248134"><ele>240</ele><time>2026-10-10T20:02:47Z</time></trkpt>
      <trkpt lat="41.37326566502452" lon="-81.56518790870905"><ele>241</ele><time>2026-10-10T20:02:50Z</time></trkpt>
      <trkpt lat="41.373520349152386" lon="-81.56519427895546"><ele>242</ele><time>2026-10-10T20:02:53Z</time></trkpt>
      <trkpt lat="41.37381149455905" lon="-81.56518715433776"><ele>244</ele><time>2026-10-10T20:02:56Z</time></trkpt>
      <trkpt lat="41.37412108015269" lon="-81.56514097005129"><ele>245</ele><time>2026-10-10T20:02:59Z</time></trkpt>
      <trkpt lat="41.374421529471874" lon="-81.565100569278"><ele>246</ele><time>2026-10-10T20:03:02Z</time></trkpt>
      <trkpt lat="41.37465039733797" lon="-81.56503611244261"><ele>246</ele><time>2026-10-10T20:03:05Z</time></trkpt>
      <trkpt lat="41.3749485835433" lon="-81.56493435613811"><ele>247</ele><time>2026-10-10T20:03:08Z</time></trkpt>
      <trkpt lat="41.375225856900215" lon="-81.56484466977417"><ele>248</ele><time>2026-10-10T20:03:11Z</time></trkpt>
      <trkpt lat="41.37548544444144" lon="-81.56477300450206"><ele>247</ele><time>2026-10-10T20:03:14Z</time></trkpt>
      <trkpt lat="41.37572185602039" lon="-81.56464048661292"><ele>248</ele><time>2026-10-10T20:03:17Z</time></trkpt>
      <trkpt lat="41.375996991992" lon="-81.56444736756384"><ele>249</ele><time>2026-10-10T20:03:20Z</time></trkpt>
      <trkpt lat="41.37626483570784" lon="-81.56427101232111"><ele>248</ele><time>2026-10-10T20:03:23Z</time></trkpt>
      <trkpt lat="41.376559333875775" lon="-81.56405207701027"><ele>248</ele><time>2026-10-10T20:03:26Z</time></trkpt>
      <trkpt lat="41.37684226501733" lon="-81.56379768624902"><ele>246</ele><time>2026-10-10T20:03:29Z</time></trkpt>
      <trkpt lat="41.377077545039356" lon="-81.56358579173684"><ele>243</ele><time>2026-10-10T20:03:32Z</time></trkpt>
      <trkpt lat="41.37726710177958" lon="-81.56334799714386"><ele>243</ele><time>2026-10-10T20:03:35Z</time></trkpt>
      <trkpt lat="41.377422669902444" lon="-81.5630856435746"><ele>242</ele><time>2026-10-10T20:03:38Z</time></trkpt>
      <trkpt lat="41.3775621028617" lon="-81.56281935051084"><ele>240</ele><time>2026-10-10T20:03:41Z</time></trkpt>
      <trkpt lat="41.37769667431712" lon="-81.56256118789315"><ele>241</ele><time>2026-10-10T20:03:44Z</time></trkpt>
      <trkpt lat="41.37774294242263" lon="-81.56225902028382"><ele>238</ele><time>2026-10-10T20:03:47Z</time></trkpt>
      <trkpt lat="41.37775790411979" lon="-81.56197546049953"><ele>236</ele><time>2026-10-10T20:03:50Z</time></trkpt>
      <trkpt lat="41.37782596517354" lon="-81.56169483438134"><ele>235</ele><time>2026-10-10T20:03:53Z</time></trkpt>
      <trkpt lat="41.3778773881495" lon="-81.56135234981775"><ele>235</ele><time>2026-10-10T20:03:56Z</time></trkpt>
      <trkpt lat="41.37788053136319" lon="-81.5610548760742"><ele>234</ele><time>2026-10-10T20:03:59Z</time></trkpt>
      <trkpt lat="41.3778031244874" lon="-81.56073728576303"><ele>234</ele><time>2026-10-10T20:04:02Z</time></trkpt>
      <trkpt lat="41.377727813087404" lon="-81.56043193303049"><ele>235</ele><time>2026-10-10T20:04:05Z</time></trkpt>
      <trkpt lat="41.37766725383699" lon="-81.56016387976706"><ele>235</ele><time>2026-10-10T20:04:08Z</time></trkpt>
      <trkpt lat="41.37758016586304" lon="-81.55986079014838"><ele>234</ele><time>2026-10-10T20:04:11Z</time></trkpt>
      <trkpt lat="41.37745653279126" lon="-81.5596005320549"><ele>233</ele><time>2026-10-10T20:04:14Z</time></trkpt>
      <trkpt lat="41.37731454335153" lon="-81.55935695394874"><ele>232</ele><time>2026-10-10T20:04:17Z</time></trkpt>
      <trkpt lat="41.37719786725938" lon="-81.55917439609766"><ele>232</ele><time>2026-10-10T20:04:20Z</time></trkpt>
      <trkpt lat="41.37708592694253" lon="-81.55889703892171"><ele>236</ele><time>2026-10-10T20:05:50Z</time></trkpt>
      <trkpt lat="41.37698630802333" lon="-81.55884104780853"><ele>238</ele><time>2026-10-10T20:05:53Z</time></trkpt>
      <trkpt lat="41.376880863681436" lon="-81.55869076028466"><ele>238</ele><time>2026-10-10T20:05:56Z</time></trkpt>
      <trkpt lat="41.37677789200097" lon="-81.5585315041244"><ele>238</ele><time>2026-10-10T20:05:59Z</time></trkpt>
      <trkpt lat="41.37664252426475" lon="-81.55835657380521"><ele>237</ele><time>2026-10-10T20:06:02Z</time></trkpt>
      <trkpt lat="41.37651838827878" lon="-81.55822673812509"><ele>237</ele><time>2026-10-10T20:06:05Z</time></trkpt>
      <trkpt lat="41.37639437802136" lon="-81.55807251110673"><ele>237</ele><time>2026-10-10T20:06:08Z</time></trkpt>
      <trkpt lat="41.37629228644073" lon="-81.55785139650106"><ele>238</ele><time>2026-10-10T20:06:11Z</time></trkpt>
      <trkpt lat="41.37619053013623" lon="-81.5576281864196"><ele>238</ele><time>2026-10-10T20:06:14Z</time></trkpt>
      <trkpt lat="41.3760686153546" lon="-81.55740690417588"><ele>238</ele><time>2026-10-10T20:06:17Z</time></trkpt>
      <trkpt lat="41.37595424428582" lon="-81.55716936104"><ele>237</ele><time>2026-10-10T20:06:20Z</time></trkpt>
      <trkpt lat="41.37585320044309" lon="-81.55687700025737"><ele>236</ele><time>2026-10-10T20:06:23Z</time></trkpt>
      <trkpt lat="41.37569495011121" lon="-81.55663400888443"><ele>236</ele><time>2026-10-10T20:06:26Z</time></trkpt>
      <trkpt lat="41.375500028952956" lon="-81.55638967640698"><ele>236</ele><time>2026-10-10T20:06:29Z</time></trkpt>
      <trkpt lat="41.37530544307083" lon="-81.55615322291851"><ele>235</ele><time>2026-10-10T20:06:32Z</time></trkpt>
      <trkpt lat="41.37514396570623" lon="-81.55598768033087"><ele>235</ele><time>2026-10-10T20:06:35Z</time></trkpt>
      <trkpt lat="41.37496140785515" lon="-81.5558326151222"><ele>236</ele><time>2026-10-10T20:06:38Z</time></trkpt>
      <trkpt lat="41.374774826690555" lon="-81.55569481663406"><ele>236</ele><time>2026-10-10T20:06:41Z</time></trkpt>
      <trkpt lat="41.37462940067053" lon="-81.55562248080969"><ele>238</ele><time>2026-10-10T20:06:44Z</time></trkpt>
      <trkpt lat="41.37447567656636" lon="-81.55551485717297"><ele>239</ele><time>2026-10-10T20:06:47Z</time></trkpt>
      <trkpt lat="41.37427237350494" lon="-81.5554322116077"><ele>239</ele><time>2026-10-10T20:06:50Z</time></trkpt>
      <trkpt lat="41.374080260284245" lon="-81.55536725185812"><ele>239</ele><time>2026-10-10T20:06:53Z</time></trkpt>
      <trkpt lat="41.373858936131" lon="-81.55533464625478"><ele>240</ele><time>2026-10-10T20:06:56Z</time></trkpt>
      <trkpt lat="41.373634301126" lon="-81.55533632263541"><ele>241</ele><time>2026-10-10T20:06:59Z</time></trkpt>
      <trkpt lat="41.373422825708985" lon="-81.55534411780536"><ele>241</ele><time>2026-10-10T20:07:02Z</time></trkpt>
      <trkpt lat="41.37320498004556" lon="-81.55531863681972"><ele>242</ele><time>2026-10-10T20:07:05Z</time></trkpt>
      <trkpt lat="41.37299006804824" lon="-81.55534118413925"><ele>243</ele><time>2026-10-10T20:07:08Z</time></trkpt>
      <trkpt lat="41.37276983354241" lon="-81.55542274005711"><ele>244</ele><time>2026-10-10T20:07:11Z</time></trkpt>
      <trkpt lat="41.37254167813808" lon="-81.55548837035894"><ele>243</ele><time>2026-10-10T20:07:14Z</time></trkpt>
      <trkpt lat="41.37234210502356" lon="-81.5555165335536"><ele>244</ele><time>2026-10-10T20:07:17Z</time></trkpt>
      <trkpt lat="41.37212199624628" lon="-81.55547655187547"><ele>244</ele><time>2026-10-10T20:07:20Z</time></trkpt>
      <trkpt lat="41.37186421081424" lon="-81.5554943215102"><ele>244</ele><time>2026-10-10T20:07:23Z</time></trkpt>
      <trkpt lat="41.37160064186901" lon="-81.55550949275494"><ele>244</ele><time>2026-10-10T20:07:26Z</time></trkpt>
      <trkpt lat="41.371368672698736" lon="-81.55551385134459"><ele>245</ele><time>2026-10-10T20:07:29Z</time></trkpt>
      <trkpt lat="41.37120870407671" lon="-81.55553086660802"><ele>245</ele><time>2026-10-10T20:07:32Z</time></trkpt>
      <trkpt lat="41.37100372463465" lon="-81.55549155548215"><ele>245</ele><time>2026-10-10T20:07:35Z</time></trkpt>
      <trkpt lat="41.3707530638203" lon="-81.55543506145477"><ele>244</ele><time>2026-10-10T20:07:38Z</time></trkpt>
      <trkpt lat="41.37052675243467" lon="-81.55542894266546"><ele>245</ele><time>2026-10-10T20:07:41Z</time></trkpt>
      <trkpt lat="41.37028908357024" lon="-81.55538745224476"><ele>243</ele><time>2026-10-10T20:07:44Z</time></trkpt>
      <trkpt lat="41.37008473277092" lon="-81.55531813390553"><ele>244</ele><time>2026-10-10T20:07:47Z</time></trkpt>
      <trkpt lat="41.36983453296125" lon="-81.55515091493726"><ele>246</ele><time>2026-10-10T20:07:50Z</time></trkpt>
      <trkpt lat="41.36972959153354" lon="-81.55489727854729"><ele>245</ele><time>2026-10-10T20:07:53Z</time></trkpt>
      <trkpt lat="41.36973286047578" lon="-81.55461707152426"><ele>244</ele><time>2026-10-10T20:07:56Z</time></trkpt>
      <trkpt lat="41.36978998314589" lon="-81.55439629219472"><ele>242</ele><time>2026-10-10T20:07:59Z</time></trkpt>
      <trkpt lat="41.36988905724138" lon="-81.55424784868956"><ele>241</ele><time>2026-10-10T20:08:02Z</time></trkpt>
      <trkpt lat="41.369994627311826" lon="-81.55404416844249"><ele>239</ele><time>2026-10-10T20:08:05Z</time></trkpt>
      <trkpt lat="41.37009202502668" lon="-81.55375675298274"><ele>238</ele><time>2026-10-10T20:08:08Z</time></trkpt>
      <trkpt lat="41.370175634510815" lon="-81.5534202195704"><ele>237</ele><time>2026-10-10T20:08:11Z</time></trkpt>
      <trkpt lat="41.37025245465338" lon="-81.5530853625387"><ele>237</ele><time>2026-10-10T20:08:14Z</time></trkpt>
      <trkpt lat="41.37030266225338" lon="-81.55276844277978"><ele>237</ele><time>2026-10-10T20:08:17Z</time></trkpt>
      <trkpt lat="41.37038975022733" lon="-81.55251178890467"><ele>236</ele><time>2026-10-10T20:08:20Z</time></trkpt>
      <trkpt lat="41.37055072467774" lon="-81.5522977989167"><ele>235</ele><time>2026-10-10T20:08:23Z</time></trkpt>
      <trkpt lat="41.370742628350854" lon="-81.55207224190235"><ele>234</ele><time>2026-10-10T20:08:26Z</time></trkpt>
      <trkpt lat="41.37091123033315" lon="-81.55177778564394"><ele>233</ele><time>2026-10-10T20:08:29Z</time></trkpt>
      <trkpt lat="41.371099362149835" lon="-81.55149296857417"><ele>232</ele><time>2026-10-10T20:08:32Z</time></trkpt>
      <trkpt lat="41.371278231963515" lon="-81.55124058946967"><ele>231</ele><time>2026-10-10T20:08:35Z</time></trkpt>
      <trkpt lat="41.37145664077252" lon="-81.55099449679255"><ele>230</ele><time>2026-10-10T20:08:38Z</time></trkpt>
      <trkpt lat="41.37163748033345" lon="-81.55070934444666"><ele>229</ele><time>2026-10-10T20:08:41Z</time></trkpt>
      <trkpt lat="41.37172305956483" lon="-81.5504065901041"><ele>228</ele><time>2026-10-10T20:08:44Z</time></trkpt>
      <trkpt lat="41.37174715753645" lon="-81.55005907639861"><ele>226</ele><time>2026-10-10T20:08:47Z</time></trkpt>
      <trkpt lat="41.37171249836683" lon="-81.54971332289279"><ele>225</ele><time>2026-10-10T20:08:50Z</time></trkpt>
      <trkpt lat="41.37171828188002" lon="-81.54937150888145"><ele>224</ele><time>2026-10-10T20:08:53Z</time></trkpt>
      <trkpt lat="41.371792503632605" lon="-81.5490909665823"><ele>224</ele><time>2026-10-10T20:08:56Z</time></trkpt>
      <trkpt lat="41.37191446032375" lon="-81.54887177981436"><ele>225</ele><time>2026-10-10T20:08:59Z</time></trkpt>
      <trkpt lat="41.37203868012875" lon="-81.54864060692489"><ele>226</ele><time>2026-10-10T20:09:02Z</time></trkpt>
      <trkpt lat="41.3722219504416" lon="-81.54846617951989"><ele>227</ele><time>2026-10-10T20:09:05Z</time></trkpt>
      <trkpt lat="41.37241578195244" lon="-81.5483380202204"><ele>227</ele><time>2026-10-10T20:09:08Z</time></trkpt>
      <trkpt lat="41.3725861441344" lon="-81.54824439436197"><ele>228</ele><time>2026-10-10T20:09:11Z</time></trkpt>
      <trkpt lat="41.372765600681305" lon="-81.54823710210621"><ele>228</ele><time>2026-10-10T20:09:14Z</time></trkpt>
      <trkpt lat="41.372978165745735" lon="-81.5482119563967"><ele>228</ele><time>2026-10-10T20:09:17Z</time></trkpt>
      <trkpt lat="41.373203387483954" lon="-81.54820047318935"><ele>229</ele><time>2026-10-10T20:09:20Z</time></trkpt>
      <trkpt lat="41.37344466056675" lon="-81.54815470799804"><ele>229</ele><time>2026-10-10T20:09:23Z</time></trkpt>
      <trkpt lat="41.37365990784019" lon="-81.54812746681273"><ele>230</ele><time>2026-10-10T20:09:26Z</time></trkpt>
      <trkpt lat="41.37388349510729" lon="-81.54802311211824"><ele>231</ele><time>2026-10-10T20:09:29Z</time></trkpt>
      <trkpt lat="41.374034830369055" lon="-81.54800400137901"><ele>231</ele><time>2026-10-10T20:09:32Z</time></trkpt>
      <trkpt lat="41.37421596329659" lon="-81.54812889173627"><ele>230</ele><time>2026-10-10T20:09:35Z</time></trkpt>
      <trkpt lat="41.37445564381778" lon="-81.54822687618434"><ele>229</ele><time>2026-10-10T20:09:38Z</time></trkpt>
      <trkpt lat="41.37463987804949" lon="-81.54824984259903"><ele>231</ele><time>2026-10-10T20:09:41Z</time></trkpt>
      <trkpt lat="41.37480822857469" lon="-81.54819762334228"><ele>231</ele><time>2026-10-10T20:09:44Z</time></trkpt>
      <trkpt lat="41.374974148347974" lon="-81.54810097999871"><ele>232</ele><time>2026-10-10T20:09:47Z</time></trkpt>
      <trkpt lat="41.375134997069836" lon="-81.547972233966"><ele>232</ele><time>2026-10-10T20:09:50Z</time></trkpt>
      <trkpt lat="41.37525758240372" lon="-81.5478252992034"><ele>230</ele><time>2026-10-10T20:09:53Z</time></trkpt>
      <trkpt lat="41.37534437701106" lon="-81.54757375828922"><ele>227</ele><time>2026-10-10T20:09:56Z</time></trkpt>
      <trkpt lat="41.37540933676064" lon="-81.54724569059908"><ele>226</ele><time>2026-10-10T20:09:59Z</time></trkpt>
      <trkpt lat="41.37547098565847" lon="-81.54689440503716"><ele>227</ele><time>2026-10-10T20:10:02Z</time></trkpt>
      <trkpt lat="41.37548393569887" lon="-81.54658854939044"><ele>226</ele><time>2026-10-10T20:10:05Z</time></trkpt>
      <trkpt lat="41.375504890456796" lon="-81.54627271927893"><ele>225</ele><time>2026-10-10T20:10:08Z</time></trkpt>
      <trkpt lat="41.375564988702536" lon="-81.54596560634673"><ele>225</ele><time>2026-10-10T20:10:11Z</time></trkpt>
      <trkpt lat="41.375646335072815" lon="-81.54567307792604"><ele>225</ele><time>2026-10-10T20:10:14Z</time></trkpt>
      <trkpt lat="41.37579201254994" lon="-81.54550502076745"><ele>225</ele><time>2026-10-10T20:10:17Z</time></trkpt>
      <trkpt lat="41.375936097465456" lon="-81.54534693807364"><ele>225</ele><time>2026-10-10T20:10:20Z</time></trkpt>
      <trkpt lat="41.37609279714525" lon="-81.54524652287364"><ele>229</ele><time>2026-10-10T20:10:23Z</time></trkpt>
      <trkpt lat="41.37629257980734" lon="-81.54524778015912"><ele>229</ele><time>2026-10-10T20:10:26Z</time></trkpt>
      <trkpt lat="41.376474341377616" lon="-81.54532548040152"><ele>229</ele><time>2026-10-10T20:10:29Z</time></trkpt>
      <trkpt lat="41.376581084914505" lon="-81.54546361416578"><ele>229</ele><time>2026-10-10T20:10:32Z</time></trkpt>
      <trkpt lat="41.3766476791352" lon="-81.54555866494775"><ele>228</ele><time>2026-10-10T20:10:35Z</time></trkpt>
      <trkpt lat="41.37677043210715" lon="-81.54578170739114"><ele>229</ele><time>2026-10-10T20:10:38Z</time></trkpt>
      <trkpt lat="41.376864979974926" lon="-81.54599863104522"><ele>233</ele><time>2026-10-10T20:10:41Z</time></trkpt>
      <trkpt lat="41.376886144280434" lon="-81.54624690301716"><ele>234</ele><time>2026-10-10T20:10:44Z</time></trkpt>
      <trkpt lat="41.37687181122601" lon="-81.54653490521014"><ele>234</ele><time>2026-10-10T20:10:47Z</time></trkpt>
      <trkpt lat="41.376867410726845" lon="-81.54680471867323"><ele>234</ele><time>2026-10-10T20:10:50Z</time></trkpt>
      <trkpt lat="41.37688010931015" lon="-81.54701745137572"><ele>233</ele><time>2026-10-10T20:10:53Z</time></trkpt>
      <trkpt lat="41.376873780973256" lon="-81.54722792096436"><ele>232</ele><time>2026-10-10T20:10:56Z</time></trkpt>
      <trkpt lat="41.37693262193352" lon="-81.5474690683186"><ele>231</ele><time>2026-10-10T20:10:59Z</time></trkpt>
      <trkpt lat="41.37703358195722" lon="-81.54774726368487"><ele>232</ele><time>2026-10-10T20:11:02Z</time></trkpt>
      <trkpt lat="41.377138146199286" lon="-81.54797064140439"><ele>232</ele><time>2026-10-10T20:11:05Z</time></trkpt>
      <trkpt lat="41.377248535864055" lon="-81.54810475185513"><ele>231</ele><time>2026-10-10T20:11:08Z</time></trkpt>
      <trkpt lat="41.37731546536088" lon="-81.54817876406014"><ele>231</ele><time>2026-10-10T20:11:11Z</time></trkpt>
      <trkpt lat="41.37739517726004" lon="-81.5483203344047"><ele>231</ele><time>2026-10-10T20:11:17Z</time></trkpt>
      <trkpt lat="41.37744215782732" lon="-81.54847975820303"><ele>231</ele><time>2026-10-10T20:11:20Z</time></trkpt>
      <trkpt lat="41.37754726689309" lon="-81.54858260415494"><ele>231</ele><time>2026-10-10T20:11:23Z</time></trkpt>
      <trkpt lat="41.3777687586844" lon="-81.54857145622373"><ele>231</ele><time>2026-10-10T20:11:26Z</time></trkpt>
      <trkpt lat="41.37799322605133" lon="-81.54854622669518"><ele>233</ele><time>2026-10-10T20:11:29Z</time></trkpt>
      <trkpt lat="41.37825034093112" lon="-81.54850674793124"><ele>233</ele><time>2026-10-10T20:11:32Z</time></trkpt>
      <trkpt lat="41.37855334673077" lon="-81.54844153672457"><ele>233</ele><time>2026-10-10T20:11:35Z</time></trkpt>
      <trkpt lat="41.378824543207884" lon="-81.54830331914127"><ele>233</ele><time>2026-10-10T20:11:38Z</time></trkpt>
      <trkpt lat="41.37911128811538" lon="-81.54815621674061"><ele>232</ele><time>2026-10-10T20:11:41Z</time></trkpt>
      <trkpt lat="41.37937104329467" lon="-81.54807792976499"><ele>231</ele><time>2026-10-10T20:11:44Z</time></trkpt>
      <trkpt lat="41.37959836050868" lon="-81.54805052094162"><ele>231</ele><time>2026-10-10T20:11:47Z</time></trkpt>
      <trkpt lat="41.379846800118685" lon="-81.54802646487951"><ele>231</ele><time>2026-10-10T20:11:50Z</time></trkpt>
      <trkpt lat="41.38009834103286" lon="-81.54799553565681"><ele>232</ele><time>2026-10-10T20:11:53Z</time></trkpt>
      <trkpt lat="41.38028856832534" lon="-81.5479981340468"><ele>232</ele><time>2026-10-10T20:11:56Z</time></trkpt>
      <trkpt lat="41.380533152259886" lon="-81.5479595772922"><ele>232</ele><time>2026-10-10T20:11:59Z</time></trkpt>
      <trkpt lat="41.38072568457574" lon="-81.54787978157401"><ele>233</ele><time>2026-10-10T20:12:02Z</time></trkpt>
      <trkpt lat="41.38091079890728" lon="-81.54774030670524"><ele>232</ele><time>2026-10-10T20:12:05Z</time></trkpt>
      <trkpt lat="41.38114301953465" lon="-81.54758079908788"><ele>229</ele><time>2026-10-10T20:12:08Z</time></trkpt>
      <trkpt lat="41.38141392264515" lon="-81.54740477912128"><ele>229</ele><time>2026-10-10T20:12:11Z</time></trkpt>
      <trkpt lat="41.381649831309915" lon="-81.54725097119808"><ele>229</ele><time>2026-10-10T20:12:14Z</time></trkpt>
      <trkpt lat="41.381870987825096" lon="-81.54707000590861"><ele>230</ele><time>2026-10-10T20:12:17Z</time></trkpt>
      <trkpt lat="41.38207018375397" lon="-81.54693748801947"><ele>231</ele><time>2026-10-10T20:12:20Z</time></trkpt>
      <trkpt lat="41.38224662281573" lon="-81.54679885134101"><ele>232</ele><time>2026-10-10T20:12:23Z</time></trkpt>
      <trkpt lat="41.38242490589619" lon="-81.54663263820112"><ele>231</ele><time>2026-10-10T20:12:26Z</time></trkpt>
      <trkpt lat="41.3825639616698" lon="-81.54649743810296"><ele>232</ele><time>2026-10-10T20:12:29Z</time></trkpt>
      <trkpt lat="41.382625862024724" lon="-81.5464142896235"><ele>234</ele><time>2026-10-10T20:12:32Z</time></trkpt>
      <trkpt lat="41.3826894806698" lon="-81.54637900181115"><ele>235</ele><time>2026-10-10T20:12:35Z</time></trkpt>
      <trkpt lat="41.382739562541246" lon="-81.54632678255439"><ele>236</ele><time>2026-10-10T20:12:38Z</time></trkpt>
      <trkpt lat="41.382804438471794" lon="-81.54623072594404"><ele>236</ele><time>2026-10-10T20:12:41Z</time></trkpt>
      <trkpt lat="41.38289676513523" lon="-81.54609091579914"><ele>238</ele><time>2026-10-10T20:12:44Z</time></trkpt>
      <trkpt lat="41.38295736629516" lon="-81.54599167406559"><ele>239</ele><time>2026-10-10T20:12:47Z</time></trkpt>
      <trkpt lat="41.38302794191986" lon="-81.54592185281217"><ele>239</ele><time>2026-10-10T20:12:50Z</time></trkpt>
      <trkpt lat="41.38313292525709" lon="-81.54586602933705"><ele>241</ele><time>2026-10-10T20:12:53Z</time></trkpt>
      <trkpt lat="41.383268209174275" lon="-81.54576159082353"><ele>241</ele><time>2026-10-10T20:12:56Z</time></trkpt>
      <trkpt lat="41.38334766961634" lon="-81.54556880705059"><ele>241</ele><time>2026-10-10T20:12:59Z</time></trkpt>
      <trkpt lat="41.383430399000645" lon="-81.54532128944993"><ele>241</ele><time>2026-10-10T20:13:02Z</time></trkpt>
      <trkpt lat="41.383512248285115" lon="-81.54506161808968"><ele>241</ele><time>2026-10-10T20:13:05Z</time></trkpt>
      <trkpt lat="41.383575280196965" lon="-81.54479255899787"><ele>241</ele><time>2026-10-10T20:13:08Z</time></trkpt>
      <trkpt lat="41.383676156401634" lon="-81.54454587958753"><ele>241</ele><time>2026-10-10T20:13:11Z</time></trkpt>
      <trkpt lat="41.383760226890445" lon="-81.5442349947989"><ele>241</ele><time>2026-10-10T20:13:14Z</time></trkpt>
      <trkpt lat="41.38378587551415" lon="-81.5439810231328"><ele>240</ele><time>2026-10-10T20:13:17Z</time></trkpt>
      <trkpt lat="41.38378214556724" lon="-81.54373828321695"><ele>240</ele><time>2026-10-10T20:13:20Z</time></trkpt>
      <trkpt lat="41.38376383110881" lon="-81.54341239482164"><ele>240</ele><time>2026-10-10T20:13:23Z</time></trkpt>
      <trkpt lat="41.38376307673752" lon="-81.5431001689285"><ele>240</ele><time>2026-10-10T20:13:26Z</time></trkpt>
      <trkpt lat="41.383809805847704" lon="-81.54284401796758"><ele>239</ele><time>2026-10-10T20:13:29Z</time></trkpt>
      <trkpt lat="41.383855822496116" lon="-81.54261527583003"><ele>238</ele><time>2026-10-10T20:13:32Z</time></trkpt>
      <trkpt lat="41.383907538838685" lon="-81.54238502494991"><ele>238</ele><time>2026-10-10T20:13:35Z</time></trkpt>
      <trkpt lat="41.3839895138517" lon="-81.54212778434157"><ele>236</ele><time>2026-10-10T20:13:38Z</time></trkpt>
      <trkpt lat="41.38405832927674" lon="-81.54182679019868"><ele>236</ele><time>2026-10-10T20:13:41Z</time></trkpt>
      <trkpt lat="41.384161887690425" lon="-81.54149553738534"><ele>235</ele><time>2026-10-10T20:13:44Z</time></trkpt>
      <trkpt lat="41.38421850744635" lon="-81.54121600091457"><ele>235</ele><time>2026-10-10T20:13:47Z</time></trkpt>
      <trkpt lat="41.38424843084067" lon="-81.54087292961776"><ele>237</ele><time>2026-10-10T20:13:50Z</time></trkpt>
      <trkpt lat="41.38427575584501" lon="-81.54054234735668"><ele>238</ele><time>2026-10-10T20:13:53Z</time></trkpt>
      <trkpt lat="41.38427780941129" lon="-81.54024252668023"><ele>240</ele><time>2026-10-10T20:13:56Z</time></trkpt>
      <trkpt lat="41.38425308279693" lon="-81.53997698798776"><ele>240</ele><time>2026-10-10T20:13:59Z</time></trkpt>
      <trkpt lat="41.38421536423266" lon="-81.53976324945688"><ele>242</ele><time>2026-10-10T20:14:02Z</time></trkpt>
      <trkpt lat="41.38422810472548" lon="-81.53946116566658"><ele>247</ele><time>2026-10-10T20:14:05Z</time></trkpt>
      <trkpt lat="41.38419034425169" lon="-81.53918213211"><ele>251</ele><time>2026-10-10T20:14:08Z</time></trkpt>
      <trkpt lat="41.38416063040495" lon="-81.53892371803522"><ele>253</ele><time>2026-10-10T20:14:11Z</time></trkpt>
      <trkpt lat="41.384127689525485" lon="-81.53862666338682"><ele>256</ele><time>2026-10-10T20:14:14Z</time></trkpt>
      <trkpt lat="41.38410120271146" lon="-81.53836196288466"><ele>258</ele><time>2026-10-10T20:14:17Z</time></trkpt>
      <trkpt lat="41.38406432233751" lon="-81.53810765594244"><ele>259</ele><time>2026-10-10T20:14:20Z</time></trkpt>
      <trkpt lat="41.38401432428509" lon="-81.53786910697818"><ele>258</ele><time>2026-10-10T20:14:23Z</time></trkpt>
      <trkpt lat="41.383946472778916" lon="-81.53765528462827"><ele>258</ele><time>2026-10-10T20:14:26Z</time></trkpt>
      <trkpt lat="41.38387028127909" lon="-81.53742704540491"><ele>258</ele><time>2026-10-10T20:14:29Z</time></trkpt>
      <trkpt lat="41.383767519146204" lon="-81.53716226108372"><ele>258</ele><time>2026-10-10T20:14:32Z</time></trkpt>
      <trkpt lat="41.38366282917559" lon="-81.53688079677522"><ele>258</ele><time>2026-10-10T20:14:35Z</time></trkpt>
      <trkpt lat="41.383538441732526" lon="-81.53660863637924"><ele>259</ele><time>2026-10-10T20:14:38Z</time></trkpt>
      <trkpt lat="41.38341241981834" lon="-81.53635893948376"><ele>260</ele><time>2026-10-10T20:14:41Z</time></trkpt>
      <trkpt lat="41.3832764653489" lon="-81.53614042326808"><ele>261</ele><time>2026-10-10T20:14:44Z</time></trkpt>
      <trkpt lat="41.38313045259565" lon="-81.5359219070524"><ele>262</ele><time>2026-10-10T20:14:47Z</time></trkpt>
      <trkpt lat="41.382974800653756" lon="-81.5357263572514"><ele>262</ele><time>2026-10-10T20:14:50Z</time></trkpt>
      <trkpt lat="41.38284697663039" lon="-81.53553969226778"><ele>261</ele><time>2026-10-10T20:14:53Z</time></trkpt>
      <trkpt lat="41.382713578641415" lon="-81.53529812581837"><ele>261</ele><time>2026-10-10T20:14:56Z</time></trkpt>
      <trkpt lat="41.38256295584142" lon="-81.5351116284728"><ele>260</ele><time>2026-10-10T20:14:59Z</time></trkpt>
      <trkpt lat="41.38244150206447" lon="-81.53498631902039"><ele>258</ele><time>2026-10-10T20:15:02Z</time></trkpt>
      <trkpt lat="41.38229519594461" lon="-81.53481951914728"><ele>256</ele><time>2026-10-10T20:15:05Z</time></trkpt>
      <trkpt lat="41.382043487392366" lon="-81.53463570401073"><ele>256</ele><time>2026-10-10T20:15:08Z</time></trkpt>
      <trkpt lat="41.38182752765715" lon="-81.5345764439553"><ele>255</ele><time>2026-10-10T20:15:11Z</time></trkpt>
      <trkpt lat="41.381600042805076" lon="-81.53450628742576"><ele>257</ele><time>2026-10-10T20:15:14Z</time></trkpt>
      <trkpt lat="41.381357428617775" lon="-81.534419702366"><ele>258</ele><time>2026-10-10T20:15:17Z</time></trkpt>
      <trkpt lat="41.3811455341056" lon="-81.53437670320272"><ele>259</ele><time>2026-10-10T20:15:20Z</time></trkpt>
      <trkpt lat="41.380930161103606" lon="-81.53434443287551"><ele>259</ele><time>2026-10-10T20:15:23Z</time></trkpt>
      <trkpt lat="41.380703640170395" lon="-81.53436136431992"><ele>261</ele><time>2026-10-10T20:15:26Z</time></trkpt>
      <trkpt lat="41.38047573622316" lon="-81.53445557691157"><ele>264</ele><time>2026-10-10T20:15:29Z</time></trkpt>
      <trkpt lat="41.38027662411332" lon="-81.53451207093894"><ele>267</ele><time>2026-10-10T20:15:32Z</time></trkpt>
      <trkpt lat="41.380115607753396" lon="-81.53448139317334"><ele>269</ele><time>2026-10-10T20:15:35Z</time></trkpt>
      <trkpt lat="41.38009218033403" lon="-81.53436404652894"><ele>270</ele><time>2026-10-10T20:15:38Z</time></trkpt>
      <trkpt lat="41.380170048214495" lon="-81.5342296846211"><ele>272</ele><time>2026-10-10T20:15:41Z</time></trkpt>
      <trkpt lat="41.380283455364406" lon="-81.53407738544047"><ele>274</ele><time>2026-10-10T20:15:44Z</time></trkpt>
      <trkpt lat="41.38043277896941" lon="-81.53390379622579"><ele>274</ele><time>2026-10-10T20:15:47Z</time></trkpt>
      <trkpt lat="41.38057703152299" lon="-81.53373397886753"><ele>275</ele><time>2026-10-10T20:15:50Z</time></trkpt>
      <trkpt lat="41.380713949911296" lon="-81.53357371687889"><ele>275</ele><time>2026-10-10T20:15:53Z</time></trkpt>
      <trkpt lat="41.380856023170054" lon="-81.53340515680611"><ele>276</ele><time>2026-10-10T20:15:56Z</time></trkpt>
      <trkpt lat="41.381010501645505" lon="-81.53320952318609"><ele>275</ele><time>2026-10-10T20:15:59Z</time></trkpt>
      <trkpt lat="41.381171979010105" lon="-81.53303693979979"><ele>274</ele><time>2026-10-10T20:16:02Z</time></trkpt>
      <trkpt lat="41.38143663760275" lon="-81.5327185112983"><ele>272</ele><time>2026-10-10T20:16:07Z</time></trkpt>
      <trkpt lat="41.38161173556" lon="-81.53252388350666"><ele>271</ele><time>2026-10-10T20:16:10Z</time></trkpt>
      <trkpt lat="41.381785408593714" lon="-81.53232020325959"><ele>269</ele><time>2026-10-10T20:16:13Z</time></trkpt>
      <trkpt lat="41.38197002001107" lon="-81.53211325407028"><ele>268</ele><time>2026-10-10T20:16:16Z</time></trkpt>
      <trkpt lat="41.382157020270824" lon="-81.53190865181386"><ele>264</ele><time>2026-10-10T20:16:19Z</time></trkpt>
      <trkpt lat="41.38236237689853" lon="-81.53168519027531"><ele>261</ele><time>2026-10-10T20:16:22Z</time></trkpt>
      <trkpt lat="41.38256593141705" lon="-81.5314697753638"><ele>258</ele><time>2026-10-10T20:16:25Z</time></trkpt>
      <trkpt lat="41.38275108765811" lon="-81.53123675845563"><ele>255</ele><time>2026-10-10T20:16:28Z</time></trkpt>
      <trkpt lat="41.38292962219566" lon="-81.53101505711675"><ele>252</ele><time>2026-10-10T20:16:31Z</time></trkpt>
      <trkpt lat="41.383116957731545" lon="-81.53081498108804"><ele>249</ele><time>2026-10-10T20:16:34Z</time></trkpt>
      <trkpt lat="41.38329457025975" lon="-81.53061859309673"><ele>247</ele><time>2026-10-10T20:16:37Z</time></trkpt>
      <trkpt lat="41.38346778228879" lon="-81.5304115600884"><ele>245</ele><time>2026-10-10T20:16:40Z</time></trkpt>
      <trkpt lat="41.38365721330047" lon="-81.5301956422627"><ele>243</ele><time>2026-10-10T20:16:43Z</time></trkpt>
      <trkpt lat="41.38381047639996" lon="-81.53000369668007"><ele>243</ele><time>2026-10-10T20:16:46Z</time></trkpt>
      <trkpt lat="41.383957830257714" lon="-81.52986774221063"><ele>242</ele><time>2026-10-10T20:16:49Z</time></trkpt>
      <trkpt lat="41.38406352605671" lon="-81.52977243997157"><ele>242</ele><time>2026-10-10T20:16:52Z</time></trkpt>
      <trkpt lat="41.38412345666438" lon="-81.52974628843367"><ele>242</ele><time>2026-10-10T20:16:55Z</time></trkpt>
      <trkpt lat="41.38418544083834" lon="-81.52966632507741"><ele>242</ele><time>2026-10-10T20:16:58Z</time></trkpt>
      <trkpt lat="41.38417378999293" lon="-81.52958183549345"><ele>242</ele><time>2026-10-10T20:17:01Z</time></trkpt>
      <trkpt lat="41.38424583245069" lon="-81.52938293293118"><ele>242</ele><time>2026-10-10T20:17:04Z</time></trkpt>
      <trkpt lat="41.38432328123599" lon="-81.52914262376726"><ele>242</ele><time>2026-10-10T20:17:07Z</time></trkpt>
      <trkpt lat="41.38432261068374" lon="-81.528843306005"><ele>241</ele><time>2026-10-10T20:17:10Z</time></trkpt>
      <trkpt lat="41.384250526316464" lon="-81.52853786945343"><ele>240</ele><time>2026-10-10T20:17:13Z</time></trkpt>
      <trkpt lat="41.38414717745036" lon="-81.52824031189084"><ele>240</ele><time>2026-10-10T20:17:16Z</time></trkpt>
      <trkpt lat="41.38405841309577" lon="-81.52795038186014"><ele>239</ele><time>2026-10-10T20:17:19Z</time></trkpt>
      <trkpt lat="41.38396290130913" lon="-81.5276585239917"><ele>238</ele><time>2026-10-10T20:17:22Z</time></trkpt>
      <trkpt lat="41.383875058963895" lon="-81.52735426090658"><ele>237</ele><time>2026-10-10T20:17:25Z</time></trkpt>
      <trkpt lat="41.38381714001298" lon="-81.52700666338205"><ele>237</ele><time>2026-10-10T20:17:28Z</time></trkpt>
      <trkpt lat="41.3838013401255" lon="-81.52667507529259"><ele>238</ele><time>2026-10-10T20:17:31Z</time></trkpt>
      <trkpt lat="41.38381408061832" lon="-81.5264274738729"><ele>238</ele><time>2026-10-10T20:17:34Z</time></trkpt>
      <trkpt lat="41.38387816026807" lon="-81.52620803564787"><ele>235</ele><time>2026-10-10T20:17:37Z</time></trkpt>
      <trkpt lat="41.38397530652583" lon="-81.52595842257142"><ele>235</ele><time>2026-10-10T20:17:40Z</time></trkpt>
      <trkpt lat="41.384055144153535" lon="-81.52589564211667"><ele>236</ele><time>2026-10-10T20:17:43Z</time></trkpt>
      <trkpt lat="41.38415514025837" lon="-81.52588164433837"><ele>235</ele><time>2026-10-10T20:17:52Z</time></trkpt>
      <trkpt lat="41.384230786934495" lon="-81.52576882392168"><ele>233</ele><time>2026-10-10T20:17:55Z</time></trkpt>
      <trkpt lat="41.38437147717923" lon="-81.5256518125534"><ele>232</ele><time>2026-10-10T20:17:58Z</time></trkpt>
      <trkpt lat="41.38449896592647" lon="-81.52544109150767"><ele>231</ele><time>2026-10-10T20:18:01Z</time></trkpt>
      <trkpt lat="41.38459619600326" lon="-81.52520036324859"><ele>231</ele><time>2026-10-10T20:18:04Z</time></trkpt>
      <trkpt lat="41.38464158400893" lon="-81.52492283843458"><ele>232</ele><time>2026-10-10T20:18:07Z</time></trkpt>
      <trkpt lat="41.38468290679157" lon="-81.52463844045997"><ele>232</ele><time>2026-10-10T20:18:10Z</time></trkpt>
      <trkpt lat="41.38467846438289" lon="-81.52436116710305"><ele>231</ele><time>2026-10-10T20:18:13Z</time></trkpt>
      <trkpt lat="41.38465939555317" lon="-81.52408649213612"><ele>231</ele><time>2026-10-10T20:18:16Z</time></trkpt>
      <trkpt lat="41.38463169336319" lon="-81.5237661357969"><ele>232</ele><time>2026-10-10T20:18:19Z</time></trkpt>
      <trkpt lat="41.384575995616615" lon="-81.52344997040927"><ele>231</ele><time>2026-10-10T20:18:22Z</time></trkpt>
      <trkpt lat="41.38445743359625" lon="-81.523124165833"><ele>231</ele><time>2026-10-10T20:18:25Z</time></trkpt>
      <trkpt lat="41.38434557709843" lon="-81.52281663380563"><ele>232</ele><time>2026-10-10T20:18:28Z</time></trkpt>
      <trkpt lat="41.38420098926872" lon="-81.52251832187176"><ele>233</ele><time>2026-10-10T20:18:31Z</time></trkpt>
      <trkpt lat="41.38406574726105" lon="-81.52222537435591"><ele>233</ele><time>2026-10-10T20:18:34Z</time></trkpt>
      <trkpt lat="41.3839456345886" lon="-81.52194474823773"><ele>234</ele><time>2026-10-10T20:18:37Z</time></trkpt>
      <trkpt lat="41.38383222743869" lon="-81.52162271551788"><ele>234</ele><time>2026-10-10T20:18:40Z</time></trkpt>
      <trkpt lat="41.383736548013985" lon="-81.52133672498167"><ele>233</ele><time>2026-10-10T20:18:43Z</time></trkpt>
      <trkpt lat="41.38366341590881" lon="-81.5210175421089"><ele>233</ele><time>2026-10-10T20:18:46Z</time></trkpt>
      <trkpt lat="41.38359284028411" lon="-81.52068913914263"><ele>233</ele><time>2026-10-10T20:18:49Z</time></trkpt>
      <trkpt lat="41.38354548253119" lon="-81.52036551386118"><ele>233</ele><time>2026-10-10T20:18:52Z</time></trkpt>
      <trkpt lat="41.38352021109313" lon="-81.52002101764083"><ele>233</ele><time>2026-10-10T20:18:55Z</time></trkpt>
      <trkpt lat="41.38354439288378" lon="-81.51966847479343"><ele>232</ele><time>2026-10-10T20:18:58Z</time></trkpt>
      <trkpt lat="41.38358320109546" lon="-81.51932045817375"><ele>232</ele><time>2026-10-10T20:19:01Z</time></trkpt>
      <trkpt lat="41.383635462261736" lon="-81.518993396312"><ele>232</ele><time>2026-10-10T20:19:04Z</time></trkpt>
      <trkpt lat="41.383689818903804" lon="-81.51865015737712"><ele>233</ele><time>2026-10-10T20:19:07Z</time></trkpt>
      <trkpt lat="41.383748701773584" lon="-81.51832493953407"><ele>233</ele><time>2026-10-10T20:19:10Z</time></trkpt>
      <trkpt lat="41.38380641117692" lon="-81.51799486018717"><ele>234</ele><time>2026-10-10T20:19:13Z</time></trkpt>
      <trkpt lat="41.38383910059929" lon="-81.51765086688101"><ele>234</ele><time>2026-10-10T20:19:16Z</time></trkpt>
      <trkpt lat="41.38386328238994" lon="-81.51733143255115"><ele>234</ele><time>2026-10-10T20:19:19Z</time></trkpt>
      <trkpt lat="41.38387409504503" lon="-81.51700336486101"><ele>234</ele><time>2026-10-10T20:19:22Z</time></trkpt>
      <trkpt lat="41.38391860295087" lon="-81.5166965033859"><ele>232</ele><time>2026-10-10T20:19:25Z</time></trkpt>
      <trkpt lat="41.383935157209635" lon="-81.5163788292557"><ele>232</ele><time>2026-10-10T20:19:28Z</time></trkpt>
      <trkpt lat="41.3838996598497" lon="-81.51607749983668"><ele>235</ele><time>2026-10-10T20:19:31Z</time></trkpt>
      <trkpt lat="41.38380905147642" lon="-81.51577700860798"><ele>237</ele><time>2026-10-10T20:19:34Z</time></trkpt>
      <trkpt lat="41.38369002845138" lon="-81.51548917405307"><ele>237</ele><time>2026-10-10T20:19:37Z</time></trkpt>
      <trkpt lat="41.38360315002501" lon="-81.51523939333856"><ele>238</ele><time>2026-10-10T20:19:40Z</time></trkpt>
      <trkpt lat="41.38355218805373" lon="-81.51493328623474"><ele>239</ele><time>2026-10-10T20:19:43Z</time></trkpt>
      <trkpt lat="41.38349799904972" lon="-81.51462005451322"><ele>240</ele><time>2026-10-10T20:19:46Z</time></trkpt>
      <trkpt lat="41.383438780903816" lon="-81.51431361213326"><ele>241</ele><time>2026-10-10T20:19:49Z</time></trkpt>
      <trkpt lat="41.38339465018362" lon="-81.51399526745081"><ele>242</ele><time>2026-10-10T20:19:52Z</time></trkpt>
      <trkpt lat="41.38337193522602" lon="-81.51367390528321"><ele>242</ele><time>2026-10-10T20:19:55Z</time></trkpt>
      <trkpt lat="41.38337361160666" lon="-81.51336302049458"><ele>242</ele><time>2026-10-10T20:19:58Z</time></trkpt>
      <trkpt lat="41.383385178633034" lon="-81.51304794475436"><ele>242</ele><time>2026-10-10T20:20:01Z</time></trkpt>
      <trkpt lat="41.38337499462068" lon="-81.51271317154169"><ele>242</ele><time>2026-10-10T20:20:04Z</time></trkpt>
      <trkpt lat="41.383377467282116" lon="-81.51237663812935"><ele>242</ele><time>2026-10-10T20:20:07Z</time></trkpt>
      <trkpt lat="41.38333941344172" lon="-81.51204345747828"><ele>241</ele><time>2026-10-10T20:20:10Z</time></trkpt>
      <trkpt lat="41.38328057248145" lon="-81.51170248165727"><ele>240</ele><time>2026-10-10T20:20:13Z</time></trkpt>
      <trkpt lat="41.38326711952686" lon="-81.5113780181855"><ele>240</ele><time>2026-10-10T20:20:16Z</time></trkpt>
      <trkpt lat="41.383248469792306" lon="-81.51110074482858"><ele>241</ele><time>2026-10-10T20:20:19Z</time></trkpt>
      <trkpt lat="41.38315719086677" lon="-81.51080251671374"><ele>240</ele><time>2026-10-10T20:20:22Z</time></trkpt>
      <trkpt lat="41.383078820072114" lon="-81.51053270325065"><ele>240</ele><time>2026-10-10T20:20:25Z</time></trkpt>
      <trkpt lat="41.38302986975759" lon="-81.51025182567537"><ele>240</ele><time>2026-10-10T20:20:28Z</time></trkpt>
      <trkpt lat="41.382992905564606" lon="-81.50994923897088"><ele>241</ele><time>2026-10-10T20:20:31Z</time></trkpt>
      <trkpt lat="41.38295921031386" lon="-81.50963181629777"><ele>240</ele><time>2026-10-10T20:20:34Z</time></trkpt>
      <trkpt lat="41.3828662969172" lon="-81.50934917852283"><ele>240</ele><time>2026-10-10T20:20:37Z</time></trkpt>
      <trkpt lat="41.38271571602672" lon="-81.50909956544638"><ele>239</ele><time>2026-10-10T20:20:40Z</time></trkpt>
      <trkpt lat="41.38258810155094" lon="-81.50882807560265"><ele>239</ele><time>2026-10-10T20:20:43Z</time></trkpt>
      <trkpt lat="41.38248923700303" lon="-81.50853546336293"><ele>239</ele><time>2026-10-10T20:20:46Z</time></trkpt>
      <trkpt lat="41.38237997889519" lon="-81.50823983363807"><ele>240</ele><time>2026-10-10T20:20:49Z</time></trkpt>
      <trkpt lat="41.3822835450992" lon="-81.50792769156396"><ele>239</ele><time>2026-10-10T20:20:52Z</time></trkpt>
      <trkpt lat="41.38216888066381" lon="-81.50764203630388"><ele>240</ele><time>2026-10-10T20:20:55Z</time></trkpt>
      <trkpt lat="41.38202898669988" lon="-81.50736551731825"><ele>240</ele><time>2026-10-10T20:20:58Z</time></trkpt>
      <trkpt lat="41.38188230339438" lon="-81.50707508437335"><ele>241</ele><time>2026-10-10T20:21:01Z</time></trkpt>
      <trkpt lat="41.38172728009522" lon="-81.5067620202899"><ele>242</ele><time>2026-10-10T20:21:04Z</time></trkpt>
      <trkpt lat="41.38155830092728" lon="-81.50648759678006"><ele>243</ele><time>2026-10-10T20:21:07Z</time></trkpt>
      <trkpt lat="41.38141635339707" lon="-81.50622909888625"><ele>243</ele><time>2026-10-10T20:21:10Z</time></trkpt>
      <trkpt lat="41.38126057572663" lon="-81.5059673320502"><ele>244</ele><time>2026-10-10T20:21:13Z</time></trkpt>
      <trkpt lat="41.38110567815602" lon="-81.50573716498911"><ele>244</ele><time>2026-10-10T20:21:16Z</time></trkpt>
      <trkpt lat="41.38093586079776" lon="-81.50548562407494"><ele>244</ele><time>2026-10-10T20:21:19Z</time></trkpt>
      <trkpt lat="41.38078750111163" lon="-81.50519200600684"><ele>244</ele><time>2026-10-10T20:21:22Z</time></trkpt>
      <trkpt lat="41.380689390935004" lon="-81.50486142374575"><ele>245</ele><time>2026-10-10T20:21:25Z</time></trkpt>
      <trkpt lat="41.380558465607464" lon="-81.50455749593675"><ele>247</ele><time>2026-10-10T20:21:28Z</time></trkpt>
      <trkpt lat="41.380374231375754" lon="-81.50430578738451"><ele>248</ele><time>2026-10-10T20:21:31Z</time></trkpt>
      <trkpt lat="41.3802025699988" lon="-81.5040420088917"><ele>248</ele><time>2026-10-10T20:21:34Z</time></trkpt>
      <trkpt lat="41.380060287192464" lon="-81.50377898477018"><ele>249</ele><time>2026-10-10T20:21:37Z</time></trkpt>
      <trkpt lat="41.37996833771467" lon="-81.50348025374115"><ele>248</ele><time>2026-10-10T20:21:40Z</time></trkpt>
      <trkpt lat="41.379862390458584" lon="-81.50313835591078"><ele>251</ele><time>2026-10-10T20:21:43Z</time></trkpt>
      <trkpt lat="41.37971168383956" lon="-81.50280115194619"><ele>254</ele><time>2026-10-10T20:21:46Z</time></trkpt>
      <trkpt lat="41.379544297233224" lon="-81.50250845588744"><ele>256</ele><time>2026-10-10T20:21:49Z</time></trkpt>
      <trkpt lat="41.37939908076078" lon="-81.50219975039363"><ele>257</ele><time>2026-10-10T20:21:52Z</time></trkpt>
      <trkpt lat="41.379290451295674" lon="-81.50188769213855"><ele>258</ele><time>2026-10-10T20:21:55Z</time></trkpt>
      <trkpt lat="41.37925667222589" lon="-81.50157378986478"><ele>258</ele><time>2026-10-10T20:21:58Z</time></trkpt>
      <trkpt lat="41.37919808272272" lon="-81.50122786872089"><ele>258</ele><time>2026-10-10T20:22:01Z</time></trkpt>
      <trkpt lat="41.37908928561956" lon="-81.50089158676565"><ele>258</ele><time>2026-10-10T20:22:04Z</time></trkpt>
      <trkpt lat="41.37897483073175" lon="-81.50055639445782"><ele>260</ele><time>2026-10-10T20:22:07Z</time></trkpt>
      <trkpt lat="41.378887658938766" lon="-81.50022908113897"><ele>261</ele><time>2026-10-10T20:22:10Z</time></trkpt>
      <trkpt lat="41.378808240406215" lon="-81.4998544100672"><ele>262</ele><time>2026-10-10T20:22:13Z</time></trkpt>
      <trkpt lat="41.37875312939286" lon="-81.49951552972198"><ele>262</ele><time>2026-10-10T20:22:16Z</time></trkpt>
      <trkpt lat="41.378710716962814" lon="-81.49918268434703"><ele>263</ele><time>2026-10-10T20:22:19Z</time></trkpt>
      <trkpt lat="41.37869843747467" lon="-81.49885771796107"><ele>263</ele><time>2026-10-10T20:22:22Z</time></trkpt>
      <trkpt lat="41.37869617436081" lon="-81.49852780625224"><ele>263</ele><time>2026-10-10T20:22:25Z</time></trkpt>
      <trkpt lat="41.37869206722826" lon="-81.49819018319249"><ele>262</ele><time>2026-10-10T20:22:28Z</time></trkpt>
      <trkpt lat="41.378642111085355" lon="-81.49786052294075"><ele>260</ele><time>2026-10-10T20:22:31Z</time></trkpt>
      <trkpt lat="41.37856495566666" lon="-81.49752776138484"><ele>260</ele><time>2026-10-10T20:22:34Z</time></trkpt>
      <trkpt lat="41.37846558820456" lon="-81.49720237590373"><ele>260</ele><time>2026-10-10T20:22:37Z</time></trkpt>
      <trkpt lat="41.378334243781865" lon="-81.49687916971743"><ele>261</ele><time>2026-10-10T20:22:40Z</time></trkpt>
      <trkpt lat="41.37818010058254" lon="-81.49657892994583"><ele>262</ele><time>2026-10-10T20:22:43Z</time></trkpt>
      <trkpt lat="41.37800395488739" lon="-81.49631054140627"><ele>264</ele><time>2026-10-10T20:22:46Z</time></trkpt>
      <trkpt lat="41.37780911754817" lon="-81.49607006460428"><ele>263</ele><time>2026-10-10T20:22:49Z</time></trkpt>
      <trkpt lat="41.37763414531946" lon="-81.49584718979895"><ele>265</ele><time>2026-10-10T20:22:52Z</time></trkpt>
      <trkpt lat="41.37745883781463" lon="-81.49559237994254"><ele>265</ele><time>2026-10-10T20:22:55Z</time></trkpt>
      <trkpt lat="41.37727573513985" lon="-81.49533731862903"><ele>266</ele><time>2026-10-10T20:22:58Z</time></trkpt>
      <trkpt lat="41.37713626027107" lon="-81.49506163783371"><ele>266</ele><time>2026-10-10T20:23:01Z</time></trkpt>
      <trkpt lat="41.376992175355554" lon="-81.4947724621743"><ele>266</ele><time>2026-10-10T20:23:04Z</time></trkpt>
      <trkpt lat="41.37687608599663" lon="-81.49447322823107"><ele>266</ele><time>2026-10-10T20:23:07Z</time></trkpt>
      <trkpt lat="41.37678593862802" lon="-81.4941556379199"><ele>266</ele><time>2026-10-10T20:23:10Z</time></trkpt>
      <trkpt lat="41.37668523006141" lon="-81.49383226409554"><ele>265</ele><time>2026-10-10T20:23:13Z</time></trkpt>
      <trkpt lat="41.376582300290465" lon="-81.49351241067052"><ele>265</ele><time>2026-10-10T20:23:16Z</time></trkpt>
      <trkpt lat="41.37649441603571" lon="-81.4932092372328"><ele>263</ele><time>2026-10-10T20:23:19Z</time></trkpt>
      <trkpt lat="41.376426103524864" lon="-81.49292316287756"><ele>263</ele><time>2026-10-10T20:23:22Z</time></trkpt>
      <trkpt lat="41.37640845961869" lon="-81.4926169719547"><ele>262</ele><time>2026-10-10T20:23:25Z</time></trkpt>
      <trkpt lat="41.37641105800867" lon="-81.492287395522"><ele>262</ele><time>2026-10-10T20:23:28Z</time></trkpt>
      <trkpt lat="41.37636411935091" lon="-81.49195664562285"><ele>262</ele><time>2026-10-10T20:23:31Z</time></trkpt>
      <trkpt lat="41.37626852374524" lon="-81.49165992625058"><ele>262</ele><time>2026-10-10T20:23:34Z</time></trkpt>
      <trkpt lat="41.376179214566946" lon="-81.49137209169567"><ele>261</ele><time>2026-10-10T20:23:37Z</time></trkpt>
      <trkpt lat="41.37610381934792" lon="-81.49110026657581"><ele>261</ele><time>2026-10-10T20:23:40Z</time></trkpt>
      <trkpt lat="41.376014426350594" lon="-81.4907431975007"><ele>261</ele><time>2026-10-10T20:23:44Z</time></trkpt>
      <trkpt lat="41.37596698477864" lon="-81.4905137848109"><ele>260</ele><time>2026-10-10T20:23:47Z</time></trkpt>
      <trkpt lat="41.375898253172636" lon="-81.49028604850173"><ele>257</ele><time>2026-10-10T20:23:50Z</time></trkpt>
      <trkpt lat="41.37579419184476" lon="-81.49009142071009"><ele>256</ele><time>2026-10-10T20:23:53Z</time></trkpt>
      <trkpt lat="41.37566766701639" lon="-81.48991514928639"><ele>256</ele><time>2026-10-10T20:23:56Z</time></trkpt>
      <trkpt lat="41.37557961512357" lon="-81.48970467969775"><ele>255</ele><time>2026-10-10T20:23:59Z</time></trkpt>
      <trkpt lat="41.37555627152324" lon="-81.48948742076755"><ele>253</ele><time>2026-10-10T20:24:02Z</time></trkpt>
      <trkpt lat="41.3755392562598" lon="-81.48934392258525"><ele>251</ele><time>2026-10-10T20:24:05Z</time></trkpt>
      <trkpt lat="41.375526851043105" lon="-81.48922783322632"><ele>251</ele><time>2026-10-10T20:24:08Z</time></trkpt>
      <trkpt lat="41.375517756678164" lon="-81.48914879187942"><ele>251</ele><time>2026-10-10T20:24:11Z</time></trkpt>
      <trkpt lat="41.375525929033756" lon="-81.48906949907541"><ele>252</ele><time>2026-10-10T20:24:14Z</time></trkpt>
      <trkpt lat="41.37557068839669" lon="-81.4889581874013"><ele>251</ele><time>2026-10-10T20:24:17Z</time></trkpt>
      <trkpt lat="41.375715653412044" lon="-81.48893103003502"><ele>252</ele><time>2026-10-10T20:24:20Z</time></trkpt>
      <trkpt lat="41.375892888754606" lon="-81.48892709054053"><ele>253</ele><time>2026-10-10T20:24:23Z</time></trkpt>
      <trkpt lat="41.37609128840268" lon="-81.48891543969512"><ele>253</ele><time>2026-10-10T20:24:26Z</time></trkpt>
      <trkpt lat="41.37630381155759" lon="-81.48891527205706"><ele>255</ele><time>2026-10-10T20:24:29Z</time></trkpt>
      <trkpt lat="41.376508036628366" lon="-81.48888375610113"><ele>256</ele><time>2026-10-10T20:24:32Z</time></trkpt>
      <trkpt lat="41.376695330254734" lon="-81.48887512274086"><ele>255</ele><time>2026-10-10T20:24:35Z</time></trkpt>
      <trkpt lat="41.37688325252384" lon="-81.48885995149612"><ele>255</ele><time>2026-10-10T20:24:38Z</time></trkpt>
      <trkpt lat="41.37708144262433" lon="-81.48887621238828"><ele>255</ele><time>2026-10-10T20:24:41Z</time></trkpt>
      <trkpt lat="41.37729430105537" lon="-81.48887218907475"><ele>255</ele><time>2026-10-10T20:24:44Z</time></trkpt>
      <trkpt lat="41.37752057053149" lon="-81.48886380717158"><ele>256</ele><time>2026-10-10T20:24:47Z</time></trkpt>
      <trkpt lat="41.37776125688106" lon="-81.48884209804237"><ele>256</ele><time>2026-10-10T20:24:50Z</time></trkpt>
      <trkpt lat="41.37800416443497" lon="-81.48884017020464"><ele>258</ele><time>2026-10-10T20:24:53Z</time></trkpt>
      <trkpt lat="41.3782563759014" lon="-81.48883656598628"><ele>258</ele><time>2026-10-10T20:24:56Z</time></trkpt>
      <trkpt lat="41.37850397732109" lon="-81.48884511552751"><ele>259</ele><time>2026-10-10T20:24:59Z</time></trkpt>
      <trkpt lat="41.37875891290605" lon="-81.48882893845439"><ele>259</ele><time>2026-10-10T20:25:02Z</time></trkpt>
      <trkpt lat="41.37897554319352" lon="-81.48875827901065"><ele>259</ele><time>2026-10-10T20:25:05Z</time></trkpt>
      <trkpt lat="41.37911363504827" lon="-81.48869348689914"><ele>258</ele><time>2026-10-10T20:25:08Z</time></trkpt>
      <trkpt lat="41.37919313739985" lon="-81.48857546970248"><ele>258</ele><time>2026-10-10T20:25:11Z</time></trkpt>
      <trkpt lat="41.37924627866596" lon="-81.48856054991484"><ele>258</ele><time>2026-10-10T20:25:14Z</time></trkpt>
      <trkpt lat="41.379350130446255" lon="-81.4885551854968"><ele>259</ele><time>2026-10-10T20:25:17Z</time></trkpt>
      <trkpt lat="41.3794488273561" lon="-81.48847195319831"><ele>258</ele><time>2026-10-10T20:25:20Z</time></trkpt>
      <trkpt lat="41.379439271986485" lon="-81.48825477808714"><ele>258</ele><time>2026-10-10T20:25:23Z</time></trkpt>
      <trkpt lat="41.379410019144416" lon="-81.48797809146345"><ele>259</ele><time>2026-10-10T20:25:26Z</time></trkpt>
      <trkpt lat="41.3793795928359" lon="-81.48767290636897"><ele>259</ele><time>2026-10-10T20:25:29Z</time></trkpt>
      <trkpt lat="41.379404654726386" lon="-81.48735405877233"><ele>260</ele><time>2026-10-10T20:25:32Z</time></trkpt>
      <trkpt lat="41.37944953981787" lon="-81.48702079430223"><ele>261</ele><time>2026-10-10T20:25:35Z</time></trkpt>
      <trkpt lat="41.37947259005159" lon="-81.48667579516768"><ele>262</ele><time>2026-10-10T20:25:38Z</time></trkpt>
      <trkpt lat="41.37945691589266" lon="-81.48633205331862"><ele>262</ele><time>2026-10-10T20:25:41Z</time></trkpt>
      <trkpt lat="41.3794575445354" lon="-81.48600406944752"><ele>263</ele><time>2026-10-10T20:25:44Z</time></trkpt>
      <trkpt lat="41.379516469314694" lon="-81.48568279109895"><ele>264</ele><time>2026-10-10T20:25:47Z</time></trkpt>
      <trkpt lat="41.37957870494574" lon="-81.48537257686257"><ele>264</ele><time>2026-10-10T20:25:50Z</time></trkpt>
      <trkpt lat="41.37964655645192" lon="-81.48506655357778"><ele>265</ele><time>2026-10-10T20:25:53Z</time></trkpt>
      <trkpt lat="41.37972119729966" lon="-81.48476723581553"><ele>267</ele><time>2026-10-10T20:25:56Z</time></trkpt>
      <trkpt lat="41.3798193493858" lon="-81.48446858860552"><ele>269</ele><time>2026-10-10T20:25:59Z</time></trkpt>
      <trkpt lat="41.379940174520016" lon="-81.48420078679919"><ele>269</ele><time>2026-10-10T20:26:02Z</time></trkpt>
      <trkpt lat="41.38010244816542" lon="-81.48395041935146"><ele>269</ele><time>2026-10-10T20:26:05Z</time></trkpt>
      <trkpt lat="41.380286095663905" lon="-81.48371882736683"><ele>269</ele><time>2026-10-10T20:26:08Z</time></trkpt>
      <trkpt lat="41.38048101682216" lon="-81.48350156843662"><ele>269</ele><time>2026-10-10T20:26:11Z</time></trkpt>
      <trkpt lat="41.38070204760879" lon="-81.48335471749306"><ele>269</ele><time>2026-10-10T20:26:14Z</time></trkpt>
      <trkpt lat="41.38094239868224" lon="-81.48326436057687"><ele>270</ele><time>2026-10-10T20:26:17Z</time></trkpt>
      <trkpt lat="41.38118346221745" lon="-81.48319353349507"><ele>269</ele><time>2026-10-10T20:26:20Z</time></trkpt>
      <trkpt lat="41.38140432536602" lon="-81.48310761898756"><ele>268</ele><time>2026-10-10T20:26:23Z</time></trkpt>
      <trkpt lat="41.381607335060835" lon="-81.48296814411879"><ele>267</ele><time>2026-10-10T20:26:26Z</time></trkpt>
      <trkpt lat="41.38179827481508" lon="-81.48279673419893"><ele>267</ele><time>2026-10-10T20:26:29Z</time></trkpt>
      <trkpt lat="41.38196955900639" lon="-81.48261342197657"><ele>267</ele><time>2026-10-10T20:26:32Z</time></trkpt>
      <trkpt lat="41.382123618386686" lon="-81.48241518996656"><ele>267</ele><time>2026-10-10T20:26:35Z</time></trkpt>
      <trkpt lat="41.38227394782007" lon="-81.48219960741699"><ele>266</ele><time>2026-10-10T20:26:38Z</time></trkpt>
      <trkpt lat="41.38245281763375" lon="-81.48203674703836"><ele>267</ele><time>2026-10-10T20:26:41Z</time></trkpt>
      <trkpt lat="41.38259111903608" lon="-81.48193415254354"><ele>268</ele><time>2026-10-10T20:26:44Z</time></trkpt>
      <trkpt lat="41.38263168744743" lon="-81.48187908343971"><ele>270</ele><time>2026-10-10T20:26:50Z</time></trkpt>
      <trkpt lat="41.382564045488834" lon="-81.48179375566542"><ele>272</ele><time>2026-10-10T20:26:53Z</time></trkpt>
      <trkpt lat="41.38248689007014" lon="-81.48172192275524"><ele>272</ele><time>2026-10-10T20:26:56Z</time></trkpt>
      <trkpt lat="41.38243693392724" lon="-81.48161287419498"><ele>273</ele><time>2026-10-10T20:26:59Z</time></trkpt>
    </trkseg>
  </trk>
</gpx>
