<?xml version="1.0" encoding="UTF-8"?>
<gpx version="1.1" creator="HoldMyTrack" xmlns="http://www.topografix.com/GPX/1/1" xmlns:gpxtpx="http://www.garmin.com/xmlschemas/TrackPointExtension/v1">
  <trk>
    <type>walking</type>
    <trkseg>
      <trkpt lat="10.938932" lon="108.182725"><ele>28.86</ele><time>2026-01-21T01:30:00Z</time></trkpt>
      <trkpt lat="10.938939" lon="108.182753"><ele>28.9</ele><time>2026-01-21T01:30:03Z</time></trkpt>
      <trkpt lat="10.938946" lon="108.182956"><ele>28.11</ele><time>2026-01-21T01:30:21Z</time></trkpt>
      <trkpt lat="10.938915" lon="108.183166"><ele>27.54</ele><time>2026-01-21T01:30:40Z</time></trkpt>
      <trkpt lat="10.93893" lon="108.183278"><ele>28.1</ele><time>2026-01-21T01:30:50Z</time></trkpt>
      <trkpt lat="10.93868" lon="108.183595"><ele>25.97</ele><time>2026-01-21T01:31:26Z</time></trkpt>
      <trkpt lat="10.938541" lon="108.183703"><ele>24.97</ele><time>2026-01-21T01:31:42Z</time></trkpt>
      <trkpt lat="10.938469" lon="108.183728"><ele>24.25</ele><time>2026-01-21T01:31:49Z</time></trkpt>
      <trkpt lat="10.938256" lon="108.183733"><ele>21.79</ele><time>2026-01-21T01:32:08Z</time></trkpt>
      <trkpt lat="10.938142" lon="108.183856"><ele>21.57</ele><time>2026-01-21T01:32:23Z</time></trkpt>
      <trkpt lat="10.93813" lon="108.183978"><ele>22.78</ele><time>2026-01-21T01:32:34Z</time></trkpt>
      <trkpt lat="10.93805" lon="108.184182"><ele>23.72</ele><time>2026-01-21T01:32:54Z</time></trkpt>
      <trkpt lat="10.937988" lon="108.184284"><ele>23.59</ele><time>2026-01-21T01:33:05Z</time></trkpt>
      <trkpt lat="10.937904" lon="108.184349"><ele>22.34</ele><time>2026-01-21T01:33:14Z</time></trkpt>
      <trkpt lat="10.937833" lon="108.184387"><ele>20.97</ele><time>2026-01-21T01:33:22Z</time></trkpt>
      <trkpt lat="10.937753" lon="108.184389"><ele>18.61</ele><time>2026-01-21T01:33:29Z</time></trkpt>
      <trkpt lat="10.937722" lon="108.184495"><ele>18.95</ele><time>2026-01-21T01:33:39Z</time></trkpt>
      <trkpt lat="10.937719" lon="108.184578"><ele>19.81</ele><time>2026-01-21T01:33:46Z</time></trkpt>
      <trkpt lat="10.937724" lon="108.184622"><ele>20.44</ele><time>2026-01-21T01:33:50Z</time></trkpt>
      <trkpt lat="10.937669" lon="108.184656"><ele>19.41</ele><time>2026-01-21T01:33:56Z</time></trkpt>
      <trkpt lat="10.937603" lon="108.184723"><ele>18.97</ele><time>2026-01-21T01:34:04Z</time></trkpt>
      <trkpt lat="10.937495" lon="108.184972"><ele>21.54</ele><time>2026-01-21T01:34:29Z</time></trkpt>
      <trkpt lat="10.937364" lon="108.185403"><ele>24.82</ele><time>2026-01-21T01:35:09Z</time></trkpt>
      <trkpt lat="10.937208" lon="108.185956"><ele>24.16</ele><time>2026-01-21T01:36:00Z</time></trkpt>
      <trkpt lat="10.937183" lon="108.18607"><ele>24.02</ele><time>2026-01-21T01:36:11Z</time></trkpt>
      <trkpt lat="10.937174" lon="108.186157"><ele>23.87</ele><time>2026-01-21T01:36:19Z</time></trkpt>
      <trkpt lat="10.937176" lon="108.186232"><ele>23.92</ele><time>2026-01-21T01:36:25Z</time></trkpt>
      <trkpt lat="10.937197" lon="108.186302"><ele>24.19</ele><time>2026-01-21T01:36:32Z</time></trkpt>
      <trkpt lat="10.937274" lon="108.186454"><ele>25.95</ele><time>2026-01-21T01:36:47Z</time></trkpt>
      <trkpt lat="10.937332" lon="108.186631"><ele>26.78</ele><time>2026-01-21T01:37:04Z</time></trkpt>
      <trkpt lat="10.937476" lon="108.186953"><ele>25.99</ele><time>2026-01-21T01:37:36Z</time></trkpt>
      <trkpt lat="10.93765" lon="108.187292"><ele>26.22</ele><time>2026-01-21T01:38:10Z</time></trkpt>
      <trkpt lat="10.937737" lon="108.18742"><ele>26.15</ele><time>2026-01-21T01:38:24Z</time></trkpt>
      <trkpt lat="10.937848" lon="108.187524"><ele>25.93</ele><time>2026-01-21T01:38:37Z</time></trkpt>
      <trkpt lat="10.937985" lon="108.187616"><ele>24.94</ele><time>2026-01-21T01:38:52Z</time></trkpt>
      <trkpt lat="10.938364" lon="108.187729"><ele>23.74</ele><time>2026-01-21T01:39:28Z</time></trkpt>
      <trkpt lat="10.938512" lon="108.187792"><ele>23.37</ele><time>2026-01-21T01:39:43Z</time></trkpt>
      <trkpt lat="10.938701" lon="108.18791"><ele>23.36</ele><time>2026-01-21T01:40:03Z</time></trkpt>
      <trkpt lat="10.938846" lon="108.187966"><ele>22.71</ele><time>2026-01-21T01:40:17Z</time></trkpt>
      <trkpt lat="10.939198" lon="108.188056"><ele>21.66</ele><time>2026-01-21T01:40:50Z</time></trkpt>
      <trkpt lat="10.939397" lon="108.188082"><ele>22.17</ele><time>2026-01-21T01:41:08Z</time></trkpt>
      <trkpt lat="10.93962" lon="108.188063"><ele>23.91</ele><time>2026-01-21T01:41:29Z</time></trkpt>
      <trkpt lat="10.93972" lon="108.188068"><ele>24.56</ele><time>2026-01-21T01:41:38Z</time></trkpt>
      <trkpt lat="10.939813" lon="108.188098"><ele>24.76</ele><time>2026-01-21T01:41:47Z</time></trkpt>
      <trkpt lat="10.939904" lon="108.188158"><ele>24.61</ele><time>2026-01-21T01:41:57Z</time></trkpt>
      <trkpt lat="10.940038" lon="108.188187"><ele>25.06</ele><time>2026-01-21T01:42:09Z</time></trkpt>
      <trkpt lat="10.940228" lon="108.188217"><ele>25.79</ele><time>2026-01-21T01:42:26Z</time></trkpt>
      <trkpt lat="10.940372" lon="108.188226"><ele>27.32</ele><time>2026-01-21T01:42:40Z</time></trkpt>
      <trkpt lat="10.94056" lon="108.188275"><ele>28.7</ele><time>2026-01-21T01:42:57Z</time></trkpt>
      <trkpt lat="10.940742" lon="108.188394"><ele>28.84</ele><time>2026-01-21T01:43:17Z</time></trkpt>
      <trkpt lat="10.940931" lon="108.188459"><ele>29.59</ele><time>2026-01-21T01:43:35Z</time></trkpt>
      <trkpt lat="10.940998" lon="108.188474"><ele>29.65</ele><time>2026-01-21T01:43:41Z</time></trkpt>
      <trkpt lat="10.941257" lon="108.188495"><ele>29.56</ele><time>2026-01-21T01:44:05Z</time></trkpt>
      <trkpt lat="10.941544" lon="108.188484"><ele>28.31</ele><time>2026-01-21T01:44:31Z</time></trkpt>
      <trkpt lat="10.941768" lon="108.188487"><ele>27.66</ele><time>2026-01-21T01:44:51Z</time></trkpt>
      <trkpt lat="10.94194" lon="108.188555"><ele>27</ele><time>2026-01-21T01:45:08Z</time></trkpt>
      <trkpt lat="10.942029" lon="108.188614"><ele>26.77</ele><time>2026-01-21T01:45:18Z</time></trkpt>
      <trkpt lat="10.942137" lon="108.188729"><ele>26.57</ele><time>2026-01-21T01:45:32Z</time></trkpt>
      <trkpt lat="10.94233" lon="108.188967"><ele>27.29</ele><time>2026-01-21T01:46:00Z</time></trkpt>
      <trkpt lat="10.942424" lon="108.189059"><ele>28.1</ele><time>2026-01-21T01:46:12Z</time></trkpt>
      <trkpt lat="10.942524" lon="108.189139"><ele>28.82</ele><time>2026-01-21T01:46:23Z</time></trkpt>
      <trkpt lat="10.942688" lon="108.189218"><ele>30.25</ele><time>2026-01-21T01:46:40Z</time></trkpt>
      <trkpt lat="10.943364" lon="108.18946"><ele>33.22</ele><time>2026-01-21T01:47:45Z</time></trkpt>
      <trkpt lat="10.943636" lon="108.189534"><ele>35.22</ele><time>2026-01-21T01:48:10Z</time></trkpt>
      <trkpt lat="10.943764" lon="108.189559"><ele>35.98</ele><time>2026-01-21T01:48:22Z</time></trkpt>
      <trkpt lat="10.944253" lon="108.189575"><ele>37.88</ele><time>2026-01-21T01:49:07Z</time></trkpt>
      <trkpt lat="10.944401" lon="108.189586"><ele>37.94</ele><time>2026-01-21T01:49:20Z</time></trkpt>
      <trkpt lat="10.944488" lon="108.189607"><ele>37.82</ele><time>2026-01-21T01:49:28Z</time></trkpt>
      <trkpt lat="10.944545" lon="108.189589"><ele>37.92</ele><time>2026-01-21T01:49:34Z</time></trkpt>
      <trkpt lat="10.945218" lon="108.18961"><ele>39.72</ele><time>2026-01-21T01:50:35Z</time></trkpt>
      <trkpt lat="10.945926" lon="108.189602"><ele>42.64</ele><time>2026-01-21T01:51:40Z</time></trkpt>
      <trkpt lat="10.94613" lon="108.189589"><ele>44.83</ele><time>2026-01-21T01:51:58Z</time></trkpt>
      <trkpt lat="10.946488" lon="108.189523"><ele>47.73</ele><time>2026-01-21T01:52:31Z</time></trkpt>
      <trkpt lat="10.946781" lon="108.189429"><ele>50.54</ele><time>2026-01-21T01:52:59Z</time></trkpt>
      <trkpt lat="10.947377" lon="108.189166"><ele>57.91</ele><time>2026-01-21T01:53:58Z</time></trkpt>
      <trkpt lat="10.94769" lon="108.18901"><ele>61.8</ele><time>2026-01-21T01:54:30Z</time></trkpt>
      <trkpt lat="10.948134" lon="108.188816"><ele>68.05</ele><time>2026-01-21T01:55:14Z</time></trkpt>
      <trkpt lat="10.948219" lon="108.188815"><ele>68.84</ele><time>2026-01-21T01:55:22Z</time></trkpt>
      <trkpt lat="10.948286" lon="108.188758"><ele>70.19</ele><time>2026-01-21T01:55:30Z</time></trkpt>
      <trkpt lat="10.948321" lon="108.188718"><ele>70.94</ele><time>2026-01-21T01:55:34Z</time></trkpt>
      <trkpt lat="10.948348" lon="108.188652"><ele>71.94</ele><time>2026-01-21T01:55:41Z</time></trkpt>
      <trkpt lat="10.948357" lon="108.188556"><ele>73.05</ele><time>2026-01-21T01:55:49Z</time></trkpt>
      <trkpt lat="10.948348" lon="108.188122"><ele>76.1</ele><time>2026-01-21T01:56:28Z</time></trkpt>
      <trkpt lat="10.948341" lon="108.187144"><ele>79.29</ele><time>2026-01-21T01:57:56Z</time></trkpt>
      <trkpt lat="10.948332" lon="108.186994"><ele>80.03</ele><time>2026-01-21T01:58:09Z</time></trkpt>
      <trkpt lat="10.9482" lon="108.186348"><ele>81.25</ele><time>2026-01-21T01:59:08Z</time></trkpt>
      <trkpt lat="10.948141" lon="108.186081"><ele>82.22</ele><time>2026-01-21T01:59:32Z</time></trkpt>
      <trkpt lat="10.94808" lon="108.185873"><ele>82.78</ele><time>2026-01-21T01:59:52Z</time></trkpt>
      <trkpt lat="10.947979" lon="108.185612"><ele>82.98</ele><time>2026-01-21T02:00:17Z</time></trkpt>
      <trkpt lat="10.947307" lon="108.18401"><ele>86.94</ele><time>2026-01-21T02:02:52Z</time></trkpt>
      <trkpt lat="10.947138" lon="108.183749"><ele>86.91</ele><time>2026-01-21T02:03:20Z</time></trkpt>
      <trkpt lat="10.946887" lon="108.183435"><ele>87.67</ele><time>2026-01-21T02:03:57Z</time></trkpt>
      <trkpt lat="10.946265" lon="108.182746"><ele>88.44</ele><time>2026-01-21T02:05:20Z</time></trkpt>
      <trkpt lat="10.946178" lon="108.182641"><ele>88.63</ele><time>2026-01-21T02:05:32Z</time></trkpt>
      <trkpt lat="10.946049" lon="108.182442"><ele>89.24</ele><time>2026-01-21T02:05:54Z</time></trkpt>
      <trkpt lat="10.945725" lon="108.181747"><ele>89.81</ele><time>2026-01-21T02:07:02Z</time></trkpt>
      <trkpt lat="10.945657" lon="108.181582"><ele>90.24</ele><time>2026-01-21T02:07:18Z</time></trkpt>
      <trkpt lat="10.9456" lon="108.181373"><ele>90.15</ele><time>2026-01-21T02:07:38Z</time></trkpt>
      <trkpt lat="10.945506" lon="108.180865"><ele>90.76</ele><time>2026-01-21T02:08:24Z</time></trkpt>
      <trkpt lat="10.945488" lon="108.180725"><ele>90.08</ele><time>2026-01-21T02:08:37Z</time></trkpt>
      <trkpt lat="10.945421" lon="108.180613"><ele>90</ele><time>2026-01-21T02:08:48Z</time></trkpt>
      <trkpt lat="10.945321" lon="108.180511"><ele>89.35</ele><time>2026-01-21T02:09:01Z</time></trkpt>
      <trkpt lat="10.944937" lon="108.180237"><ele>89.68</ele><time>2026-01-21T02:09:44Z</time></trkpt>
      <trkpt lat="10.944521" lon="108.180019"><ele>88.02</ele><time>2026-01-21T02:10:26Z</time></trkpt>
      <trkpt lat="10.944221" lon="108.179923"><ele>88.76</ele><time>2026-01-21T02:10:55Z</time></trkpt>
      <trkpt lat="10.9441" lon="108.179869"><ele>88.29</ele><time>2026-01-21T02:11:07Z</time></trkpt>
      <trkpt lat="10.943908" lon="108.179783"><ele>88.47</ele><time>2026-01-21T02:11:26Z</time></trkpt>
      <trkpt lat="10.943725" lon="108.179654"><ele>88.7</ele><time>2026-01-21T02:11:46Z</time></trkpt>
      <trkpt lat="10.943344" lon="108.179162"><ele>83.38</ele><time>2026-01-21T02:12:42Z</time></trkpt>
      <trkpt lat="10.943114" lon="108.178846"><ele>80.57</ele><time>2026-01-21T02:13:17Z</time></trkpt>
      <trkpt lat="10.943095" lon="108.178643"><ele>78.86</ele><time>2026-01-21T02:13:36Z</time></trkpt>
      <trkpt lat="10.943114" lon="108.178532"><ele>77.79</ele><time>2026-01-21T02:13:46Z</time></trkpt>
      <trkpt lat="10.943151" lon="108.178415"><ele>77.11</ele><time>2026-01-21T02:13:57Z</time></trkpt>
      <trkpt lat="10.943187" lon="108.178336"><ele>76.35</ele><time>2026-01-21T02:14:04Z</time></trkpt>
      <trkpt lat="10.943222" lon="108.178208"><ele>75.35</ele><time>2026-01-21T02:14:16Z</time></trkpt>
      <trkpt lat="10.943225" lon="108.178092"><ele>74.06</ele><time>2026-01-21T02:14:27Z</time></trkpt>
      <trkpt lat="10.943219" lon="108.178018"><ele>73.17</ele><time>2026-01-21T02:14:33Z</time></trkpt>
      <trkpt lat="10.943182" lon="108.17787"><ele>71.48</ele><time>2026-01-21T02:14:47Z</time></trkpt>
      <trkpt lat="10.943117" lon="108.177746"><ele>70.38</ele><time>2026-01-21T02:15:00Z</time></trkpt>
      <trkpt lat="10.943064" lon="108.177685"><ele>69.7</ele><time>2026-01-21T02:15:07Z</time></trkpt>
      <trkpt lat="10.942788" lon="108.177528"><ele>67.96</ele><time>2026-01-21T02:15:36Z</time></trkpt>
      <trkpt lat="10.942376" lon="108.177347"><ele>65.57</ele><time>2026-01-21T02:16:16Z</time></trkpt>
      <trkpt lat="10.942215" lon="108.177299"><ele>63.79</ele><time>2026-01-21T02:16:32Z</time></trkpt>
      <trkpt lat="10.942154" lon="108.177286"><ele>62.99</ele><time>2026-01-21T02:16:37Z</time></trkpt>
      <trkpt lat="10.94205" lon="108.177293"><ele>61.84</ele><time>2026-01-21T02:16:47Z</time></trkpt>
      <trkpt lat="10.941914" lon="108.177323"><ele>60.57</ele><time>2026-01-21T02:16:59Z</time></trkpt>
      <trkpt lat="10.941717" lon="108.177417"><ele>59.6</ele><time>2026-01-21T02:17:19Z</time></trkpt>
      <trkpt lat="10.941316" lon="108.177621"><ele>55.71</ele><time>2026-01-21T02:18:00Z</time></trkpt>
      <trkpt lat="10.941146" lon="108.177667"><ele>54.24</ele><time>2026-01-21T02:18:16Z</time></trkpt>
      <trkpt lat="10.941029" lon="108.17768"><ele>53.41</ele><time>2026-01-21T02:18:27Z</time></trkpt>
      <trkpt lat="10.940725" lon="108.177666"><ele>50.73</ele><time>2026-01-21T02:18:54Z</time></trkpt>
      <trkpt lat="10.94052" lon="108.177666"><ele>48.55</ele><time>2026-01-21T02:19:13Z</time></trkpt>
      <trkpt lat="10.940076" lon="108.1778"><ele>43.74</ele><time>2026-01-21T02:19:55Z</time></trkpt>
      <trkpt lat="10.939883" lon="108.177822"><ele>41.33</ele><time>2026-01-21T02:20:13Z</time></trkpt>
      <trkpt lat="10.939407" lon="108.177843"><ele>37.53</ele><time>2026-01-21T02:20:56Z</time></trkpt>
      <trkpt lat="10.938611" lon="108.177921"><ele>32.79</ele><time>2026-01-21T02:22:09Z</time></trkpt>
      <trkpt lat="10.93845" lon="108.177929"><ele>31.03</ele><time>2026-01-21T02:22:24Z</time></trkpt>
      <trkpt lat="10.9383" lon="108.177969"><ele>29.99</ele><time>2026-01-21T02:22:38Z</time></trkpt>
      <trkpt lat="10.938156" lon="108.178046"><ele>29.71</ele><time>2026-01-21T02:22:53Z</time></trkpt>
      <trkpt lat="10.93812" lon="108.178139"><ele>30.35</ele><time>2026-01-21T02:23:01Z</time></trkpt>
      <trkpt lat="10.938034" lon="108.178409"><ele>32.24</ele><time>2026-01-21T02:23:27Z</time></trkpt>
      <trkpt lat="10.937922" lon="108.178687"><ele>31.61</ele><time>2026-01-21T02:23:54Z</time></trkpt>
      <trkpt lat="10.937683" lon="108.179276"><ele>24.94</ele><time>2026-01-21T02:24:51Z</time></trkpt>
      <trkpt lat="10.937378" lon="108.180851"><ele>17.44</ele><time>2026-01-21T02:27:14Z</time></trkpt>
      <trkpt lat="10.937228" lon="108.181627"><ele>11.27</ele><time>2026-01-21T02:28:25Z</time></trkpt>
      <trkpt lat="10.937215" lon="108.181901"><ele>9.63</ele><time>2026-01-21T02:28:49Z</time></trkpt>
      <trkpt lat="10.937345" lon="108.182576"><ele>7.94</ele><time>2026-01-21T02:29:51Z</time></trkpt>
      <trkpt lat="10.937366" lon="108.182719"><ele>8.1</ele><time>2026-01-21T02:30:03Z</time></trkpt>
      <trkpt lat="10.937369" lon="108.182875"><ele>8.11</ele><time>2026-01-21T02:30:17Z</time></trkpt>
      <trkpt lat="10.937342" lon="108.183074"><ele>7.9</ele><time>2026-01-21T02:30:35Z</time></trkpt>
      <trkpt lat="10.937274" lon="108.183336"><ele>7.43</ele><time>2026-01-21T02:31:00Z</time></trkpt>
      <trkpt lat="10.93758" lon="108.183404"><ele>9.72</ele><time>2026-01-21T02:31:28Z</time></trkpt>
      <trkpt lat="10.937987" lon="108.183493"><ele>15.19</ele><time>2026-01-21T02:32:06Z</time></trkpt>
      <trkpt lat="10.937963" lon="108.183707"><ele>16.69</ele><time>2026-01-21T02:32:25Z</time></trkpt>
      <trkpt lat="10.938142" lon="108.183856"><ele>21.57</ele><time>2026-01-21T02:32:46Z</time></trkpt>
      <trkpt lat="10.938256" lon="108.183733"><ele>21.79</ele><time>2026-01-21T02:33:01Z</time></trkpt>
      <trkpt lat="10.938469" lon="108.183728"><ele>24.25</ele><time>2026-01-21T02:33:21Z</time></trkpt>
      <trkpt lat="10.938541" lon="108.183703"><ele>24.97</ele><time>2026-01-21T02:33:28Z</time></trkpt>
      <trkpt lat="10.93868" lon="108.183595"><ele>25.97</ele><time>2026-01-21T02:33:44Z</time></trkpt>
      <trkpt lat="10.93893" lon="108.183278"><ele>28.1</ele><time>2026-01-21T02:34:20Z</time></trkpt>
      <trkpt lat="10.938915" lon="108.183166"><ele>27.54</ele><time>2026-01-21T02:34:30Z</time></trkpt>
      <trkpt lat="10.938946" lon="108.182956"><ele>28.11</ele><time>2026-01-21T02:34:49Z</time></trkpt>
      <trkpt lat="10.938939" lon="108.182753"><ele>28.9</ele><time>2026-01-21T02:35:07Z</time></trkpt>
      <trkpt lat="10.938872" lon="108.182521"><ele>28.41</ele><time>2026-01-21T02:35:29Z</time></trkpt>
    </trkseg>
  </trk>
</gpx>
