<?xml version="1.0" encoding="UTF-8"?>
<gpx version="1.1" creator="HoldMyTrack" xmlns="http://www.topografix.com/GPX/1/1" xmlns:gpxtpx="http://www.garmin.com/xmlschemas/TrackPointExtension/v1">
  <trk>
    <type>driving</type>
    <trkseg>
      <trkpt lat="41.38980240561068" lon="-81.7347255628556"><ele>237</ele><time>2026-09-26T16:41:48Z</time></trkpt>
      <trkpt lat="41.38935715891421" lon="-81.73473168164492"><ele>240</ele><time>2026-09-26T16:41:51Z</time></trkpt>
      <trkpt lat="41.388906966894865" lon="-81.73473637551069"><ele>240</ele><time>2026-09-26T16:41:54Z</time></trkpt>
      <trkpt lat="41.38848493807018" lon="-81.73470301553607"><ele>240</ele><time>2026-09-26T16:41:57Z</time></trkpt>
      <trkpt lat="41.38813063502312" lon="-81.73467476852238"><ele>242</ele><time>2026-09-26T16:42:00Z</time></trkpt>
      <trkpt lat="41.387891080230474" lon="-81.73468725755811"><ele>241</ele><time>2026-09-26T16:42:03Z</time></trkpt>
      <trkpt lat="41.387781905941665" lon="-81.73467979766428"><ele>241</ele><time>2026-09-26T16:42:06Z</time></trkpt>
      <trkpt lat="41.38758840970695" lon="-81.73467468470335"><ele>240</ele><time>2026-09-26T16:42:21Z</time></trkpt>
      <trkpt lat="41.38736763037741" lon="-81.73466588370502"><ele>239</ele><time>2026-09-26T16:42:24Z</time></trkpt>
      <trkpt lat="41.387105360627174" lon="-81.73466705717146"><ele>240</ele><time>2026-09-26T16:42:27Z</time></trkpt>
      <trkpt lat="41.38678902760148" lon="-81.73469354398549"><ele>241</ele><time>2026-09-26T16:42:30Z</time></trkpt>
      <trkpt lat="41.38644495047629" lon="-81.73470217734575"><ele>242</ele><time>2026-09-26T16:42:33Z</time></trkpt>
      <trkpt lat="41.38610053807497" lon="-81.73470611684024"><ele>242</ele><time>2026-09-26T16:42:36Z</time></trkpt>
      <trkpt lat="41.385832987725735" lon="-81.7347033508122"><ele>242</ele><time>2026-09-26T16:42:39Z</time></trkpt>
      <trkpt lat="41.385687603615224" lon="-81.73469354398549"><ele>242</ele><time>2026-09-26T16:42:42Z</time></trkpt>
      <trkpt lat="41.38559427112341" lon="-81.73468952067196"><ele>242</ele><time>2026-09-26T16:42:45Z</time></trkpt>
      <trkpt lat="41.38542143628001" lon="-81.7346861679107"><ele>243</ele><time>2026-09-26T16:42:48Z</time></trkpt>
      <trkpt lat="41.38516842853278" lon="-81.73468692228198"><ele>244</ele><time>2026-09-26T16:42:51Z</time></trkpt>
      <trkpt lat="41.384877911768854" lon="-81.73469035886228"><ele>245</ele><time>2026-09-26T16:42:54Z</time></trkpt>
      <trkpt lat="41.384570840746164" lon="-81.73469656147063"><ele>246</ele><time>2026-09-26T16:42:57Z</time></trkpt>
      <trkpt lat="41.38428635895252" lon="-81.73469815403223"><ele>246</ele><time>2026-09-26T16:43:00Z</time></trkpt>
      <trkpt lat="41.383981299586594" lon="-81.73469983041286"><ele>245</ele><time>2026-09-26T16:43:03Z</time></trkpt>
      <trkpt lat="41.383679886348546" lon="-81.73470871523023"><ele>244</ele><time>2026-09-26T16:43:06Z</time></trkpt>
      <trkpt lat="41.38346522580832" lon="-81.73471902497113"><ele>244</ele><time>2026-09-26T16:43:09Z</time></trkpt>
      <trkpt lat="41.38334838207811" lon="-81.73471441492438"><ele>244</ele><time>2026-09-26T16:43:12Z</time></trkpt>
      <trkpt lat="41.38325601350516" lon="-81.73472296446562"><ele>245</ele><time>2026-09-26T16:43:45Z</time></trkpt>
      <trkpt lat="41.38308250810951" lon="-81.73470988869667"><ele>245</ele><time>2026-09-26T16:43:48Z</time></trkpt>
      <trkpt lat="41.38283251784742" lon="-81.7347097210586"><ele>245</ele><time>2026-09-26T16:43:51Z</time></trkpt>
      <trkpt lat="41.38253190089017" lon="-81.73470703884959"><ele>246</ele><time>2026-09-26T16:43:54Z</time></trkpt>
      <trkpt lat="41.38222436886281" lon="-81.73471122980118"><ele>248</ele><time>2026-09-26T16:43:57Z</time></trkpt>
      <trkpt lat="41.38192509301007" lon="-81.734718689695"><ele>249</ele><time>2026-09-26T16:44:00Z</time></trkpt>
      <trkpt lat="41.381624140776694" lon="-81.73472388647497"><ele>250</ele><time>2026-09-26T16:44:03Z</time></trkpt>
      <trkpt lat="41.38136090710759" lon="-81.73473369330168"><ele>251</ele><time>2026-09-26T16:44:06Z</time></trkpt>
      <trkpt lat="41.38119377195835" lon="-81.73474224284291"><ele>250</ele><time>2026-09-26T16:44:09Z</time></trkpt>
      <trkpt lat="41.38113954104483" lon="-81.73474190756679"><ele>250</ele><time>2026-09-26T16:44:33Z</time></trkpt>
      <trkpt lat="41.38099377974868" lon="-81.73474500887096"><ele>249</ele><time>2026-09-26T16:44:36Z</time></trkpt>
      <trkpt lat="41.38075347058475" lon="-81.7347361240536"><ele>250</ele><time>2026-09-26T16:44:39Z</time></trkpt>
      <trkpt lat="41.380462953820825" lon="-81.73474048264325"><ele>250</ele><time>2026-09-26T16:44:42Z</time></trkpt>
      <trkpt lat="41.3801552541554" lon="-81.73473654314876"><ele>250</ele><time>2026-09-26T16:44:45Z</time></trkpt>
      <trkpt lat="41.379819894209504" lon="-81.73473511822522"><ele>251</ele><time>2026-09-26T16:44:48Z</time></trkpt>
      <trkpt lat="41.37946605216712" lon="-81.73473419621587"><ele>252</ele><time>2026-09-26T16:44:51Z</time></trkpt>
      <trkpt lat="41.37910240329802" lon="-81.7347358725965"><ele>253</ele><time>2026-09-26T16:44:54Z</time></trkpt>
      <trkpt lat="41.378734689205885" lon="-81.73475733026862"><ele>255</ele><time>2026-09-26T16:44:57Z</time></trkpt>
      <trkpt lat="41.37837070506066" lon="-81.73476462252438"><ele>255</ele><time>2026-09-26T16:45:00Z</time></trkpt>
      <trkpt lat="41.378009989857674" lon="-81.73476981930435"><ele>255</ele><time>2026-09-26T16:45:03Z</time></trkpt>
      <trkpt lat="41.37765497434884" lon="-81.73477887175977"><ele>255</ele><time>2026-09-26T16:45:06Z</time></trkpt>
      <trkpt lat="41.37730779591948" lon="-81.73477434553206"><ele>255</ele><time>2026-09-26T16:45:09Z</time></trkpt>
      <trkpt lat="41.37699628248811" lon="-81.73477174714208"><ele>254</ele><time>2026-09-26T16:45:12Z</time></trkpt>
      <trkpt lat="41.37665300164372" lon="-81.73477702774107"><ele>253</ele><time>2026-09-26T16:45:15Z</time></trkpt>
      <trkpt lat="41.37629626784474" lon="-81.73477845266461"><ele>254</ele><time>2026-09-26T16:45:18Z</time></trkpt>
      <trkpt lat="41.37594720348716" lon="-81.73477853648365"><ele>255</ele><time>2026-09-26T16:45:21Z</time></trkpt>
      <trkpt lat="41.37558632064611" lon="-81.73477686010301"><ele>256</ele><time>2026-09-26T16:45:24Z</time></trkpt>
      <trkpt lat="41.37524534482509" lon="-81.73478306271136"><ele>258</ele><time>2026-09-26T16:45:27Z</time></trkpt>
      <trkpt lat="41.37493098154664" lon="-81.73478490673006"><ele>259</ele><time>2026-09-26T16:45:30Z</time></trkpt>
      <trkpt lat="41.3746457034722" lon="-81.73474593088031"><ele>258</ele><time>2026-09-26T16:45:33Z</time></trkpt>
      <trkpt lat="41.37447664048523" lon="-81.73474735580385"><ele>258</ele><time>2026-09-26T16:45:36Z</time></trkpt>
      <trkpt lat="41.37436352670193" lon="-81.73474978655577"><ele>258</ele><time>2026-09-26T16:45:39Z</time></trkpt>
      <trkpt lat="41.374313361011446" lon="-81.73476026393473"><ele>257</ele><time>2026-09-26T16:45:42Z</time></trkpt>
      <trkpt lat="41.374266925267875" lon="-81.73476026393473"><ele>257</ele><time>2026-09-26T16:45:48Z</time></trkpt>
      <trkpt lat="41.374121541157365" lon="-81.73476302996278"><ele>257</ele><time>2026-09-26T16:45:57Z</time></trkpt>
      <trkpt lat="41.373930014669895" lon="-81.73476881347597"><ele>257</ele><time>2026-09-26T16:46:00Z</time></trkpt>
      <trkpt lat="41.37368656229228" lon="-81.73476638272405"><ele>259</ele><time>2026-09-26T16:46:03Z</time></trkpt>
      <trkpt lat="41.37339583598077" lon="-81.73477149568498"><ele>261</ele><time>2026-09-26T16:46:06Z</time></trkpt>
      <trkpt lat="41.37309802696109" lon="-81.7347771115601"><ele>261</ele><time>2026-09-26T16:46:09Z</time></trkpt>
      <trkpt lat="41.37274690903723" lon="-81.7347789555788"><ele>261</ele><time>2026-09-26T16:46:12Z</time></trkpt>
      <trkpt lat="41.37237722519785" lon="-81.73478155396879"><ele>260</ele><time>2026-09-26T16:46:15Z</time></trkpt>
      <trkpt lat="41.371989184990525" lon="-81.73478708602488"><ele>260</ele><time>2026-09-26T16:46:18Z</time></trkpt>
      <trkpt lat="41.37159544508904" lon="-81.7347842361778"><ele>260</ele><time>2026-09-26T16:46:21Z</time></trkpt>
      <trkpt lat="41.37119805905968" lon="-81.73478339798748"><ele>260</ele><time>2026-09-26T16:46:24Z</time></trkpt>
      <trkpt lat="41.37078839354217" lon="-81.73478465527296"><ele>261</ele><time>2026-09-26T16:46:27Z</time></trkpt>
      <trkpt lat="41.3703846372664" lon="-81.73478339798748"><ele>262</ele><time>2026-09-26T16:46:30Z</time></trkpt>
      <trkpt lat="41.36999064590782" lon="-81.73478666692972"><ele>263</ele><time>2026-09-26T16:46:33Z</time></trkpt>
      <trkpt lat="41.36960725765675" lon="-81.73478121869266"><ele>264</ele><time>2026-09-26T16:46:36Z</time></trkpt>
      <trkpt lat="41.36922474950552" lon="-81.7347771115601"><ele>265</ele><time>2026-09-26T16:46:39Z</time></trkpt>
      <trkpt lat="41.368836583569646" lon="-81.73477409407496"><ele>265</ele><time>2026-09-26T16:46:42Z</time></trkpt>
      <trkpt lat="41.368437353521585" lon="-81.73477250151336"><ele>265</ele><time>2026-09-26T16:46:45Z</time></trkpt>
      <trkpt lat="41.36802768800408" lon="-81.73477568663657"><ele>263</ele><time>2026-09-26T16:46:48Z</time></trkpt>
      <trkpt lat="41.36760871857405" lon="-81.73477593809366"><ele>263</ele><time>2026-09-26T16:46:51Z</time></trkpt>
      <trkpt lat="41.36719440110028" lon="-81.73477216623724"><ele>263</ele><time>2026-09-26T16:46:54Z</time></trkpt>
      <trkpt lat="41.36677664704621" lon="-81.73477216623724"><ele>263</ele><time>2026-09-26T16:46:57Z</time></trkpt>
      <trkpt lat="41.36635541450232" lon="-81.7347657121718"><ele>263</ele><time>2026-09-26T16:47:00Z</time></trkpt>
      <trkpt lat="41.36593661271036" lon="-81.73476126976311"><ele>263</ele><time>2026-09-26T16:47:03Z</time></trkpt>
      <trkpt lat="41.36553667020053" lon="-81.73475154675543"><ele>263</ele><time>2026-09-26T16:47:06Z</time></trkpt>
      <trkpt lat="41.365188234485686" lon="-81.73470293171704"><ele>263</ele><time>2026-09-26T16:47:09Z</time></trkpt>
      <trkpt lat="41.3648853963241" lon="-81.7346253991127"><ele>263</ele><time>2026-09-26T16:47:12Z</time></trkpt>
      <trkpt lat="41.364612858742476" lon="-81.73452741466463"><ele>263</ele><time>2026-09-26T16:47:15Z</time></trkpt>
      <trkpt lat="41.364336465485394" lon="-81.73441199585795"><ele>263</ele><time>2026-09-26T16:47:18Z</time></trkpt>
      <trkpt lat="41.364031825214624" lon="-81.73429087735713"><ele>263</ele><time>2026-09-26T16:47:21Z</time></trkpt>
      <trkpt lat="41.363724041730165" lon="-81.73418132588267"><ele>263</ele><time>2026-09-26T16:47:24Z</time></trkpt>
      <trkpt lat="41.363400290720165" lon="-81.73410697840154"><ele>263</ele><time>2026-09-26T16:47:27Z</time></trkpt>
      <trkpt lat="41.3630964467302" lon="-81.73405132256448"><ele>263</ele><time>2026-09-26T16:47:30Z</time></trkpt>
      <trkpt lat="41.36281686834991" lon="-81.73399684019387"><ele>261</ele><time>2026-09-26T16:47:33Z</time></trkpt>
      <trkpt lat="41.362642189487815" lon="-81.73396591097116"><ele>261</ele><time>2026-09-26T16:47:36Z</time></trkpt>
      <trkpt lat="41.36253376957029" lon="-81.73395149409771"><ele>261</ele><time>2026-09-26T16:47:39Z</time></trkpt>
      <trkpt lat="41.362416758202016" lon="-81.73392601311207"><ele>262</ele><time>2026-09-26T16:47:42Z</time></trkpt>
      <trkpt lat="41.36224090587348" lon="-81.73387706279755"><ele>262</ele><time>2026-09-26T16:47:45Z</time></trkpt>
      <trkpt lat="41.362041123211384" lon="-81.73380791209638"><ele>263</ele><time>2026-09-26T16:47:48Z</time></trkpt>
      <trkpt lat="41.36185760144144" lon="-81.73372384160757"><ele>264</ele><time>2026-09-26T16:47:51Z</time></trkpt>
      <trkpt lat="41.36163384653628" lon="-81.7336737178266"><ele>264</ele><time>2026-09-26T16:47:54Z</time></trkpt>
      <trkpt lat="41.36134182102978" lon="-81.73368352465332"><ele>266</ele><time>2026-09-26T16:47:57Z</time></trkpt>
      <trkpt lat="41.36103990487754" lon="-81.73376365564764"><ele>264</ele><time>2026-09-26T16:48:00Z</time></trkpt>
      <trkpt lat="41.36071590241045" lon="-81.73394688405097"><ele>262</ele><time>2026-09-26T16:48:03Z</time></trkpt>
      <trkpt lat="41.36040719691664" lon="-81.73425944522023"><ele>258</ele><time>2026-09-26T16:48:06Z</time></trkpt>
      <trkpt lat="41.360120116733015" lon="-81.73463369719684"><ele>256</ele><time>2026-09-26T16:48:09Z</time></trkpt>
      <trkpt lat="41.3598298933357" lon="-81.73500241711736"><ele>255</ele><time>2026-09-26T16:48:12Z</time></trkpt>
      <trkpt lat="41.35950228665024" lon="-81.73533702269197"><ele>254</ele><time>2026-09-26T16:48:15Z</time></trkpt>
      <trkpt lat="41.35916202329099" lon="-81.73561085946858"><ele>256</ele><time>2026-09-26T16:48:18Z</time></trkpt>
      <trkpt lat="41.358794225379825" lon="-81.73579207621515"><ele>257</ele><time>2026-09-26T16:48:21Z</time></trkpt>
      <trkpt lat="41.35842609219253" lon="-81.7358862888068"><ele>260</ele><time>2026-09-26T16:48:24Z</time></trkpt>
      <trkpt lat="41.35807199869305" lon="-81.73592451028526"><ele>265</ele><time>2026-09-26T16:48:27Z</time></trkpt>
      <trkpt lat="41.3577108643949" lon="-81.73589282669127"><ele>268</ele><time>2026-09-26T16:48:30Z</time></trkpt>
      <trkpt lat="41.35734168346971" lon="-81.73579123802483"><ele>271</ele><time>2026-09-26T16:48:33Z</time></trkpt>
      <trkpt lat="41.35696512646973" lon="-81.73564162105322"><ele>274</ele><time>2026-09-26T16:48:36Z</time></trkpt>
      <trkpt lat="41.35657683480531" lon="-81.73548295162618"><ele>277</ele><time>2026-09-26T16:48:39Z</time></trkpt>
      <trkpt lat="41.356193027459085" lon="-81.7353164870292"><ele>279</ele><time>2026-09-26T16:48:42Z</time></trkpt>
      <trkpt lat="41.35580892674625" lon="-81.7351484298706"><ele>280</ele><time>2026-09-26T16:48:45Z</time></trkpt>
      <trkpt lat="41.355435135774314" lon="-81.73498364165425"><ele>281</ele><time>2026-09-26T16:48:48Z</time></trkpt>
      <trkpt lat="41.355069684796035" lon="-81.73485573381186"><ele>282</ele><time>2026-09-26T16:48:51Z</time></trkpt>
      <trkpt lat="41.35468772146851" lon="-81.7347995750606"><ele>283</ele><time>2026-09-26T16:48:54Z</time></trkpt>
      <trkpt lat="41.354306428693235" lon="-81.73481600359082"><ele>283</ele><time>2026-09-26T16:48:57Z</time></trkpt>
      <trkpt lat="41.35394642595202" lon="-81.7348859924823"><ele>283</ele><time>2026-09-26T16:49:00Z</time></trkpt>
      <trkpt lat="41.35362464468926" lon="-81.73497132025659"><ele>284</ele><time>2026-09-26T16:49:03Z</time></trkpt>
      <trkpt lat="41.35333328973502" lon="-81.73506000079215"><ele>285</ele><time>2026-09-26T16:49:06Z</time></trkpt>
      <trkpt lat="41.35311506688595" lon="-81.7351365275681"><ele>285</ele><time>2026-09-26T16:49:09Z</time></trkpt>
      <trkpt lat="41.35303975548595" lon="-81.73516435548663"><ele>285</ele><time>2026-09-26T16:49:12Z</time></trkpt>
      <trkpt lat="41.35297550819814" lon="-81.73518623225391"><ele>286</ele><time>2026-09-26T16:49:27Z</time></trkpt>
      <trkpt lat="41.35282974690199" lon="-81.73510995693505"><ele>287</ele><time>2026-09-26T16:49:30Z</time></trkpt>
      <trkpt lat="41.3527919864282" lon="-81.7348151654005"><ele>289</ele><time>2026-09-26T16:49:33Z</time></trkpt>
      <trkpt lat="41.35279005859047" lon="-81.73438483849168"><ele>290</ele><time>2026-09-26T16:49:36Z</time></trkpt>
      <trkpt lat="41.35276285931468" lon="-81.73387940973043"><ele>291</ele><time>2026-09-26T16:49:39Z</time></trkpt>
      <trkpt lat="41.35268947575241" lon="-81.73333081416786"><ele>291</ele><time>2026-09-26T16:49:42Z</time></trkpt>
      <trkpt lat="41.352576445788145" lon="-81.73277148976922"><ele>291</ele><time>2026-09-26T16:49:45Z</time></trkpt>
      <trkpt lat="41.35241559706628" lon="-81.73220411874354"><ele>291</ele><time>2026-09-26T16:49:48Z</time></trkpt>
      <trkpt lat="41.3522213883698" lon="-81.73162610270083"><ele>291</ele><time>2026-09-26T16:49:51Z</time></trkpt>
      <trkpt lat="41.352025964297354" lon="-81.73105185851455"><ele>292</ele><time>2026-09-26T16:49:54Z</time></trkpt>
      <trkpt lat="41.35182903148234" lon="-81.73047979362309"><ele>291</ele><time>2026-09-26T16:49:57Z</time></trkpt>
      <trkpt lat="41.35163251776248" lon="-81.72989171929657"><ele>290</ele><time>2026-09-26T16:50:00Z</time></trkpt>
      <trkpt lat="41.351437722332776" lon="-81.72929626889527"><ele>289</ele><time>2026-09-26T16:50:03Z</time></trkpt>
      <trkpt lat="41.35124200489372" lon="-81.7286900896579"><ele>289</ele><time>2026-09-26T16:50:06Z</time></trkpt>
      <trkpt lat="41.35109477676451" lon="-81.72809489071369"><ele>288</ele><time>2026-09-26T16:50:09Z</time></trkpt>
      <trkpt lat="41.35098023805767" lon="-81.72750405035913"><ele>287</ele><time>2026-09-26T16:50:12Z</time></trkpt>
      <trkpt lat="41.35089549701661" lon="-81.72690868377686"><ele>286</ele><time>2026-09-26T16:50:15Z</time></trkpt>
      <trkpt lat="41.35084759443998" lon="-81.72632178291678"><ele>285</ele><time>2026-09-26T16:50:18Z</time></trkpt>
      <trkpt lat="41.35083032771945" lon="-81.72573999501765"><ele>285</ele><time>2026-09-26T16:50:21Z</time></trkpt>
      <trkpt lat="41.35083313565701" lon="-81.72519424930215"><ele>285</ele><time>2026-09-26T16:50:24Z</time></trkpt>
      <trkpt lat="41.3508362788707" lon="-81.7246840428561"><ele>286</ele><time>2026-09-26T16:50:27Z</time></trkpt>
      <trkpt lat="41.35084072127938" lon="-81.724200155586"><ele>286</ele><time>2026-09-26T16:50:30Z</time></trkpt>
      <trkpt lat="41.3508415594697" lon="-81.72375155612826"><ele>287</ele><time>2026-09-26T16:50:33Z</time></trkpt>
      <trkpt lat="41.350843235850334" lon="-81.72334956005216"><ele>286</ele><time>2026-09-26T16:50:36Z</time></trkpt>
      <trkpt lat="41.350844451226294" lon="-81.72303020954132"><ele>286</ele><time>2026-09-26T16:50:39Z</time></trkpt>
      <trkpt lat="41.350846169516444" lon="-81.72282015904784"><ele>286</ele><time>2026-09-26T16:50:42Z</time></trkpt>
      <trkpt lat="41.35084361303598" lon="-81.72274027951062"><ele>286</ele><time>2026-09-26T16:50:45Z</time></trkpt>
      <trkpt lat="41.350841014645994" lon="-81.72261379659176"><ele>287</ele><time>2026-09-26T16:51:18Z</time></trkpt>
      <trkpt lat="41.350837452337146" lon="-81.72238446772099"><ele>287</ele><time>2026-09-26T16:51:21Z</time></trkpt>
      <trkpt lat="41.350838080979884" lon="-81.72208230011165"><ele>287</ele><time>2026-09-26T16:51:24Z</time></trkpt>
      <trkpt lat="41.35085128247738" lon="-81.72173285856843"><ele>287</ele><time>2026-09-26T16:51:27Z</time></trkpt>
      <trkpt lat="41.35085660498589" lon="-81.72131921164691"><ele>289</ele><time>2026-09-26T16:51:30Z</time></trkpt>
      <trkpt lat="41.35086766909808" lon="-81.7208659183234"><ele>290</ele><time>2026-09-26T16:51:33Z</time></trkpt>
      <trkpt lat="41.350873075425625" lon="-81.72040013596416"><ele>292</ele><time>2026-09-26T16:51:36Z</time></trkpt>
      <trkpt lat="41.35087311733514" lon="-81.7199076153338"><ele>294</ele><time>2026-09-26T16:51:39Z</time></trkpt>
      <trkpt lat="41.350873787887394" lon="-81.71940797008574"><ele>295</ele><time>2026-09-26T16:51:42Z</time></trkpt>
      <trkpt lat="41.350880870595574" lon="-81.71889374032617"><ele>295</ele><time>2026-09-26T16:51:45Z</time></trkpt>
      <trkpt lat="41.35087848175317" lon="-81.7183684464544"><ele>295</ele><time>2026-09-26T16:51:48Z</time></trkpt>
      <trkpt lat="41.35087969712913" lon="-81.71783653087914"><ele>296</ele><time>2026-09-26T16:51:51Z</time></trkpt>
      <trkpt lat="41.350879655219615" lon="-81.71729941852391"><ele>297</ele><time>2026-09-26T16:51:54Z</time></trkpt>
      <trkpt lat="41.35088271461427" lon="-81.71676523983479"><ele>298</ele><time>2026-09-26T16:51:57Z</time></trkpt>
      <trkpt lat="41.350887240841985" lon="-81.71622703783214"><ele>300</ele><time>2026-09-26T16:52:00Z</time></trkpt>
      <trkpt lat="41.35089327581227" lon="-81.71570023521781"><ele>301</ele><time>2026-09-26T16:52:03Z</time></trkpt>
      <trkpt lat="41.35089608374983" lon="-81.7151705827564"><ele>304</ele><time>2026-09-26T16:52:06Z</time></trkpt>
      <trkpt lat="41.350902118720114" lon="-81.71463447622955"><ele>307</ele><time>2026-09-26T16:52:09Z</time></trkpt>
      <trkpt lat="41.35091196745634" lon="-81.71410800889134"><ele>309</ele><time>2026-09-26T16:52:12Z</time></trkpt>
      <trkpt lat="41.350916577503085" lon="-81.71357424929738"><ele>312</ele><time>2026-09-26T16:52:15Z</time></trkpt>
      <trkpt lat="41.35092424694449" lon="-81.71303194016218"><ele>314</ele><time>2026-09-26T16:52:18Z</time></trkpt>
      <trkpt lat="41.35092441458255" lon="-81.71248460188508"><ele>316</ele><time>2026-09-26T16:52:21Z</time></trkpt>
      <trkpt lat="41.35092202574015" lon="-81.71194371767342"><ele>320</ele><time>2026-09-26T16:52:24Z</time></trkpt>
      <trkpt lat="41.350918505340815" lon="-81.71141029335558"><ele>325</ele><time>2026-09-26T16:52:27Z</time></trkpt>
      <trkpt lat="41.35092391166836" lon="-81.71087611466646"><ele>329</ele><time>2026-09-26T16:52:30Z</time></trkpt>
      <trkpt lat="41.35091909207404" lon="-81.71034201979637"><ele>333</ele><time>2026-09-26T16:52:33Z</time></trkpt>
      <trkpt lat="41.35091888252646" lon="-81.70982586219907"><ele>336</ele><time>2026-09-26T16:52:36Z</time></trkpt>
      <trkpt lat="41.350919720716774" lon="-81.70929218642414"><ele>336</ele><time>2026-09-26T16:52:39Z</time></trkpt>
      <trkpt lat="41.350912931375206" lon="-81.70871584676206"><ele>335</ele><time>2026-09-26T16:52:42Z</time></trkpt>
      <trkpt lat="41.35091104544699" lon="-81.70813246630132"><ele>336</ele><time>2026-09-26T16:52:45Z</time></trkpt>
      <trkpt lat="41.35090467520058" lon="-81.70755092985928"><ele>337</ele><time>2026-09-26T16:52:48Z</time></trkpt>
      <trkpt lat="41.35090237017721" lon="-81.70697676949203"><ele>338</ele><time>2026-09-26T16:52:51Z</time></trkpt>
      <trkpt lat="41.35090002324432" lon="-81.70641082338989"><ele>338</ele><time>2026-09-26T16:52:54Z</time></trkpt>
      <trkpt lat="41.35090035852045" lon="-81.70584462583065"><ele>336</ele><time>2026-09-26T16:52:57Z</time></trkpt>
      <trkpt lat="41.35090107098222" lon="-81.70534053817391"><ele>334</ele><time>2026-09-26T16:53:00Z</time></trkpt>
      <trkpt lat="41.35090274736285" lon="-81.70490643940866"><ele>333</ele><time>2026-09-26T16:53:03Z</time></trkpt>
      <trkpt lat="41.35090932715684" lon="-81.70454333536327"><ele>332</ele><time>2026-09-26T16:53:06Z</time></trkpt>
      <trkpt lat="41.35090417228639" lon="-81.70425198040903"><ele>333</ele><time>2026-09-26T16:53:09Z</time></trkpt>
      <trkpt lat="41.35090253781527" lon="-81.70405383221805"><ele>334</ele><time>2026-09-26T16:53:12Z</time></trkpt>
      <trkpt lat="41.35090421419591" lon="-81.70398727990687"><ele>334</ele><time>2026-09-26T16:53:18Z</time></trkpt>
      <trkpt lat="41.350895538926125" lon="-81.7037540115416"><ele>333</ele><time>2026-09-26T16:53:30Z</time></trkpt>
      <trkpt lat="41.350896754302084" lon="-81.70345737598836"><ele>332</ele><time>2026-09-26T16:53:33Z</time></trkpt>
      <trkpt lat="41.350894323550165" lon="-81.70306971296668"><ele>333</ele><time>2026-09-26T16:53:36Z</time></trkpt>
      <trkpt lat="41.35089558083564" lon="-81.70263293199241"><ele>334</ele><time>2026-09-26T16:53:39Z</time></trkpt>
      <trkpt lat="41.35089843068272" lon="-81.70217553153634"><ele>335</ele><time>2026-09-26T16:53:42Z</time></trkpt>
      <trkpt lat="41.350901909172535" lon="-81.70168787240982"><ele>337</ele><time>2026-09-26T16:53:45Z</time></trkpt>
      <trkpt lat="41.35089809540659" lon="-81.70118579640985"><ele>337</ele><time>2026-09-26T16:53:48Z</time></trkpt>
      <trkpt lat="41.35089285671711" lon="-81.70066947117448"><ele>337</ele><time>2026-09-26T16:53:51Z</time></trkpt>
      <trkpt lat="41.35089792776853" lon="-81.70013437047601"><ele>336</ele><time>2026-09-26T16:53:54Z</time></trkpt>
      <trkpt lat="41.35089298244566" lon="-81.69959901832044"><ele>337</ele><time>2026-09-26T16:53:57Z</time></trkpt>
      <trkpt lat="41.35089386254549" lon="-81.69906517490745"><ele>336</ele><time>2026-09-26T16:54:00Z</time></trkpt>
      <trkpt lat="41.35090325027704" lon="-81.6985187586397"><ele>336</ele><time>2026-09-26T16:54:03Z</time></trkpt>
      <trkpt lat="41.35090752504766" lon="-81.69796010479331"><ele>335</ele><time>2026-09-26T16:54:06Z</time></trkpt>
      <trkpt lat="41.35090853087604" lon="-81.69741310179234"><ele>337</ele><time>2026-09-26T16:54:09Z</time></trkpt>
      <trkpt lat="41.350914356298745" lon="-81.69688227586448"><ele>337</ele><time>2026-09-26T16:54:12Z</time></trkpt>
      <trkpt lat="41.35090932715684" lon="-81.69633527286351"><ele>335</ele><time>2026-09-26T16:54:15Z</time></trkpt>
      <trkpt lat="41.350903124548495" lon="-81.69579103589058"><ele>330</ele><time>2026-09-26T16:54:18Z</time></trkpt>
      <trkpt lat="41.350902621634305" lon="-81.6952532529831"><ele>326</ele><time>2026-09-26T16:54:21Z</time></trkpt>
      <trkpt lat="41.35090144816786" lon="-81.69472133740783"><ele>324</ele><time>2026-09-26T16:54:24Z</time></trkpt>
      <trkpt lat="41.35090278927237" lon="-81.69419344514608"><ele>322</ele><time>2026-09-26T16:54:27Z</time></trkpt>
      <trkpt lat="41.350903837010264" lon="-81.69365775771439"><ele>319</ele><time>2026-09-26T16:54:30Z</time></trkpt>
      <trkpt lat="41.350906267762184" lon="-81.69310321100056"><ele>318</ele><time>2026-09-26T16:54:33Z</time></trkpt>
      <trkpt lat="41.35090593248606" lon="-81.6925707925111"><ele>319</ele><time>2026-09-26T16:54:36Z</time></trkpt>
      <trkpt lat="41.35090672876686" lon="-81.69201482087374"><ele>317</ele><time>2026-09-26T16:54:39Z</time></trkpt>
      <trkpt lat="41.350913853384554" lon="-81.69142875820398"><ele>316</ele><time>2026-09-26T16:54:42Z</time></trkpt>
      <trkpt lat="41.35091745760292" lon="-81.69085870496929"><ele>315</ele><time>2026-09-26T16:54:45Z</time></trkpt>
      <trkpt lat="41.35092064272612" lon="-81.69027775526047"><ele>312</ele><time>2026-09-26T16:54:48Z</time></trkpt>
      <trkpt lat="41.35092118754983" lon="-81.68968959711492"><ele>310</ele><time>2026-09-26T16:54:51Z</time></trkpt>
      <trkpt lat="41.35092210955918" lon="-81.68909884057939"><ele>309</ele><time>2026-09-26T16:54:54Z</time></trkpt>
      <trkpt lat="41.35092667769641" lon="-81.68854705989361"><ele>310</ele><time>2026-09-26T16:54:57Z</time></trkpt>
      <trkpt lat="41.350926887243986" lon="-81.68797658756375"><ele>310</ele><time>2026-09-26T16:55:00Z</time></trkpt>
      <trkpt lat="41.350936610251665" lon="-81.68739505112171"><ele>309</ele><time>2026-09-26T16:55:03Z</time></trkpt>
      <trkpt lat="41.3509390829131" lon="-81.68681074865162"><ele>308</ele><time>2026-09-26T16:55:06Z</time></trkpt>
      <trkpt lat="41.350943986326456" lon="-81.68622812256217"><ele>307</ele><time>2026-09-26T16:55:09Z</time></trkpt>
      <trkpt lat="41.35094256140292" lon="-81.685691177845"><ele>307</ele><time>2026-09-26T16:55:12Z</time></trkpt>
      <trkpt lat="41.35093472432345" lon="-81.68528473936021"><ele>308</ele><time>2026-09-26T16:55:15Z</time></trkpt>
      <trkpt lat="41.35093204211444" lon="-81.68505918234587"><ele>308</ele><time>2026-09-26T16:55:18Z</time></trkpt>
      <trkpt lat="41.35093430522829" lon="-81.68496765196323"><ele>307</ele><time>2026-09-26T16:55:42Z</time></trkpt>
      <trkpt lat="41.35093426331878" lon="-81.68489799834788"><ele>307</ele><time>2026-09-26T16:55:45Z</time></trkpt>
      <trkpt lat="41.350935604423285" lon="-81.68482700362802"><ele>308</ele><time>2026-09-26T16:55:48Z</time></trkpt>
      <trkpt lat="41.350938747636974" lon="-81.68475106358528"><ele>307</ele><time>2026-09-26T16:56:12Z</time></trkpt>
      <trkpt lat="41.35093920864165" lon="-81.6845584474504"><ele>308</ele><time>2026-09-26T16:56:15Z</time></trkpt>
      <trkpt lat="41.35095161385834" lon="-81.68425535783172"><ele>307</ele><time>2026-09-26T16:56:18Z</time></trkpt>
      <trkpt lat="41.35096628218889" lon="-81.68388244695961"><ele>306</ele><time>2026-09-26T16:56:21Z</time></trkpt>
      <trkpt lat="41.35097680147737" lon="-81.68347517028451"><ele>306</ele><time>2026-09-26T16:56:24Z</time></trkpt>
      <trkpt lat="41.350974161177874" lon="-81.68303528800607"><ele>306</ele><time>2026-09-26T16:56:27Z</time></trkpt>
      <trkpt lat="41.35097822640091" lon="-81.68257512152195"><ele>307</ele><time>2026-09-26T16:56:30Z</time></trkpt>
      <trkpt lat="41.350983465090394" lon="-81.68209416791797"><ele>308</ele><time>2026-09-26T16:56:33Z</time></trkpt>
      <trkpt lat="41.35098044760525" lon="-81.68160248547792"><ele>308</ele><time>2026-09-26T16:56:36Z</time></trkpt>
      <trkpt lat="41.350978184491396" lon="-81.68110367842019"><ele>307</ele><time>2026-09-26T16:56:39Z</time></trkpt>
      <trkpt lat="41.35098673403263" lon="-81.68059087358415"><ele>305</ele><time>2026-09-26T16:56:42Z</time></trkpt>
      <trkpt lat="41.35098895523697" lon="-81.6800687648356"><ele>305</ele><time>2026-09-26T16:56:45Z</time></trkpt>
      <trkpt lat="41.35099436156452" lon="-81.67955252341926"><ele>305</ele><time>2026-09-26T16:56:48Z</time></trkpt>
      <trkpt lat="41.350995912216604" lon="-81.6790309175849"><ele>304</ele><time>2026-09-26T16:56:51Z</time></trkpt>
      <trkpt lat="41.350998720154166" lon="-81.67850160039961"><ele>303</ele><time>2026-09-26T16:56:54Z</time></trkpt>
      <trkpt lat="41.35099788196385" lon="-81.67796725407243"><ele>304</ele><time>2026-09-26T16:56:57Z</time></trkpt>
      <trkpt lat="41.35099976789206" lon="-81.67743139900267"><ele>305</ele><time>2026-09-26T16:57:00Z</time></trkpt>
      <trkpt lat="41.350999642163515" lon="-81.6769029200077"><ele>307</ele><time>2026-09-26T16:57:03Z</time></trkpt>
      <trkpt lat="41.3510003965348" lon="-81.67637896724045"><ele>308</ele><time>2026-09-26T16:57:06Z</time></trkpt>
      <trkpt lat="41.351003078743815" lon="-81.6758534219116"><ele>308</ele><time>2026-09-26T16:57:09Z</time></trkpt>
      <trkpt lat="41.35100123472512" lon="-81.67531874030828"><ele>309</ele><time>2026-09-26T16:57:12Z</time></trkpt>
      <trkpt lat="41.35100077372044" lon="-81.67478992603719"><ele>310</ele><time>2026-09-26T16:57:15Z</time></trkpt>
      <trkpt lat="41.3510056771338" lon="-81.67426999658346"><ele>310</ele><time>2026-09-26T16:57:18Z</time></trkpt>
      <trkpt lat="41.35101024527103" lon="-81.67375082150102"><ele>309</ele><time>2026-09-26T16:57:21Z</time></trkpt>
      <trkpt lat="41.351007521152496" lon="-81.67322527617216"><ele>309</ele><time>2026-09-26T16:57:24Z</time></trkpt>
      <trkpt lat="41.351012382656336" lon="-81.67271439917386"><ele>310</ele><time>2026-09-26T16:57:27Z</time></trkpt>
      <trkpt lat="41.351014017127454" lon="-81.67221777141094"><ele>310</ele><time>2026-09-26T16:57:30Z</time></trkpt>
      <trkpt lat="41.35101929772645" lon="-81.67170898988843"><ele>311</ele><time>2026-09-26T16:57:33Z</time></trkpt>
      <trkpt lat="41.35102399159223" lon="-81.67120263911784"><ele>310</ele><time>2026-09-26T16:57:36Z</time></trkpt>
      <trkpt lat="41.35102541651577" lon="-81.67068388313055"><ele>309</ele><time>2026-09-26T16:57:39Z</time></trkpt>
      <trkpt lat="41.35103568434715" lon="-81.6701514646411"><ele>307</ele><time>2026-09-26T16:57:42Z</time></trkpt>
      <trkpt lat="41.351036271080375" lon="-81.66963027790189"><ele>308</ele><time>2026-09-26T16:57:45Z</time></trkpt>
      <trkpt lat="41.351033127866685" lon="-81.66909601539373"><ele>310</ele><time>2026-09-26T16:57:48Z</time></trkpt>
      <trkpt lat="41.35102985892445" lon="-81.66853560134768"><ele>311</ele><time>2026-09-26T16:57:51Z</time></trkpt>
      <trkpt lat="41.35103652253747" lon="-81.66797954589128"><ele>311</ele><time>2026-09-26T16:57:54Z</time></trkpt>
      <trkpt lat="41.35104075539857" lon="-81.66739189065993"><ele>307</ele><time>2026-09-26T16:57:57Z</time></trkpt>
      <trkpt lat="41.351042431779206" lon="-81.66679861955345"><ele>303</ele><time>2026-09-26T16:58:00Z</time></trkpt>
      <trkpt lat="41.35103907901794" lon="-81.66622621938586"><ele>303</ele><time>2026-09-26T16:58:03Z</time></trkpt>
      <trkpt lat="41.3510479638353" lon="-81.66567963548005"><ele>304</ele><time>2026-09-26T16:58:06Z</time></trkpt>
      <trkpt lat="41.35105031076819" lon="-81.66514310985804"><ele>308</ele><time>2026-09-26T16:58:09Z</time></trkpt>
      <trkpt lat="41.3510506041348" lon="-81.66459635831416"><ele>311</ele><time>2026-09-26T16:58:12Z</time></trkpt>
      <trkpt lat="41.35105085559189" lon="-81.66404080577195"><ele>316</ele><time>2026-09-26T16:58:15Z</time></trkpt>
      <trkpt lat="41.351054878905416" lon="-81.66347385384142"><ele>317</ele><time>2026-09-26T16:58:18Z</time></trkpt>
      <trkpt lat="41.35105228051543" lon="-81.66289332322776"><ele>318</ele><time>2026-09-26T16:58:21Z</time></trkpt>
      <trkpt lat="41.351051442325115" lon="-81.66231505572796"><ele>318</ele><time>2026-09-26T16:58:24Z</time></trkpt>
      <trkpt lat="41.35105705820024" lon="-81.66174978017807"><ele>319</ele><time>2026-09-26T16:58:27Z</time></trkpt>
      <trkpt lat="41.35106749366969" lon="-81.66117587126791"><ele>319</ele><time>2026-09-26T16:58:30Z</time></trkpt>
      <trkpt lat="41.351070050150156" lon="-81.66061336174607"><ele>320</ele><time>2026-09-26T16:58:33Z</time></trkpt>
      <trkpt lat="41.35107767768204" lon="-81.66004825383425"><ele>319</ele><time>2026-09-26T16:58:36Z</time></trkpt>
      <trkpt lat="41.35107692331076" lon="-81.65947853587568"><ele>318</ele><time>2026-09-26T16:58:39Z</time></trkpt>
      <trkpt lat="41.35107973124832" lon="-81.65890110656619"><ele>318</ele><time>2026-09-26T16:58:42Z</time></trkpt>
      <trkpt lat="41.35107797104865" lon="-81.65831370279193"><ele>316</ele><time>2026-09-26T16:58:45Z</time></trkpt>
      <trkpt lat="41.35108983144164" lon="-81.65771808475256"><ele>314</ele><time>2026-09-26T16:58:48Z</time></trkpt>
      <trkpt lat="41.35109268128872" lon="-81.65712397545576"><ele>313</ele><time>2026-09-26T16:58:51Z</time></trkpt>
      <trkpt lat="41.351091507822275" lon="-81.65653305128217"><ele>311</ele><time>2026-09-26T16:58:54Z</time></trkpt>
      <trkpt lat="41.35108882561326" lon="-81.65593659505248"><ele>306</ele><time>2026-09-26T16:58:57Z</time></trkpt>
      <trkpt lat="41.351093938574195" lon="-81.65535857900977"><ele>302</ele><time>2026-09-26T16:59:00Z</time></trkpt>
      <trkpt lat="41.351088280789554" lon="-81.65477997623384"><ele>300</ele><time>2026-09-26T16:59:03Z</time></trkpt>
      <trkpt lat="41.3510979199782" lon="-81.65420573204756"><ele>298</ele><time>2026-09-26T16:59:06Z</time></trkpt>
      <trkpt lat="41.35110554751009" lon="-81.65364297106862"><ele>296</ele><time>2026-09-26T16:59:09Z</time></trkpt>
      <trkpt lat="41.351109025999904" lon="-81.65307568386197"><ele>294</ele><time>2026-09-26T16:59:12Z</time></trkpt>
      <trkpt lat="41.351111959666014" lon="-81.65251091122627"><ele>292</ele><time>2026-09-26T16:59:15Z</time></trkpt>
      <trkpt lat="41.35110726580024" lon="-81.65194798260927"><ele>290</ele><time>2026-09-26T16:59:18Z</time></trkpt>
      <trkpt lat="41.35110483504832" lon="-81.65139502845705"><ele>287</ele><time>2026-09-26T16:59:21Z</time></trkpt>
      <trkpt lat="41.351099512539804" lon="-81.65083587169647"><ele>284</ele><time>2026-09-26T16:59:24Z</time></trkpt>
      <trkpt lat="41.35110148228705" lon="-81.6502730268985"><ele>280</ele><time>2026-09-26T16:59:27Z</time></trkpt>
      <trkpt lat="41.3510979199782" lon="-81.64970196783543"><ele>276</ele><time>2026-09-26T16:59:30Z</time></trkpt>
      <trkpt lat="41.351093645207584" lon="-81.64913007058203"><ele>272</ele><time>2026-09-26T16:59:33Z</time></trkpt>
      <trkpt lat="41.351103535853326" lon="-81.64857493713498"><ele>270</ele><time>2026-09-26T16:59:36Z</time></trkpt>
      <trkpt lat="41.35110420640558" lon="-81.64801175706089"><ele>270</ele><time>2026-09-26T16:59:39Z</time></trkpt>
      <trkpt lat="41.35109825525433" lon="-81.64745846763253"><ele>269</ele><time>2026-09-26T16:59:42Z</time></trkpt>
      <trkpt lat="41.35110579896718" lon="-81.64689612574875"><ele>269</ele><time>2026-09-26T16:59:45Z</time></trkpt>
      <trkpt lat="41.351109403185546" lon="-81.64633034728467"><ele>268</ele><time>2026-09-26T16:59:48Z</time></trkpt>
      <trkpt lat="41.35112080257386" lon="-81.64575015194714"><ele>264</ele><time>2026-09-26T16:59:51Z</time></trkpt>
      <trkpt lat="41.351123778149486" lon="-81.64516107179224"><ele>258</ele><time>2026-09-26T16:59:54Z</time></trkpt>
      <trkpt lat="41.35112109594047" lon="-81.64457542821765"><ele>255</ele><time>2026-09-26T16:59:57Z</time></trkpt>
      <trkpt lat="41.35112159885466" lon="-81.64400646463037"><ele>252</ele><time>2026-09-26T17:00:00Z</time></trkpt>
      <trkpt lat="41.351124783977866" lon="-81.64345485158265"><ele>251</ele><time>2026-09-26T17:00:03Z</time></trkpt>
      <trkpt lat="41.3511280529201" lon="-81.64289695210755"><ele>251</ele><time>2026-09-26T17:00:06Z</time></trkpt>
      <trkpt lat="41.35112780146301" lon="-81.64233829826117"><ele>251</ele><time>2026-09-26T17:00:09Z</time></trkpt>
      <trkpt lat="41.35112809482962" lon="-81.64177444763482"><ele>251</ele><time>2026-09-26T17:00:12Z</time></trkpt>
      <trkpt lat="41.35112717282027" lon="-81.6412056516856"><ele>249</ele><time>2026-09-26T17:00:15Z</time></trkpt>
      <trkpt lat="41.3511275080964" lon="-81.64062302559614"><ele>248</ele><time>2026-09-26T17:00:18Z</time></trkpt>
      <trkpt lat="41.35113417170942" lon="-81.64004299789667"><ele>246</ele><time>2026-09-26T17:00:21Z</time></trkpt>
      <trkpt lat="41.35113932657987" lon="-81.6394581925124"><ele>245</ele><time>2026-09-26T17:00:24Z</time></trkpt>
      <trkpt lat="41.35114783421159" lon="-81.63887481205165"><ele>245</ele><time>2026-09-26T17:00:27Z</time></trkpt>
      <trkpt lat="41.351154539734125" lon="-81.63829947821796"><ele>244</ele><time>2026-09-26T17:00:30Z</time></trkpt>
      <trkpt lat="41.35115873068571" lon="-81.63772204890847"><ele>244</ele><time>2026-09-26T17:00:33Z</time></trkpt>
      <trkpt lat="41.35115445591509" lon="-81.63714797236025"><ele>243</ele><time>2026-09-26T17:00:36Z</time></trkpt>
      <trkpt lat="41.35115005541593" lon="-81.63657532073557"><ele>242</ele><time>2026-09-26T17:00:39Z</time></trkpt>
      <trkpt lat="41.35115462355316" lon="-81.63599520921707"><ele>240</ele><time>2026-09-26T17:00:42Z</time></trkpt>
      <trkpt lat="41.35115730576217" lon="-81.63541685789824"><ele>236</ele><time>2026-09-26T17:00:45Z</time></trkpt>
      <trkpt lat="41.351155252195895" lon="-81.63489441387355"><ele>235</ele><time>2026-09-26T17:00:48Z</time></trkpt>
      <trkpt lat="41.35116275399923" lon="-81.63443843834102"><ele>235</ele><time>2026-09-26T17:00:51Z</time></trkpt>
      <trkpt lat="41.3511713873595" lon="-81.63408606313169"><ele>235</ele><time>2026-09-26T17:00:54Z</time></trkpt>
      <trkpt lat="41.351172560825944" lon="-81.63385480642319"><ele>236</ele><time>2026-09-26T17:00:57Z</time></trkpt>
      <trkpt lat="41.35117415338755" lon="-81.63378674536943"><ele>236</ele><time>2026-09-26T17:01:00Z</time></trkpt>
      <trkpt lat="41.35110018309206" lon="-81.63366043008864"><ele>236</ele><time>2026-09-26T17:01:30Z</time></trkpt>
      <trkpt lat="41.35091037489474" lon="-81.63359974510968"><ele>235</ele><time>2026-09-26T17:01:33Z</time></trkpt>
      <trkpt lat="41.35067019145936" lon="-81.6335432510823"><ele>235</ele><time>2026-09-26T17:01:36Z</time></trkpt>
      <trkpt lat="41.35038826614618" lon="-81.63347041234374"><ele>235</ele><time>2026-09-26T17:01:39Z</time></trkpt>
      <trkpt lat="41.35009196586907" lon="-81.63339958526194"><ele>236</ele><time>2026-09-26T17:01:42Z</time></trkpt>
      <trkpt lat="41.3497822964564" lon="-81.63331962190568"><ele>236</ele><time>2026-09-26T17:01:45Z</time></trkpt>
      <trkpt lat="41.3494593417272" lon="-81.63322809152305"><ele>236</ele><time>2026-09-26T17:01:48Z</time></trkpt>
      <trkpt lat="41.34912712499499" lon="-81.63314670324326"><ele>237</ele><time>2026-09-26T17:01:51Z</time></trkpt>
      <trkpt lat="41.3487891247496" lon="-81.63305282592773"><ele>237</ele><time>2026-09-26T17:01:54Z</time></trkpt>
      <trkpt lat="41.34844060521573" lon="-81.63296070881188"><ele>237</ele><time>2026-09-26T17:01:57Z</time></trkpt>
      <trkpt lat="41.34808948729187" lon="-81.63286347873509"><ele>237</ele><time>2026-09-26T17:02:00Z</time></trkpt>
      <trkpt lat="41.347735058516264" lon="-81.6327641531825"><ele>237</ele><time>2026-09-26T17:02:03Z</time></trkpt>
      <trkpt lat="41.34738171938807" lon="-81.63266306743026"><ele>237</ele><time>2026-09-26T17:02:06Z</time></trkpt>
      <trkpt lat="41.34701446630061" lon="-81.63256080821157"><ele>237</ele><time>2026-09-26T17:02:09Z</time></trkpt>
      <trkpt lat="41.34665182325989" lon="-81.63246324285865"><ele>235</ele><time>2026-09-26T17:02:12Z</time></trkpt>
      <trkpt lat="41.346265082247555" lon="-81.63235989399254"><ele>234</ele><time>2026-09-26T17:02:15Z</time></trkpt>
      <trkpt lat="41.345872431993484" lon="-81.63226065225899"><ele>233</ele><time>2026-09-26T17:02:18Z</time></trkpt>
      <trkpt lat="41.34546993300319" lon="-81.63215068168938"><ele>231</ele><time>2026-09-26T17:02:21Z</time></trkpt>
      <trkpt lat="41.34506035130471" lon="-81.63203928619623"><ele>229</ele><time>2026-09-26T17:02:24Z</time></trkpt>
      <trkpt lat="41.34466749150306" lon="-81.63192520849407"><ele>230</ele><time>2026-09-26T17:02:27Z</time></trkpt>
      <trkpt lat="41.34430505800992" lon="-81.63177240639925"><ele>229</ele><time>2026-09-26T17:02:30Z</time></trkpt>
      <trkpt lat="41.343955071642995" lon="-81.63157249800861"><ele>230</ele><time>2026-09-26T17:02:33Z</time></trkpt>
      <trkpt lat="41.3436329131946" lon="-81.63134367205203"><ele>230</ele><time>2026-09-26T17:02:36Z</time></trkpt>
      <trkpt lat="41.34330526459962" lon="-81.63108701817691"><ele>230</ele><time>2026-09-26T17:02:39Z</time></trkpt>
      <trkpt lat="41.34299425408244" lon="-81.63082843646407"><ele>231</ele><time>2026-09-26T17:02:42Z</time></trkpt>
      <trkpt lat="41.34267880115658" lon="-81.63057127967477"><ele>231</ele><time>2026-09-26T17:02:45Z</time></trkpt>
      <trkpt lat="41.34236820973456" lon="-81.63032015785575"><ele>231</ele><time>2026-09-26T17:02:48Z</time></trkpt>
      <trkpt lat="41.34204756002873" lon="-81.63007188588381"><ele>231</ele><time>2026-09-26T17:02:51Z</time></trkpt>
      <trkpt lat="41.34173638187349" lon="-81.62981422618032"><ele>229</ele><time>2026-09-26T17:02:54Z</time></trkpt>
      <trkpt lat="41.34142050985247" lon="-81.62956746295094"><ele>228</ele><time>2026-09-26T17:02:57Z</time></trkpt>
      <trkpt lat="41.34110321290791" lon="-81.62932589650154"><ele>225</ele><time>2026-09-26T17:03:00Z</time></trkpt>
      <trkpt lat="41.340799033641815" lon="-81.62908650934696"><ele>223</ele><time>2026-09-26T17:03:03Z</time></trkpt>
      <trkpt lat="41.34051689878106" lon="-81.62886405363679"><ele>221</ele><time>2026-09-26T17:03:06Z</time></trkpt>
      <trkpt lat="41.340267369523644" lon="-81.62863405421376"><ele>222</ele><time>2026-09-26T17:03:09Z</time></trkpt>
      <trkpt lat="41.34006469510496" lon="-81.6284266859293"><ele>222</ele><time>2026-09-26T17:03:12Z</time></trkpt>
      <trkpt lat="41.33994307368994" lon="-81.62832358852029"><ele>222</ele><time>2026-09-26T17:03:15Z</time></trkpt>
      <trkpt lat="41.33984563406557" lon="-81.62824345752597"><ele>222</ele><time>2026-09-26T17:03:24Z</time></trkpt>
      <trkpt lat="41.33966994937509" lon="-81.62808143533766"><ele>223</ele><time>2026-09-26T17:03:27Z</time></trkpt>
      <trkpt lat="41.33942331187427" lon="-81.62787557579577"><ele>224</ele><time>2026-09-26T17:03:30Z</time></trkpt>
      <trkpt lat="41.339139877818525" lon="-81.6276359371841"><ele>224</ele><time>2026-09-26T17:03:33Z</time></trkpt>
      <trkpt lat="41.33883892558515" lon="-81.62738255225122"><ele>224</ele><time>2026-09-26T17:03:36Z</time></trkpt>
      <trkpt lat="41.33852883707732" lon="-81.62714660167694"><ele>223</ele><time>2026-09-26T17:03:39Z</time></trkpt>
      <trkpt lat="41.33819938637316" lon="-81.62697351537645"><ele>223</ele><time>2026-09-26T17:03:42Z</time></trkpt>
      <trkpt lat="41.33784458041191" lon="-81.62688768468797"><ele>224</ele><time>2026-09-26T17:03:45Z</time></trkpt>
      <trkpt lat="41.33747498039156" lon="-81.62687527947128"><ele>225</ele><time>2026-09-26T17:03:48Z</time></trkpt>
      <trkpt lat="41.33710194379091" lon="-81.62687251344323"><ele>226</ele><time>2026-09-26T17:03:51Z</time></trkpt>
      <trkpt lat="41.336715747602284" lon="-81.62686622701585"><ele>227</ele><time>2026-09-26T17:03:54Z</time></trkpt>
      <trkpt lat="41.33632435463369" lon="-81.62686413154006"><ele>228</ele><time>2026-09-26T17:03:57Z</time></trkpt>
      <trkpt lat="41.335925753228366" lon="-81.62686513736844"><ele>230</ele><time>2026-09-26T17:04:00Z</time></trkpt>
      <trkpt lat="41.335514285601676" lon="-81.62686312571168"><ele>232</ele><time>2026-09-26T17:04:03Z</time></trkpt>
      <trkpt lat="41.33509322069585" lon="-81.6268600244075"><ele>231</ele><time>2026-09-26T17:04:06Z</time></trkpt>
      <trkpt lat="41.33467274252325" lon="-81.62686379626393"><ele>230</ele><time>2026-09-26T17:04:09Z</time></trkpt>
      <trkpt lat="41.334255072288215" lon="-81.62686823867261"><ele>231</ele><time>2026-09-26T17:04:12Z</time></trkpt>
      <trkpt lat="41.33385135792196" lon="-81.62686832249165"><ele>232</ele><time>2026-09-26T17:04:15Z</time></trkpt>
      <trkpt lat="41.333450032398105" lon="-81.6268653050065"><ele>233</ele><time>2026-09-26T17:04:18Z</time></trkpt>
      <trkpt lat="41.33305256254971" lon="-81.62686564028263"><ele>234</ele><time>2026-09-26T17:04:21Z</time></trkpt>
      <trkpt lat="41.3326558470726" lon="-81.62686832249165"><ele>235</ele><time>2026-09-26T17:04:24Z</time></trkpt>
      <trkpt lat="41.33225351572037" lon="-81.62687192671001"><ele>236</ele><time>2026-09-26T17:04:27Z</time></trkpt>
      <trkpt lat="41.33184820879251" lon="-81.6268634609878"><ele>237</ele><time>2026-09-26T17:04:30Z</time></trkpt>
      <trkpt lat="41.33144529070705" lon="-81.62686195224524"><ele>240</ele><time>2026-09-26T17:04:33Z</time></trkpt>
      <trkpt lat="41.33105477783829" lon="-81.62687092088163"><ele>240</ele><time>2026-09-26T17:04:36Z</time></trkpt>
      <trkpt lat="41.33066036738455" lon="-81.62687351927161"><ele>240</ele><time>2026-09-26T17:04:39Z</time></trkpt>
      <trkpt lat="41.33026218507439" lon="-81.6268689930439"><ele>239</ele><time>2026-09-26T17:04:42Z</time></trkpt>
      <trkpt lat="41.32985809352249" lon="-81.62686614319682"><ele>237</ele><time>2026-09-26T17:04:45Z</time></trkpt>
      <trkpt lat="41.32944075856358" lon="-81.62687041796744"><ele>236</ele><time>2026-09-26T17:04:48Z</time></trkpt>
      <trkpt lat="41.32901893928647" lon="-81.62687184289098"><ele>235</ele><time>2026-09-26T17:04:51Z</time></trkpt>
      <trkpt lat="41.32860952522606" lon="-81.62686957977712"><ele>236</ele><time>2026-09-26T17:04:54Z</time></trkpt>
      <trkpt lat="41.32820790633559" lon="-81.62686547264457"><ele>236</ele><time>2026-09-26T17:04:57Z</time></trkpt>
      <trkpt lat="41.32781404070556" lon="-81.62686807103455"><ele>235</ele><time>2026-09-26T17:05:00Z</time></trkpt>
      <trkpt lat="41.32741074543446" lon="-81.6268658079207"><ele>234</ele><time>2026-09-26T17:05:03Z</time></trkpt>
      <trkpt lat="41.32701268885285" lon="-81.62687603384256"><ele>234</ele><time>2026-09-26T17:05:06Z</time></trkpt>
      <trkpt lat="41.32662422955036" lon="-81.62687988951802"><ele>233</ele><time>2026-09-26T17:05:09Z</time></trkpt>
      <trkpt lat="41.32624239195138" lon="-81.62687846459448"><ele>233</ele><time>2026-09-26T17:05:12Z</time></trkpt>
      <trkpt lat="41.32586516439915" lon="-81.6268689930439"><ele>232</ele><time>2026-09-26T17:05:15Z</time></trkpt>
      <trkpt lat="41.325497408397496" lon="-81.62686765193939"><ele>232</ele><time>2026-09-26T17:05:18Z</time></trkpt>
      <trkpt lat="41.32514444645494" lon="-81.62687192671001"><ele>233</ele><time>2026-09-26T17:05:21Z</time></trkpt>
      <trkpt lat="41.32479735184461" lon="-81.62687418982387"><ele>233</ele><time>2026-09-26T17:05:24Z</time></trkpt>
      <trkpt lat="41.32444103714079" lon="-81.62686857394874"><ele>231</ele><time>2026-09-26T17:05:27Z</time></trkpt>
      <trkpt lat="41.32407223340124" lon="-81.62686865776777"><ele>228</ele><time>2026-09-26T17:05:30Z</time></trkpt>
      <trkpt lat="41.32370242383331" lon="-81.62687209434807"><ele>226</ele><time>2026-09-26T17:05:33Z</time></trkpt>
      <trkpt lat="41.32334556430578" lon="-81.6268756147474"><ele>224</ele><time>2026-09-26T17:05:36Z</time></trkpt>
      <trkpt lat="41.322996374219656" lon="-81.6268758662045"><ele>223</ele><time>2026-09-26T17:05:39Z</time></trkpt>
      <trkpt lat="41.32266801316291" lon="-81.6268756147474"><ele>222</ele><time>2026-09-26T17:05:42Z</time></trkpt>
      <trkpt lat="41.32236395962536" lon="-81.62687804549932"><ele>221</ele><time>2026-09-26T17:05:45Z</time></trkpt>
      <trkpt lat="41.322052739560604" lon="-81.62687628529966"><ele>222</ele><time>2026-09-26T17:05:48Z</time></trkpt>
      <trkpt lat="41.32175924722105" lon="-81.6268793027848"><ele>223</ele><time>2026-09-26T17:05:51Z</time></trkpt>
      <trkpt lat="41.321462066844106" lon="-81.62688500247896"><ele>225</ele><time>2026-09-26T17:05:54Z</time></trkpt>
      <trkpt lat="41.321167149581015" lon="-81.62688894197345"><ele>227</ele><time>2026-09-26T17:05:57Z</time></trkpt>
      <trkpt lat="41.32091812323779" lon="-81.62689070217311"><ele>228</ele><time>2026-09-26T17:06:00Z</time></trkpt>
      <trkpt lat="41.32070798892528" lon="-81.62688558921218"><ele>229</ele><time>2026-09-26T17:06:03Z</time></trkpt>
      <trkpt lat="41.320521449670196" lon="-81.626863963902"><ele>231</ele><time>2026-09-26T17:06:06Z</time></trkpt>
      <trkpt lat="41.32038226816803" lon="-81.6268362198025"><ele>231</ele><time>2026-09-26T17:06:09Z</time></trkpt>
      <trkpt lat="41.32031634449959" lon="-81.62683194503188"><ele>231</ele><time>2026-09-26T17:06:12Z</time></trkpt>
      <trkpt lat="41.32025783881545" lon="-81.62682892754674"><ele>231</ele><time>2026-09-26T17:06:21Z</time></trkpt>
      <trkpt lat="41.3201213395223" lon="-81.62683085538447"><ele>232</ele><time>2026-09-26T17:06:24Z</time></trkpt>
      <trkpt lat="41.32000613026321" lon="-81.6267254948616"><ele>232</ele><time>2026-09-26T17:06:27Z</time></trkpt>
      <trkpt lat="41.31997658405453" lon="-81.62648258730769"><ele>231</ele><time>2026-09-26T17:06:30Z</time></trkpt>
      <trkpt lat="41.31997163873166" lon="-81.62619240581989"><ele>231</ele><time>2026-09-26T17:06:33Z</time></trkpt>
      <trkpt lat="41.319963173009455" lon="-81.6258842870593"><ele>231</ele><time>2026-09-26T17:06:36Z</time></trkpt>
      <trkpt lat="41.319970046170056" lon="-81.62555269896984"><ele>230</ele><time>2026-09-26T17:06:39Z</time></trkpt>
      <trkpt lat="41.31997725460678" lon="-81.62521868012846"><ele>229</ele><time>2026-09-26T17:06:42Z</time></trkpt>
      <trkpt lat="41.319978553801775" lon="-81.62487451918423"><ele>228</ele><time>2026-09-26T17:06:45Z</time></trkpt>
      <trkpt lat="41.31997432094067" lon="-81.62455961108208"><ele>228</ele><time>2026-09-26T17:06:48Z</time></trkpt>
      <trkpt lat="41.319972686469555" lon="-81.62426054477692"><ele>227</ele><time>2026-09-26T17:06:51Z</time></trkpt>
      <trkpt lat="41.319971764460206" lon="-81.6239520907402"><ele>227</ele><time>2026-09-26T17:06:54Z</time></trkpt>
      <trkpt lat="41.31997415330261" lon="-81.62359787151217"><ele>225</ele><time>2026-09-26T17:06:57Z</time></trkpt>
      <trkpt lat="41.31998676806688" lon="-81.62320517934859"><ele>224</ele><time>2026-09-26T17:07:00Z</time></trkpt>
      <trkpt lat="41.32002389989793" lon="-81.62284257821739"><ele>222</ele><time>2026-09-26T17:07:03Z</time></trkpt>
      <trkpt lat="41.32000579498708" lon="-81.62261517718434"><ele>220</ele><time>2026-09-26T17:07:06Z</time></trkpt>
      <trkpt lat="41.31985085550696" lon="-81.6225228086114"><ele>219</ele><time>2026-09-26T17:07:09Z</time></trkpt>
      <trkpt lat="41.319606942124665" lon="-81.62242616526783"><ele>218</ele><time>2026-09-26T17:07:12Z</time></trkpt>
      <trkpt lat="41.31931562907994" lon="-81.62226724438369"><ele>219</ele><time>2026-09-26T17:07:15Z</time></trkpt>
      <trkpt lat="41.31902909372002" lon="-81.6220219898969"><ele>221</ele><time>2026-09-26T17:07:18Z</time></trkpt>
      <trkpt lat="41.3187814084813" lon="-81.62171294912696"><ele>223</ele><time>2026-09-26T17:07:21Z</time></trkpt>
      <trkpt lat="41.31861192639917" lon="-81.6214186605066"><ele>224</ele><time>2026-09-26T17:07:24Z</time></trkpt>
      <trkpt lat="41.318495627492666" lon="-81.62136828526855"><ele>225</ele><time>2026-09-26T17:07:27Z</time></trkpt>
      <trkpt lat="41.3184470962733" lon="-81.62154665216804"><ele>224</ele><time>2026-09-26T17:07:30Z</time></trkpt>
      <trkpt lat="41.31841931026429" lon="-81.62186809815466"><ele>222</ele><time>2026-09-26T17:07:33Z</time></trkpt>
      <trkpt lat="41.31839600857347" lon="-81.62229247391224"><ele>221</ele><time>2026-09-26T17:07:36Z</time></trkpt>
      <trkpt lat="41.318288845941424" lon="-81.62269840948284"><ele>222</ele><time>2026-09-26T17:07:39Z</time></trkpt>
      <trkpt lat="41.31800050847232" lon="-81.62292279303074"><ele>224</ele><time>2026-09-26T17:07:42Z</time></trkpt>
      <trkpt lat="41.317676422186196" lon="-81.62291524931788"><ele>225</ele><time>2026-09-26T17:07:45Z</time></trkpt>
      <trkpt lat="41.31734726484865" lon="-81.62289161235094"><ele>227</ele><time>2026-09-26T17:07:48Z</time></trkpt>
      <trkpt lat="41.31701781414449" lon="-81.62288708612323"><ele>228</ele><time>2026-09-26T17:07:51Z</time></trkpt>
      <trkpt lat="41.316686645150185" lon="-81.62289739586413"><ele>228</ele><time>2026-09-26T17:07:54Z</time></trkpt>
      <trkpt lat="41.31634160410613" lon="-81.62291457876563"><ele>228</ele><time>2026-09-26T17:07:57Z</time></trkpt>
      <trkpt lat="41.3159873848781" lon="-81.6229113098234"><ele>228</ele><time>2026-09-26T17:08:00Z</time></trkpt>
      <trkpt lat="41.315641002729535" lon="-81.62286579608917"><ele>229</ele><time>2026-09-26T17:08:03Z</time></trkpt>
      <trkpt lat="41.31533577572554" lon="-81.62275331094861"><ele>231</ele><time>2026-09-26T17:08:06Z</time></trkpt>
      <trkpt lat="41.315082306973636" lon="-81.62255130708218"><ele>233</ele><time>2026-09-26T17:08:09Z</time></trkpt>
      <trkpt lat="41.31488520652056" lon="-81.62221720442176"><ele>232</ele><time>2026-09-26T17:08:12Z</time></trkpt>
      <trkpt lat="41.31476589012891" lon="-81.62182317115366"><ele>228</ele><time>2026-09-26T17:08:15Z</time></trkpt>
      <trkpt lat="41.314692590385675" lon="-81.6214054170996"><ele>228</ele><time>2026-09-26T17:08:18Z</time></trkpt>
      <trkpt lat="41.31465189624578" lon="-81.62095941603184"><ele>227</ele><time>2026-09-26T17:08:21Z</time></trkpt>
      <trkpt lat="41.314637563191354" lon="-81.62053252570331"><ele>226</ele><time>2026-09-26T17:08:24Z</time></trkpt>
      <trkpt lat="41.314623397774994" lon="-81.62020152434707"><ele>229</ele><time>2026-09-26T17:08:27Z</time></trkpt>
      <trkpt lat="41.31461727898568" lon="-81.6200773883611"><ele>229</ele><time>2026-09-26T17:08:30Z</time></trkpt>
      <trkpt lat="41.31453056819737" lon="-81.61989675834775"><ele>226</ele><time>2026-09-26T17:08:51Z</time></trkpt>
      <trkpt lat="41.31441079080105" lon="-81.6196558624506"><ele>224</ele><time>2026-09-26T17:08:54Z</time></trkpt>
      <trkpt lat="41.3142861938104" lon="-81.61926727741957"><ele>223</ele><time>2026-09-26T17:08:57Z</time></trkpt>
      <trkpt lat="41.31419789046049" lon="-81.61875899881124"><ele>225</ele><time>2026-09-26T17:09:00Z</time></trkpt>
      <trkpt lat="41.31408066954464" lon="-81.61825315095484"><ele>226</ele><time>2026-09-26T17:09:03Z</time></trkpt>
      <trkpt lat="41.31375465542078" lon="-81.61796313710511"><ele>228</ele><time>2026-09-26T17:09:06Z</time></trkpt>
      <trkpt lat="41.313373572193086" lon="-81.61793975159526"><ele>231</ele><time>2026-09-26T17:09:09Z</time></trkpt>
      <trkpt lat="41.313056191429496" lon="-81.61816631443799"><ele>233</ele><time>2026-09-26T17:09:12Z</time></trkpt>
      <trkpt lat="41.31292040459812" lon="-81.61847937852144"><ele>237</ele><time>2026-09-26T17:09:15Z</time></trkpt>
      <trkpt lat="41.312786880880594" lon="-81.6188009083271"><ele>240</ele><time>2026-09-26T17:09:18Z</time></trkpt>
      <trkpt lat="41.31260356865823" lon="-81.61911020055413"><ele>242</ele><time>2026-09-26T17:09:21Z</time></trkpt>
      <trkpt lat="41.31232604384422" lon="-81.61939669400454"><ele>244</ele><time>2026-09-26T17:09:24Z</time></trkpt>
      <trkpt lat="41.3121216930449" lon="-81.61971403285861"><ele>247</ele><time>2026-09-26T17:09:27Z</time></trkpt>
      <trkpt lat="41.31196956150234" lon="-81.62010228261352"><ele>247</ele><time>2026-09-26T17:09:30Z</time></trkpt>
      <trkpt lat="41.311849784106016" lon="-81.62045641802251"><ele>246</ele><time>2026-09-26T17:09:33Z</time></trkpt>
      <trkpt lat="41.311741028912365" lon="-81.62076923064888"><ele>246</ele><time>2026-09-26T17:09:36Z</time></trkpt>
      <trkpt lat="41.31155448965728" lon="-81.62091004662216"><ele>244</ele><time>2026-09-26T17:09:39Z</time></trkpt>
      <trkpt lat="41.311356173828244" lon="-81.62085900083184"><ele>243</ele><time>2026-09-26T17:09:42Z</time></trkpt>
      <trkpt lat="41.311222817748785" lon="-81.620634784922"><ele>242</ele><time>2026-09-26T17:09:45Z</time></trkpt>
      <trkpt lat="41.31118878722191" lon="-81.62033228203654"><ele>239</ele><time>2026-09-26T17:09:48Z</time></trkpt>
      <trkpt lat="41.31115815136582" lon="-81.62004243582487"><ele>236</ele><time>2026-09-26T17:09:51Z</time></trkpt>
      <trkpt lat="41.311104632914066" lon="-81.61987219937146"><ele>236</ele><time>2026-09-26T17:09:54Z</time></trkpt>
      <trkpt lat="41.31102839950472" lon="-81.61970590241253"><ele>234</ele><time>2026-09-26T17:09:57Z</time></trkpt>
      <trkpt lat="41.3109078258276" lon="-81.6194814350456"><ele>232</ele><time>2026-09-26T17:10:00Z</time></trkpt>
      <trkpt lat="41.31078205537051" lon="-81.61920608952641"><ele>230</ele><time>2026-09-26T17:10:03Z</time></trkpt>
      <trkpt lat="41.31070041563362" lon="-81.61887902766466"><ele>229</ele><time>2026-09-26T17:10:06Z</time></trkpt>
      <trkpt lat="41.31068574730307" lon="-81.6185146663338"><ele>226</ele><time>2026-09-26T17:10:09Z</time></trkpt>
      <trkpt lat="41.31074090022594" lon="-81.61815349012613"><ele>222</ele><time>2026-09-26T17:10:12Z</time></trkpt>
      <trkpt lat="41.310796681791544" lon="-81.61777789704502"><ele>220</ele><time>2026-09-26T17:10:15Z</time></trkpt>
      <trkpt lat="41.310809925198555" lon="-81.61739584989846"><ele>217</ele><time>2026-09-26T17:10:18Z</time></trkpt>
      <trkpt lat="41.310678916051984" lon="-81.61704137921333"><ele>216</ele><time>2026-09-26T17:10:21Z</time></trkpt>
      <trkpt lat="41.31042791996151" lon="-81.6167889162898"><ele>218</ele><time>2026-09-26T17:10:24Z</time></trkpt>
      <trkpt lat="41.310175666585565" lon="-81.61662882193923"><ele>219</ele><time>2026-09-26T17:10:27Z</time></trkpt>
      <trkpt lat="41.30990727804601" lon="-81.61655883304775"><ele>220</ele><time>2026-09-26T17:10:30Z</time></trkpt>
      <trkpt lat="41.309611103497446" lon="-81.61656101234257"><ele>218</ele><time>2026-09-26T17:10:33Z</time></trkpt>
      <trkpt lat="41.30932150874287" lon="-81.61657735705376"><ele>216</ele><time>2026-09-26T17:10:36Z</time></trkpt>
      <trkpt lat="41.30912449210882" lon="-81.61643452942371"><ele>217</ele><time>2026-09-26T17:10:39Z</time></trkpt>
      <trkpt lat="41.30907570943236" lon="-81.61618860438466"><ele>220</ele><time>2026-09-26T17:10:42Z</time></trkpt>
      <trkpt lat="41.30912696477026" lon="-81.61590026691556"><ele>220</ele><time>2026-09-26T17:10:45Z</time></trkpt>
      <trkpt lat="41.30924154538661" lon="-81.61560547538102"><ele>219</ele><time>2026-09-26T17:10:48Z</time></trkpt>
      <trkpt lat="41.309279557317495" lon="-81.61522661335766"><ele>217</ele><time>2026-09-26T17:10:51Z</time></trkpt>
      <trkpt lat="41.309294938109815" lon="-81.614801986143"><ele>215</ele><time>2026-09-26T17:10:54Z</time></trkpt>
      <trkpt lat="41.30934728309512" lon="-81.61439563147724"><ele>214</ele><time>2026-09-26T17:10:57Z</time></trkpt>
      <trkpt lat="41.309398831799626" lon="-81.61397988907993"><ele>215</ele><time>2026-09-26T17:11:00Z</time></trkpt>
      <trkpt lat="41.30940851289779" lon="-81.61358828656375"><ele>211</ele><time>2026-09-26T17:11:03Z</time></trkpt>
      <trkpt lat="41.30936744157225" lon="-81.61317891441286"><ele>206</ele><time>2026-09-26T17:11:06Z</time></trkpt>
      <trkpt lat="41.30937360227108" lon="-81.61274431273341"><ele>205</ele><time>2026-09-26T17:11:09Z</time></trkpt>
      <trkpt lat="41.30941475741565" lon="-81.61231834441423"><ele>205</ele><time>2026-09-26T17:11:12Z</time></trkpt>
      <trkpt lat="41.30944820120931" lon="-81.61185331642628"><ele>205</ele><time>2026-09-26T17:11:15Z</time></trkpt>
      <trkpt lat="41.309500336647034" lon="-81.61143355071545"><ele>207</ele><time>2026-09-26T17:11:18Z</time></trkpt>
      <trkpt lat="41.309491619467735" lon="-81.61108503118157"><ele>210</ele><time>2026-09-26T17:11:21Z</time></trkpt>
      <trkpt lat="41.30942196585238" lon="-81.61078772507608"><ele>210</ele><time>2026-09-26T17:11:24Z</time></trkpt>
      <trkpt lat="41.30921669304371" lon="-81.61054934374988"><ele>209</ele><time>2026-09-26T17:11:27Z</time></trkpt>
      <trkpt lat="41.30898598115891" lon="-81.61035622470081"><ele>208</ele><time>2026-09-26T17:11:30Z</time></trkpt>
      <trkpt lat="41.30874948576093" lon="-81.61012295633554"><ele>208</ele><time>2026-09-26T17:11:33Z</time></trkpt>
      <trkpt lat="41.30851328372955" lon="-81.60987292416394"><ele>208</ele><time>2026-09-26T17:11:36Z</time></trkpt>
      <trkpt lat="41.308257384225726" lon="-81.60966832190752"><ele>209</ele><time>2026-09-26T17:11:39Z</time></trkpt>
      <trkpt lat="41.307981200516224" lon="-81.60959405824542"><ele>206</ele><time>2026-09-26T17:11:42Z</time></trkpt>
      <trkpt lat="41.30769893992692" lon="-81.60961207933724"><ele>204</ele><time>2026-09-26T17:11:45Z</time></trkpt>
      <trkpt lat="41.30742070265114" lon="-81.60975482314825"><ele>202</ele><time>2026-09-26T17:11:48Z</time></trkpt>
      <trkpt lat="41.30714028608054" lon="-81.60990485921502"><ele>204</ele><time>2026-09-26T17:11:51Z</time></trkpt>
      <trkpt lat="41.306884554214776" lon="-81.61002228967845"><ele>208</ele><time>2026-09-26T17:11:54Z</time></trkpt>
      <trkpt lat="41.30666985176504" lon="-81.61016151309013"><ele>212</ele><time>2026-09-26T17:11:57Z</time></trkpt>
      <trkpt lat="41.30649839993566" lon="-81.61035622470081"><ele>215</ele><time>2026-09-26T17:12:00Z</time></trkpt>
      <trkpt lat="41.306331851519644" lon="-81.61060977727175"><ele>218</ele><time>2026-09-26T17:12:03Z</time></trkpt>
      <trkpt lat="41.30611119791865" lon="-81.61084597930312"><ele>222</ele><time>2026-09-26T17:12:06Z</time></trkpt>
      <trkpt lat="41.30582654848695" lon="-81.61101705394685"><ele>225</ele><time>2026-09-26T17:12:09Z</time></trkpt>
      <trkpt lat="41.305535109713674" lon="-81.61114890128374"><ele>226</ele><time>2026-09-26T17:12:12Z</time></trkpt>
      <trkpt lat="41.305244006216526" lon="-81.61115451715887"><ele>224</ele><time>2026-09-26T17:12:15Z</time></trkpt>
      <trkpt lat="41.304956465028226" lon="-81.61102535203099"><ele>222</ele><time>2026-09-26T17:12:18Z</time></trkpt>
      <trkpt lat="41.30476640537381" lon="-81.61078311502934"><ele>220</ele><time>2026-09-26T17:12:21Z</time></trkpt>
      <trkpt lat="41.304632127285004" lon="-81.61047466099262"><ele>222</ele><time>2026-09-26T17:12:24Z</time></trkpt>
      <trkpt lat="41.30453079007566" lon="-81.61024709232152"><ele>223</ele><time>2026-09-26T17:12:27Z</time></trkpt>
      <trkpt lat="41.30446691997349" lon="-81.61011826246977"><ele>223</ele><time>2026-09-26T17:12:30Z</time></trkpt>
      <trkpt lat="41.3044267706573" lon="-81.61002924665809"><ele>224</ele><time>2026-09-26T17:12:36Z</time></trkpt>
      <trkpt lat="41.304421364329755" lon="-81.6098664700985"><ele>223</ele><time>2026-09-26T17:12:48Z</time></trkpt>
      <trkpt lat="41.304540638811886" lon="-81.60969698801637"><ele>222</ele><time>2026-09-26T17:12:51Z</time></trkpt>
      <trkpt lat="41.30471908953041" lon="-81.60949842073023"><ele>222</ele><time>2026-09-26T17:12:54Z</time></trkpt>
      <trkpt lat="41.30490030627698" lon="-81.60928719677031"><ele>222</ele><time>2026-09-26T17:12:57Z</time></trkpt>
      <trkpt lat="41.305089821107686" lon="-81.60907370969653"><ele>221</ele><time>2026-09-26T17:13:00Z</time></trkpt>
      <trkpt lat="41.30528796929866" lon="-81.60886022262275"><ele>220</ele><time>2026-09-26T17:13:03Z</time></trkpt>
      <trkpt lat="41.305525386705995" lon="-81.60863525234163"><ele>219</ele><time>2026-09-26T17:13:06Z</time></trkpt>
      <trkpt lat="41.305700107477605" lon="-81.60843551158905"><ele>218</ele><time>2026-09-26T17:13:09Z</time></trkpt>
      <trkpt lat="41.30595349241048" lon="-81.60820534452796"><ele>217</ele><time>2026-09-26T17:13:12Z</time></trkpt>
      <trkpt lat="41.306183617562056" lon="-81.60794894210994"><ele>215</ele><time>2026-09-26T17:13:15Z</time></trkpt>
      <trkpt lat="41.306381011381745" lon="-81.60768868401647"><ele>213</ele><time>2026-09-26T17:13:18Z</time></trkpt>
      <trkpt lat="41.3066060654819" lon="-81.6074173618108"><ele>212</ele><time>2026-09-26T17:13:21Z</time></trkpt>
      <trkpt lat="41.306848134845495" lon="-81.607127180323"><ele>211</ele><time>2026-09-26T17:13:24Z</time></trkpt>
      <trkpt lat="41.307095191441476" lon="-81.60683297552168"><ele>209</ele><time>2026-09-26T17:13:27Z</time></trkpt>
      <trkpt lat="41.30733927246183" lon="-81.6065280418843"><ele>205</ele><time>2026-09-26T17:13:30Z</time></trkpt>
      <trkpt lat="41.307587921619415" lon="-81.60622931085527"><ele>204</ele><time>2026-09-26T17:13:33Z</time></trkpt>
      <trkpt lat="41.3078355230391" lon="-81.60594206303358"><ele>203</ele><time>2026-09-26T17:13:36Z</time></trkpt>
      <trkpt lat="41.30808735731989" lon="-81.60567794926465"><ele>202</ele><time>2026-09-26T17:13:39Z</time></trkpt>
      <trkpt lat="41.3083191588521" lon="-81.60543537698686"><ele>201</ele><time>2026-09-26T17:13:42Z</time></trkpt>
      <trkpt lat="41.30854203365743" lon="-81.60521736368537"><ele>198</ele><time>2026-09-26T17:13:45Z</time></trkpt>
      <trkpt lat="41.30877588875592" lon="-81.60499884746969"><ele>198</ele><time>2026-09-26T17:13:48Z</time></trkpt>
      <trkpt lat="41.3090549223125" lon="-81.60478619858623"><ele>197</ele><time>2026-09-26T17:13:51Z</time></trkpt>
      <trkpt lat="41.30932335276157" lon="-81.60457899793983"><ele>196</ele><time>2026-09-26T17:13:54Z</time></trkpt>
      <trkpt lat="41.30962007213384" lon="-81.604386549443"><ele>195</ele><time>2026-09-26T17:13:57Z</time></trkpt>
      <trkpt lat="41.30985380150378" lon="-81.6042380221188"><ele>191</ele><time>2026-09-26T17:14:00Z</time></trkpt>
      <trkpt lat="41.3099363213405" lon="-81.604119585827"><ele>190</ele><time>2026-09-26T17:14:03Z</time></trkpt>
      <trkpt lat="41.309921401552856" lon="-81.60401690751314"><ele>192</ele><time>2026-09-26T17:14:06Z</time></trkpt>
      <trkpt lat="41.309827314689755" lon="-81.60387575626373"><ele>192</ele><time>2026-09-26T17:14:09Z</time></trkpt>
      <trkpt lat="41.30968876183033" lon="-81.60366411320865"><ele>191</ele><time>2026-09-26T17:14:12Z</time></trkpt>
      <trkpt lat="41.30950398277491" lon="-81.60347275435925"><ele>191</ele><time>2026-09-26T17:14:15Z</time></trkpt>
      <trkpt lat="41.30928969942033" lon="-81.60330989398062"><ele>191</ele><time>2026-09-26T17:14:18Z</time></trkpt>
      <trkpt lat="41.30907960701734" lon="-81.60317595116794"><ele>191</ele><time>2026-09-26T17:14:21Z</time></trkpt>
      <trkpt lat="41.308935564011335" lon="-81.60297386348248"><ele>190</ele><time>2026-09-26T17:14:24Z</time></trkpt>
      <trkpt lat="41.30884629674256" lon="-81.60275207832456"><ele>191</ele><time>2026-09-26T17:14:27Z</time></trkpt>
      <trkpt lat="41.30890165921301" lon="-81.60260371863842"><ele>191</ele><time>2026-09-26T17:14:30Z</time></trkpt>
      <trkpt lat="41.309005678631365" lon="-81.60255024209619"><ele>192</ele><time>2026-09-26T17:14:33Z</time></trkpt>
      <trkpt lat="41.309055467136204" lon="-81.60247161984444"><ele>196</ele><time>2026-09-26T17:14:54Z</time></trkpt>
    </trkseg>
  </trk>
</gpx>
