<?xml version="1.0" encoding="UTF-8"?>
<gpx version="1.1" creator="HoldMyTrack" xmlns="http://www.topografix.com/GPX/1/1" xmlns:gpxtpx="http://www.garmin.com/xmlschemas/TrackPointExtension/v1">
  <trk>
    <type>walking</type>
    <trkseg>
      <trkpt lat="41.880448" lon="12.449466"><ele>41.18</ele><time>2026-08-04T08:12:00Z</time></trkpt>
      <trkpt lat="41.880619" lon="12.449278"><ele>41.84</ele><time>2026-08-04T08:12:18Z</time></trkpt>
      <trkpt lat="41.880625" lon="12.449226"><ele>41.89</ele><time>2026-08-04T08:12:22Z</time></trkpt>
      <trkpt lat="41.880891" lon="12.448802"><ele>43.08</ele><time>2026-08-04T08:12:58Z</time></trkpt>
      <trkpt lat="41.881108" lon="12.44851"><ele>45.48</ele><time>2026-08-04T08:13:28Z</time></trkpt>
      <trkpt lat="41.881174" lon="12.44844"><ele>46.4</ele><time>2026-08-04T08:13:35Z</time></trkpt>
      <trkpt lat="41.881192" lon="12.448341"><ele>47.11</ele><time>2026-08-04T08:13:43Z</time></trkpt>
      <trkpt lat="41.881222" lon="12.448287"><ele>47.56</ele><time>2026-08-04T08:13:47Z</time></trkpt>
      <trkpt lat="41.881274" lon="12.448241"><ele>47.96</ele><time>2026-08-04T08:13:52Z</time></trkpt>
      <trkpt lat="41.881528" lon="12.448129"><ele>50</ele><time>2026-08-04T08:14:15Z</time></trkpt>
      <trkpt lat="41.881695" lon="12.448065"><ele>50.4</ele><time>2026-08-04T08:14:29Z</time></trkpt>
      <trkpt lat="41.881806" lon="12.447901"><ele>51</ele><time>2026-08-04T08:14:45Z</time></trkpt>
      <trkpt lat="41.882408" lon="12.447573"><ele>51.39</ele><time>2026-08-04T08:15:46Z</time></trkpt>
      <trkpt lat="41.88247" lon="12.447563"><ele>51.32</ele><time>2026-08-04T08:15:51Z</time></trkpt>
      <trkpt lat="41.882552" lon="12.447506"><ele>51.65</ele><time>2026-08-04T08:16:00Z</time></trkpt>
      <trkpt lat="41.882636" lon="12.447431"><ele>52.09</ele><time>2026-08-04T08:16:10Z</time></trkpt>
      <trkpt lat="41.883005" lon="12.447211"><ele>53.67</ele><time>2026-08-04T08:16:49Z</time></trkpt>
      <trkpt lat="41.882982" lon="12.447166"><ele>53.73</ele><time>2026-08-04T08:16:52Z</time></trkpt>
      <trkpt lat="41.883176" lon="12.446989"><ele>53.35</ele><time>2026-08-04T08:17:12Z</time></trkpt>
      <trkpt lat="41.883384" lon="12.446955"><ele>54</ele><time>2026-08-04T08:17:30Z</time></trkpt>
      <trkpt lat="41.88384" lon="12.446937"><ele>56.99</ele><time>2026-08-04T08:18:14Z</time></trkpt>
      <trkpt lat="41.884027" lon="12.44691"><ele>59.51</ele><time>2026-08-04T08:18:30Z</time></trkpt>
      <trkpt lat="41.884095" lon="12.446856"><ele>60.41</ele><time>2026-08-04T08:18:37Z</time></trkpt>
      <trkpt lat="41.884256" lon="12.446808"><ele>62.42</ele><time>2026-08-04T08:18:53Z</time></trkpt>
      <trkpt lat="41.884396" lon="12.446693"><ele>64.34</ele><time>2026-08-04T08:19:08Z</time></trkpt>
      <trkpt lat="41.884632" lon="12.446747"><ele>66</ele><time>2026-08-04T08:19:30Z</time></trkpt>
      <trkpt lat="41.884937" lon="12.446681"><ele>66.76</ele><time>2026-08-04T08:20:01Z</time></trkpt>
      <trkpt lat="41.885003" lon="12.44676"><ele>66.99</ele><time>2026-08-04T08:20:09Z</time></trkpt>
      <trkpt lat="41.885076" lon="12.44665"><ele>67</ele><time>2026-08-04T08:20:19Z</time></trkpt>
      <trkpt lat="41.885183" lon="12.446547"><ele>67.37</ele><time>2026-08-04T08:20:31Z</time></trkpt>
      <trkpt lat="41.885195" lon="12.446535"><ele>67.41</ele><time>2026-08-04T08:20:32Z</time></trkpt>
      <trkpt lat="41.885774" lon="12.44655"><ele>69.1</ele><time>2026-08-04T08:21:23Z</time></trkpt>
      <trkpt lat="41.885938" lon="12.4463"><ele>69.34</ele><time>2026-08-04T08:21:46Z</time></trkpt>
      <trkpt lat="41.885971" lon="12.446265"><ele>69.14</ele><time>2026-08-04T08:21:50Z</time></trkpt>
      <trkpt lat="41.886387" lon="12.445931"><ele>67.39</ele><time>2026-08-04T08:22:30Z</time></trkpt>
      <trkpt lat="41.886611" lon="12.445823"><ele>66.93</ele><time>2026-08-04T08:22:52Z</time></trkpt>
      <trkpt lat="41.886692" lon="12.445735"><ele>66.36</ele><time>2026-08-04T08:23:01Z</time></trkpt>
      <trkpt lat="41.886882" lon="12.445602"><ele>66.1</ele><time>2026-08-04T08:23:23Z</time></trkpt>
      <trkpt lat="41.886959" lon="12.445413"><ele>64.66</ele><time>2026-08-04T08:23:39Z</time></trkpt>
      <trkpt lat="41.886994" lon="12.445261"><ele>63.93</ele><time>2026-08-04T08:23:51Z</time></trkpt>
      <trkpt lat="41.887013" lon="12.445136"><ele>63.02</ele><time>2026-08-04T08:23:59Z</time></trkpt>
      <trkpt lat="41.887053" lon="12.445035"><ele>62.09</ele><time>2026-08-04T08:24:06Z</time></trkpt>
      <trkpt lat="41.887048" lon="12.444937"><ele>62.02</ele><time>2026-08-04T08:24:12Z</time></trkpt>
      <trkpt lat="41.887623" lon="12.444902"><ele>64.64</ele><time>2026-08-04T08:25:07Z</time></trkpt>
      <trkpt lat="41.88753" lon="12.444691"><ele>63.81</ele><time>2026-08-04T08:25:24Z</time></trkpt>
      <trkpt lat="41.887689" lon="12.444482"><ele>64.94</ele><time>2026-08-04T08:25:43Z</time></trkpt>
      <trkpt lat="41.887766" lon="12.44435"><ele>65.66</ele><time>2026-08-04T08:25:55Z</time></trkpt>
      <trkpt lat="41.88781" lon="12.444235"><ele>66</ele><time>2026-08-04T08:26:04Z</time></trkpt>
      <trkpt lat="41.887854" lon="12.444031"><ele>66.29</ele><time>2026-08-04T08:26:20Z</time></trkpt>
      <trkpt lat="41.887902" lon="12.443214"><ele>70.6</ele><time>2026-08-04T08:27:16Z</time></trkpt>
      <trkpt lat="41.887904" lon="12.442673"><ele>73.75</ele><time>2026-08-04T08:27:50Z</time></trkpt>
      <trkpt lat="41.887921" lon="12.441788"><ele>80.77</ele><time>2026-08-04T08:28:49Z</time></trkpt>
      <trkpt lat="41.887884" lon="12.440957"><ele>78.03</ele><time>2026-08-04T08:29:47Z</time></trkpt>
      <trkpt lat="41.887881" lon="12.440628"><ele>76.71</ele><time>2026-08-04T08:30:09Z</time></trkpt>
      <trkpt lat="41.888" lon="12.440642"><ele>77</ele><time>2026-08-04T08:30:21Z</time></trkpt>
      <trkpt lat="41.888274" lon="12.440776"><ele>77.22</ele><time>2026-08-04T08:30:45Z</time></trkpt>
      <trkpt lat="41.888483" lon="12.44083"><ele>77.4</ele><time>2026-08-04T08:31:05Z</time></trkpt>
      <trkpt lat="41.888574" lon="12.440841"><ele>77.02</ele><time>2026-08-04T08:31:14Z</time></trkpt>
      <trkpt lat="41.889221" lon="12.440877"><ele>79.02</ele><time>2026-08-04T08:32:15Z</time></trkpt>
      <trkpt lat="41.889245" lon="12.440347"><ele>79</ele><time>2026-08-04T08:32:49Z</time></trkpt>
      <trkpt lat="41.889201" lon="12.440371"><ele>78.87</ele><time>2026-08-04T08:32:53Z</time></trkpt>
      <trkpt lat="41.889205" lon="12.44032"><ele>78.9</ele><time>2026-08-04T08:32:56Z</time></trkpt>
      <trkpt lat="41.889204" lon="12.440304"><ele>78.89</ele><time>2026-08-04T08:32:57Z</time></trkpt>
      <trkpt lat="41.889128" lon="12.440345"><ele>78.3</ele><time>2026-08-04T08:33:05Z</time></trkpt>
      <trkpt lat="41.889004" lon="12.440391"><ele>78</ele><time>2026-08-04T08:33:18Z</time></trkpt>
      <trkpt lat="41.888823" lon="12.440395"><ele>77</ele><time>2026-08-04T08:33:33Z</time></trkpt>
      <trkpt lat="41.887892" lon="12.440377"><ele>75.58</ele><time>2026-08-04T08:34:53Z</time></trkpt>
      <trkpt lat="41.887864" lon="12.43914"><ele>74</ele><time>2026-08-04T08:36:17Z</time></trkpt>
      <trkpt lat="41.887878" lon="12.43895"><ele>74.39</ele><time>2026-08-04T08:36:31Z</time></trkpt>
      <trkpt lat="41.887906" lon="12.438777"><ele>75</ele><time>2026-08-04T08:36:43Z</time></trkpt>
      <trkpt lat="41.888063" lon="12.438303"><ele>76.17</ele><time>2026-08-04T08:37:19Z</time></trkpt>
      <trkpt lat="41.888108" lon="12.43807"><ele>77.34</ele><time>2026-08-04T08:37:34Z</time></trkpt>
      <trkpt lat="41.888125" lon="12.43786"><ele>77.87</ele><time>2026-08-04T08:37:47Z</time></trkpt>
      <trkpt lat="41.888118" lon="12.43757"><ele>77.75</ele><time>2026-08-04T08:38:06Z</time></trkpt>
      <trkpt lat="41.888166" lon="12.437205"><ele>76.88</ele><time>2026-08-04T08:38:32Z</time></trkpt>
      <trkpt lat="41.888158" lon="12.437024"><ele>76.3</ele><time>2026-08-04T08:38:46Z</time></trkpt>
      <trkpt lat="41.888095" lon="12.436765"><ele>76</ele><time>2026-08-04T08:39:03Z</time></trkpt>
      <trkpt lat="41.888093" lon="12.436313"><ele>76.78</ele><time>2026-08-04T08:39:31Z</time></trkpt>
      <trkpt lat="41.888057" lon="12.435714"><ele>77.73</ele><time>2026-08-04T08:40:15Z</time></trkpt>
      <trkpt lat="41.888205" lon="12.43541"><ele>76.03</ele><time>2026-08-04T08:40:40Z</time></trkpt>
      <trkpt lat="41.88832" lon="12.43519"><ele>75.98</ele><time>2026-08-04T08:40:58Z</time></trkpt>
      <trkpt lat="41.88848" lon="12.434826"><ele>76.15</ele><time>2026-08-04T08:41:24Z</time></trkpt>
      <trkpt lat="41.888623" lon="12.43455"><ele>76.01</ele><time>2026-08-04T08:41:49Z</time></trkpt>
      <trkpt lat="41.889112" lon="12.433717"><ele>73.37</ele><time>2026-08-04T08:43:08Z</time></trkpt>
      <trkpt lat="41.888623" lon="12.43455"><ele>76.01</ele><time>2026-08-04T08:44:15Z</time></trkpt>
      <trkpt lat="41.88848" lon="12.434826"><ele>76.15</ele><time>2026-08-04T08:44:37Z</time></trkpt>
      <trkpt lat="41.88832" lon="12.43519"><ele>75.98</ele><time>2026-08-04T08:45:06Z</time></trkpt>
      <trkpt lat="41.888205" lon="12.43541"><ele>76.03</ele><time>2026-08-04T08:45:23Z</time></trkpt>
      <trkpt lat="41.888057" lon="12.435714"><ele>77.73</ele><time>2026-08-04T08:45:47Z</time></trkpt>
      <trkpt lat="41.888093" lon="12.436313"><ele>76.78</ele><time>2026-08-04T08:46:26Z</time></trkpt>
      <trkpt lat="41.888095" lon="12.436765"><ele>76</ele><time>2026-08-04T08:46:58Z</time></trkpt>
      <trkpt lat="41.887624" lon="12.436757"><ele>74</ele><time>2026-08-04T08:47:45Z</time></trkpt>
      <trkpt lat="41.887403" lon="12.436742"><ele>73.86</ele><time>2026-08-04T08:48:07Z</time></trkpt>
      <trkpt lat="41.887166" lon="12.436673"><ele>73.61</ele><time>2026-08-04T08:48:30Z</time></trkpt>
      <trkpt lat="41.886378" lon="12.436555"><ele>68.46</ele><time>2026-08-04T08:49:40Z</time></trkpt>
      <trkpt lat="41.8862" lon="12.436606"><ele>66.46</ele><time>2026-08-04T08:49:57Z</time></trkpt>
      <trkpt lat="41.88606" lon="12.436636"><ele>65.18</ele><time>2026-08-04T08:50:10Z</time></trkpt>
      <trkpt lat="41.885906" lon="12.436631"><ele>64</ele><time>2026-08-04T08:50:24Z</time></trkpt>
      <trkpt lat="41.885726" lon="12.43656"><ele>63.21</ele><time>2026-08-04T08:50:40Z</time></trkpt>
      <trkpt lat="41.885573" lon="12.436527"><ele>62.53</ele><time>2026-08-04T08:50:54Z</time></trkpt>
      <trkpt lat="41.885519" lon="12.436493"><ele>62.11</ele><time>2026-08-04T08:51:00Z</time></trkpt>
      <trkpt lat="41.884686" lon="12.436398"><ele>56.68</ele><time>2026-08-04T08:52:11Z</time></trkpt>
      <trkpt lat="41.884356" lon="12.436305"><ele>54.25</ele><time>2026-08-04T08:52:40Z</time></trkpt>
      <trkpt lat="41.883873" lon="12.436045"><ele>52.07</ele><time>2026-08-04T08:53:24Z</time></trkpt>
      <trkpt lat="41.883805" lon="12.435963"><ele>52</ele><time>2026-08-04T08:53:32Z</time></trkpt>
      <trkpt lat="41.88353" lon="12.436237"><ele>52</ele><time>2026-08-04T08:54:06Z</time></trkpt>
      <trkpt lat="41.883082" lon="12.436618"><ele>51.63</ele><time>2026-08-04T08:54:53Z</time></trkpt>
      <trkpt lat="41.882761" lon="12.43689"><ele>51.37</ele><time>2026-08-04T08:55:29Z</time></trkpt>
      <trkpt lat="41.882409" lon="12.437238"><ele>50.06</ele><time>2026-08-04T08:56:10Z</time></trkpt>
      <trkpt lat="41.882056" lon="12.437558"><ele>50</ele><time>2026-08-04T08:56:49Z</time></trkpt>
      <trkpt lat="41.881902" lon="12.437676"><ele>50.2</ele><time>2026-08-04T08:57:06Z</time></trkpt>
      <trkpt lat="41.881852" lon="12.437691"><ele>50.29</ele><time>2026-08-04T08:57:11Z</time></trkpt>
      <trkpt lat="41.881661" lon="12.437681"><ele>50.23</ele><time>2026-08-04T08:57:27Z</time></trkpt>
      <trkpt lat="41.880901" lon="12.437555"><ele>49.5</ele><time>2026-08-04T08:58:39Z</time></trkpt>
      <trkpt lat="41.880588" lon="12.437572"><ele>49.59</ele><time>2026-08-04T08:59:05Z</time></trkpt>
      <trkpt lat="41.880399" lon="12.437627"><ele>49.12</ele><time>2026-08-04T08:59:22Z</time></trkpt>
      <trkpt lat="41.880326" lon="12.43763"><ele>49</ele><time>2026-08-04T08:59:29Z</time></trkpt>
      <trkpt lat="41.880277" lon="12.437624"><ele>49</ele><time>2026-08-04T08:59:34Z</time></trkpt>
      <trkpt lat="41.880273" lon="12.437472"><ele>49</ele><time>2026-08-04T08:59:44Z</time></trkpt>
      <trkpt lat="41.880241" lon="12.437322"><ele>49</ele><time>2026-08-04T08:59:54Z</time></trkpt>
      <trkpt lat="41.880217" lon="12.437267"><ele>49.18</ele><time>2026-08-04T08:59:58Z</time></trkpt>
      <trkpt lat="41.880181" lon="12.437223"><ele>49.43</ele><time>2026-08-04T09:00:03Z</time></trkpt>
      <trkpt lat="41.880101" lon="12.437181"><ele>49.54</ele><time>2026-08-04T09:00:11Z</time></trkpt>
      <trkpt lat="41.878782" lon="12.43686"><ele>48.27</ele><time>2026-08-04T09:02:05Z</time></trkpt>
      <trkpt lat="41.878432" lon="12.436766"><ele>48.09</ele><time>2026-08-04T09:02:36Z</time></trkpt>
      <trkpt lat="41.878123" lon="12.436669"><ele>47.66</ele><time>2026-08-04T09:03:07Z</time></trkpt>
      <trkpt lat="41.877952" lon="12.436596"><ele>48</ele><time>2026-08-04T09:03:22Z</time></trkpt>
      <trkpt lat="41.877949" lon="12.436709"><ele>47.42</ele><time>2026-08-04T09:03:30Z</time></trkpt>
      <trkpt lat="41.877787" lon="12.436717"><ele>47</ele><time>2026-08-04T09:03:45Z</time></trkpt>
      <trkpt lat="41.877793" lon="12.436846"><ele>47.37</ele><time>2026-08-04T09:03:53Z</time></trkpt>
      <trkpt lat="41.877782" lon="12.437011"><ele>48</ele><time>2026-08-04T09:04:05Z</time></trkpt>
      <trkpt lat="41.877775" lon="12.437115"><ele>48</ele><time>2026-08-04T09:04:13Z</time></trkpt>
      <trkpt lat="41.877679" lon="12.437804"><ele>52.05</ele><time>2026-08-04T09:05:02Z</time></trkpt>
      <trkpt lat="41.877583" lon="12.438453"><ele>58.43</ele><time>2026-08-04T09:05:45Z</time></trkpt>
      <trkpt lat="41.877557" lon="12.438514"><ele>59.08</ele><time>2026-08-04T09:05:50Z</time></trkpt>
      <trkpt lat="41.877524" lon="12.438537"><ele>59.27</ele><time>2026-08-04T09:05:53Z</time></trkpt>
      <trkpt lat="41.877521" lon="12.438562"><ele>59.47</ele><time>2026-08-04T09:05:55Z</time></trkpt>
      <trkpt lat="41.877477" lon="12.438659"><ele>60.55</ele><time>2026-08-04T09:06:03Z</time></trkpt>
      <trkpt lat="41.877558" lon="12.438732"><ele>60.72</ele><time>2026-08-04T09:06:11Z</time></trkpt>
      <trkpt lat="41.877573" lon="12.438684"><ele>60.32</ele><time>2026-08-04T09:06:15Z</time></trkpt>
      <trkpt lat="41.877558" lon="12.438732"><ele>60.72</ele><time>2026-08-04T09:06:18Z</time></trkpt>
      <trkpt lat="41.877477" lon="12.438659"><ele>60.55</ele><time>2026-08-04T09:06:28Z</time></trkpt>
      <trkpt lat="41.87744" lon="12.438741"><ele>61.38</ele><time>2026-08-04T09:06:34Z</time></trkpt>
      <trkpt lat="41.877455" lon="12.43877"><ele>61.5</ele><time>2026-08-04T09:06:36Z</time></trkpt>
      <trkpt lat="41.877459" lon="12.438821"><ele>61.83</ele><time>2026-08-04T09:06:39Z</time></trkpt>
      <trkpt lat="41.877436" lon="12.438941"><ele>62.55</ele><time>2026-08-04T09:06:47Z</time></trkpt>
      <trkpt lat="41.877262" lon="12.43937"><ele>65.12</ele><time>2026-08-04T09:07:20Z</time></trkpt>
      <trkpt lat="41.877212" lon="12.439542"><ele>67.37</ele><time>2026-08-04T09:07:32Z</time></trkpt>
      <trkpt lat="41.877197" lon="12.43967"><ele>69.41</ele><time>2026-08-04T09:07:41Z</time></trkpt>
      <trkpt lat="41.877199" lon="12.43984"><ele>70</ele><time>2026-08-04T09:07:53Z</time></trkpt>
      <trkpt lat="41.877272" lon="12.44048"><ele>70</ele><time>2026-08-04T09:08:36Z</time></trkpt>
      <trkpt lat="41.877268" lon="12.440588"><ele>70.09</ele><time>2026-08-04T09:08:43Z</time></trkpt>
      <trkpt lat="41.877263" lon="12.440713"><ele>70.55</ele><time>2026-08-04T09:08:52Z</time></trkpt>
      <trkpt lat="41.87724" lon="12.440697"><ele>70.35</ele><time>2026-08-04T09:08:54Z</time></trkpt>
      <trkpt lat="41.877202" lon="12.440691"><ele>70.12</ele><time>2026-08-04T09:08:58Z</time></trkpt>
      <trkpt lat="41.876728" lon="12.440685"><ele>68.3</ele><time>2026-08-04T09:09:44Z</time></trkpt>
      <trkpt lat="41.876491" lon="12.440662"><ele>68</ele><time>2026-08-04T09:10:05Z</time></trkpt>
      <trkpt lat="41.876132" lon="12.440594"><ele>68.83</ele><time>2026-08-04T09:10:36Z</time></trkpt>
      <trkpt lat="41.875626" lon="12.440512"><ele>71.31</ele><time>2026-08-04T09:11:24Z</time></trkpt>
      <trkpt lat="41.874417" lon="12.440213"><ele>71</ele><time>2026-08-04T09:13:08Z</time></trkpt>
      <trkpt lat="41.874384" lon="12.440257"><ele>70.8</ele><time>2026-08-04T09:13:12Z</time></trkpt>
      <trkpt lat="41.87376" lon="12.44012"><ele>69.71</ele><time>2026-08-04T09:14:08Z</time></trkpt>
      <trkpt lat="41.873763" lon="12.44009"><ele>69.82</ele><time>2026-08-04T09:14:10Z</time></trkpt>
      <trkpt lat="41.87376" lon="12.44012"><ele>69.71</ele><time>2026-08-04T09:14:12Z</time></trkpt>
      <trkpt lat="41.873593" lon="12.440084"><ele>68.78</ele><time>2026-08-04T09:14:29Z</time></trkpt>
      <trkpt lat="41.873576" lon="12.440127"><ele>68.4</ele><time>2026-08-04T09:14:32Z</time></trkpt>
      <trkpt lat="41.873553" lon="12.44028"><ele>67.33</ele><time>2026-08-04T09:14:42Z</time></trkpt>
      <trkpt lat="41.873449" lon="12.440252"><ele>66.68</ele><time>2026-08-04T09:14:53Z</time></trkpt>
      <trkpt lat="41.873388" lon="12.440678"><ele>62.94</ele><time>2026-08-04T09:15:20Z</time></trkpt>
      <trkpt lat="41.872764" lon="12.440521"><ele>57.03</ele><time>2026-08-04T09:16:16Z</time></trkpt>
      <trkpt lat="41.872742" lon="12.440507"><ele>57.02</ele><time>2026-08-04T09:16:18Z</time></trkpt>
      <trkpt lat="41.872731" lon="12.440575"><ele>56.18</ele><time>2026-08-04T09:16:23Z</time></trkpt>
      <trkpt lat="41.872666" lon="12.440556"><ele>55.85</ele><time>2026-08-04T09:16:29Z</time></trkpt>
      <trkpt lat="41.872455" lon="12.441975"><ele>49.08</ele><time>2026-08-04T09:18:13Z</time></trkpt>
      <trkpt lat="41.87242" lon="12.442232"><ele>48.26</ele><time>2026-08-04T09:18:30Z</time></trkpt>
      <trkpt lat="41.872409" lon="12.44308"><ele>48</ele><time>2026-08-04T09:19:24Z</time></trkpt>
      <trkpt lat="41.872706" lon="12.443073"><ele>48</ele><time>2026-08-04T09:19:50Z</time></trkpt>
      <trkpt lat="41.87271" lon="12.443519"><ele>51.44</ele><time>2026-08-04T09:20:20Z</time></trkpt>
      <trkpt lat="41.872407" lon="12.443525"><ele>51.34</ele><time>2026-08-04T09:20:46Z</time></trkpt>
      <trkpt lat="41.872404" lon="12.443904"><ele>56.41</ele><time>2026-08-04T09:21:13Z</time></trkpt>
      <trkpt lat="41.872398" lon="12.44473"><ele>61.14</ele><time>2026-08-04T09:22:13Z</time></trkpt>
      <trkpt lat="41.872366" lon="12.446003"><ele>61.8</ele><time>2026-08-04T09:23:33Z</time></trkpt>
      <trkpt lat="41.872354" lon="12.446616"><ele>63.49</ele><time>2026-08-04T09:24:19Z</time></trkpt>
      <trkpt lat="41.872427" lon="12.446611"><ele>63.83</ele><time>2026-08-04T09:24:26Z</time></trkpt>
      <trkpt lat="41.872675" lon="12.446592"><ele>65</ele><time>2026-08-04T09:24:49Z</time></trkpt>
      <trkpt lat="41.872352" lon="12.44936"><ele>63.7</ele><time>2026-08-04T09:27:45Z</time></trkpt>
      <trkpt lat="41.872122" lon="12.44952"><ele>65.5</ele><time>2026-08-04T09:28:09Z</time></trkpt>
      <trkpt lat="41.872097" lon="12.449442"><ele>66.09</ele><time>2026-08-04T09:28:15Z</time></trkpt>
      <trkpt lat="41.87201" lon="12.449486"><ele>66.46</ele><time>2026-08-04T09:28:23Z</time></trkpt>
      <trkpt lat="41.871708" lon="12.44963"><ele>66.26</ele><time>2026-08-04T09:28:52Z</time></trkpt>
      <trkpt lat="41.871183" lon="12.449852"><ele>63.99</ele><time>2026-08-04T09:29:42Z</time></trkpt>
      <trkpt lat="41.870929" lon="12.450026"><ele>62.18</ele><time>2026-08-04T09:30:08Z</time></trkpt>
      <trkpt lat="41.870656" lon="12.450242"><ele>61.01</ele><time>2026-08-04T09:30:36Z</time></trkpt>
      <trkpt lat="41.870525" lon="12.450405"><ele>60.03</ele><time>2026-08-04T09:30:52Z</time></trkpt>
      <trkpt lat="41.870331" lon="12.450695"><ele>58.51</ele><time>2026-08-04T09:31:19Z</time></trkpt>
      <trkpt lat="41.870239" lon="12.45086"><ele>58.68</ele><time>2026-08-04T09:31:32Z</time></trkpt>
      <trkpt lat="41.870203" lon="12.450953"><ele>58.51</ele><time>2026-08-04T09:31:38Z</time></trkpt>
      <trkpt lat="41.869748" lon="12.450804"><ele>54.96</ele><time>2026-08-04T09:32:23Z</time></trkpt>
      <trkpt lat="41.869738" lon="12.450864"><ele>54.96</ele><time>2026-08-04T09:32:27Z</time></trkpt>
    </trkseg>
  </trk>
</gpx>
