<?xml version="1.0" encoding="UTF-8"?>
<gpx version="1.1" creator="HoldMyTrack" xmlns="http://www.topografix.com/GPX/1/1" xmlns:gpxtpx="http://www.garmin.com/xmlschemas/TrackPointExtension/v1">
  <trk>
    <type>driving</type>
    <trkseg>
      <trkpt lat="42.87671" lon="-78.858341"><ele>178.6</ele><time>2026-07-14T13:47:00Z</time></trkpt>
      <trkpt lat="42.876941" lon="-78.858267"><ele>178.25</ele><time>2026-07-14T13:47:02Z</time></trkpt>
      <trkpt lat="42.876978" lon="-78.858485"><ele>178.01</ele><time>2026-07-14T13:47:03Z</time></trkpt>
      <trkpt lat="42.877014" lon="-78.858543"><ele>178</ele><time>2026-07-14T13:47:04Z</time></trkpt>
      <trkpt lat="42.877052" lon="-78.858761"><ele>178</ele><time>2026-07-14T13:47:06Z</time></trkpt>
      <trkpt lat="42.877573" lon="-78.858592"><ele>178</ele><time>2026-07-14T13:47:10Z</time></trkpt>
      <trkpt lat="42.878659" lon="-78.864863"><ele>180</ele><time>2026-07-14T13:47:26Z</time></trkpt>
      <trkpt lat="42.87885" lon="-78.865924"><ele>179</ele><time>2026-07-14T13:47:31Z</time></trkpt>
      <trkpt lat="42.879106" lon="-78.867328"><ele>180</ele><time>2026-07-14T13:47:37Z</time></trkpt>
      <trkpt lat="42.879724" lon="-78.867135"><ele>181</ele><time>2026-07-14T13:47:41Z</time></trkpt>
      <trkpt lat="42.880134" lon="-78.869482"><ele>181.06</ele><time>2026-07-14T13:47:48Z</time></trkpt>
      <trkpt lat="42.880244" lon="-78.869449"><ele>181.46</ele><time>2026-07-14T13:47:49Z</time></trkpt>
      <trkpt lat="42.880462" lon="-78.869409"><ele>182</ele><time>2026-07-14T13:47:51Z</time></trkpt>
      <trkpt lat="42.880775" lon="-78.86937"><ele>183</ele><time>2026-07-14T13:47:54Z</time></trkpt>
      <trkpt lat="42.880827" lon="-78.869706"><ele>183</ele><time>2026-07-14T13:47:56Z</time></trkpt>
      <trkpt lat="42.881062" lon="-78.870949"><ele>184</ele><time>2026-07-14T13:48:01Z</time></trkpt>
      <trkpt lat="42.881235" lon="-78.871913"><ele>184</ele><time>2026-07-14T13:48:05Z</time></trkpt>
      <trkpt lat="42.88124" lon="-78.872093"><ele>184</ele><time>2026-07-14T13:48:06Z</time></trkpt>
      <trkpt lat="42.881469" lon="-78.873395"><ele>185</ele><time>2026-07-14T13:48:12Z</time></trkpt>
      <trkpt lat="42.881834" lon="-78.875476"><ele>187.27</ele><time>2026-07-14T13:48:19Z</time></trkpt>
      <trkpt lat="42.882091" lon="-78.876868"><ele>185.38</ele><time>2026-07-14T13:48:25Z</time></trkpt>
      <trkpt lat="42.882257" lon="-78.877838"><ele>183</ele><time>2026-07-14T13:48:30Z</time></trkpt>
      <trkpt lat="42.883539" lon="-78.877435"><ele>184</ele><time>2026-07-14T13:48:37Z</time></trkpt>
      <trkpt lat="42.883546" lon="-78.877537"><ele>183.57</ele><time>2026-07-14T13:48:38Z</time></trkpt>
      <trkpt lat="42.884063" lon="-78.880496"><ele>178.07</ele><time>2026-07-14T13:48:46Z</time></trkpt>
      <trkpt lat="42.88438" lon="-78.882317"><ele>178</ele><time>2026-07-14T13:48:53Z</time></trkpt>
      <trkpt lat="42.884414" lon="-78.882812"><ele>178</ele><time>2026-07-14T13:48:56Z</time></trkpt>
      <trkpt lat="42.884416" lon="-78.882968"><ele>178</ele><time>2026-07-14T13:48:57Z</time></trkpt>
      <trkpt lat="42.884416" lon="-78.883336"><ele>178</ele><time>2026-07-14T13:48:59Z</time></trkpt>
      <trkpt lat="42.884426" lon="-78.883468"><ele>178</ele><time>2026-07-14T13:49:00Z</time></trkpt>
      <trkpt lat="42.88444" lon="-78.88356"><ele>178.01</ele><time>2026-07-14T13:49:01Z</time></trkpt>
      <trkpt lat="42.884486" lon="-78.88369"><ele>178.01</ele><time>2026-07-14T13:49:02Z</time></trkpt>
      <trkpt lat="42.884525" lon="-78.883763"><ele>178.01</ele><time>2026-07-14T13:49:03Z</time></trkpt>
      <trkpt lat="42.884594" lon="-78.883848"><ele>178.01</ele><time>2026-07-14T13:49:04Z</time></trkpt>
      <trkpt lat="42.884922" lon="-78.884166"><ele>178.01</ele><time>2026-07-14T13:49:07Z</time></trkpt>
      <trkpt lat="42.885933" lon="-78.885183"><ele>177.89</ele><time>2026-07-14T13:49:13Z</time></trkpt>
      <trkpt lat="42.886913" lon="-78.886211"><ele>177.77</ele><time>2026-07-14T13:49:20Z</time></trkpt>
      <trkpt lat="42.887131" lon="-78.886542"><ele>177.73</ele><time>2026-07-14T13:49:22Z</time></trkpt>
      <trkpt lat="42.887838" lon="-78.887226"><ele>178.96</ele><time>2026-07-14T13:49:27Z</time></trkpt>
      <trkpt lat="42.888312" lon="-78.88768"><ele>177.03</ele><time>2026-07-14T13:49:31Z</time></trkpt>
      <trkpt lat="42.889608" lon="-78.88897"><ele>177.01</ele><time>2026-07-14T13:49:38Z</time></trkpt>
      <trkpt lat="42.892036" lon="-78.891424"><ele>178</ele><time>2026-07-14T13:49:48Z</time></trkpt>
      <trkpt lat="42.893432" lon="-78.892862"><ele>178</ele><time>2026-07-14T13:49:55Z</time></trkpt>
      <trkpt lat="42.894954" lon="-78.894382"><ele>178</ele><time>2026-07-14T13:50:03Z</time></trkpt>
      <trkpt lat="42.897601" lon="-78.896939"><ele>178</ele><time>2026-07-14T13:50:14Z</time></trkpt>
      <trkpt lat="42.897777" lon="-78.897133"><ele>178.04</ele><time>2026-07-14T13:50:16Z</time></trkpt>
      <trkpt lat="42.898782" lon="-78.898115"><ele>179</ele><time>2026-07-14T13:50:23Z</time></trkpt>
      <trkpt lat="42.899048" lon="-78.898361"><ele>178.93</ele><time>2026-07-14T13:50:25Z</time></trkpt>
      <trkpt lat="42.899338" lon="-78.898599"><ele>178.98</ele><time>2026-07-14T13:50:28Z</time></trkpt>
      <trkpt lat="42.899747" lon="-78.8989"><ele>180.42</ele><time>2026-07-14T13:50:31Z</time></trkpt>
      <trkpt lat="42.900421" lon="-78.89935"><ele>182.07</ele><time>2026-07-14T13:50:36Z</time></trkpt>
      <trkpt lat="42.901117" lon="-78.899781"><ele>184.83</ele><time>2026-07-14T13:50:41Z</time></trkpt>
      <trkpt lat="42.902711" lon="-78.90074"><ele>186.86</ele><time>2026-07-14T13:50:48Z</time></trkpt>
      <trkpt lat="42.903147" lon="-78.900965"><ele>186.96</ele><time>2026-07-14T13:50:51Z</time></trkpt>
      <trkpt lat="42.903349" lon="-78.901046"><ele>186.98</ele><time>2026-07-14T13:50:53Z</time></trkpt>
      <trkpt lat="42.903687" lon="-78.901149"><ele>187.01</ele><time>2026-07-14T13:50:56Z</time></trkpt>
      <trkpt lat="42.903877" lon="-78.901192"><ele>187.02</ele><time>2026-07-14T13:50:58Z</time></trkpt>
      <trkpt lat="42.904171" lon="-78.901234"><ele>186.01</ele><time>2026-07-14T13:51:00Z</time></trkpt>
      <trkpt lat="42.904498" lon="-78.901251"><ele>184.12</ele><time>2026-07-14T13:51:03Z</time></trkpt>
      <trkpt lat="42.905456" lon="-78.90122"><ele>182.19</ele><time>2026-07-14T13:51:08Z</time></trkpt>
      <trkpt lat="42.905957" lon="-78.901217"><ele>181</ele><time>2026-07-14T13:51:11Z</time></trkpt>
      <trkpt lat="42.907815" lon="-78.901269"><ele>177</ele><time>2026-07-14T13:51:18Z</time></trkpt>
      <trkpt lat="42.909494" lon="-78.901322"><ele>177.62</ele><time>2026-07-14T13:51:25Z</time></trkpt>
      <trkpt lat="42.913779" lon="-78.901488"><ele>181.35</ele><time>2026-07-14T13:51:42Z</time></trkpt>
      <trkpt lat="42.914702" lon="-78.901459"><ele>182.16</ele><time>2026-07-14T13:51:48Z</time></trkpt>
      <trkpt lat="42.915069" lon="-78.901421"><ele>182.48</ele><time>2026-07-14T13:51:51Z</time></trkpt>
      <trkpt lat="42.91557" lon="-78.901345"><ele>182.7</ele><time>2026-07-14T13:51:55Z</time></trkpt>
      <trkpt lat="42.916465" lon="-78.901114"><ele>182.37</ele><time>2026-07-14T13:52:00Z</time></trkpt>
      <trkpt lat="42.917005" lon="-78.900953"><ele>182.17</ele><time>2026-07-14T13:52:04Z</time></trkpt>
      <trkpt lat="42.917697" lon="-78.900726"><ele>181.9</ele><time>2026-07-14T13:52:08Z</time></trkpt>
      <trkpt lat="42.920765" lon="-78.899761"><ele>180.75</ele><time>2026-07-14T13:52:20Z</time></trkpt>
      <trkpt lat="42.922286" lon="-78.899296"><ele>180.18</ele><time>2026-07-14T13:52:26Z</time></trkpt>
      <trkpt lat="42.923553" lon="-78.898923"><ele>179.7</ele><time>2026-07-14T13:52:32Z</time></trkpt>
      <trkpt lat="42.924688" lon="-78.898744"><ele>179.2</ele><time>2026-07-14T13:52:38Z</time></trkpt>
      <trkpt lat="42.927154" lon="-78.898563"><ele>180.75</ele><time>2026-07-14T13:52:47Z</time></trkpt>
      <trkpt lat="42.927853" lon="-78.898558"><ele>180.96</ele><time>2026-07-14T13:52:51Z</time></trkpt>
      <trkpt lat="42.928206" lon="-78.898585"><ele>180.88</ele><time>2026-07-14T13:52:54Z</time></trkpt>
      <trkpt lat="42.928517" lon="-78.898632"><ele>181.75</ele><time>2026-07-14T13:52:57Z</time></trkpt>
      <trkpt lat="42.928785" lon="-78.898698"><ele>180.89</ele><time>2026-07-14T13:52:59Z</time></trkpt>
      <trkpt lat="42.92907" lon="-78.898795"><ele>180.49</ele><time>2026-07-14T13:53:01Z</time></trkpt>
      <trkpt lat="42.929465" lon="-78.898977"><ele>180.79</ele><time>2026-07-14T13:53:04Z</time></trkpt>
      <trkpt lat="42.929783" lon="-78.899165"><ele>180.12</ele><time>2026-07-14T13:53:07Z</time></trkpt>
      <trkpt lat="42.930014" lon="-78.899329"><ele>179.8</ele><time>2026-07-14T13:53:09Z</time></trkpt>
      <trkpt lat="42.930246" lon="-78.899521"><ele>178.68</ele><time>2026-07-14T13:53:11Z</time></trkpt>
      <trkpt lat="42.930617" lon="-78.899854"><ele>177.74</ele><time>2026-07-14T13:53:14Z</time></trkpt>
      <trkpt lat="42.930956" lon="-78.900254"><ele>176.2</ele><time>2026-07-14T13:53:17Z</time></trkpt>
      <trkpt lat="42.931572" lon="-78.901009"><ele>173.8</ele><time>2026-07-14T13:53:22Z</time></trkpt>
      <trkpt lat="42.932238" lon="-78.901747"><ele>174.06</ele><time>2026-07-14T13:53:27Z</time></trkpt>
      <trkpt lat="42.93362" lon="-78.902794"><ele>176.82</ele><time>2026-07-14T13:53:35Z</time></trkpt>
      <trkpt lat="42.934821" lon="-78.903524"><ele>178.86</ele><time>2026-07-14T13:53:41Z</time></trkpt>
      <trkpt lat="42.935743" lon="-78.903978"><ele>180.36</ele><time>2026-07-14T13:53:47Z</time></trkpt>
      <trkpt lat="42.936174" lon="-78.904196"><ele>179.7</ele><time>2026-07-14T13:53:51Z</time></trkpt>
      <trkpt lat="42.937628" lon="-78.904939"><ele>182.66</ele><time>2026-07-14T13:53:58Z</time></trkpt>
      <trkpt lat="42.93796" lon="-78.905099"><ele>181.46</ele><time>2026-07-14T13:54:01Z</time></trkpt>
      <trkpt lat="42.94072" lon="-78.906491"><ele>182.36</ele><time>2026-07-14T13:54:12Z</time></trkpt>
      <trkpt lat="42.942771" lon="-78.907516"><ele>183.85</ele><time>2026-07-14T13:54:20Z</time></trkpt>
      <trkpt lat="42.943284" lon="-78.907773"><ele>182.12</ele><time>2026-07-14T13:54:24Z</time></trkpt>
      <trkpt lat="42.943995" lon="-78.908073"><ele>182.98</ele><time>2026-07-14T13:54:29Z</time></trkpt>
      <trkpt lat="42.944903" lon="-78.908423"><ele>179.78</ele><time>2026-07-14T13:54:34Z</time></trkpt>
      <trkpt lat="42.945193" lon="-78.908527"><ele>179.43</ele><time>2026-07-14T13:54:36Z</time></trkpt>
      <trkpt lat="42.945828" lon="-78.908664"><ele>178.68</ele><time>2026-07-14T13:54:40Z</time></trkpt>
      <trkpt lat="42.946293" lon="-78.908733"><ele>177.88</ele><time>2026-07-14T13:54:44Z</time></trkpt>
      <trkpt lat="42.946831" lon="-78.908788"><ele>177.09</ele><time>2026-07-14T13:54:48Z</time></trkpt>
      <trkpt lat="42.948466" lon="-78.908912"><ele>176.08</ele><time>2026-07-14T13:54:56Z</time></trkpt>
      <trkpt lat="42.950233" lon="-78.909066"><ele>176.36</ele><time>2026-07-14T13:55:03Z</time></trkpt>
      <trkpt lat="42.95081" lon="-78.909131"><ele>176.14</ele><time>2026-07-14T13:55:07Z</time></trkpt>
      <trkpt lat="42.951149" lon="-78.909181"><ele>176.96</ele><time>2026-07-14T13:55:09Z</time></trkpt>
      <trkpt lat="42.951548" lon="-78.909254"><ele>176.28</ele><time>2026-07-14T13:55:12Z</time></trkpt>
      <trkpt lat="42.952054" lon="-78.909369"><ele>176.89</ele><time>2026-07-14T13:55:16Z</time></trkpt>
      <trkpt lat="42.952312" lon="-78.909455"><ele>176</ele><time>2026-07-14T13:55:18Z</time></trkpt>
      <trkpt lat="42.952915" lon="-78.909655"><ele>177.67</ele><time>2026-07-14T13:55:22Z</time></trkpt>
      <trkpt lat="42.95338" lon="-78.909836"><ele>178.12</ele><time>2026-07-14T13:55:25Z</time></trkpt>
      <trkpt lat="42.953972" lon="-78.910115"><ele>177.43</ele><time>2026-07-14T13:55:30Z</time></trkpt>
      <trkpt lat="42.954794" lon="-78.910605"><ele>177.43</ele><time>2026-07-14T13:55:36Z</time></trkpt>
      <trkpt lat="42.955548" lon="-78.911231"><ele>177.87</ele><time>2026-07-14T13:55:41Z</time></trkpt>
      <trkpt lat="42.955975" lon="-78.911721"><ele>177.19</ele><time>2026-07-14T13:55:45Z</time></trkpt>
      <trkpt lat="42.956383" lon="-78.912227"><ele>176.7</ele><time>2026-07-14T13:55:49Z</time></trkpt>
      <trkpt lat="42.956785" lon="-78.912785"><ele>177.06</ele><time>2026-07-14T13:55:53Z</time></trkpt>
      <trkpt lat="42.958274" lon="-78.915111"><ele>176.53</ele><time>2026-07-14T13:56:02Z</time></trkpt>
      <trkpt lat="42.959599" lon="-78.917068"><ele>176</ele><time>2026-07-14T13:56:11Z</time></trkpt>
      <trkpt lat="42.960642" lon="-78.918476"><ele>175.64</ele><time>2026-07-14T13:56:18Z</time></trkpt>
      <trkpt lat="42.961677" lon="-78.919668"><ele>176</ele><time>2026-07-14T13:56:24Z</time></trkpt>
      <trkpt lat="42.962268" lon="-78.920234"><ele>175.61</ele><time>2026-07-14T13:56:28Z</time></trkpt>
      <trkpt lat="42.96257" lon="-78.920475"><ele>175.5</ele><time>2026-07-14T13:56:31Z</time></trkpt>
      <trkpt lat="42.962933" lon="-78.920699"><ele>175.24</ele><time>2026-07-14T13:56:34Z</time></trkpt>
      <trkpt lat="42.963127" lon="-78.920831"><ele>175.22</ele><time>2026-07-14T13:56:36Z</time></trkpt>
      <trkpt lat="42.963297" lon="-78.920915"><ele>175.56</ele><time>2026-07-14T13:56:38Z</time></trkpt>
      <trkpt lat="42.963517" lon="-78.921008"><ele>175.25</ele><time>2026-07-14T13:56:40Z</time></trkpt>
      <trkpt lat="42.963888" lon="-78.921101"><ele>175.45</ele><time>2026-07-14T13:56:43Z</time></trkpt>
      <trkpt lat="42.964202" lon="-78.921161"><ele>175.48</ele><time>2026-07-14T13:56:45Z</time></trkpt>
      <trkpt lat="42.964516" lon="-78.921178"><ele>175.76</ele><time>2026-07-14T13:56:47Z</time></trkpt>
      <trkpt lat="42.964843" lon="-78.92117"><ele>175</ele><time>2026-07-14T13:56:49Z</time></trkpt>
      <trkpt lat="42.965374" lon="-78.921057"><ele>175.53</ele><time>2026-07-14T13:56:53Z</time></trkpt>
      <trkpt lat="42.965606" lon="-78.920974"><ele>175.28</ele><time>2026-07-14T13:56:55Z</time></trkpt>
      <trkpt lat="42.965877" lon="-78.920858"><ele>175.71</ele><time>2026-07-14T13:56:57Z</time></trkpt>
      <trkpt lat="42.96608" lon="-78.920755"><ele>176.26</ele><time>2026-07-14T13:56:59Z</time></trkpt>
      <trkpt lat="42.966393" lon="-78.920555"><ele>176.42</ele><time>2026-07-14T13:57:02Z</time></trkpt>
      <trkpt lat="42.966612" lon="-78.92039"><ele>176.55</ele><time>2026-07-14T13:57:04Z</time></trkpt>
      <trkpt lat="42.966935" lon="-78.920095"><ele>177.08</ele><time>2026-07-14T13:57:07Z</time></trkpt>
      <trkpt lat="42.967113" lon="-78.919906"><ele>177.15</ele><time>2026-07-14T13:57:09Z</time></trkpt>
      <trkpt lat="42.967385" lon="-78.919564"><ele>177.32</ele><time>2026-07-14T13:57:12Z</time></trkpt>
      <trkpt lat="42.967545" lon="-78.919346"><ele>177.48</ele><time>2026-07-14T13:57:14Z</time></trkpt>
      <trkpt lat="42.97103" lon="-78.913791"><ele>182.63</ele><time>2026-07-14T13:57:34Z</time></trkpt>
      <trkpt lat="42.971427" lon="-78.91326"><ele>183.8</ele><time>2026-07-14T13:57:38Z</time></trkpt>
      <trkpt lat="42.971629" lon="-78.913035"><ele>184.11</ele><time>2026-07-14T13:57:40Z</time></trkpt>
      <trkpt lat="42.971965" lon="-78.912703"><ele>185.01</ele><time>2026-07-14T13:57:43Z</time></trkpt>
      <trkpt lat="42.972203" lon="-78.912501"><ele>186</ele><time>2026-07-14T13:57:45Z</time></trkpt>
      <trkpt lat="42.972618" lon="-78.91221"><ele>187</ele><time>2026-07-14T13:57:48Z</time></trkpt>
      <trkpt lat="42.973282" lon="-78.911856"><ele>188.68</ele><time>2026-07-14T13:57:53Z</time></trkpt>
      <trkpt lat="42.973715" lon="-78.911655"><ele>189.28</ele><time>2026-07-14T13:57:57Z</time></trkpt>
      <trkpt lat="42.974482" lon="-78.911354"><ele>190.33</ele><time>2026-07-14T13:58:02Z</time></trkpt>
      <trkpt lat="42.974997" lon="-78.911185"><ele>190.54</ele><time>2026-07-14T13:58:06Z</time></trkpt>
      <trkpt lat="42.976003" lon="-78.910877"><ele>190.84</ele><time>2026-07-14T13:58:12Z</time></trkpt>
      <trkpt lat="42.977171" lon="-78.910499"><ele>190</ele><time>2026-07-14T13:58:19Z</time></trkpt>
      <trkpt lat="42.977459" lon="-78.910411"><ele>188.7</ele><time>2026-07-14T13:58:22Z</time></trkpt>
      <trkpt lat="42.978742" lon="-78.910022"><ele>189</ele><time>2026-07-14T13:58:29Z</time></trkpt>
      <trkpt lat="42.979008" lon="-78.909956"><ele>189.97</ele><time>2026-07-14T13:58:31Z</time></trkpt>
      <trkpt lat="42.979509" lon="-78.90988"><ele>190</ele><time>2026-07-14T13:58:35Z</time></trkpt>
      <trkpt lat="42.97983" lon="-78.909865"><ele>190.86</ele><time>2026-07-14T13:58:37Z</time></trkpt>
      <trkpt lat="42.980257" lon="-78.909886"><ele>190.13</ele><time>2026-07-14T13:58:40Z</time></trkpt>
      <trkpt lat="42.980573" lon="-78.909932"><ele>189.82</ele><time>2026-07-14T13:58:42Z</time></trkpt>
      <trkpt lat="42.980855" lon="-78.909993"><ele>189.54</ele><time>2026-07-14T13:58:44Z</time></trkpt>
      <trkpt lat="42.981388" lon="-78.910194"><ele>190.55</ele><time>2026-07-14T13:58:48Z</time></trkpt>
      <trkpt lat="42.981841" lon="-78.910388"><ele>190</ele><time>2026-07-14T13:58:52Z</time></trkpt>
      <trkpt lat="42.98219" lon="-78.910586"><ele>189</ele><time>2026-07-14T13:58:55Z</time></trkpt>
      <trkpt lat="42.982679" lon="-78.910938"><ele>188</ele><time>2026-07-14T13:58:59Z</time></trkpt>
      <trkpt lat="42.983734" lon="-78.911806"><ele>185.24</ele><time>2026-07-14T13:59:05Z</time></trkpt>
      <trkpt lat="42.985561" lon="-78.913351"><ele>181.87</ele><time>2026-07-14T13:59:13Z</time></trkpt>
      <trkpt lat="42.986398" lon="-78.914077"><ele>180</ele><time>2026-07-14T13:59:19Z</time></trkpt>
      <trkpt lat="42.987181" lon="-78.914879"><ele>179.06</ele><time>2026-07-14T13:59:25Z</time></trkpt>
      <trkpt lat="42.987683" lon="-78.91548"><ele>179</ele><time>2026-07-14T13:59:29Z</time></trkpt>
      <trkpt lat="42.988161" lon="-78.916192"><ele>178.75</ele><time>2026-07-14T13:59:34Z</time></trkpt>
      <trkpt lat="42.98902" lon="-78.917687"><ele>178.05</ele><time>2026-07-14T13:59:41Z</time></trkpt>
      <trkpt lat="42.989316" lon="-78.918342"><ele>178.06</ele><time>2026-07-14T13:59:45Z</time></trkpt>
      <trkpt lat="42.989914" lon="-78.919613"><ele>179</ele><time>2026-07-14T13:59:51Z</time></trkpt>
      <trkpt lat="42.990904" lon="-78.92178"><ele>180</ele><time>2026-07-14T13:59:58Z</time></trkpt>
      <trkpt lat="42.991678" lon="-78.923412"><ele>181</ele><time>2026-07-14T14:00:05Z</time></trkpt>
      <trkpt lat="42.992006" lon="-78.924153"><ele>181.27</ele><time>2026-07-14T14:00:10Z</time></trkpt>
      <trkpt lat="42.993109" lon="-78.926915"><ele>182</ele><time>2026-07-14T14:00:19Z</time></trkpt>
      <trkpt lat="42.993693" lon="-78.928136"><ele>181</ele><time>2026-07-14T14:00:25Z</time></trkpt>
      <trkpt lat="42.993993" lon="-78.928666"><ele>181</ele><time>2026-07-14T14:00:29Z</time></trkpt>
      <trkpt lat="42.994753" lon="-78.929938"><ele>181</ele><time>2026-07-14T14:00:35Z</time></trkpt>
      <trkpt lat="43.001437" lon="-78.941494"><ele>186</ele><time>2026-07-14T14:01:14Z</time></trkpt>
      <trkpt lat="43.002662" lon="-78.943555"><ele>180.73</ele><time>2026-07-14T14:01:22Z</time></trkpt>
      <trkpt lat="43.003814" lon="-78.945665"><ele>179.62</ele><time>2026-07-14T14:01:29Z</time></trkpt>
      <trkpt lat="43.005204" lon="-78.948422"><ele>180.47</ele><time>2026-07-14T14:01:38Z</time></trkpt>
      <trkpt lat="43.005523" lon="-78.94909"><ele>180</ele><time>2026-07-14T14:01:42Z</time></trkpt>
      <trkpt lat="43.00658" lon="-78.951534"><ele>180.36</ele><time>2026-07-14T14:01:49Z</time></trkpt>
      <trkpt lat="43.010426" lon="-78.960859"><ele>181.94</ele><time>2026-07-14T14:02:16Z</time></trkpt>
      <trkpt lat="43.01125" lon="-78.962829"><ele>182</ele><time>2026-07-14T14:02:23Z</time></trkpt>
      <trkpt lat="43.012354" lon="-78.965533"><ele>183.25</ele><time>2026-07-14T14:02:31Z</time></trkpt>
      <trkpt lat="43.012593" lon="-78.966073"><ele>182.82</ele><time>2026-07-14T14:02:34Z</time></trkpt>
      <trkpt lat="43.012806" lon="-78.966528"><ele>182.13</ele><time>2026-07-14T14:02:37Z</time></trkpt>
      <trkpt lat="43.013365" lon="-78.967541"><ele>182</ele><time>2026-07-14T14:02:42Z</time></trkpt>
      <trkpt lat="43.013553" lon="-78.96785"><ele>182</ele><time>2026-07-14T14:02:44Z</time></trkpt>
      <trkpt lat="43.013741" lon="-78.968125"><ele>181.75</ele><time>2026-07-14T14:02:46Z</time></trkpt>
      <trkpt lat="43.013991" lon="-78.968455"><ele>181.74</ele><time>2026-07-14T14:02:49Z</time></trkpt>
      <trkpt lat="43.014538" lon="-78.969137"><ele>182.38</ele><time>2026-07-14T14:02:53Z</time></trkpt>
      <trkpt lat="43.014763" lon="-78.969399"><ele>182.17</ele><time>2026-07-14T14:02:55Z</time></trkpt>
      <trkpt lat="43.01531" lon="-78.969927"><ele>182.67</ele><time>2026-07-14T14:02:59Z</time></trkpt>
      <trkpt lat="43.015743" lon="-78.970305"><ele>182.67</ele><time>2026-07-14T14:03:02Z</time></trkpt>
      <trkpt lat="43.016164" lon="-78.970648"><ele>182.86</ele><time>2026-07-14T14:03:05Z</time></trkpt>
      <trkpt lat="43.024293" lon="-78.976105"><ele>180.58</ele><time>2026-07-14T14:03:39Z</time></trkpt>
      <trkpt lat="43.02611" lon="-78.9773"><ele>181.35</ele><time>2026-07-14T14:03:46Z</time></trkpt>
      <trkpt lat="43.030593" lon="-78.980324"><ele>184</ele><time>2026-07-14T14:04:05Z</time></trkpt>
      <trkpt lat="43.033814" lon="-78.982476"><ele>180.65</ele><time>2026-07-14T14:04:19Z</time></trkpt>
      <trkpt lat="43.03791" lon="-78.985175"><ele>179.64</ele><time>2026-07-14T14:04:35Z</time></trkpt>
      <trkpt lat="43.040501" lon="-78.986917"><ele>179.39</ele><time>2026-07-14T14:04:46Z</time></trkpt>
      <trkpt lat="43.041667" lon="-78.987724"><ele>178.65</ele><time>2026-07-14T14:04:53Z</time></trkpt>
      <trkpt lat="43.043284" lon="-78.988786"><ele>177.81</ele><time>2026-07-14T14:05:00Z</time></trkpt>
      <trkpt lat="43.043908" lon="-78.989145"><ele>177.4</ele><time>2026-07-14T14:05:04Z</time></trkpt>
      <trkpt lat="43.044272" lon="-78.989308"><ele>177</ele><time>2026-07-14T14:05:07Z</time></trkpt>
      <trkpt lat="43.045326" lon="-78.989737"><ele>176.84</ele><time>2026-07-14T14:05:13Z</time></trkpt>
      <trkpt lat="43.045621" lon="-78.98984"><ele>176.44</ele><time>2026-07-14T14:05:16Z</time></trkpt>
      <trkpt lat="43.045928" lon="-78.989908"><ele>175.84</ele><time>2026-07-14T14:05:19Z</time></trkpt>
      <trkpt lat="43.046361" lon="-78.99002"><ele>175.49</ele><time>2026-07-14T14:05:22Z</time></trkpt>
      <trkpt lat="43.046932" lon="-78.99014"><ele>175.19</ele><time>2026-07-14T14:05:26Z</time></trkpt>
      <trkpt lat="43.04739" lon="-78.990217"><ele>175.27</ele><time>2026-07-14T14:05:30Z</time></trkpt>
      <trkpt lat="43.047841" lon="-78.99026"><ele>174.89</ele><time>2026-07-14T14:05:33Z</time></trkpt>
      <trkpt lat="43.048437" lon="-78.990303"><ele>175.23</ele><time>2026-07-14T14:05:37Z</time></trkpt>
      <trkpt lat="43.049121" lon="-78.990303"><ele>175</ele><time>2026-07-14T14:05:41Z</time></trkpt>
      <trkpt lat="43.052807" lon="-78.990359"><ele>175</ele><time>2026-07-14T14:05:56Z</time></trkpt>
      <trkpt lat="43.053802" lon="-78.99036"><ele>175</ele><time>2026-07-14T14:06:01Z</time></trkpt>
      <trkpt lat="43.055272" lon="-78.990316"><ele>174</ele><time>2026-07-14T14:06:08Z</time></trkpt>
      <trkpt lat="43.059706" lon="-78.990324"><ele>174.9</ele><time>2026-07-14T14:06:24Z</time></trkpt>
      <trkpt lat="43.061192" lon="-78.990419"><ele>174.29</ele><time>2026-07-14T14:06:31Z</time></trkpt>
      <trkpt lat="43.062656" lon="-78.990571"><ele>173.69</ele><time>2026-07-14T14:06:38Z</time></trkpt>
      <trkpt lat="43.063372" lon="-78.990601"><ele>174.21</ele><time>2026-07-14T14:06:42Z</time></trkpt>
      <trkpt lat="43.072303" lon="-78.990617"><ele>177.97</ele><time>2026-07-14T14:07:15Z</time></trkpt>
      <trkpt lat="43.073684" lon="-78.990607"><ele>178.55</ele><time>2026-07-14T14:07:22Z</time></trkpt>
      <trkpt lat="43.074797" lon="-78.990313"><ele>176.98</ele><time>2026-07-14T14:07:29Z</time></trkpt>
      <trkpt lat="43.075493" lon="-78.990129"><ele>174.55</ele><time>2026-07-14T14:07:34Z</time></trkpt>
      <trkpt lat="43.07562" lon="-78.990104"><ele>174.43</ele><time>2026-07-14T14:07:35Z</time></trkpt>
      <trkpt lat="43.075839" lon="-78.991342"><ele>174</ele><time>2026-07-14T14:07:40Z</time></trkpt>
      <trkpt lat="43.076185" lon="-78.993215"><ele>175</ele><time>2026-07-14T14:07:46Z</time></trkpt>
      <trkpt lat="43.076063" lon="-78.993261"><ele>174.11</ele><time>2026-07-14T14:07:47Z</time></trkpt>
      <trkpt lat="43.075821" lon="-78.993331"><ele>174</ele><time>2026-07-14T14:07:49Z</time></trkpt>
      <trkpt lat="43.075698" lon="-78.993378"><ele>174</ele><time>2026-07-14T14:07:50Z</time></trkpt>
      <trkpt lat="43.075576" lon="-78.993443"><ele>174</ele><time>2026-07-14T14:07:51Z</time></trkpt>
      <trkpt lat="43.075464" lon="-78.993522"><ele>174.56</ele><time>2026-07-14T14:07:52Z</time></trkpt>
      <trkpt lat="43.075362" lon="-78.993613"><ele>174.8</ele><time>2026-07-14T14:07:53Z</time></trkpt>
      <trkpt lat="43.075267" lon="-78.993719"><ele>175.22</ele><time>2026-07-14T14:07:54Z</time></trkpt>
      <trkpt lat="43.075181" lon="-78.993836"><ele>175.91</ele><time>2026-07-14T14:07:55Z</time></trkpt>
      <trkpt lat="43.075109" lon="-78.993954"><ele>175.82</ele><time>2026-07-14T14:07:56Z</time></trkpt>
      <trkpt lat="43.074981" lon="-78.994217"><ele>176.5</ele><time>2026-07-14T14:07:58Z</time></trkpt>
      <trkpt lat="43.074878" lon="-78.99448"><ele>177.32</ele><time>2026-07-14T14:08:00Z</time></trkpt>
      <trkpt lat="43.07483" lon="-78.994628"><ele>177.62</ele><time>2026-07-14T14:08:01Z</time></trkpt>
      <trkpt lat="43.07479" lon="-78.994785"><ele>178.02</ele><time>2026-07-14T14:08:02Z</time></trkpt>
      <trkpt lat="43.074617" lon="-78.995595"><ele>177.46</ele><time>2026-07-14T14:08:06Z</time></trkpt>
      <trkpt lat="43.074464" lon="-78.996777"><ele>177.63</ele><time>2026-07-14T14:08:11Z</time></trkpt>
      <trkpt lat="43.0744" lon="-78.997376"><ele>177.72</ele><time>2026-07-14T14:08:14Z</time></trkpt>
      <trkpt lat="43.074376" lon="-78.997672"><ele>177.76</ele><time>2026-07-14T14:08:16Z</time></trkpt>
      <trkpt lat="43.074333" lon="-78.998572"><ele>177.89</ele><time>2026-07-14T14:08:21Z</time></trkpt>
      <trkpt lat="43.074325" lon="-78.99917"><ele>177.97</ele><time>2026-07-14T14:08:24Z</time></trkpt>
      <trkpt lat="43.074349" lon="-79.000074"><ele>178.1</ele><time>2026-07-14T14:08:29Z</time></trkpt>
      <trkpt lat="43.074382" lon="-79.000666"><ele>178.19</ele><time>2026-07-14T14:08:32Z</time></trkpt>
      <trkpt lat="43.074428" lon="-79.001264"><ele>178.27</ele><time>2026-07-14T14:08:35Z</time></trkpt>
      <trkpt lat="43.074482" lon="-79.001861"><ele>178.36</ele><time>2026-07-14T14:08:38Z</time></trkpt>
      <trkpt lat="43.074547" lon="-79.002461"><ele>178.44</ele><time>2026-07-14T14:08:41Z</time></trkpt>
      <trkpt lat="43.074687" lon="-79.003542"><ele>178.6</ele><time>2026-07-14T14:08:46Z</time></trkpt>
      <trkpt lat="43.074762" lon="-79.004032"><ele>177.79</ele><time>2026-07-14T14:08:49Z</time></trkpt>
      <trkpt lat="43.074894" lon="-79.004812"><ele>177.69</ele><time>2026-07-14T14:08:53Z</time></trkpt>
      <trkpt lat="43.075067" lon="-79.00568"><ele>177.58</ele><time>2026-07-14T14:08:57Z</time></trkpt>
      <trkpt lat="43.075278" lon="-79.006536"><ele>177.47</ele><time>2026-07-14T14:09:02Z</time></trkpt>
      <trkpt lat="43.075359" lon="-79.00682"><ele>177.43</ele><time>2026-07-14T14:09:04Z</time></trkpt>
      <trkpt lat="43.075532" lon="-79.007377"><ele>177.35</ele><time>2026-07-14T14:09:08Z</time></trkpt>
      <trkpt lat="43.075716" lon="-79.007917"><ele>177.28</ele><time>2026-07-14T14:09:12Z</time></trkpt>
      <trkpt lat="43.07592" lon="-79.008449"><ele>177.21</ele><time>2026-07-14T14:09:15Z</time></trkpt>
      <trkpt lat="43.077385" lon="-79.011994"><ele>176.73</ele><time>2026-07-14T14:09:25Z</time></trkpt>
      <trkpt lat="43.07759" lon="-79.012509"><ele>176.66</ele><time>2026-07-14T14:09:28Z</time></trkpt>
      <trkpt lat="43.077783" lon="-79.013051"><ele>176.58</ele><time>2026-07-14T14:09:32Z</time></trkpt>
      <trkpt lat="43.07787" lon="-79.013319"><ele>176.55</ele><time>2026-07-14T14:09:34Z</time></trkpt>
      <trkpt lat="43.077996" lon="-79.013742"><ele>176.49</ele><time>2026-07-14T14:09:37Z</time></trkpt>
      <trkpt lat="43.078186" lon="-79.014446"><ele>177</ele><time>2026-07-14T14:09:41Z</time></trkpt>
      <trkpt lat="43.078333" lon="-79.015075"><ele>177</ele><time>2026-07-14T14:09:44Z</time></trkpt>
      <trkpt lat="43.078444" lon="-79.015602"><ele>177.01</ele><time>2026-07-14T14:09:47Z</time></trkpt>
      <trkpt lat="43.078546" lon="-79.016186"><ele>177.87</ele><time>2026-07-14T14:09:50Z</time></trkpt>
      <trkpt lat="43.078625" lon="-79.016789"><ele>178</ele><time>2026-07-14T14:09:54Z</time></trkpt>
      <trkpt lat="43.078689" lon="-79.01737"><ele>178</ele><time>2026-07-14T14:09:57Z</time></trkpt>
      <trkpt lat="43.078743" lon="-79.017965"><ele>178.44</ele><time>2026-07-14T14:10:00Z</time></trkpt>
      <trkpt lat="43.078777" lon="-79.018574"><ele>178.85</ele><time>2026-07-14T14:10:03Z</time></trkpt>
      <trkpt lat="43.078785" lon="-79.01887"><ele>179</ele><time>2026-07-14T14:10:05Z</time></trkpt>
      <trkpt lat="43.078787" lon="-79.019468"><ele>179.79</ele><time>2026-07-14T14:10:08Z</time></trkpt>
      <trkpt lat="43.07868" lon="-79.023851"><ele>177.77</ele><time>2026-07-14T14:10:19Z</time></trkpt>
      <trkpt lat="43.078634" lon="-79.025694"><ele>174.41</ele><time>2026-07-14T14:10:26Z</time></trkpt>
      <trkpt lat="43.078521" lon="-79.030293"><ele>175.57</ele><time>2026-07-14T14:10:37Z</time></trkpt>
      <trkpt lat="43.078484" lon="-79.031794"><ele>177.75</ele><time>2026-07-14T14:10:43Z</time></trkpt>
      <trkpt lat="43.078325" lon="-79.038103"><ele>176.74</ele><time>2026-07-14T14:10:59Z</time></trkpt>
      <trkpt lat="43.078318" lon="-79.038868"><ele>175.94</ele><time>2026-07-14T14:11:03Z</time></trkpt>
      <trkpt lat="43.07834" lon="-79.0396"><ele>175.77</ele><time>2026-07-14T14:11:06Z</time></trkpt>
      <trkpt lat="43.07837" lon="-79.040051"><ele>175.53</ele><time>2026-07-14T14:11:08Z</time></trkpt>
      <trkpt lat="43.078406" lon="-79.040449"><ele>175</ele><time>2026-07-14T14:11:10Z</time></trkpt>
      <trkpt lat="43.078446" lon="-79.040794"><ele>174.93</ele><time>2026-07-14T14:11:12Z</time></trkpt>
      <trkpt lat="43.07851" lon="-79.041243"><ele>175</ele><time>2026-07-14T14:11:15Z</time></trkpt>
      <trkpt lat="43.078583" lon="-79.041675"><ele>174.8</ele><time>2026-07-14T14:11:18Z</time></trkpt>
      <trkpt lat="43.07867" lon="-79.04211"><ele>174.14</ele><time>2026-07-14T14:11:21Z</time></trkpt>
      <trkpt lat="43.078771" lon="-79.042557"><ele>174.34</ele><time>2026-07-14T14:11:24Z</time></trkpt>
      <trkpt lat="43.078852" lon="-79.042871"><ele>174.69</ele><time>2026-07-14T14:11:26Z</time></trkpt>
      <trkpt lat="43.078921" lon="-79.043129"><ele>175</ele><time>2026-07-14T14:11:28Z</time></trkpt>
      <trkpt lat="43.079076" lon="-79.043637"><ele>175</ele><time>2026-07-14T14:11:31Z</time></trkpt>
      <trkpt lat="43.079175" lon="-79.043917"><ele>175.1</ele><time>2026-07-14T14:11:33Z</time></trkpt>
      <trkpt lat="43.079554" lon="-79.044853"><ele>176</ele><time>2026-07-14T14:11:38Z</time></trkpt>
      <trkpt lat="43.07981" lon="-79.045571"><ele>175.5</ele><time>2026-07-14T14:11:42Z</time></trkpt>
      <trkpt lat="43.079922" lon="-79.045903"><ele>175.67</ele><time>2026-07-14T14:11:44Z</time></trkpt>
      <trkpt lat="43.080061" lon="-79.046352"><ele>176.07</ele><time>2026-07-14T14:11:47Z</time></trkpt>
      <trkpt lat="43.08012" lon="-79.046589"><ele>176.51</ele><time>2026-07-14T14:11:48Z</time></trkpt>
      <trkpt lat="43.080173" lon="-79.04692"><ele>177</ele><time>2026-07-14T14:11:50Z</time></trkpt>
      <trkpt lat="43.080188" lon="-79.047158"><ele>177</ele><time>2026-07-14T14:11:51Z</time></trkpt>
      <trkpt lat="43.080192" lon="-79.048198"><ele>176</ele><time>2026-07-14T14:11:56Z</time></trkpt>
      <trkpt lat="43.080204" lon="-79.048322"><ele>176</ele><time>2026-07-14T14:11:57Z</time></trkpt>
      <trkpt lat="43.080226" lon="-79.048432"><ele>175.98</ele><time>2026-07-14T14:11:58Z</time></trkpt>
      <trkpt lat="43.080295" lon="-79.048641"><ele>175.14</ele><time>2026-07-14T14:12:00Z</time></trkpt>
      <trkpt lat="43.080527" lon="-79.049148"><ele>174.83</ele><time>2026-07-14T14:12:03Z</time></trkpt>
      <trkpt lat="43.08062" lon="-79.049417"><ele>174.07</ele><time>2026-07-14T14:12:05Z</time></trkpt>
      <trkpt lat="43.08069" lon="-79.049723"><ele>174</ele><time>2026-07-14T14:12:07Z</time></trkpt>
      <trkpt lat="43.080781" lon="-79.050353"><ele>173</ele><time>2026-07-14T14:12:10Z</time></trkpt>
      <trkpt lat="43.080815" lon="-79.050511"><ele>173</ele><time>2026-07-14T14:12:11Z</time></trkpt>
      <trkpt lat="43.080839" lon="-79.05056"><ele>173</ele><time>2026-07-14T14:12:12Z</time></trkpt>
      <trkpt lat="43.080881" lon="-79.050615"><ele>173</ele><time>2026-07-14T14:12:13Z</time></trkpt>
      <trkpt lat="43.081023" lon="-79.050751"><ele>173</ele><time>2026-07-14T14:12:14Z</time></trkpt>
      <trkpt lat="43.081257" lon="-79.051046"><ele>173</ele><time>2026-07-14T14:12:16Z</time></trkpt>
      <trkpt lat="43.08134" lon="-79.051121"><ele>173.03</ele><time>2026-07-14T14:12:17Z</time></trkpt>
      <trkpt lat="43.081471" lon="-79.051217"><ele>173</ele><time>2026-07-14T14:12:18Z</time></trkpt>
      <trkpt lat="43.081726" lon="-79.05135"><ele>174</ele><time>2026-07-14T14:12:20Z</time></trkpt>
      <trkpt lat="43.081828" lon="-79.051391"><ele>174</ele><time>2026-07-14T14:12:21Z</time></trkpt>
      <trkpt lat="43.08252" lon="-79.051607"><ele>175</ele><time>2026-07-14T14:12:25Z</time></trkpt>
      <trkpt lat="43.083786" lon="-79.052227"><ele>174</ele><time>2026-07-14T14:12:31Z</time></trkpt>
      <trkpt lat="43.0838" lon="-79.052415"><ele>174</ele><time>2026-07-14T14:12:32Z</time></trkpt>
      <trkpt lat="43.083799" lon="-79.052567"><ele>174</ele><time>2026-07-14T14:12:33Z</time></trkpt>
      <trkpt lat="43.083702" lon="-79.055005"><ele>174</ele><time>2026-07-14T14:12:41Z</time></trkpt>
      <trkpt lat="43.085158" lon="-79.0551"><ele>175</ele><time>2026-07-14T14:12:47Z</time></trkpt>
      <trkpt lat="43.085192" lon="-79.053943"><ele>175</ele><time>2026-07-14T14:12:52Z</time></trkpt>
    </trkseg>
  </trk>
</gpx>
