<?xml version="1.0" encoding="UTF-8"?>
<gpx version="1.1" creator="HoldMyTrack" xmlns="http://www.topografix.com/GPX/1/1" xmlns:gpxtpx="http://www.garmin.com/xmlschemas/TrackPointExtension/v1">
  <trk>
    <type>walking</type>
    <trkseg>
      <trkpt lat="43.110462" lon="-79.055279"><ele>171</ele><time>2026-07-15T14:21:00Z</time></trkpt>
      <trkpt lat="43.110443" lon="-79.055445"><ele>171</ele><time>2026-07-15T14:21:12Z</time></trkpt>
      <trkpt lat="43.110281" lon="-79.055447"><ele>171.05</ele><time>2026-07-15T14:21:28Z</time></trkpt>
      <trkpt lat="43.11027" lon="-79.055645"><ele>170.52</ele><time>2026-07-15T14:21:41Z</time></trkpt>
      <trkpt lat="43.110175" lon="-79.055643"><ele>170.98</ele><time>2026-07-15T14:21:50Z</time></trkpt>
      <trkpt lat="43.110165" lon="-79.055859"><ele>170</ele><time>2026-07-15T14:22:06Z</time></trkpt>
      <trkpt lat="43.110182" lon="-79.055889"><ele>170</ele><time>2026-07-15T14:22:09Z</time></trkpt>
      <trkpt lat="43.110524" lon="-79.056001"><ele>169</ele><time>2026-07-15T14:22:39Z</time></trkpt>
      <trkpt lat="43.111479" lon="-79.056205"><ele>170</ele><time>2026-07-15T14:24:02Z</time></trkpt>
      <trkpt lat="43.111459" lon="-79.056302"><ele>170</ele><time>2026-07-15T14:24:08Z</time></trkpt>
      <trkpt lat="43.111564" lon="-79.056337"><ele>169.99</ele><time>2026-07-15T14:24:18Z</time></trkpt>
      <trkpt lat="43.111459" lon="-79.056505"><ele>169</ele><time>2026-07-15T14:24:33Z</time></trkpt>
      <trkpt lat="43.111545" lon="-79.056689"><ele>169</ele><time>2026-07-15T14:24:48Z</time></trkpt>
      <trkpt lat="43.111658" lon="-79.057135"><ele>168.16</ele><time>2026-07-15T14:25:22Z</time></trkpt>
      <trkpt lat="43.111692" lon="-79.057224"><ele>167.83</ele><time>2026-07-15T14:25:29Z</time></trkpt>
      <trkpt lat="43.11185" lon="-79.057381"><ele>167.03</ele><time>2026-07-15T14:25:48Z</time></trkpt>
      <trkpt lat="43.112079" lon="-79.057569"><ele>166.34</ele><time>2026-07-15T14:26:10Z</time></trkpt>
      <trkpt lat="43.112653" lon="-79.057689"><ele>166.86</ele><time>2026-07-15T14:27:00Z</time></trkpt>
      <trkpt lat="43.113536" lon="-79.057891"><ele>166.91</ele><time>2026-07-15T14:28:17Z</time></trkpt>
      <trkpt lat="43.114124" lon="-79.058219"><ele>166.15</ele><time>2026-07-15T14:29:11Z</time></trkpt>
      <trkpt lat="43.114508" lon="-79.058417"><ele>167</ele><time>2026-07-15T14:29:51Z</time></trkpt>
      <trkpt lat="43.114738" lon="-79.058461"><ele>167.61</ele><time>2026-07-15T14:30:13Z</time></trkpt>
      <trkpt lat="43.11497" lon="-79.058535"><ele>168.14</ele><time>2026-07-15T14:30:34Z</time></trkpt>
      <trkpt lat="43.115158" lon="-79.058616"><ele>168</ele><time>2026-07-15T14:30:51Z</time></trkpt>
      <trkpt lat="43.115335" lon="-79.058754"><ele>168.8</ele><time>2026-07-15T14:31:08Z</time></trkpt>
      <trkpt lat="43.115457" lon="-79.058906"><ele>169</ele><time>2026-07-15T14:31:22Z</time></trkpt>
      <trkpt lat="43.115786" lon="-79.059592"><ele>169</ele><time>2026-07-15T14:32:21Z</time></trkpt>
      <trkpt lat="43.115832" lon="-79.059831"><ele>168.66</ele><time>2026-07-15T14:32:37Z</time></trkpt>
      <trkpt lat="43.116176" lon="-79.060357"><ele>168.78</ele><time>2026-07-15T14:33:22Z</time></trkpt>
      <trkpt lat="43.116318" lon="-79.060541"><ele>168.81</ele><time>2026-07-15T14:33:40Z</time></trkpt>
      <trkpt lat="43.116959" lon="-79.061197"><ele>170.67</ele><time>2026-07-15T14:34:58Z</time></trkpt>
      <trkpt lat="43.117286" lon="-79.061499"><ele>171.95</ele><time>2026-07-15T14:35:34Z</time></trkpt>
      <trkpt lat="43.117637" lon="-79.061787"><ele>173</ele><time>2026-07-15T14:36:15Z</time></trkpt>
      <trkpt lat="43.118156" lon="-79.06214"><ele>174.85</ele><time>2026-07-15T14:37:04Z</time></trkpt>
      <trkpt lat="43.119034" lon="-79.062576"><ele>177.93</ele><time>2026-07-15T14:38:23Z</time></trkpt>
      <trkpt lat="43.119649" lon="-79.062807"><ele>181</ele><time>2026-07-15T14:39:20Z</time></trkpt>
      <trkpt lat="43.119829" lon="-79.062764"><ele>181</ele><time>2026-07-15T14:39:37Z</time></trkpt>
      <trkpt lat="43.120384" lon="-79.062741"><ele>182.3</ele><time>2026-07-15T14:40:24Z</time></trkpt>
      <trkpt lat="43.120956" lon="-79.062577"><ele>183</ele><time>2026-07-15T14:41:16Z</time></trkpt>
      <trkpt lat="43.12157" lon="-79.062251"><ele>182.74</ele><time>2026-07-15T14:42:12Z</time></trkpt>
      <trkpt lat="43.121947" lon="-79.062016"><ele>181.97</ele><time>2026-07-15T14:42:47Z</time></trkpt>
      <trkpt lat="43.122387" lon="-79.061611"><ele>181.01</ele><time>2026-07-15T14:43:35Z</time></trkpt>
      <trkpt lat="43.122875" lon="-79.06105"><ele>180</ele><time>2026-07-15T14:44:34Z</time></trkpt>
      <trkpt lat="43.123086" lon="-79.060749"><ele>179</ele><time>2026-07-15T14:45:01Z</time></trkpt>
      <trkpt lat="43.12323" lon="-79.060911"><ele>176.11</ele><time>2026-07-15T14:45:18Z</time></trkpt>
      <trkpt lat="43.123367" lon="-79.060679"><ele>174.92</ele><time>2026-07-15T14:45:39Z</time></trkpt>
      <trkpt lat="43.123704" lon="-79.060257"><ele>170.11</ele><time>2026-07-15T14:46:22Z</time></trkpt>
      <trkpt lat="43.123872" lon="-79.060033"><ele>170.04</ele><time>2026-07-15T14:46:42Z</time></trkpt>
      <trkpt lat="43.12404" lon="-79.059809"><ele>166.66</ele><time>2026-07-15T14:47:05Z</time></trkpt>
      <trkpt lat="43.124117" lon="-79.059652"><ele>165.59</ele><time>2026-07-15T14:47:19Z</time></trkpt>
      <trkpt lat="43.124143" lon="-79.059492"><ele>167.49</ele><time>2026-07-15T14:47:30Z</time></trkpt>
      <trkpt lat="43.124162" lon="-79.059516"><ele>165.8</ele><time>2026-07-15T14:47:32Z</time></trkpt>
      <trkpt lat="43.124201" lon="-79.059557"><ele>161.56</ele><time>2026-07-15T14:47:36Z</time></trkpt>
      <trkpt lat="43.124424" lon="-79.059332"><ele>149.61</ele><time>2026-07-15T14:48:01Z</time></trkpt>
      <trkpt lat="43.124614" lon="-79.059021"><ele>140.92</ele><time>2026-07-15T14:48:29Z</time></trkpt>
      <trkpt lat="43.124804" lon="-79.05871"><ele>137.06</ele><time>2026-07-15T14:48:53Z</time></trkpt>
      <trkpt lat="43.124853" lon="-79.058746"><ele>132.7</ele><time>2026-07-15T14:48:58Z</time></trkpt>
      <trkpt lat="43.124726" lon="-79.059101"><ele>130.11</ele><time>2026-07-15T14:49:25Z</time></trkpt>
      <trkpt lat="43.12492" lon="-79.058899"><ele>123.26</ele><time>2026-07-15T14:49:49Z</time></trkpt>
      <trkpt lat="43.124859" lon="-79.059224"><ele>118.91</ele><time>2026-07-15T14:50:11Z</time></trkpt>
      <trkpt lat="43.12519" lon="-79.059004"><ele>106</ele><time>2026-07-15T14:50:46Z</time></trkpt>
      <trkpt lat="43.125237" lon="-79.059072"><ele>102.78</ele><time>2026-07-15T14:50:52Z</time></trkpt>
      <trkpt lat="43.125237" lon="-79.059193"><ele>101.79</ele><time>2026-07-15T14:51:00Z</time></trkpt>
      <trkpt lat="43.125187" lon="-79.059357"><ele>101.69</ele><time>2026-07-15T14:51:12Z</time></trkpt>
      <trkpt lat="43.125173" lon="-79.059495"><ele>100.05</ele><time>2026-07-15T14:51:21Z</time></trkpt>
      <trkpt lat="43.125142" lon="-79.059554"><ele>100.13</ele><time>2026-07-15T14:51:25Z</time></trkpt>
      <trkpt lat="43.125078" lon="-79.059606"><ele>101.12</ele><time>2026-07-15T14:51:32Z</time></trkpt>
      <trkpt lat="43.125058" lon="-79.059888"><ele>95.12</ele><time>2026-07-15T14:51:53Z</time></trkpt>
      <trkpt lat="43.125049" lon="-79.060026"><ele>92.62</ele><time>2026-07-15T14:52:03Z</time></trkpt>
      <trkpt lat="43.124728" lon="-79.060444"><ele>93.41</ele><time>2026-07-15T14:52:41Z</time></trkpt>
      <trkpt lat="43.124464" lon="-79.060726"><ele>93.99</ele><time>2026-07-15T14:53:11Z</time></trkpt>
      <trkpt lat="43.124337" lon="-79.060884"><ele>94.31</ele><time>2026-07-15T14:53:27Z</time></trkpt>
      <trkpt lat="43.124053" lon="-79.061254"><ele>94.6</ele><time>2026-07-15T14:54:04Z</time></trkpt>
      <trkpt lat="43.123818" lon="-79.061576"><ele>95.96</ele><time>2026-07-15T14:54:36Z</time></trkpt>
      <trkpt lat="43.123683" lon="-79.061788"><ele>95.85</ele><time>2026-07-15T14:54:55Z</time></trkpt>
      <trkpt lat="43.123272" lon="-79.062547"><ele>93.44</ele><time>2026-07-15T14:56:04Z</time></trkpt>
      <trkpt lat="43.123084" lon="-79.062829"><ele>96.58</ele><time>2026-07-15T14:56:28Z</time></trkpt>
      <trkpt lat="43.122974" lon="-79.063003"><ele>95.06</ele><time>2026-07-15T14:56:42Z</time></trkpt>
      <trkpt lat="43.122803" lon="-79.063246"><ele>94.72</ele><time>2026-07-15T14:57:03Z</time></trkpt>
      <trkpt lat="43.122426" lon="-79.063731"><ele>94.76</ele><time>2026-07-15T14:57:48Z</time></trkpt>
      <trkpt lat="43.122222" lon="-79.064021"><ele>94.09</ele><time>2026-07-15T14:58:12Z</time></trkpt>
      <trkpt lat="43.122127" lon="-79.064188"><ele>94.12</ele><time>2026-07-15T14:58:28Z</time></trkpt>
      <trkpt lat="43.121783" lon="-79.065041"><ele>96.55</ele><time>2026-07-15T14:59:36Z</time></trkpt>
      <trkpt lat="43.121745" lon="-79.065197"><ele>96.02</ele><time>2026-07-15T14:59:46Z</time></trkpt>
      <trkpt lat="43.121693" lon="-79.065625"><ele>93.73</ele><time>2026-07-15T15:00:13Z</time></trkpt>
      <trkpt lat="43.121646" lon="-79.065828"><ele>93.87</ele><time>2026-07-15T15:00:27Z</time></trkpt>
      <trkpt lat="43.121573" lon="-79.06605"><ele>94</ele><time>2026-07-15T15:00:42Z</time></trkpt>
      <trkpt lat="43.121486" lon="-79.066262"><ele>94.75</ele><time>2026-07-15T15:00:58Z</time></trkpt>
      <trkpt lat="43.121386" lon="-79.066444"><ele>95.15</ele><time>2026-07-15T15:01:12Z</time></trkpt>
      <trkpt lat="43.121208" lon="-79.066658"><ele>96.67</ele><time>2026-07-15T15:01:34Z</time></trkpt>
      <trkpt lat="43.120998" lon="-79.066854"><ele>99.45</ele><time>2026-07-15T15:01:59Z</time></trkpt>
      <trkpt lat="43.120857" lon="-79.066961"><ele>99.53</ele><time>2026-07-15T15:02:14Z</time></trkpt>
      <trkpt lat="43.120646" lon="-79.067065"><ele>99.61</ele><time>2026-07-15T15:02:36Z</time></trkpt>
      <trkpt lat="43.120566" lon="-79.067092"><ele>99.1</ele><time>2026-07-15T15:02:44Z</time></trkpt>
      <trkpt lat="43.120408" lon="-79.067115"><ele>99.25</ele><time>2026-07-15T15:02:57Z</time></trkpt>
      <trkpt lat="43.120294" lon="-79.0671"><ele>99.82</ele><time>2026-07-15T15:03:08Z</time></trkpt>
      <trkpt lat="43.12018" lon="-79.067059"><ele>101.06</ele><time>2026-07-15T15:03:20Z</time></trkpt>
      <trkpt lat="43.119999" lon="-79.06696"><ele>100.28</ele><time>2026-07-15T15:03:40Z</time></trkpt>
      <trkpt lat="43.119861" lon="-79.066856"><ele>97.55</ele><time>2026-07-15T15:03:55Z</time></trkpt>
      <trkpt lat="43.119722" lon="-79.066707"><ele>94.85</ele><time>2026-07-15T15:04:10Z</time></trkpt>
      <trkpt lat="43.119598" lon="-79.066545"><ele>93.37</ele><time>2026-07-15T15:04:26Z</time></trkpt>
      <trkpt lat="43.119377" lon="-79.066173"><ele>93.76</ele><time>2026-07-15T15:04:59Z</time></trkpt>
      <trkpt lat="43.119017" lon="-79.065483"><ele>94.82</ele><time>2026-07-15T15:06:00Z</time></trkpt>
      <trkpt lat="43.118584" lon="-79.06453"><ele>96.81</ele><time>2026-07-15T15:07:08Z</time></trkpt>
      <trkpt lat="43.118305" lon="-79.064026"><ele>96.08</ele><time>2026-07-15T15:07:51Z</time></trkpt>
      <trkpt lat="43.118002" lon="-79.063524"><ele>96.02</ele><time>2026-07-15T15:08:37Z</time></trkpt>
      <trkpt lat="43.117847" lon="-79.063327"><ele>96.03</ele><time>2026-07-15T15:08:58Z</time></trkpt>
      <trkpt lat="43.117671" lon="-79.063176"><ele>96.38</ele><time>2026-07-15T15:09:19Z</time></trkpt>
      <trkpt lat="43.11749" lon="-79.06306"><ele>96.01</ele><time>2026-07-15T15:09:38Z</time></trkpt>
      <trkpt lat="43.117264" lon="-79.062933"><ele>97.06</ele><time>2026-07-15T15:09:59Z</time></trkpt>
      <trkpt lat="43.117038" lon="-79.062806"><ele>95.88</ele><time>2026-07-15T15:10:23Z</time></trkpt>
      <trkpt lat="43.116887" lon="-79.062692"><ele>93.62</ele><time>2026-07-15T15:10:40Z</time></trkpt>
      <trkpt lat="43.116764" lon="-79.062546"><ele>94.09</ele><time>2026-07-15T15:10:55Z</time></trkpt>
      <trkpt lat="43.116568" lon="-79.062226"><ele>95.38</ele><time>2026-07-15T15:11:24Z</time></trkpt>
      <trkpt lat="43.11622" lon="-79.061552"><ele>96.4</ele><time>2026-07-15T15:12:14Z</time></trkpt>
      <trkpt lat="43.115899" lon="-79.061034"><ele>103.57</ele><time>2026-07-15T15:13:03Z</time></trkpt>
      <trkpt lat="43.115762" lon="-79.060962"><ele>100.41</ele><time>2026-07-15T15:13:16Z</time></trkpt>
      <trkpt lat="43.11561" lon="-79.06095"><ele>95.67</ele><time>2026-07-15T15:13:29Z</time></trkpt>
      <trkpt lat="43.115521" lon="-79.060718"><ele>99.48</ele><time>2026-07-15T15:13:47Z</time></trkpt>
    </trkseg>
  </trk>
</gpx>
