<?xml version="1.0" encoding="UTF-8"?>
<gpx version="1.1" creator="HoldMyTrack" xmlns="http://www.topografix.com/GPX/1/1" xmlns:gpxtpx="http://www.garmin.com/xmlschemas/TrackPointExtension/v1">
  <trk>
    <type>walking</type>
    <trkseg>
      <trkpt lat="10.938935" lon="108.182737"><ele>28.87</ele><time>2026-01-20T09:00:00Z</time></trkpt>
      <trkpt lat="10.938946" lon="108.182956"><ele>28.11</ele><time>2026-01-20T09:00:20Z</time></trkpt>
      <trkpt lat="10.938915" lon="108.183166"><ele>27.54</ele><time>2026-01-20T09:00:39Z</time></trkpt>
      <trkpt lat="10.93893" lon="108.183278"><ele>28.1</ele><time>2026-01-20T09:00:49Z</time></trkpt>
      <trkpt lat="10.93868" lon="108.183595"><ele>25.97</ele><time>2026-01-20T09:01:25Z</time></trkpt>
      <trkpt lat="10.938541" lon="108.183703"><ele>24.97</ele><time>2026-01-20T09:01:41Z</time></trkpt>
      <trkpt lat="10.938469" lon="108.183728"><ele>24.25</ele><time>2026-01-20T09:01:48Z</time></trkpt>
      <trkpt lat="10.938256" lon="108.183733"><ele>21.79</ele><time>2026-01-20T09:02:07Z</time></trkpt>
      <trkpt lat="10.938142" lon="108.183856"><ele>21.57</ele><time>2026-01-20T09:02:22Z</time></trkpt>
      <trkpt lat="10.93813" lon="108.183978"><ele>22.78</ele><time>2026-01-20T09:02:33Z</time></trkpt>
      <trkpt lat="10.93805" lon="108.184182"><ele>23.72</ele><time>2026-01-20T09:02:53Z</time></trkpt>
      <trkpt lat="10.937988" lon="108.184284"><ele>23.59</ele><time>2026-01-20T09:03:04Z</time></trkpt>
      <trkpt lat="10.937904" lon="108.184349"><ele>22.34</ele><time>2026-01-20T09:03:13Z</time></trkpt>
      <trkpt lat="10.937833" lon="108.184387"><ele>20.97</ele><time>2026-01-20T09:03:20Z</time></trkpt>
      <trkpt lat="10.937753" lon="108.184389"><ele>18.61</ele><time>2026-01-20T09:03:28Z</time></trkpt>
      <trkpt lat="10.937722" lon="108.184495"><ele>18.95</ele><time>2026-01-20T09:03:38Z</time></trkpt>
      <trkpt lat="10.937719" lon="108.184578"><ele>19.81</ele><time>2026-01-20T09:03:45Z</time></trkpt>
      <trkpt lat="10.937724" lon="108.184622"><ele>20.44</ele><time>2026-01-20T09:03:49Z</time></trkpt>
      <trkpt lat="10.937669" lon="108.184656"><ele>19.41</ele><time>2026-01-20T09:03:55Z</time></trkpt>
      <trkpt lat="10.937603" lon="108.184723"><ele>18.97</ele><time>2026-01-20T09:04:03Z</time></trkpt>
      <trkpt lat="10.937495" lon="108.184972"><ele>21.54</ele><time>2026-01-20T09:04:28Z</time></trkpt>
      <trkpt lat="10.937364" lon="108.185403"><ele>24.82</ele><time>2026-01-20T09:05:08Z</time></trkpt>
      <trkpt lat="10.937208" lon="108.185956"><ele>24.16</ele><time>2026-01-20T09:05:59Z</time></trkpt>
      <trkpt lat="10.937183" lon="108.18607"><ele>24.02</ele><time>2026-01-20T09:06:10Z</time></trkpt>
      <trkpt lat="10.937174" lon="108.186157"><ele>23.87</ele><time>2026-01-20T09:06:18Z</time></trkpt>
      <trkpt lat="10.937176" lon="108.186232"><ele>23.92</ele><time>2026-01-20T09:06:24Z</time></trkpt>
      <trkpt lat="10.937197" lon="108.186302"><ele>24.19</ele><time>2026-01-20T09:06:31Z</time></trkpt>
      <trkpt lat="10.937274" lon="108.186454"><ele>25.95</ele><time>2026-01-20T09:06:46Z</time></trkpt>
      <trkpt lat="10.937332" lon="108.186631"><ele>26.78</ele><time>2026-01-20T09:07:03Z</time></trkpt>
      <trkpt lat="10.937476" lon="108.186953"><ele>25.99</ele><time>2026-01-20T09:07:34Z</time></trkpt>
      <trkpt lat="10.93765" lon="108.187292"><ele>26.22</ele><time>2026-01-20T09:08:09Z</time></trkpt>
      <trkpt lat="10.937737" lon="108.18742"><ele>26.15</ele><time>2026-01-20T09:08:22Z</time></trkpt>
      <trkpt lat="10.937848" lon="108.187524"><ele>25.93</ele><time>2026-01-20T09:08:36Z</time></trkpt>
      <trkpt lat="10.937985" lon="108.187616"><ele>24.94</ele><time>2026-01-20T09:08:51Z</time></trkpt>
      <trkpt lat="10.937863" lon="108.187841"><ele>22.25</ele><time>2026-01-20T09:09:14Z</time></trkpt>
      <trkpt lat="10.93756" lon="108.188219"><ele>14.1</ele><time>2026-01-20T09:09:58Z</time></trkpt>
      <trkpt lat="10.937458" lon="108.188342"><ele>13.17</ele><time>2026-01-20T09:10:12Z</time></trkpt>
      <trkpt lat="10.937992" lon="108.188736"><ele>11.08</ele><time>2026-01-20T09:11:12Z</time></trkpt>
      <trkpt lat="10.938322" lon="108.188919"><ele>10.76</ele><time>2026-01-20T09:11:46Z</time></trkpt>
      <trkpt lat="10.9386" lon="108.189082"><ele>11.92</ele><time>2026-01-20T09:12:15Z</time></trkpt>
      <trkpt lat="10.938857" lon="108.189233"><ele>13</ele><time>2026-01-20T09:12:42Z</time></trkpt>
      <trkpt lat="10.938212" lon="108.190322"><ele>4.936045839509461</ele><time>2026-01-20T09:14:36Z</time></trkpt>
      <trkpt lat="10.938422604294574" lon="108.19072664263626"><ele>0.5491819573702363</ele><time>2026-01-20T09:15:17Z</time></trkpt>
      <trkpt lat="10.938628558557895" lon="108.19112235097748"><ele>0.395845077582635</ele><time>2026-01-20T09:15:57Z</time></trkpt>
      <trkpt lat="10.938923771474112" lon="108.19146780940893"><ele>0.2916248884292723</ele><time>2026-01-20T09:16:38Z</time></trkpt>
      <trkpt lat="10.939218984390331" lon="108.19181326784039"><ele>0.15275763775567408</ele><time>2026-01-20T09:17:19Z</time></trkpt>
      <trkpt lat="10.939514197306549" lon="108.19215872627184"><ele>0.023062528992172794</ele><time>2026-01-20T09:18:00Z</time></trkpt>
      <trkpt lat="10.939809410222766" lon="108.19250418470331"><ele>0</ele><time>2026-01-20T09:18:41Z</time></trkpt>
      <trkpt lat="10.940104623138986" lon="108.19284964313476"><ele>0</ele><time>2026-01-20T09:19:21Z</time></trkpt>
      <trkpt lat="10.94037774697047" lon="108.19316925289854"><ele>0.23295982170425344</ele><time>2026-01-20T09:19:59Z</time></trkpt>
      <trkpt lat="10.940656072895928" lon="108.19352896127458"><ele>0.009929681315209203</ele><time>2026-01-20T09:20:40Z</time></trkpt>
      <trkpt lat="10.940934398821387" lon="108.19388866965062"><ele>0</ele><time>2026-01-20T09:21:21Z</time></trkpt>
      <trkpt lat="10.941212724746844" lon="108.19424837802666"><ele>0.05099174469026035</ele><time>2026-01-20T09:22:02Z</time></trkpt>
      <trkpt lat="10.941491050672303" lon="108.19460808640268"><ele>0.2814289473228238</ele><time>2026-01-20T09:22:43Z</time></trkpt>
      <trkpt lat="10.941769376597762" lon="108.19496779477872"><ele>0.8766523976328148</ele><time>2026-01-20T09:23:24Z</time></trkpt>
      <trkpt lat="10.941854004336221" lon="108.1950771676527"><ele>0.9227026741737082</ele><time>2026-01-20T09:23:36Z</time></trkpt>
      <trkpt lat="10.942088100765341" lon="108.19546819535911"><ele>1.0455208387008876</ele><time>2026-01-20T09:24:17Z</time></trkpt>
      <trkpt lat="10.942322197194459" lon="108.19585922306554"><ele>0.8813643999723944</ele><time>2026-01-20T09:24:58Z</time></trkpt>
      <trkpt lat="10.942556293623579" lon="108.19625025077195"><ele>0.2707010494759594</ele><time>2026-01-20T09:25:39Z</time></trkpt>
      <trkpt lat="10.942790390052698" lon="108.19664127847837"><ele>0.4562114739190907</ele><time>2026-01-20T09:26:20Z</time></trkpt>
      <trkpt lat="10.943024486481818" lon="108.19703230618478"><ele>0.26375515817846507</ele><time>2026-01-20T09:27:01Z</time></trkpt>
      <trkpt lat="10.943094551058238" lon="108.1971493399675"><ele>0.41179576429119835</ele><time>2026-01-20T09:27:13Z</time></trkpt>
      <trkpt lat="10.943332870477901" lon="108.19753771431473"><ele>0.46398876170686654</ele><time>2026-01-20T09:27:54Z</time></trkpt>
      <trkpt lat="10.943571189897563" lon="108.19792608866197"><ele>0.14102337219809824</ele><time>2026-01-20T09:28:35Z</time></trkpt>
      <trkpt lat="10.943809509317227" lon="108.1983144630092"><ele>0.3688692796064541</ele><time>2026-01-20T09:29:16Z</time></trkpt>
      <trkpt lat="10.944047828736888" lon="108.19870283735644"><ele>0.8247413150335076</ele><time>2026-01-20T09:29:57Z</time></trkpt>
      <trkpt lat="10.944286148156552" lon="108.19909121170367"><ele>1.188723882587309</ele><time>2026-01-20T09:30:38Z</time></trkpt>
      <trkpt lat="10.944524467576214" lon="108.19947958605091"><ele>0.8291298616531345</ele><time>2026-01-20T09:31:19Z</time></trkpt>
      <trkpt lat="10.944762786995877" lon="108.19986796039815"><ele>0.33204622442298526</ele><time>2026-01-20T09:31:59Z</time></trkpt>
      <trkpt lat="10.944893334579675" lon="108.20008070568224"><ele>0.4068099255060804</ele><time>2026-01-20T09:32:22Z</time></trkpt>
      <trkpt lat="10.94511743333741" lon="108.20047776817896"><ele>1.4185701302796403</ele><time>2026-01-20T09:33:03Z</time></trkpt>
      <trkpt lat="10.945341532095146" lon="108.20087483067567"><ele>2.8417416149791412</ele><time>2026-01-20T09:33:44Z</time></trkpt>
      <trkpt lat="10.945565630852881" lon="108.2012718931724"><ele>1.7909732955097486</ele><time>2026-01-20T09:34:25Z</time></trkpt>
      <trkpt lat="10.945789729610617" lon="108.20166895566912"><ele>2.3219409246705105</ele><time>2026-01-20T09:35:05Z</time></trkpt>
      <trkpt lat="10.946013828368352" lon="108.20206601816584"><ele>2.7523197728915636</ele><time>2026-01-20T09:35:46Z</time></trkpt>
      <trkpt lat="10.946237927126088" lon="108.20246308066255"><ele>1.8630950954011092</ele><time>2026-01-20T09:36:27Z</time></trkpt>
      <trkpt lat="10.946462025883823" lon="108.20286014315928"><ele>1.5903339050302208</ele><time>2026-01-20T09:37:08Z</time></trkpt>
      <trkpt lat="10.946686124641559" lon="108.203257205656"><ele>1.8427031745369715</ele><time>2026-01-20T09:37:49Z</time></trkpt>
      <trkpt lat="10.946910223399295" lon="108.20365426815272"><ele>1.9468548280952251</ele><time>2026-01-20T09:38:30Z</time></trkpt>
      <trkpt lat="10.94713432215703" lon="108.20405133064943"><ele>1.1589988587702584</ele><time>2026-01-20T09:39:11Z</time></trkpt>
      <trkpt lat="10.947275155280423" lon="108.20430086149094"><ele>0.8795309881988627</ele><time>2026-01-20T09:39:37Z</time></trkpt>
      <trkpt lat="10.947484552532117" lon="108.20470616725571"><ele>0.9388360144461243</ele><time>2026-01-20T09:40:18Z</time></trkpt>
      <trkpt lat="10.947693949783812" lon="108.20511147302048"><ele>1.0052280979106323</ele><time>2026-01-20T09:40:58Z</time></trkpt>
      <trkpt lat="10.947903347035506" lon="108.20551677878525"><ele>1.3950517249197443</ele><time>2026-01-20T09:41:39Z</time></trkpt>
      <trkpt lat="10.9481127442872" lon="108.20592208455002"><ele>1.0576164872607492</ele><time>2026-01-20T09:42:20Z</time></trkpt>
      <trkpt lat="10.948322141538895" lon="108.2063273903148"><ele>0.9160648594261147</ele><time>2026-01-20T09:43:01Z</time></trkpt>
      <trkpt lat="10.94853153879059" lon="108.20673269607957"><ele>1.1486874036672745</ele><time>2026-01-20T09:43:42Z</time></trkpt>
      <trkpt lat="10.948740936042284" lon="108.20713800184434"><ele>1.4489733513469585</ele><time>2026-01-20T09:44:23Z</time></trkpt>
      <trkpt lat="10.948950333293979" lon="108.20754330760911"><ele>1.2780317058317643</ele><time>2026-01-20T09:45:04Z</time></trkpt>
      <trkpt lat="10.949159730545674" lon="108.20794861337389"><ele>1.2087687122402713</ele><time>2026-01-20T09:45:45Z</time></trkpt>
      <trkpt lat="10.949369127797368" lon="108.20835391913866"><ele>1.8506720463152702</ele><time>2026-01-20T09:46:26Z</time></trkpt>
      <trkpt lat="10.949578525049061" lon="108.20875922490343"><ele>1.3970861797697909</ele><time>2026-01-20T09:47:07Z</time></trkpt>
      <trkpt lat="10.94977684049789" lon="108.20914308091875"><ele>0.9897791900799108</ele><time>2026-01-20T09:47:45Z</time></trkpt>
      <trkpt lat="10.949984989349913" lon="108.20954905612601"><ele>0.6039611859596334</ele><time>2026-01-20T09:48:26Z</time></trkpt>
      <trkpt lat="10.950193138201936" lon="108.20995503133327"><ele>1.9060224028802517</ele><time>2026-01-20T09:49:07Z</time></trkpt>
      <trkpt lat="10.950401287053957" lon="108.21036100654051"><ele>1.7523525228025905</ele><time>2026-01-20T09:49:48Z</time></trkpt>
      <trkpt lat="10.95060943590598" lon="108.21076698174777"><ele>1.4355923021684702</ele><time>2026-01-20T09:50:29Z</time></trkpt>
      <trkpt lat="10.950817584758003" lon="108.21117295695502"><ele>1.5247788927663555</ele><time>2026-01-20T09:51:10Z</time></trkpt>
      <trkpt lat="10.951025733610026" lon="108.21157893216228"><ele>2.4055890951456673</ele><time>2026-01-20T09:51:51Z</time></trkpt>
      <trkpt lat="10.951233882462049" lon="108.21198490736953"><ele>2.3533048271471135</ele><time>2026-01-20T09:52:32Z</time></trkpt>
      <trkpt lat="10.951442031314071" lon="108.21239088257678"><ele>3.2343525370125072</ele><time>2026-01-20T09:53:13Z</time></trkpt>
      <trkpt lat="10.951470325102903" lon="108.21244606701174"><ele>3.186508980018095</ele><time>2026-01-20T09:53:18Z</time></trkpt>
      <trkpt lat="10.95162475224117" lon="108.21287621284404"><ele>1.4852611162889549</ele><time>2026-01-20T09:53:59Z</time></trkpt>
      <trkpt lat="10.951779179379436" lon="108.21330635867632"><ele>1.6286788569996131</ele><time>2026-01-20T09:54:40Z</time></trkpt>
      <trkpt lat="10.951933606517702" lon="108.21373650450862"><ele>1.5992119619525158</ele><time>2026-01-20T09:55:21Z</time></trkpt>
      <trkpt lat="10.952088033655969" lon="108.21416665034091"><ele>1.9913370844395752</ele><time>2026-01-20T09:56:02Z</time></trkpt>
      <trkpt lat="10.952242460794235" lon="108.2145967961732"><ele>1.7344256691839324</ele><time>2026-01-20T09:56:43Z</time></trkpt>
      <trkpt lat="10.952396887932503" lon="108.2150269420055"><ele>1.749113869309133</ele><time>2026-01-20T09:57:24Z</time></trkpt>
      <trkpt lat="10.95255131507077" lon="108.21545708783779"><ele>1.2637520510817326</ele><time>2026-01-20T09:58:05Z</time></trkpt>
      <trkpt lat="10.952705742209035" lon="108.21588723367007"><ele>0.27963839344217667</ele><time>2026-01-20T09:58:46Z</time></trkpt>
      <trkpt lat="10.952860169347302" lon="108.21631737950237"><ele>0.9101296647970905</ele><time>2026-01-20T09:59:26Z</time></trkpt>
      <trkpt lat="10.953014596485568" lon="108.21674752533465"><ele>0.7619511998062347</ele><time>2026-01-20T10:00:07Z</time></trkpt>
      <trkpt lat="10.953169023623834" lon="108.21717767116695"><ele>1.3210672062123194</ele><time>2026-01-20T10:00:48Z</time></trkpt>
      <trkpt lat="10.953235862569684" lon="108.21736384630634"><ele>1.5820650756795658</ele><time>2026-01-20T10:01:06Z</time></trkpt>
      <trkpt lat="10.953355648077233" lon="108.21780530078374"><ele>0.8106624216501122</ele><time>2026-01-20T10:01:47Z</time></trkpt>
      <trkpt lat="10.95347543358478" lon="108.21824675526112"><ele>0.4599761725079934</ele><time>2026-01-20T10:02:28Z</time></trkpt>
      <trkpt lat="10.953595219092328" lon="108.21868820973852"><ele>0.5944663640111685</ele><time>2026-01-20T10:03:09Z</time></trkpt>
      <trkpt lat="10.953715004599875" lon="108.21912966421591"><ele>1.2442986817101491</ele><time>2026-01-20T10:03:50Z</time></trkpt>
      <trkpt lat="10.953834790107424" lon="108.2195711186933"><ele>2.192680388165172</ele><time>2026-01-20T10:04:30Z</time></trkpt>
      <trkpt lat="10.953954575614972" lon="108.22001257317069"><ele>1.4570101524004713</ele><time>2026-01-20T10:05:11Z</time></trkpt>
      <trkpt lat="10.954069420008238" lon="108.22043581779059"><ele>2.5751273223444913</ele><time>2026-01-20T10:05:51Z</time></trkpt>
    </trkseg>
  </trk>
</gpx>
