<?xml version="1.0" encoding="UTF-8"?>
<gpx version="1.1" creator="HoldMyTrack" xmlns="http://www.topografix.com/GPX/1/1" xmlns:gpxtpx="http://www.garmin.com/xmlschemas/TrackPointExtension/v1">
  <trk>
    <type>walking</type>
    <trkseg>
      <trkpt lat="59.432683" lon="24.798943"><ele>42.14</ele><time>2026-05-07T07:10:00Z</time></trkpt>
      <trkpt lat="59.432974" lon="24.798997"><ele>42.18</ele><time>2026-05-07T07:10:27Z</time></trkpt>
      <trkpt lat="59.433419" lon="24.798736"><ele>42</ele><time>2026-05-07T07:11:09Z</time></trkpt>
      <trkpt lat="59.43358" lon="24.798764"><ele>42</ele><time>2026-05-07T07:11:24Z</time></trkpt>
      <trkpt lat="59.433973" lon="24.799183"><ele>42</ele><time>2026-05-07T07:12:04Z</time></trkpt>
      <trkpt lat="59.43445" lon="24.799225"><ele>43</ele><time>2026-05-07T07:12:48Z</time></trkpt>
      <trkpt lat="59.43448" lon="24.79825"><ele>43</ele><time>2026-05-07T07:13:33Z</time></trkpt>
      <trkpt lat="59.435815" lon="24.798586"><ele>43</ele><time>2026-05-07T07:15:35Z</time></trkpt>
      <trkpt lat="59.43625" lon="24.798677"><ele>43</ele><time>2026-05-07T07:16:15Z</time></trkpt>
      <trkpt lat="59.436378" lon="24.798731"><ele>43</ele><time>2026-05-07T07:16:27Z</time></trkpt>
      <trkpt lat="59.436482" lon="24.798813"><ele>43</ele><time>2026-05-07T07:16:37Z</time></trkpt>
      <trkpt lat="59.436493" lon="24.798822"><ele>43</ele><time>2026-05-07T07:16:38Z</time></trkpt>
      <trkpt lat="59.436554" lon="24.798695"><ele>42.84</ele><time>2026-05-07T07:16:46Z</time></trkpt>
      <trkpt lat="59.437084" lon="24.797653"><ele>37.65</ele><time>2026-05-07T07:17:55Z</time></trkpt>
      <trkpt lat="59.437113" lon="24.797569"><ele>37.17</ele><time>2026-05-07T07:17:59Z</time></trkpt>
      <trkpt lat="59.437336" lon="24.797783"><ele>36.46</ele><time>2026-05-07T07:18:22Z</time></trkpt>
      <trkpt lat="59.437512" lon="24.798011"><ele>35.14</ele><time>2026-05-07T07:18:41Z</time></trkpt>
      <trkpt lat="59.437688" lon="24.798239"><ele>28.81</ele><time>2026-05-07T07:19:00Z</time></trkpt>
      <trkpt lat="59.437746" lon="24.798273"><ele>27.82</ele><time>2026-05-07T07:19:06Z</time></trkpt>
      <trkpt lat="59.437825" lon="24.798112"><ele>23.53</ele><time>2026-05-07T07:19:16Z</time></trkpt>
      <trkpt lat="59.437883" lon="24.79788"><ele>21.74</ele><time>2026-05-07T07:19:28Z</time></trkpt>
      <trkpt lat="59.437933" lon="24.797589"><ele>21</ele><time>2026-05-07T07:19:42Z</time></trkpt>
      <trkpt lat="59.437968" lon="24.797768"><ele>21.07</ele><time>2026-05-07T07:19:51Z</time></trkpt>
      <trkpt lat="59.437933" lon="24.797589"><ele>21</ele><time>2026-05-07T07:20:00Z</time></trkpt>
      <trkpt lat="59.437942" lon="24.79723"><ele>21</ele><time>2026-05-07T07:20:17Z</time></trkpt>
      <trkpt lat="59.437954" lon="24.797109"><ele>20.72</ele><time>2026-05-07T07:20:22Z</time></trkpt>
      <trkpt lat="59.438" lon="24.796824"><ele>20</ele><time>2026-05-07T07:20:36Z</time></trkpt>
      <trkpt lat="59.438144" lon="24.796334"><ele>19.26</ele><time>2026-05-07T07:21:02Z</time></trkpt>
      <trkpt lat="59.438501" lon="24.795409"><ele>19</ele><time>2026-05-07T07:21:56Z</time></trkpt>
      <trkpt lat="59.438413" lon="24.795107"><ele>19</ele><time>2026-05-07T07:22:12Z</time></trkpt>
      <trkpt lat="59.438314" lon="24.794877"><ele>19</ele><time>2026-05-07T07:22:26Z</time></trkpt>
      <trkpt lat="59.438438" lon="24.794841"><ele>19</ele><time>2026-05-07T07:22:37Z</time></trkpt>
      <trkpt lat="59.438559" lon="24.794554"><ele>19</ele><time>2026-05-07T07:22:55Z</time></trkpt>
      <trkpt lat="59.438633" lon="24.794273"><ele>19</ele><time>2026-05-07T07:23:09Z</time></trkpt>
      <trkpt lat="59.438788" lon="24.793371"><ele>18</ele><time>2026-05-07T07:23:53Z</time></trkpt>
      <trkpt lat="59.438836" lon="24.793047"><ele>17.53</ele><time>2026-05-07T07:24:09Z</time></trkpt>
      <trkpt lat="59.438853" lon="24.792939"><ele>17.37</ele><time>2026-05-07T07:24:14Z</time></trkpt>
      <trkpt lat="59.438852" lon="24.792695"><ele>17.86</ele><time>2026-05-07T07:24:25Z</time></trkpt>
      <trkpt lat="59.438865" lon="24.792623"><ele>17.42</ele><time>2026-05-07T07:24:29Z</time></trkpt>
      <trkpt lat="59.43892" lon="24.792283"><ele>14.53</ele><time>2026-05-07T07:24:46Z</time></trkpt>
      <trkpt lat="59.438943" lon="24.792159"><ele>14</ele><time>2026-05-07T07:24:52Z</time></trkpt>
      <trkpt lat="59.438932" lon="24.79214"><ele>14</ele><time>2026-05-07T07:24:53Z</time></trkpt>
      <trkpt lat="59.438753" lon="24.792028"><ele>13.95</ele><time>2026-05-07T07:25:10Z</time></trkpt>
      <trkpt lat="59.438742" lon="24.792071"><ele>14</ele><time>2026-05-07T07:25:12Z</time></trkpt>
      <trkpt lat="59.438701" lon="24.792126"><ele>14</ele><time>2026-05-07T07:25:17Z</time></trkpt>
      <trkpt lat="59.438652" lon="24.792124"><ele>14</ele><time>2026-05-07T07:25:21Z</time></trkpt>
      <trkpt lat="59.438613" lon="24.792065"><ele>14</ele><time>2026-05-07T07:25:26Z</time></trkpt>
      <trkpt lat="59.4386" lon="24.791973"><ele>14</ele><time>2026-05-07T07:25:30Z</time></trkpt>
      <trkpt lat="59.438604" lon="24.791925"><ele>14</ele><time>2026-05-07T07:25:32Z</time></trkpt>
      <trkpt lat="59.438371" lon="24.791765"><ele>14</ele><time>2026-05-07T07:25:55Z</time></trkpt>
      <trkpt lat="59.438332" lon="24.791996"><ele>14</ele><time>2026-05-07T07:26:06Z</time></trkpt>
      <trkpt lat="59.438215" lon="24.791915"><ele>14</ele><time>2026-05-07T07:26:17Z</time></trkpt>
      <trkpt lat="59.438192" lon="24.79205"><ele>14.16</ele><time>2026-05-07T07:26:24Z</time></trkpt>
      <trkpt lat="59.438171" lon="24.792046"><ele>14.12</ele><time>2026-05-07T07:26:26Z</time></trkpt>
      <trkpt lat="59.438157" lon="24.792083"><ele>14.71</ele><time>2026-05-07T07:26:28Z</time></trkpt>
      <trkpt lat="59.438065" lon="24.792022"><ele>16.14</ele><time>2026-05-07T07:26:37Z</time></trkpt>
      <trkpt lat="59.438039" lon="24.792041"><ele>16.93</ele><time>2026-05-07T07:26:39Z</time></trkpt>
      <trkpt lat="59.438002" lon="24.792017"><ele>17.35</ele><time>2026-05-07T07:26:43Z</time></trkpt>
      <trkpt lat="59.43799" lon="24.792009"><ele>17.37</ele><time>2026-05-07T07:26:44Z</time></trkpt>
      <trkpt lat="59.437987" lon="24.792024"><ele>17.71</ele><time>2026-05-07T07:26:45Z</time></trkpt>
      <trkpt lat="59.43799" lon="24.792009"><ele>17.37</ele><time>2026-05-07T07:26:46Z</time></trkpt>
      <trkpt lat="59.437981" lon="24.792003"><ele>17.27</ele><time>2026-05-07T07:26:46Z</time></trkpt>
      <trkpt lat="59.437941" lon="24.791976"><ele>17.01</ele><time>2026-05-07T07:26:50Z</time></trkpt>
      <trkpt lat="59.437931" lon="24.791934"><ele>16.46</ele><time>2026-05-07T07:26:52Z</time></trkpt>
      <trkpt lat="59.437834" lon="24.79187"><ele>16.85</ele><time>2026-05-07T07:27:02Z</time></trkpt>
      <trkpt lat="59.437804" lon="24.79174"><ele>15.05</ele><time>2026-05-07T07:27:08Z</time></trkpt>
      <trkpt lat="59.437944" lon="24.790932"><ele>13</ele><time>2026-05-07T07:27:48Z</time></trkpt>
      <trkpt lat="59.437924" lon="24.79092"><ele>13</ele><time>2026-05-07T07:27:50Z</time></trkpt>
      <trkpt lat="59.438002" lon="24.790947"><ele>13</ele><time>2026-05-07T07:27:57Z</time></trkpt>
      <trkpt lat="59.438072" lon="24.790554"><ele>12.38</ele><time>2026-05-07T07:28:16Z</time></trkpt>
      <trkpt lat="59.438207" lon="24.790647"><ele>12.8</ele><time>2026-05-07T07:28:29Z</time></trkpt>
      <trkpt lat="59.438228" lon="24.790546"><ele>11.21</ele><time>2026-05-07T07:28:34Z</time></trkpt>
      <trkpt lat="59.438244" lon="24.790458"><ele>10.09</ele><time>2026-05-07T07:28:39Z</time></trkpt>
      <trkpt lat="59.438861" lon="24.79088"><ele>10.31</ele><time>2026-05-07T07:29:38Z</time></trkpt>
      <trkpt lat="59.438903" lon="24.790645"><ele>9.92</ele><time>2026-05-07T07:29:50Z</time></trkpt>
      <trkpt lat="59.438861" lon="24.79088"><ele>10.31</ele><time>2026-05-07T07:30:01Z</time></trkpt>
      <trkpt lat="59.43904" lon="24.791"><ele>10.02</ele><time>2026-05-07T07:30:18Z</time></trkpt>
      <trkpt lat="59.439352" lon="24.789197"><ele>7.72</ele><time>2026-05-07T07:31:46Z</time></trkpt>
      <trkpt lat="59.439208" lon="24.789108"><ele>7.89</ele><time>2026-05-07T07:32:00Z</time></trkpt>
      <trkpt lat="59.439425" lon="24.789253"><ele>7.82</ele><time>2026-05-07T07:32:21Z</time></trkpt>
      <trkpt lat="59.439455" lon="24.789272"><ele>7.93</ele><time>2026-05-07T07:32:24Z</time></trkpt>
      <trkpt lat="59.439488" lon="24.789306"><ele>7.9</ele><time>2026-05-07T07:32:27Z</time></trkpt>
      <trkpt lat="59.43945" lon="24.789529"><ele>8</ele><time>2026-05-07T07:32:38Z</time></trkpt>
      <trkpt lat="59.439732" lon="24.790668"><ele>7</ele><time>2026-05-07T07:33:37Z</time></trkpt>
      <trkpt lat="59.439843" lon="24.791052"><ele>7</ele><time>2026-05-07T07:33:57Z</time></trkpt>
      <trkpt lat="59.439905" lon="24.791364"><ele>8</ele><time>2026-05-07T07:34:13Z</time></trkpt>
      <trkpt lat="59.439921" lon="24.791605"><ele>8.47</ele><time>2026-05-07T07:34:24Z</time></trkpt>
      <trkpt lat="59.439978" lon="24.791988"><ele>9.21</ele><time>2026-05-07T07:34:42Z</time></trkpt>
      <trkpt lat="59.44003" lon="24.792233"><ele>9.84</ele><time>2026-05-07T07:34:55Z</time></trkpt>
      <trkpt lat="59.440098" lon="24.792426"><ele>10.19</ele><time>2026-05-07T07:35:05Z</time></trkpt>
      <trkpt lat="59.44021" lon="24.792693"><ele>10.3</ele><time>2026-05-07T07:35:21Z</time></trkpt>
      <trkpt lat="59.440317" lon="24.792947"><ele>10.41</ele><time>2026-05-07T07:35:37Z</time></trkpt>
      <trkpt lat="59.440642" lon="24.793482"><ele>9.82</ele><time>2026-05-07T07:36:15Z</time></trkpt>
      <trkpt lat="59.440625" lon="24.793498"><ele>10.04</ele><time>2026-05-07T07:36:17Z</time></trkpt>
      <trkpt lat="59.440642" lon="24.793482"><ele>9.82</ele><time>2026-05-07T07:36:19Z</time></trkpt>
      <trkpt lat="59.440669" lon="24.793415"><ele>9.4</ele><time>2026-05-07T07:36:23Z</time></trkpt>
      <trkpt lat="59.440766" lon="24.793327"><ele>8.64</ele><time>2026-05-07T07:36:32Z</time></trkpt>
      <trkpt lat="59.440895" lon="24.793296"><ele>7.33</ele><time>2026-05-07T07:36:44Z</time></trkpt>
      <trkpt lat="59.441012" lon="24.793236"><ele>7</ele><time>2026-05-07T07:36:55Z</time></trkpt>
      <trkpt lat="59.441246" lon="24.792975"><ele>5.89</ele><time>2026-05-07T07:37:20Z</time></trkpt>
      <trkpt lat="59.441304" lon="24.792866"><ele>5.1</ele><time>2026-05-07T07:37:27Z</time></trkpt>
      <trkpt lat="59.441382" lon="24.792782"><ele>5</ele><time>2026-05-07T07:37:35Z</time></trkpt>
      <trkpt lat="59.441415" lon="24.792702"><ele>5</ele><time>2026-05-07T07:37:40Z</time></trkpt>
      <trkpt lat="59.441437" lon="24.792648"><ele>5</ele><time>2026-05-07T07:37:43Z</time></trkpt>
      <trkpt lat="59.441818" lon="24.79291"><ele>5</ele><time>2026-05-07T07:38:20Z</time></trkpt>
      <trkpt lat="59.441938" lon="24.793447"><ele>5</ele><time>2026-05-07T07:38:47Z</time></trkpt>
      <trkpt lat="59.441997" lon="24.793714"><ele>5</ele><time>2026-05-07T07:39:00Z</time></trkpt>
      <trkpt lat="59.442054" lon="24.794137"><ele>6</ele><time>2026-05-07T07:39:21Z</time></trkpt>
      <trkpt lat="59.442124" lon="24.795276"><ele>7</ele><time>2026-05-07T07:40:14Z</time></trkpt>
      <trkpt lat="59.442116" lon="24.795456"><ele>7</ele><time>2026-05-07T07:40:22Z</time></trkpt>
      <trkpt lat="59.442115" lon="24.795456"><ele>7</ele><time>2026-05-07T07:40:22Z</time></trkpt>
      <trkpt lat="59.442052" lon="24.79569"><ele>7</ele><time>2026-05-07T07:40:34Z</time></trkpt>
      <trkpt lat="59.441938" lon="24.795945"><ele>7</ele><time>2026-05-07T07:40:50Z</time></trkpt>
      <trkpt lat="59.441866" lon="24.796069"><ele>7.71</ele><time>2026-05-07T07:40:59Z</time></trkpt>
      <trkpt lat="59.44168" lon="24.796221"><ele>9.83</ele><time>2026-05-07T07:41:17Z</time></trkpt>
      <trkpt lat="59.441614" lon="24.796297"><ele>10.58</ele><time>2026-05-07T07:41:24Z</time></trkpt>
      <trkpt lat="59.441648" lon="24.796423"><ele>10.69</ele><time>2026-05-07T07:41:31Z</time></trkpt>
      <trkpt lat="59.441718" lon="24.796618"><ele>10.17</ele><time>2026-05-07T07:41:42Z</time></trkpt>
      <trkpt lat="59.441773" lon="24.796851"><ele>9.77</ele><time>2026-05-07T07:41:54Z</time></trkpt>
      <trkpt lat="59.441816" lon="24.797106"><ele>9.4</ele><time>2026-05-07T07:42:06Z</time></trkpt>
      <trkpt lat="59.441863" lon="24.797503"><ele>8.73</ele><time>2026-05-07T07:42:25Z</time></trkpt>
      <trkpt lat="59.441866" lon="24.797719"><ele>8.7</ele><time>2026-05-07T07:42:35Z</time></trkpt>
      <trkpt lat="59.441856" lon="24.797893"><ele>8.81</ele><time>2026-05-07T07:42:43Z</time></trkpt>
      <trkpt lat="59.441815" lon="24.798196"><ele>9.34</ele><time>2026-05-07T07:42:57Z</time></trkpt>
      <trkpt lat="59.441921" lon="24.798214"><ele>8.07</ele><time>2026-05-07T07:43:07Z</time></trkpt>
      <trkpt lat="59.442" lon="24.798484"><ele>8</ele><time>2026-05-07T07:43:22Z</time></trkpt>
      <trkpt lat="59.442015" lon="24.798614"><ele>8</ele><time>2026-05-07T07:43:28Z</time></trkpt>
      <trkpt lat="59.442217" lon="24.798853"><ele>7.43</ele><time>2026-05-07T07:43:49Z</time></trkpt>
      <trkpt lat="59.442249" lon="24.798814"><ele>7.33</ele><time>2026-05-07T07:43:53Z</time></trkpt>
      <trkpt lat="59.442352" lon="24.798689"><ele>7</ele><time>2026-05-07T07:44:04Z</time></trkpt>
      <trkpt lat="59.442443" lon="24.798623"><ele>7.63</ele><time>2026-05-07T07:44:12Z</time></trkpt>
      <trkpt lat="59.442503" lon="24.798532"><ele>7.9</ele><time>2026-05-07T07:44:19Z</time></trkpt>
      <trkpt lat="59.442518" lon="24.798481"><ele>7.87</ele><time>2026-05-07T07:44:22Z</time></trkpt>
      <trkpt lat="59.442526" lon="24.798408"><ele>7.85</ele><time>2026-05-07T07:44:25Z</time></trkpt>
      <trkpt lat="59.442514" lon="24.798308"><ele>7.71</ele><time>2026-05-07T07:44:30Z</time></trkpt>
      <trkpt lat="59.442472" lon="24.79824"><ele>7.23</ele><time>2026-05-07T07:44:35Z</time></trkpt>
      <trkpt lat="59.442469" lon="24.798173"><ele>7.19</ele><time>2026-05-07T07:44:38Z</time></trkpt>
      <trkpt lat="59.442484" lon="24.798083"><ele>7.37</ele><time>2026-05-07T07:44:43Z</time></trkpt>
      <trkpt lat="59.44248" lon="24.798034"><ele>7.28</ele><time>2026-05-07T07:44:45Z</time></trkpt>
      <trkpt lat="59.442468" lon="24.798001"><ele>7.14</ele><time>2026-05-07T07:44:47Z</time></trkpt>
      <trkpt lat="59.442363" lon="24.797796"><ele>7</ele><time>2026-05-07T07:45:00Z</time></trkpt>
      <trkpt lat="59.442326" lon="24.797778"><ele>7</ele><time>2026-05-07T07:45:04Z</time></trkpt>
      <trkpt lat="59.442293" lon="24.797794"><ele>7</ele><time>2026-05-07T07:45:07Z</time></trkpt>
      <trkpt lat="59.442263" lon="24.797789"><ele>7</ele><time>2026-05-07T07:45:10Z</time></trkpt>
      <trkpt lat="59.442247" lon="24.797731"><ele>7</ele><time>2026-05-07T07:45:13Z</time></trkpt>
      <trkpt lat="59.442239" lon="24.797601"><ele>7</ele><time>2026-05-07T07:45:19Z</time></trkpt>
      <trkpt lat="59.442272" lon="24.797294"><ele>7</ele><time>2026-05-07T07:45:33Z</time></trkpt>
      <trkpt lat="59.442225" lon="24.797228"><ele>7</ele><time>2026-05-07T07:45:39Z</time></trkpt>
      <trkpt lat="59.442207" lon="24.797116"><ele>7</ele><time>2026-05-07T07:45:44Z</time></trkpt>
      <trkpt lat="59.442175" lon="24.797076"><ele>7</ele><time>2026-05-07T07:45:47Z</time></trkpt>
      <trkpt lat="59.442147" lon="24.79706"><ele>7</ele><time>2026-05-07T07:45:50Z</time></trkpt>
      <trkpt lat="59.442126" lon="24.797023"><ele>7</ele><time>2026-05-07T07:45:53Z</time></trkpt>
      <trkpt lat="59.442078" lon="24.797028"><ele>7.27</ele><time>2026-05-07T07:45:57Z</time></trkpt>
      <trkpt lat="59.442065" lon="24.797063"><ele>7.43</ele><time>2026-05-07T07:45:59Z</time></trkpt>
      <trkpt lat="59.442023" lon="24.797095"><ele>7.91</ele><time>2026-05-07T07:46:03Z</time></trkpt>
      <trkpt lat="59.442033" lon="24.797216"><ele>7.71</ele><time>2026-05-07T07:46:09Z</time></trkpt>
      <trkpt lat="59.442019" lon="24.797316"><ele>7.29</ele><time>2026-05-07T07:46:14Z</time></trkpt>
      <trkpt lat="59.441996" lon="24.79739"><ele>7.32</ele><time>2026-05-07T07:46:18Z</time></trkpt>
      <trkpt lat="59.441945" lon="24.797407"><ele>7.84</ele><time>2026-05-07T07:46:22Z</time></trkpt>
      <trkpt lat="59.441909" lon="24.797468"><ele>8.21</ele><time>2026-05-07T07:46:27Z</time></trkpt>
      <trkpt lat="59.441863" lon="24.797503"><ele>8.73</ele><time>2026-05-07T07:46:31Z</time></trkpt>
      <trkpt lat="59.441816" lon="24.797106"><ele>9.4</ele><time>2026-05-07T07:46:50Z</time></trkpt>
      <trkpt lat="59.441773" lon="24.796851"><ele>9.77</ele><time>2026-05-07T07:47:02Z</time></trkpt>
      <trkpt lat="59.441718" lon="24.796618"><ele>10.17</ele><time>2026-05-07T07:47:14Z</time></trkpt>
      <trkpt lat="59.441648" lon="24.796423"><ele>10.69</ele><time>2026-05-07T07:47:25Z</time></trkpt>
      <trkpt lat="59.441614" lon="24.796297"><ele>10.58</ele><time>2026-05-07T07:47:32Z</time></trkpt>
      <trkpt lat="59.44168" lon="24.796221"><ele>9.83</ele><time>2026-05-07T07:47:39Z</time></trkpt>
      <trkpt lat="59.441866" lon="24.796069"><ele>7.71</ele><time>2026-05-07T07:47:57Z</time></trkpt>
      <trkpt lat="59.441938" lon="24.795945"><ele>7</ele><time>2026-05-07T07:48:06Z</time></trkpt>
      <trkpt lat="59.442052" lon="24.79569"><ele>7</ele><time>2026-05-07T07:48:22Z</time></trkpt>
      <trkpt lat="59.442115" lon="24.795456"><ele>7</ele><time>2026-05-07T07:48:34Z</time></trkpt>
      <trkpt lat="59.442271" lon="24.795479"><ele>6.99</ele><time>2026-05-07T07:48:48Z</time></trkpt>
      <trkpt lat="59.442342" lon="24.795518"><ele>6.94</ele><time>2026-05-07T07:48:55Z</time></trkpt>
      <trkpt lat="59.442473" lon="24.79572"><ele>6.76</ele><time>2026-05-07T07:49:10Z</time></trkpt>
      <trkpt lat="59.442857" lon="24.796012"><ele>5.04</ele><time>2026-05-07T07:49:47Z</time></trkpt>
      <trkpt lat="59.443041" lon="24.796206"><ele>4.44</ele><time>2026-05-07T07:50:06Z</time></trkpt>
      <trkpt lat="59.443091" lon="24.796316"><ele>4.61</ele><time>2026-05-07T07:50:13Z</time></trkpt>
      <trkpt lat="59.4431" lon="24.796403"><ele>4.54</ele><time>2026-05-07T07:50:17Z</time></trkpt>
      <trkpt lat="59.443091" lon="24.796316"><ele>4.61</ele><time>2026-05-07T07:50:21Z</time></trkpt>
      <trkpt lat="59.443041" lon="24.796206"><ele>4.44</ele><time>2026-05-07T07:50:28Z</time></trkpt>
      <trkpt lat="59.44301" lon="24.796034"><ele>4.15</ele><time>2026-05-07T07:50:37Z</time></trkpt>
      <trkpt lat="59.443055" lon="24.796006"><ele>4.01</ele><time>2026-05-07T07:50:41Z</time></trkpt>
      <trkpt lat="59.443165" lon="24.795937"><ele>4</ele><time>2026-05-07T07:50:51Z</time></trkpt>
      <trkpt lat="59.44329" lon="24.795901"><ele>4</ele><time>2026-05-07T07:51:03Z</time></trkpt>
      <trkpt lat="59.443317" lon="24.795892"><ele>4</ele><time>2026-05-07T07:51:05Z</time></trkpt>
      <trkpt lat="59.443325" lon="24.795868"><ele>4</ele><time>2026-05-07T07:51:07Z</time></trkpt>
      <trkpt lat="59.443621" lon="24.79515"><ele>4</ele><time>2026-05-07T07:51:50Z</time></trkpt>
      <trkpt lat="59.443592" lon="24.795104"><ele>4</ele><time>2026-05-07T07:51:53Z</time></trkpt>
      <trkpt lat="59.443615" lon="24.794946"><ele>3.92</ele><time>2026-05-07T07:52:01Z</time></trkpt>
      <trkpt lat="59.443506" lon="24.794508"><ele>3</ele><time>2026-05-07T07:52:23Z</time></trkpt>
      <trkpt lat="59.443481" lon="24.794527"><ele>3.24</ele><time>2026-05-07T07:52:26Z</time></trkpt>
      <trkpt lat="59.443482" lon="24.794508"><ele>3.22</ele><time>2026-05-07T07:52:26Z</time></trkpt>
      <trkpt lat="59.443448" lon="24.79437"><ele>3.78</ele><time>2026-05-07T07:52:33Z</time></trkpt>
      <trkpt lat="59.443516" lon="24.794293"><ele>3.73</ele><time>2026-05-07T07:52:41Z</time></trkpt>
      <trkpt lat="59.443546" lon="24.794227"><ele>3.49</ele><time>2026-05-07T07:52:45Z</time></trkpt>
      <trkpt lat="59.443562" lon="24.79416"><ele>3.3</ele><time>2026-05-07T07:52:48Z</time></trkpt>
      <trkpt lat="59.44358" lon="24.793943"><ele>3.1</ele><time>2026-05-07T07:52:58Z</time></trkpt>
      <trkpt lat="59.443557" lon="24.793806"><ele>3.36</ele><time>2026-05-07T07:53:05Z</time></trkpt>
      <trkpt lat="59.443683" lon="24.793697"><ele>3</ele><time>2026-05-07T07:53:17Z</time></trkpt>
      <trkpt lat="59.443767" lon="24.793463"><ele>3</ele><time>2026-05-07T07:53:31Z</time></trkpt>
      <trkpt lat="59.443864" lon="24.793348"><ele>2.94</ele><time>2026-05-07T07:53:41Z</time></trkpt>
      <trkpt lat="59.44389" lon="24.793233"><ele>2.54</ele><time>2026-05-07T07:53:47Z</time></trkpt>
      <trkpt lat="59.443864" lon="24.793348"><ele>2.94</ele><time>2026-05-07T07:53:53Z</time></trkpt>
      <trkpt lat="59.443767" lon="24.793463"><ele>3</ele><time>2026-05-07T07:54:03Z</time></trkpt>
      <trkpt lat="59.443748" lon="24.793521"><ele>3</ele><time>2026-05-07T07:54:06Z</time></trkpt>
      <trkpt lat="59.443536" lon="24.792913"><ele>3</ele><time>2026-05-07T07:54:40Z</time></trkpt>
      <trkpt lat="59.443438" lon="24.79254"><ele>2.98</ele><time>2026-05-07T07:55:00Z</time></trkpt>
      <trkpt lat="59.443373" lon="24.79222"><ele>3</ele><time>2026-05-07T07:55:16Z</time></trkpt>
      <trkpt lat="59.44331" lon="24.79175"><ele>3</ele><time>2026-05-07T07:55:38Z</time></trkpt>
      <trkpt lat="59.443282" lon="24.791429"><ele>3</ele><time>2026-05-07T07:55:53Z</time></trkpt>
      <trkpt lat="59.443278" lon="24.79125"><ele>3</ele><time>2026-05-07T07:56:01Z</time></trkpt>
      <trkpt lat="59.443288" lon="24.790836"><ele>3</ele><time>2026-05-07T07:56:21Z</time></trkpt>
      <trkpt lat="59.443364" lon="24.789812"><ele>2.57</ele><time>2026-05-07T07:57:09Z</time></trkpt>
      <trkpt lat="59.443386" lon="24.78982"><ele>2.32</ele><time>2026-05-07T07:57:11Z</time></trkpt>
      <trkpt lat="59.443394" lon="24.789823"><ele>2.22</ele><time>2026-05-07T07:57:11Z</time></trkpt>
      <trkpt lat="59.443389" lon="24.789891"><ele>2.28</ele><time>2026-05-07T07:57:14Z</time></trkpt>
      <trkpt lat="59.443388" lon="24.789911"><ele>2.3</ele><time>2026-05-07T07:57:15Z</time></trkpt>
      <trkpt lat="59.443417" lon="24.78993"><ele>1.93</ele><time>2026-05-07T07:57:18Z</time></trkpt>
      <trkpt lat="59.443431" lon="24.79"><ele>1.61</ele><time>2026-05-07T07:57:22Z</time></trkpt>
      <trkpt lat="59.443429" lon="24.790045"><ele>1.66</ele><time>2026-05-07T07:57:24Z</time></trkpt>
      <trkpt lat="59.443431" lon="24.79"><ele>1.61</ele><time>2026-05-07T07:57:26Z</time></trkpt>
      <trkpt lat="59.443417" lon="24.78993"><ele>1.93</ele><time>2026-05-07T07:57:29Z</time></trkpt>
      <trkpt lat="59.443388" lon="24.789911"><ele>2.3</ele><time>2026-05-07T07:57:32Z</time></trkpt>
      <trkpt lat="59.443389" lon="24.789891"><ele>2.28</ele><time>2026-05-07T07:57:33Z</time></trkpt>
      <trkpt lat="59.443394" lon="24.789823"><ele>2.22</ele><time>2026-05-07T07:57:36Z</time></trkpt>
      <trkpt lat="59.443386" lon="24.78982"><ele>2.32</ele><time>2026-05-07T07:57:37Z</time></trkpt>
      <trkpt lat="59.443364" lon="24.789812"><ele>2.57</ele><time>2026-05-07T07:57:39Z</time></trkpt>
      <trkpt lat="59.443722" lon="24.785125"><ele>2.91</ele><time>2026-05-07T08:01:18Z</time></trkpt>
      <trkpt lat="59.443641" lon="24.78453"><ele>3</ele><time>2026-05-07T08:01:47Z</time></trkpt>
      <trkpt lat="59.443788" lon="24.783057"><ele>3</ele><time>2026-05-07T08:02:56Z</time></trkpt>
      <trkpt lat="59.443903" lon="24.782737"><ele>3</ele><time>2026-05-07T08:03:14Z</time></trkpt>
      <trkpt lat="59.443933" lon="24.782537"><ele>3</ele><time>2026-05-07T08:03:24Z</time></trkpt>
      <trkpt lat="59.443955" lon="24.782261"><ele>2.81</ele><time>2026-05-07T08:03:37Z</time></trkpt>
      <trkpt lat="59.443876" lon="24.781724"><ele>3</ele><time>2026-05-07T08:04:03Z</time></trkpt>
      <trkpt lat="59.443815" lon="24.781596"><ele>3</ele><time>2026-05-07T08:04:11Z</time></trkpt>
      <trkpt lat="59.443788" lon="24.781652"><ele>3</ele><time>2026-05-07T08:04:14Z</time></trkpt>
      <trkpt lat="59.443744" lon="24.781787"><ele>3</ele><time>2026-05-07T08:04:22Z</time></trkpt>
      <trkpt lat="59.443788" lon="24.781652"><ele>3</ele><time>2026-05-07T08:04:29Z</time></trkpt>
      <trkpt lat="59.443815" lon="24.781596"><ele>3</ele><time>2026-05-07T08:04:33Z</time></trkpt>
      <trkpt lat="59.443775" lon="24.781518"><ele>3</ele><time>2026-05-07T08:04:38Z</time></trkpt>
      <trkpt lat="59.443768" lon="24.781468"><ele>3</ele><time>2026-05-07T08:04:40Z</time></trkpt>
      <trkpt lat="59.443761" lon="24.781325"><ele>3</ele><time>2026-05-07T08:04:47Z</time></trkpt>
      <trkpt lat="59.443757" lon="24.781257"><ele>3</ele><time>2026-05-07T08:04:50Z</time></trkpt>
      <trkpt lat="59.443749" lon="24.781119"><ele>3</ele><time>2026-05-07T08:04:57Z</time></trkpt>
      <trkpt lat="59.443747" lon="24.780926"><ele>3</ele><time>2026-05-07T08:05:05Z</time></trkpt>
      <trkpt lat="59.443799" lon="24.780606"><ele>3</ele><time>2026-05-07T08:05:21Z</time></trkpt>
      <trkpt lat="59.443596" lon="24.77896"><ele>2</ele><time>2026-05-07T08:06:39Z</time></trkpt>
      <trkpt lat="59.443531" lon="24.778557"><ele>2</ele><time>2026-05-07T08:06:59Z</time></trkpt>
      <trkpt lat="59.443386" lon="24.777865"><ele>2</ele><time>2026-05-07T08:07:33Z</time></trkpt>
      <trkpt lat="59.442866" lon="24.775505"><ele>3</ele><time>2026-05-07T08:09:32Z</time></trkpt>
      <trkpt lat="59.44266" lon="24.775286"><ele>2.38</ele><time>2026-05-07T08:09:54Z</time></trkpt>
      <trkpt lat="59.442591" lon="24.774985"><ele>2.08</ele><time>2026-05-07T08:10:09Z</time></trkpt>
      <trkpt lat="59.442523" lon="24.774682"><ele>2</ele><time>2026-05-07T08:10:24Z</time></trkpt>
      <trkpt lat="59.442526" lon="24.774483"><ele>2</ele><time>2026-05-07T08:10:34Z</time></trkpt>
      <trkpt lat="59.442537" lon="24.774054"><ele>2</ele><time>2026-05-07T08:10:53Z</time></trkpt>
      <trkpt lat="59.44196" lon="24.771385"><ele>2</ele><time>2026-05-07T08:13:08Z</time></trkpt>
      <trkpt lat="59.44191" lon="24.771185"><ele>1.85</ele><time>2026-05-07T08:13:18Z</time></trkpt>
      <trkpt lat="59.441739" lon="24.770963"><ele>1</ele><time>2026-05-07T08:13:37Z</time></trkpt>
      <trkpt lat="59.441675" lon="24.770735"><ele>1</ele><time>2026-05-07T08:13:49Z</time></trkpt>
      <trkpt lat="59.441653" lon="24.770618"><ele>1</ele><time>2026-05-07T08:13:54Z</time></trkpt>
      <trkpt lat="59.441636" lon="24.770549"><ele>1</ele><time>2026-05-07T08:13:58Z</time></trkpt>
      <trkpt lat="59.441591" lon="24.770334"><ele>2</ele><time>2026-05-07T08:14:09Z</time></trkpt>
      <trkpt lat="59.441586" lon="24.769784"><ele>2</ele><time>2026-05-07T08:14:34Z</time></trkpt>
      <trkpt lat="59.441496" lon="24.769386"><ele>1.95</ele><time>2026-05-07T08:14:54Z</time></trkpt>
      <trkpt lat="59.441263" lon="24.768615"><ele>1.07</ele><time>2026-05-07T08:15:36Z</time></trkpt>
      <trkpt lat="59.441121" lon="24.767954"><ele>1</ele><time>2026-05-07T08:16:09Z</time></trkpt>
      <trkpt lat="59.441097" lon="24.767731"><ele>1</ele><time>2026-05-07T08:16:19Z</time></trkpt>
      <trkpt lat="59.441069" lon="24.767558"><ele>1</ele><time>2026-05-07T08:16:28Z</time></trkpt>
      <trkpt lat="59.440628" lon="24.765614"><ele>1</ele><time>2026-05-07T08:18:06Z</time></trkpt>
      <trkpt lat="59.440513" lon="24.765007"><ele>1.83</ele><time>2026-05-07T08:18:36Z</time></trkpt>
      <trkpt lat="59.44032" lon="24.763849"><ele>1.07</ele><time>2026-05-07T08:19:33Z</time></trkpt>
      <trkpt lat="59.440305" lon="24.763756"><ele>1</ele><time>2026-05-07T08:19:37Z</time></trkpt>
      <trkpt lat="59.440254" lon="24.763726"><ele>1</ele><time>2026-05-07T08:19:42Z</time></trkpt>
      <trkpt lat="59.440196" lon="24.763388"><ele>1.48</ele><time>2026-05-07T08:19:59Z</time></trkpt>
      <trkpt lat="59.440121" lon="24.762914"><ele>2</ele><time>2026-05-07T08:20:21Z</time></trkpt>
      <trkpt lat="59.440151" lon="24.762935"><ele>2</ele><time>2026-05-07T08:20:24Z</time></trkpt>
      <trkpt lat="59.439955" lon="24.761869"><ele>2</ele><time>2026-05-07T08:21:17Z</time></trkpt>
      <trkpt lat="59.439915" lon="24.761583"><ele>2</ele><time>2026-05-07T08:21:31Z</time></trkpt>
      <trkpt lat="59.43989" lon="24.761296"><ele>2</ele><time>2026-05-07T08:21:44Z</time></trkpt>
      <trkpt lat="59.439889" lon="24.761033"><ele>2</ele><time>2026-05-07T08:21:56Z</time></trkpt>
      <trkpt lat="59.439897" lon="24.760772"><ele>2</ele><time>2026-05-07T08:22:08Z</time></trkpt>
      <trkpt lat="59.439947" lon="24.760322"><ele>2</ele><time>2026-05-07T08:22:30Z</time></trkpt>
      <trkpt lat="59.439985" lon="24.760084"><ele>2</ele><time>2026-05-07T08:22:41Z</time></trkpt>
      <trkpt lat="59.440059" lon="24.759821"><ele>2</ele><time>2026-05-07T08:22:55Z</time></trkpt>
      <trkpt lat="59.440113" lon="24.759777"><ele>2</ele><time>2026-05-07T08:23:00Z</time></trkpt>
      <trkpt lat="59.440137" lon="24.759737"><ele>2</ele><time>2026-05-07T08:23:03Z</time></trkpt>
      <trkpt lat="59.440153" lon="24.759674"><ele>2</ele><time>2026-05-07T08:23:06Z</time></trkpt>
      <trkpt lat="59.440454" lon="24.758194"><ele>2.76</ele><time>2026-05-07T08:24:20Z</time></trkpt>
      <trkpt lat="59.440485" lon="24.758133"><ele>3</ele><time>2026-05-07T08:24:24Z</time></trkpt>
      <trkpt lat="59.440547" lon="24.757594"><ele>3</ele><time>2026-05-07T08:24:50Z</time></trkpt>
      <trkpt lat="59.44052" lon="24.757531"><ele>3</ele><time>2026-05-07T08:24:54Z</time></trkpt>
      <trkpt lat="59.440521" lon="24.757455"><ele>3</ele><time>2026-05-07T08:24:57Z</time></trkpt>
      <trkpt lat="59.440775" lon="24.756099"><ele>3</ele><time>2026-05-07T08:26:04Z</time></trkpt>
      <trkpt lat="59.440841" lon="24.755777"><ele>3</ele><time>2026-05-07T08:26:20Z</time></trkpt>
      <trkpt lat="59.440862" lon="24.755713"><ele>3</ele><time>2026-05-07T08:26:23Z</time></trkpt>
      <trkpt lat="59.440882" lon="24.755538"><ele>3</ele><time>2026-05-07T08:26:32Z</time></trkpt>
      <trkpt lat="59.440943" lon="24.755154"><ele>3</ele><time>2026-05-07T08:26:50Z</time></trkpt>
      <trkpt lat="59.441013" lon="24.754981"><ele>3.55</ele><time>2026-05-07T08:27:01Z</time></trkpt>
      <trkpt lat="59.441054" lon="24.754839"><ele>4</ele><time>2026-05-07T08:27:08Z</time></trkpt>
      <trkpt lat="59.441129" lon="24.754448"><ele>4</ele><time>2026-05-07T08:27:27Z</time></trkpt>
      <trkpt lat="59.441193" lon="24.754098"><ele>4</ele><time>2026-05-07T08:27:45Z</time></trkpt>
      <trkpt lat="59.441172" lon="24.754024"><ele>4</ele><time>2026-05-07T08:27:49Z</time></trkpt>
      <trkpt lat="59.44125" lon="24.753845"><ele>4</ele><time>2026-05-07T08:28:00Z</time></trkpt>
      <trkpt lat="59.441327" lon="24.753665"><ele>4</ele><time>2026-05-07T08:28:10Z</time></trkpt>
      <trkpt lat="59.441951" lon="24.753197"><ele>4.81</ele><time>2026-05-07T08:29:11Z</time></trkpt>
      <trkpt lat="59.442034" lon="24.753306"><ele>4.18</ele><time>2026-05-07T08:29:20Z</time></trkpt>
      <trkpt lat="59.442406" lon="24.753041"><ele>4.72</ele><time>2026-05-07T08:29:56Z</time></trkpt>
      <trkpt lat="59.4427" lon="24.753098"><ele>4</ele><time>2026-05-07T08:30:23Z</time></trkpt>
      <trkpt lat="59.442763" lon="24.753139"><ele>4</ele><time>2026-05-07T08:30:29Z</time></trkpt>
      <trkpt lat="59.442757" lon="24.753092"><ele>4</ele><time>2026-05-07T08:30:31Z</time></trkpt>
      <trkpt lat="59.44277" lon="24.75289"><ele>4.59</ele><time>2026-05-07T08:30:41Z</time></trkpt>
      <trkpt lat="59.442788" lon="24.752847"><ele>4.85</ele><time>2026-05-07T08:30:43Z</time></trkpt>
      <trkpt lat="59.442818" lon="24.752409"><ele>5.4</ele><time>2026-05-07T08:31:04Z</time></trkpt>
      <trkpt lat="59.442832" lon="24.752293"><ele>6</ele><time>2026-05-07T08:31:09Z</time></trkpt>
      <trkpt lat="59.44288" lon="24.75204"><ele>6</ele><time>2026-05-07T08:31:22Z</time></trkpt>
      <trkpt lat="59.44293" lon="24.751879"><ele>6</ele><time>2026-05-07T08:31:31Z</time></trkpt>
      <trkpt lat="59.442945" lon="24.751863"><ele>6</ele><time>2026-05-07T08:31:32Z</time></trkpt>
      <trkpt lat="59.442983" lon="24.751867"><ele>6</ele><time>2026-05-07T08:31:36Z</time></trkpt>
      <trkpt lat="59.442976" lon="24.75176"><ele>6</ele><time>2026-05-07T08:31:41Z</time></trkpt>
      <trkpt lat="59.442985" lon="24.751728"><ele>6</ele><time>2026-05-07T08:31:42Z</time></trkpt>
      <trkpt lat="59.442889" lon="24.751274"><ele>7</ele><time>2026-05-07T08:32:05Z</time></trkpt>
      <trkpt lat="59.442889" lon="24.751212"><ele>7</ele><time>2026-05-07T08:32:08Z</time></trkpt>
      <trkpt lat="59.442879" lon="24.751177"><ele>7</ele><time>2026-05-07T08:32:10Z</time></trkpt>
      <trkpt lat="59.44296" lon="24.751027"><ele>7</ele><time>2026-05-07T08:32:20Z</time></trkpt>
      <trkpt lat="59.443065" lon="24.750756"><ele>8</ele><time>2026-05-07T08:32:36Z</time></trkpt>
      <trkpt lat="59.44311" lon="24.750583"><ele>8.01</ele><time>2026-05-07T08:32:45Z</time></trkpt>
      <trkpt lat="59.443278" lon="24.750314"><ele>8.32</ele><time>2026-05-07T08:33:04Z</time></trkpt>
      <trkpt lat="59.443332" lon="24.750031"><ele>8.95</ele><time>2026-05-07T08:33:18Z</time></trkpt>
      <trkpt lat="59.443361" lon="24.749948"><ele>8.88</ele><time>2026-05-07T08:33:23Z</time></trkpt>
      <trkpt lat="59.4434" lon="24.749789"><ele>9</ele><time>2026-05-07T08:33:31Z</time></trkpt>
      <trkpt lat="59.443442" lon="24.749718"><ele>9</ele><time>2026-05-07T08:33:36Z</time></trkpt>
      <trkpt lat="59.443455" lon="24.749661"><ele>9</ele><time>2026-05-07T08:33:39Z</time></trkpt>
      <trkpt lat="59.443522" lon="24.749718"><ele>9</ele><time>2026-05-07T08:33:46Z</time></trkpt>
      <trkpt lat="59.443529" lon="24.749712"><ele>9</ele><time>2026-05-07T08:33:46Z</time></trkpt>
      <trkpt lat="59.443584" lon="24.749667"><ele>9</ele><time>2026-05-07T08:33:52Z</time></trkpt>
      <trkpt lat="59.443632" lon="24.749347"><ele>9</ele><time>2026-05-07T08:34:07Z</time></trkpt>
      <trkpt lat="59.44361" lon="24.749338"><ele>9</ele><time>2026-05-07T08:34:09Z</time></trkpt>
      <trkpt lat="59.44366" lon="24.749152"><ele>8.94</ele><time>2026-05-07T08:34:19Z</time></trkpt>
      <trkpt lat="59.443847" lon="24.748795"><ele>9</ele><time>2026-05-07T08:34:43Z</time></trkpt>
      <trkpt lat="59.443887" lon="24.748675"><ele>9</ele><time>2026-05-07T08:34:49Z</time></trkpt>
      <trkpt lat="59.443912" lon="24.748539"><ele>9</ele><time>2026-05-07T08:34:56Z</time></trkpt>
      <trkpt lat="59.443914" lon="24.748529"><ele>9</ele><time>2026-05-07T08:34:57Z</time></trkpt>
      <trkpt lat="59.444022" lon="24.747499"><ele>10</ele><time>2026-05-07T08:35:45Z</time></trkpt>
      <trkpt lat="59.444104" lon="24.747574"><ele>10</ele><time>2026-05-07T08:35:53Z</time></trkpt>
      <trkpt lat="59.444101" lon="24.747605"><ele>10</ele><time>2026-05-07T08:35:55Z</time></trkpt>
      <trkpt lat="59.444226" lon="24.747652"><ele>11</ele><time>2026-05-07T08:36:06Z</time></trkpt>
      <trkpt lat="59.444226" lon="24.747687"><ele>10.85</ele><time>2026-05-07T08:36:08Z</time></trkpt>
      <trkpt lat="59.444239" lon="24.747724"><ele>10.63</ele><time>2026-05-07T08:36:10Z</time></trkpt>
      <trkpt lat="59.444458" lon="24.747805"><ele>10.16</ele><time>2026-05-07T08:36:30Z</time></trkpt>
      <trkpt lat="59.444487" lon="24.747809"><ele>10.14</ele><time>2026-05-07T08:36:33Z</time></trkpt>
      <trkpt lat="59.4445" lon="24.747794"><ele>10.23</ele><time>2026-05-07T08:36:34Z</time></trkpt>
      <trkpt lat="59.44455" lon="24.747844"><ele>9.94</ele><time>2026-05-07T08:36:40Z</time></trkpt>
      <trkpt lat="59.444609" lon="24.747895"><ele>9.64</ele><time>2026-05-07T08:36:45Z</time></trkpt>
      <trkpt lat="59.444615" lon="24.747935"><ele>9.41</ele><time>2026-05-07T08:36:47Z</time></trkpt>
      <trkpt lat="59.444631" lon="24.747965"><ele>9.23</ele><time>2026-05-07T08:36:49Z</time></trkpt>
      <trkpt lat="59.444771" lon="24.748103"><ele>7.13</ele><time>2026-05-07T08:37:04Z</time></trkpt>
      <trkpt lat="59.444965" lon="24.748258"><ele>5.26</ele><time>2026-05-07T08:37:23Z</time></trkpt>
      <trkpt lat="59.445156" lon="24.74843"><ele>3.51</ele><time>2026-05-07T08:37:42Z</time></trkpt>
      <trkpt lat="59.445241" lon="24.748469"><ele>3.07</ele><time>2026-05-07T08:37:50Z</time></trkpt>
      <trkpt lat="59.445298" lon="24.748451"><ele>3</ele><time>2026-05-07T08:37:55Z</time></trkpt>
      <trkpt lat="59.445299" lon="24.748602"><ele>3.47</ele><time>2026-05-07T08:38:02Z</time></trkpt>
      <trkpt lat="59.445369" lon="24.748578"><ele>3.58</ele><time>2026-05-07T08:38:08Z</time></trkpt>
      <trkpt lat="59.445412" lon="24.748728"><ele>4</ele><time>2026-05-07T08:38:16Z</time></trkpt>
      <trkpt lat="59.445463" lon="24.748666"><ele>3.56</ele><time>2026-05-07T08:38:22Z</time></trkpt>
      <trkpt lat="59.445458" lon="24.748614"><ele>3.62</ele><time>2026-05-07T08:38:24Z</time></trkpt>
      <trkpt lat="59.445476" lon="24.748545"><ele>3.41</ele><time>2026-05-07T08:38:28Z</time></trkpt>
      <trkpt lat="59.445519" lon="24.748457"><ele>3</ele><time>2026-05-07T08:38:33Z</time></trkpt>
      <trkpt lat="59.445644" lon="24.748117"><ele>2.67</ele><time>2026-05-07T08:38:53Z</time></trkpt>
      <trkpt lat="59.445686" lon="24.748095"><ele>2.48</ele><time>2026-05-07T08:38:57Z</time></trkpt>
      <trkpt lat="59.445799" lon="24.747785"><ele>2.8</ele><time>2026-05-07T08:39:14Z</time></trkpt>
      <trkpt lat="59.44589" lon="24.747582"><ele>2.82</ele><time>2026-05-07T08:39:27Z</time></trkpt>
      <trkpt lat="59.4459" lon="24.747482"><ele>3</ele><time>2026-05-07T08:39:32Z</time></trkpt>
      <trkpt lat="59.44599" lon="24.747301"><ele>3</ele><time>2026-05-07T08:39:43Z</time></trkpt>
      <trkpt lat="59.446039" lon="24.7472"><ele>2.99</ele><time>2026-05-07T08:39:50Z</time></trkpt>
      <trkpt lat="59.446317" lon="24.747146"><ele>3.79</ele><time>2026-05-07T08:40:15Z</time></trkpt>
      <trkpt lat="59.446422" lon="24.747413"><ele>3.82</ele><time>2026-05-07T08:40:31Z</time></trkpt>
      <trkpt lat="59.446641" lon="24.747385"><ele>4</ele><time>2026-05-07T08:40:51Z</time></trkpt>
      <trkpt lat="59.447029" lon="24.747297"><ele>4</ele><time>2026-05-07T08:41:26Z</time></trkpt>
      <trkpt lat="59.447309" lon="24.747196"><ele>4</ele><time>2026-05-07T08:41:52Z</time></trkpt>
      <trkpt lat="59.447873" lon="24.747082"><ele>3.37</ele><time>2026-05-07T08:42:44Z</time></trkpt>
      <trkpt lat="59.448161" lon="24.74592"><ele>2.83</ele><time>2026-05-07T08:43:44Z</time></trkpt>
      <trkpt lat="59.448368" lon="24.74512"><ele>3.85</ele><time>2026-05-07T08:44:25Z</time></trkpt>
      <trkpt lat="59.448563" lon="24.744319"><ele>5.43</ele><time>2026-05-07T08:45:06Z</time></trkpt>
      <trkpt lat="59.4485" lon="24.74445"><ele>5.16</ele><time>2026-05-07T08:45:15Z</time></trkpt>
      <trkpt lat="59.448563" lon="24.744319"><ele>5.43</ele><time>2026-05-07T08:45:23Z</time></trkpt>
      <trkpt lat="59.448631" lon="24.744119"><ele>5.73</ele><time>2026-05-07T08:45:34Z</time></trkpt>
      <trkpt lat="59.448527" lon="24.743973"><ele>6</ele><time>2026-05-07T08:45:46Z</time></trkpt>
      <trkpt lat="59.448671" lon="24.743545"><ele>7</ele><time>2026-05-07T08:46:09Z</time></trkpt>
      <trkpt lat="59.448916" lon="24.742627"><ele>8.11</ele><time>2026-05-07T08:46:57Z</time></trkpt>
      <trkpt lat="59.449029" lon="24.74203"><ele>8</ele><time>2026-05-07T08:47:27Z</time></trkpt>
      <trkpt lat="59.449132" lon="24.741172"><ele>8</ele><time>2026-05-07T08:48:08Z</time></trkpt>
      <trkpt lat="59.449625" lon="24.738736"><ele>8</ele><time>2026-05-07T08:50:09Z</time></trkpt>
      <trkpt lat="59.450352" lon="24.735089"><ele>6.94</ele><time>2026-05-07T08:53:10Z</time></trkpt>
      <trkpt lat="59.45045" lon="24.734543"><ele>6.86</ele><time>2026-05-07T08:53:37Z</time></trkpt>
      <trkpt lat="59.450519" lon="24.734049"><ele>7</ele><time>2026-05-07T08:54:00Z</time></trkpt>
      <trkpt lat="59.45055" lon="24.734063"><ele>7</ele><time>2026-05-07T08:54:03Z</time></trkpt>
      <trkpt lat="59.450594" lon="24.734087"><ele>7</ele><time>2026-05-07T08:54:08Z</time></trkpt>
      <trkpt lat="59.450653" lon="24.733586"><ele>7</ele><time>2026-05-07T08:54:31Z</time></trkpt>
      <trkpt lat="59.450594" lon="24.734087"><ele>7</ele><time>2026-05-07T08:54:55Z</time></trkpt>
      <trkpt lat="59.45055" lon="24.734063"><ele>7</ele><time>2026-05-07T08:54:59Z</time></trkpt>
      <trkpt lat="59.450519" lon="24.734049"><ele>7</ele><time>2026-05-07T08:55:02Z</time></trkpt>
      <trkpt lat="59.45045" lon="24.734543"><ele>6.86</ele><time>2026-05-07T08:55:26Z</time></trkpt>
      <trkpt lat="59.450452" lon="24.734313"><ele>6.5</ele><time>2026-05-07T08:55:36Z</time></trkpt>
      <trkpt lat="59.450501" lon="24.733746"><ele>6.15</ele><time>2026-05-07T08:56:03Z</time></trkpt>
      <trkpt lat="59.450447" lon="24.733693"><ele>5.44</ele><time>2026-05-07T08:56:09Z</time></trkpt>
      <trkpt lat="59.450376" lon="24.733662"><ele>5</ele><time>2026-05-07T08:56:15Z</time></trkpt>
      <trkpt lat="59.450119" lon="24.733311"><ele>5</ele><time>2026-05-07T08:56:44Z</time></trkpt>
      <trkpt lat="59.450021" lon="24.733223"><ele>5</ele><time>2026-05-07T08:56:53Z</time></trkpt>
      <trkpt lat="59.449973" lon="24.732966"><ele>5.99</ele><time>2026-05-07T08:57:06Z</time></trkpt>
      <trkpt lat="59.44994" lon="24.732847"><ele>5.99</ele><time>2026-05-07T08:57:12Z</time></trkpt>
      <trkpt lat="59.449811" lon="24.732394"><ele>6</ele><time>2026-05-07T08:57:36Z</time></trkpt>
      <trkpt lat="59.449779" lon="24.732241"><ele>6.13</ele><time>2026-05-07T08:57:44Z</time></trkpt>
      <trkpt lat="59.449765" lon="24.731897"><ele>7</ele><time>2026-05-07T08:58:00Z</time></trkpt>
      <trkpt lat="59.44979" lon="24.731461"><ele>7</ele><time>2026-05-07T08:58:20Z</time></trkpt>
      <trkpt lat="59.449794" lon="24.731007"><ele>6.03</ele><time>2026-05-07T08:58:41Z</time></trkpt>
      <trkpt lat="59.449788" lon="24.730782"><ele>6.21</ele><time>2026-05-07T08:58:52Z</time></trkpt>
      <trkpt lat="59.449751" lon="24.730575"><ele>7</ele><time>2026-05-07T08:59:02Z</time></trkpt>
      <trkpt lat="59.449588" lon="24.730357"><ele>7</ele><time>2026-05-07T08:59:20Z</time></trkpt>
      <trkpt lat="59.449626" lon="24.730167"><ele>7</ele><time>2026-05-07T08:59:29Z</time></trkpt>
      <trkpt lat="59.449765" lon="24.729482"><ele>7</ele><time>2026-05-07T09:00:03Z</time></trkpt>
      <trkpt lat="59.449846" lon="24.729159"><ele>7</ele><time>2026-05-07T09:00:20Z</time></trkpt>
      <trkpt lat="59.449268" lon="24.728699"><ele>9.7</ele><time>2026-05-07T09:01:17Z</time></trkpt>
      <trkpt lat="59.449204" lon="24.728648"><ele>10</ele><time>2026-05-07T09:01:23Z</time></trkpt>
      <trkpt lat="59.449005" lon="24.729456"><ele>9</ele><time>2026-05-07T09:02:04Z</time></trkpt>
      <trkpt lat="59.448587" lon="24.728851"><ele>11</ele><time>2026-05-07T09:02:52Z</time></trkpt>
      <trkpt lat="59.448531" lon="24.72879"><ele>11.34</ele><time>2026-05-07T09:02:58Z</time></trkpt>
      <trkpt lat="59.448163" lon="24.728295"><ele>12.41</ele><time>2026-05-07T09:03:38Z</time></trkpt>
      <trkpt lat="59.44813" lon="24.72816"><ele>13</ele><time>2026-05-07T09:03:45Z</time></trkpt>
      <trkpt lat="59.448059" lon="24.728322"><ele>12.44</ele><time>2026-05-07T09:03:55Z</time></trkpt>
      <trkpt lat="59.447947" lon="24.728127"><ele>12.57</ele><time>2026-05-07T09:04:09Z</time></trkpt>
      <trkpt lat="59.447867" lon="24.728086"><ele>12.75</ele><time>2026-05-07T09:04:16Z</time></trkpt>
      <trkpt lat="59.44775" lon="24.728333"><ele>12</ele><time>2026-05-07T09:04:32Z</time></trkpt>
      <trkpt lat="59.447796" lon="24.728423"><ele>12</ele><time>2026-05-07T09:04:38Z</time></trkpt>
      <trkpt lat="59.447617" lon="24.728857"><ele>11.42</ele><time>2026-05-07T09:05:03Z</time></trkpt>
      <trkpt lat="59.447489" lon="24.729166"><ele>11</ele><time>2026-05-07T09:05:22Z</time></trkpt>
      <trkpt lat="59.447614" lon="24.729341"><ele>9.98</ele><time>2026-05-07T09:05:36Z</time></trkpt>
      <trkpt lat="59.447167" lon="24.730511"><ele>10</ele><time>2026-05-07T09:06:43Z</time></trkpt>
      <trkpt lat="59.447091" lon="24.731106"><ele>9.24</ele><time>2026-05-07T09:07:12Z</time></trkpt>
      <trkpt lat="59.447094" lon="24.731165"><ele>9</ele><time>2026-05-07T09:07:15Z</time></trkpt>
      <trkpt lat="59.447082" lon="24.731333"><ele>9.05</ele><time>2026-05-07T09:07:22Z</time></trkpt>
      <trkpt lat="59.44706" lon="24.731368"><ele>9.3</ele><time>2026-05-07T09:07:25Z</time></trkpt>
      <trkpt lat="59.447057" lon="24.731392"><ele>9.34</ele><time>2026-05-07T09:07:26Z</time></trkpt>
      <trkpt lat="59.446993" lon="24.731356"><ele>10</ele><time>2026-05-07T09:07:32Z</time></trkpt>
      <trkpt lat="59.446766" lon="24.733174"><ele>10</ele><time>2026-05-07T09:08:59Z</time></trkpt>
    </trkseg>
  </trk>
</gpx>
