<?xml version="1.0" encoding="UTF-8"?>
<gpx version="1.1" creator="HoldMyTrack" xmlns="http://www.topografix.com/GPX/1/1">
  <trk>
    <type>Solowheel</type>
    <trkseg>
      <trkpt lat="41.44433590583503" lon="-81.62546955049038"><ele>203</ele><time>2026-10-06T21:25:06Z</time></trkpt>
      <trkpt lat="41.44429303240031" lon="-81.6254114639014"><ele>203</ele><time>2026-10-06T21:25:09Z</time></trkpt>
      <trkpt lat="41.44429688807577" lon="-81.62524147890508"><ele>207</ele><time>2026-10-06T21:25:12Z</time></trkpt>
      <trkpt lat="41.44426306709647" lon="-81.62514466792345"><ele>208</ele><time>2026-10-06T21:25:15Z</time></trkpt>
      <trkpt lat="41.444202926941216" lon="-81.62512161768973"><ele>206</ele><time>2026-10-06T21:25:18Z</time></trkpt>
      <trkpt lat="41.444150833413005" lon="-81.62511373870075"><ele>207</ele><time>2026-10-06T21:25:21Z</time></trkpt>
      <trkpt lat="41.44410041626543" lon="-81.62509110756218"><ele>209</ele><time>2026-10-06T21:25:30Z</time></trkpt>
      <trkpt lat="41.44404010847211" lon="-81.62506051361561"><ele>204</ele><time>2026-10-06T21:26:03Z</time></trkpt>
      <trkpt lat="41.44394111819565" lon="-81.62497862242162"><ele>206</ele><time>2026-10-06T21:26:06Z</time></trkpt>
      <trkpt lat="41.44386061001569" lon="-81.62488466128707"><ele>206</ele><time>2026-10-06T21:26:09Z</time></trkpt>
      <trkpt lat="41.443758183158934" lon="-81.62480805069208"><ele>208</ele><time>2026-10-06T21:26:12Z</time></trkpt>
      <trkpt lat="41.4436521101743" lon="-81.6247155983001"><ele>209</ele><time>2026-10-06T21:26:15Z</time></trkpt>
      <trkpt lat="41.443534889258444" lon="-81.62460386753082"><ele>209</ele><time>2026-10-06T21:26:18Z</time></trkpt>
      <trkpt lat="41.44339025951922" lon="-81.62450261414051"><ele>209</ele><time>2026-10-06T21:26:21Z</time></trkpt>
      <trkpt lat="41.44324244465679" lon="-81.62435492500663"><ele>209</ele><time>2026-10-06T21:26:24Z</time></trkpt>
      <trkpt lat="41.44311193842441" lon="-81.62418955005705"><ele>209</ele><time>2026-10-06T21:26:27Z</time></trkpt>
      <trkpt lat="41.44299132283777" lon="-81.62398687563837"><ele>209</ele><time>2026-10-06T21:26:30Z</time></trkpt>
      <trkpt lat="41.442944426089525" lon="-81.62372468970716"><ele>209</ele><time>2026-10-06T21:26:33Z</time></trkpt>
      <trkpt lat="41.442916388623416" lon="-81.62347365170717"><ele>207</ele><time>2026-10-06T21:26:36Z</time></trkpt>
      <trkpt lat="41.44283428788185" lon="-81.62322487682104"><ele>207</ele><time>2026-10-06T21:26:39Z</time></trkpt>
      <trkpt lat="41.44273211248219" lon="-81.62299554795027"><ele>207</ele><time>2026-10-06T21:26:42Z</time></trkpt>
      <trkpt lat="41.44262285437435" lon="-81.62290016189218"><ele>207</ele><time>2026-10-06T21:26:45Z</time></trkpt>
      <trkpt lat="41.4424940245226" lon="-81.6227559093386"><ele>207</ele><time>2026-10-06T21:26:48Z</time></trkpt>
      <trkpt lat="41.44233145751059" lon="-81.62258902564645"><ele>207</ele><time>2026-10-06T21:26:51Z</time></trkpt>
      <trkpt lat="41.44222018774599" lon="-81.62235852330923"><ele>207</ele><time>2026-10-06T21:26:54Z</time></trkpt>
      <trkpt lat="41.4421446248889" lon="-81.62213481031358"><ele>207</ele><time>2026-10-06T21:26:57Z</time></trkpt>
      <trkpt lat="41.44206260796636" lon="-81.62193465046585"><ele>207</ele><time>2026-10-06T21:27:00Z</time></trkpt>
      <trkpt lat="41.441960600204766" lon="-81.62172535434365"><ele>208</ele><time>2026-10-06T21:27:03Z</time></trkpt>
      <trkpt lat="41.44189237151295" lon="-81.62144254893064"><ele>208</ele><time>2026-10-06T21:27:06Z</time></trkpt>
      <trkpt lat="41.44180888775736" lon="-81.62116745486856"><ele>206</ele><time>2026-10-06T21:27:09Z</time></trkpt>
      <trkpt lat="41.44174112007022" lon="-81.62086662836373"><ele>207</ele><time>2026-10-06T21:27:12Z</time></trkpt>
      <trkpt lat="41.44172632601112" lon="-81.62058600224555"><ele>206</ele><time>2026-10-06T21:27:15Z</time></trkpt>
      <trkpt lat="41.44162314478308" lon="-81.62030185572803"><ele>205</ele><time>2026-10-06T21:27:18Z</time></trkpt>
      <trkpt lat="41.441514138132334" lon="-81.62001536227763"><ele>204</ele><time>2026-10-06T21:27:21Z</time></trkpt>
      <trkpt lat="41.44142415840179" lon="-81.61978268064559"><ele>204</ele><time>2026-10-06T21:27:24Z</time></trkpt>
      <trkpt lat="41.44133501686156" lon="-81.61956667900085"><ele>204</ele><time>2026-10-06T21:27:27Z</time></trkpt>
      <trkpt lat="41.44122089724988" lon="-81.6192998830229"><ele>203</ele><time>2026-10-06T21:27:30Z</time></trkpt>
      <trkpt lat="41.44109139684588" lon="-81.619025291875"><ele>202</ele><time>2026-10-06T21:27:33Z</time></trkpt>
      <trkpt lat="41.440960387699306" lon="-81.61874206736684"><ele>202</ele><time>2026-10-06T21:27:36Z</time></trkpt>
      <trkpt lat="41.440818146802485" lon="-81.61844777874649"><ele>204</ele><time>2026-10-06T21:27:39Z</time></trkpt>
      <trkpt lat="41.44068441353738" lon="-81.61813999526203"><ele>205</ele><time>2026-10-06T21:27:42Z</time></trkpt>
      <trkpt lat="41.44053416792303" lon="-81.6178618837148"><ele>205</ele><time>2026-10-06T21:27:45Z</time></trkpt>
      <trkpt lat="41.44036694895476" lon="-81.61761696450412"><ele>205</ele><time>2026-10-06T21:27:48Z</time></trkpt>
      <trkpt lat="41.4401577366516" lon="-81.61747178994119"><ele>205</ele><time>2026-10-06T21:27:51Z</time></trkpt>
      <trkpt lat="41.43993649631739" lon="-81.61736735142767"><ele>205</ele><time>2026-10-06T21:27:54Z</time></trkpt>
      <trkpt lat="41.439725775271654" lon="-81.61726207472384"><ele>204</ele><time>2026-10-06T21:27:57Z</time></trkpt>
      <trkpt lat="41.43949724268168" lon="-81.61715487018228"><ele>204</ele><time>2026-10-06T21:28:00Z</time></trkpt>
      <trkpt lat="41.43927910365164" lon="-81.61704624071717"><ele>203</ele><time>2026-10-06T21:28:03Z</time></trkpt>
      <trkpt lat="41.439100611023605" lon="-81.61691489629447"><ele>204</ele><time>2026-10-06T21:28:06Z</time></trkpt>
      <trkpt lat="41.438904432579875" lon="-81.61676720716059"><ele>203</ele><time>2026-10-06T21:28:09Z</time></trkpt>
      <trkpt lat="41.438706535845995" lon="-81.61662580445409"><ele>204</ele><time>2026-10-06T21:28:12Z</time></trkpt>
      <trkpt lat="41.43853273708373" lon="-81.61647627130151"><ele>204</ele><time>2026-10-06T21:28:15Z</time></trkpt>
      <trkpt lat="41.43833396025002" lon="-81.61631114780903"><ele>204</ele><time>2026-10-06T21:28:18Z</time></trkpt>
      <trkpt lat="41.438010754063725" lon="-81.61607553251088"><ele>205</ele><time>2026-10-06T21:28:23Z</time></trkpt>
      <trkpt lat="41.43782107159495" lon="-81.61589037626982"><ele>206</ele><time>2026-10-06T21:28:26Z</time></trkpt>
      <trkpt lat="41.43767623230815" lon="-81.61571645177901"><ele>206</ele><time>2026-10-06T21:28:29Z</time></trkpt>
      <trkpt lat="41.437568021938205" lon="-81.61555032245815"><ele>207</ele><time>2026-10-06T21:28:32Z</time></trkpt>
      <trkpt lat="41.43748822622001" lon="-81.61532769910991"><ele>209</ele><time>2026-10-06T21:28:35Z</time></trkpt>
      <trkpt lat="41.43739921040833" lon="-81.61509426310658"><ele>210</ele><time>2026-10-06T21:28:38Z</time></trkpt>
      <trkpt lat="41.437288778834045" lon="-81.61490122787654"><ele>211</ele><time>2026-10-06T21:28:41Z</time></trkpt>
      <trkpt lat="41.437117494642735" lon="-81.61469805054367"><ele>212</ele><time>2026-10-06T21:28:44Z</time></trkpt>
      <trkpt lat="41.43700035754591" lon="-81.61449336446822"><ele>212</ele><time>2026-10-06T21:28:47Z</time></trkpt>
      <trkpt lat="41.43685107585043" lon="-81.61430401727557"><ele>213</ele><time>2026-10-06T21:28:50Z</time></trkpt>
      <trkpt lat="41.4366591302678" lon="-81.61418583244085"><ele>214</ele><time>2026-10-06T21:28:53Z</time></trkpt>
      <trkpt lat="41.43646362237632" lon="-81.61411995068192"><ele>215</ele><time>2026-10-06T21:28:56Z</time></trkpt>
      <trkpt lat="41.43625139258802" lon="-81.61410016939044"><ele>215</ele><time>2026-10-06T21:28:59Z</time></trkpt>
      <trkpt lat="41.436059614643455" lon="-81.61404954269528"><ele>216</ele><time>2026-10-06T21:29:02Z</time></trkpt>
      <trkpt lat="41.43590044230223" lon="-81.6139383148402"><ele>218</ele><time>2026-10-06T21:29:05Z</time></trkpt>
      <trkpt lat="41.43572069238871" lon="-81.61383362486959"><ele>218</ele><time>2026-10-06T21:29:08Z</time></trkpt>
      <trkpt lat="41.43553494941443" lon="-81.61377671174705"><ele>220</ele><time>2026-10-06T21:29:11Z</time></trkpt>
      <trkpt lat="41.435353606939316" lon="-81.61382147110999"><ele>219</ele><time>2026-10-06T21:29:14Z</time></trkpt>
      <trkpt lat="41.435167361050844" lon="-81.6138035338372"><ele>219</ele><time>2026-10-06T21:29:17Z</time></trkpt>
      <trkpt lat="41.434971392154694" lon="-81.61368140950799"><ele>219</ele><time>2026-10-06T21:29:20Z</time></trkpt>
      <trkpt lat="41.43482303246856" lon="-81.61349072121084"><ele>221</ele><time>2026-10-06T21:29:23Z</time></trkpt>
      <trkpt lat="41.43472861032933" lon="-81.61326164379716"><ele>222</ele><time>2026-10-06T21:29:26Z</time></trkpt>
      <trkpt lat="41.43466578796506" lon="-81.61302007734776"><ele>224</ele><time>2026-10-06T21:29:29Z</time></trkpt>
      <trkpt lat="41.43458113074303" lon="-81.61277004517615"><ele>224</ele><time>2026-10-06T21:29:32Z</time></trkpt>
      <trkpt lat="41.4344520913437" lon="-81.61263392306864"><ele>225</ele><time>2026-10-06T21:29:35Z</time></trkpt>
      <trkpt lat="41.43427720293403" lon="-81.61258220672607"><ele>225</ele><time>2026-10-06T21:29:38Z</time></trkpt>
      <trkpt lat="41.43411254044622" lon="-81.6125011537224"><ele>225</ele><time>2026-10-06T21:29:41Z</time></trkpt>
      <trkpt lat="41.43402029760182" lon="-81.6123251337558"><ele>225</ele><time>2026-10-06T21:29:44Z</time></trkpt>
      <trkpt lat="41.433961247093976" lon="-81.6122183483094"><ele>225</ele><time>2026-10-06T21:29:47Z</time></trkpt>
      <trkpt lat="41.43385014496744" lon="-81.61218096502125"><ele>225</ele><time>2026-10-06T21:29:50Z</time></trkpt>
      <trkpt lat="41.433708323165774" lon="-81.61218842491508"><ele>225</ele><time>2026-10-06T21:29:53Z</time></trkpt>
      <trkpt lat="41.433539553545415" lon="-81.61222731694579"><ele>225</ele><time>2026-10-06T21:29:56Z</time></trkpt>
      <trkpt lat="41.433369191363454" lon="-81.61221046932042"><ele>226</ele><time>2026-10-06T21:29:59Z</time></trkpt>
      <trkpt lat="41.43319853581488" lon="-81.61211960949004"><ele>228</ele><time>2026-10-06T21:30:02Z</time></trkpt>
      <trkpt lat="41.43300772178918" lon="-81.61207661032677"><ele>227</ele><time>2026-10-06T21:30:05Z</time></trkpt>
      <trkpt lat="41.43279301933944" lon="-81.61203947849572"><ele>228</ele><time>2026-10-06T21:30:08Z</time></trkpt>
      <trkpt lat="41.43256125971675" lon="-81.61204257979989"><ele>228</ele><time>2026-10-06T21:30:11Z</time></trkpt>
      <trkpt lat="41.43232359085232" lon="-81.6120523866266"><ele>228</ele><time>2026-10-06T21:30:14Z</time></trkpt>
      <trkpt lat="41.432098327204585" lon="-81.61205825395882"><ele>230</ele><time>2026-10-06T21:30:17Z</time></trkpt>
      <trkpt lat="41.431870884262025" lon="-81.6120661329478"><ele>230</ele><time>2026-10-06T21:30:20Z</time></trkpt>
      <trkpt lat="41.43164281267673" lon="-81.61207786761224"><ele>230</ele><time>2026-10-06T21:30:23Z</time></trkpt>
      <trkpt lat="41.43145099282265" lon="-81.61210494115949"><ele>230</ele><time>2026-10-06T21:30:26Z</time></trkpt>
      <trkpt lat="41.43128389958292" lon="-81.61212815903127"><ele>229</ele><time>2026-10-06T21:30:29Z</time></trkpt>
      <trkpt lat="41.43106337171048" lon="-81.61215456202626"><ele>229</ele><time>2026-10-06T21:30:32Z</time></trkpt>
      <trkpt lat="41.43083944916725" lon="-81.6121424920857"><ele>230</ele><time>2026-10-06T21:30:35Z</time></trkpt>
      <trkpt lat="41.43067901954055" lon="-81.61198994144797"><ele>231</ele><time>2026-10-06T21:30:38Z</time></trkpt>
      <trkpt lat="41.43060915637761" lon="-81.61174736917019"><ele>231</ele><time>2026-10-06T21:30:41Z</time></trkpt>
      <trkpt lat="41.43061426933855" lon="-81.61145660094917"><ele>232</ele><time>2026-10-06T21:30:44Z</time></trkpt>
      <trkpt lat="41.430603791959584" lon="-81.61130606196821"><ele>232</ele><time>2026-10-06T21:30:47Z</time></trkpt>
      <trkpt lat="41.430537910200655" lon="-81.61126214079559"><ele>232</ele><time>2026-10-06T21:30:53Z</time></trkpt>
      <trkpt lat="41.430420144461095" lon="-81.61122735589743"><ele>231</ele><time>2026-10-06T21:30:56Z</time></trkpt>
      <trkpt lat="41.43028138205409" lon="-81.61118628457189"><ele>231</ele><time>2026-10-06T21:30:59Z</time></trkpt>
      <trkpt lat="41.4301978982985" lon="-81.61102686077356"><ele>230</ele><time>2026-10-06T21:31:02Z</time></trkpt>
      <trkpt lat="41.43007740844041" lon="-81.61083634011447"><ele>230</ele><time>2026-10-06T21:31:05Z</time></trkpt>
      <trkpt lat="41.42994275316596" lon="-81.61061053164303"><ele>230</ele><time>2026-10-06T21:31:08Z</time></trkpt>
      <trkpt lat="41.42984200268984" lon="-81.61041774787009"><ele>230</ele><time>2026-10-06T21:31:11Z</time></trkpt>
      <trkpt lat="41.42988831270486" lon="-81.61024449393153"><ele>230</ele><time>2026-10-06T21:31:14Z</time></trkpt>
      <trkpt lat="41.429902855306864" lon="-81.61006713286042"><ele>230</ele><time>2026-10-06T21:31:17Z</time></trkpt>
      <trkpt lat="41.42976245842874" lon="-81.60997769795358"><ele>229</ele><time>2026-10-06T21:31:20Z</time></trkpt>
      <trkpt lat="41.42959838267416" lon="-81.60980519838631"><ele>229</ele><time>2026-10-06T21:31:23Z</time></trkpt>
      <trkpt lat="41.429458488710225" lon="-81.60957142710686"><ele>230</ele><time>2026-10-06T21:31:26Z</time></trkpt>
      <trkpt lat="41.42933669965714" lon="-81.60929951816797"><ele>230</ele><time>2026-10-06T21:31:29Z</time></trkpt>
      <trkpt lat="41.42923213541508" lon="-81.60901084542274"><ele>230</ele><time>2026-10-06T21:31:32Z</time></trkpt>
      <trkpt lat="41.42916868440807" lon="-81.6087044030428"><ele>230</ele><time>2026-10-06T21:31:35Z</time></trkpt>
      <trkpt lat="41.42916897777468" lon="-81.60838882438838"><ele>229</ele><time>2026-10-06T21:31:38Z</time></trkpt>
      <trkpt lat="41.42913721036166" lon="-81.60813904367387"><ele>229</ele><time>2026-10-06T21:31:41Z</time></trkpt>
      <trkpt lat="41.42908226698637" lon="-81.60787761211395"><ele>228</ele><time>2026-10-06T21:31:44Z</time></trkpt>
      <trkpt lat="41.42909421119839" lon="-81.60758525133133"><ele>229</ele><time>2026-10-06T21:31:47Z</time></trkpt>
      <trkpt lat="41.429081805981696" lon="-81.60727319307625"><ele>228</ele><time>2026-10-06T21:31:50Z</time></trkpt>
      <trkpt lat="41.429042746312916" lon="-81.60697069019079"><ele>228</ele><time>2026-10-06T21:31:53Z</time></trkpt>
      <trkpt lat="41.428984072990716" lon="-81.60665955394506"><ele>227</ele><time>2026-10-06T21:31:56Z</time></trkpt>
      <trkpt lat="41.428899080492556" lon="-81.60635621286929"><ele>226</ele><time>2026-10-06T21:31:59Z</time></trkpt>
      <trkpt lat="41.42878814600408" lon="-81.60614624619484"><ele>226</ele><time>2026-10-06T21:32:02Z</time></trkpt>
      <trkpt lat="41.42869636416435" lon="-81.6060169134289"><ele>226</ele><time>2026-10-06T21:32:05Z</time></trkpt>
      <trkpt lat="41.42858320847154" lon="-81.60590996034443"><ele>226</ele><time>2026-10-06T21:32:08Z</time></trkpt>
      <trkpt lat="41.42839365173131" lon="-81.6058305837214"><ele>227</ele><time>2026-10-06T21:32:11Z</time></trkpt>
      <trkpt lat="41.42817098647356" lon="-81.60576168447733"><ele>227</ele><time>2026-10-06T21:32:14Z</time></trkpt>
      <trkpt lat="41.427931347861886" lon="-81.60570049658418"><ele>228</ele><time>2026-10-06T21:32:17Z</time></trkpt>
      <trkpt lat="41.42769342754036" lon="-81.60562966950238"><ele>228</ele><time>2026-10-06T21:32:20Z</time></trkpt>
      <trkpt lat="41.42747017554939" lon="-81.6055147536099"><ele>229</ele><time>2026-10-06T21:32:23Z</time></trkpt>
      <trkpt lat="41.42727688886225" lon="-81.60531610250473"><ele>228</ele><time>2026-10-06T21:32:26Z</time></trkpt>
      <trkpt lat="41.42709743231535" lon="-81.60508342087269"><ele>229</ele><time>2026-10-06T21:32:29Z</time></trkpt>
      <trkpt lat="41.426988802850246" lon="-81.60478628240526"><ele>229</ele><time>2026-10-06T21:32:32Z</time></trkpt>
      <trkpt lat="41.42689744010568" lon="-81.60449425689876"><ele>228</ele><time>2026-10-06T21:32:35Z</time></trkpt>
      <trkpt lat="41.426796186715364" lon="-81.60422176122665"><ele>229</ele><time>2026-10-06T21:32:38Z</time></trkpt>
      <trkpt lat="41.42662888392806" lon="-81.60396846011281"><ele>229</ele><time>2026-10-06T21:32:41Z</time></trkpt>
      <trkpt lat="41.42640357837081" lon="-81.60378070548177"><ele>228</ele><time>2026-10-06T21:32:44Z</time></trkpt>
      <trkpt lat="41.426169807091355" lon="-81.60367760807276"><ele>227</ele><time>2026-10-06T21:32:47Z</time></trkpt>
      <trkpt lat="41.42592966556549" lon="-81.60370409488678"><ele>227</ele><time>2026-10-06T21:32:50Z</time></trkpt>
      <trkpt lat="41.425703605636954" lon="-81.60380149260163"><ele>228</ele><time>2026-10-06T21:32:53Z</time></trkpt>
      <trkpt lat="41.42547825817019" lon="-81.60392118617892"><ele>229</ele><time>2026-10-06T21:32:56Z</time></trkpt>
      <trkpt lat="41.425230111926794" lon="-81.60398187115788"><ele>229</ele><time>2026-10-06T21:32:59Z</time></trkpt>
      <trkpt lat="41.424976852722466" lon="-81.60397022031248"><ele>230</ele><time>2026-10-06T21:33:02Z</time></trkpt>
      <trkpt lat="41.424748906865716" lon="-81.60387894138694"><ele>230</ele><time>2026-10-06T21:33:05Z</time></trkpt>
      <trkpt lat="41.424535755068064" lon="-81.6036911867559"><ele>231</ele><time>2026-10-06T21:33:08Z</time></trkpt>
      <trkpt lat="41.424385593272746" lon="-81.60345012322068"><ele>231</ele><time>2026-10-06T21:33:11Z</time></trkpt>
      <trkpt lat="41.42431250307709" lon="-81.60317067056894"><ele>231</ele><time>2026-10-06T21:33:14Z</time></trkpt>
      <trkpt lat="41.424259236082435" lon="-81.60287009552121"><ele>231</ele><time>2026-10-06T21:33:17Z</time></trkpt>
      <trkpt lat="41.42426673788577" lon="-81.60252794623375"><ele>230</ele><time>2026-10-06T21:33:20Z</time></trkpt>
      <trkpt lat="41.42430542036891" lon="-81.60224455408752"><ele>230</ele><time>2026-10-06T21:33:23Z</time></trkpt>
      <trkpt lat="41.424329644069076" lon="-81.60205604508519"><ele>231</ele><time>2026-10-06T21:33:26Z</time></trkpt>
      <trkpt lat="41.42434854526073" lon="-81.60184976644814"><ele>230</ele><time>2026-10-06T21:33:29Z</time></trkpt>
      <trkpt lat="41.424417276866734" lon="-81.60164499655366"><ele>230</ele><time>2026-10-06T21:33:32Z</time></trkpt>
      <trkpt lat="41.424514381214976" lon="-81.60149496048689"><ele>229</ele><time>2026-10-06T21:33:35Z</time></trkpt>
      <trkpt lat="41.42463508062065" lon="-81.60131810232997"><ele>229</ele><time>2026-10-06T21:33:38Z</time></trkpt>
      <trkpt lat="41.42479739617556" lon="-81.6011244803667"><ele>229</ele><time>2026-10-06T21:33:41Z</time></trkpt>
      <trkpt lat="41.4249914791435" lon="-81.60094418562949"><ele>228</ele><time>2026-10-06T21:33:44Z</time></trkpt>
      <trkpt lat="41.42524331342429" lon="-81.6007930599153"><ele>228</ele><time>2026-10-06T21:33:47Z</time></trkpt>
      <trkpt lat="41.425482323393226" lon="-81.60070094279945"><ele>229</ele><time>2026-10-06T21:33:50Z</time></trkpt>
      <trkpt lat="41.42571915406734" lon="-81.60063656978309"><ele>230</ele><time>2026-10-06T21:33:53Z</time></trkpt>
      <trkpt lat="41.42595556564629" lon="-81.6006312891841"><ele>230</ele><time>2026-10-06T21:33:56Z</time></trkpt>
      <trkpt lat="41.42618820536882" lon="-81.60062223672867"><ele>229</ele><time>2026-10-06T21:33:59Z</time></trkpt>
      <trkpt lat="41.426429185085" lon="-81.60066791810095"><ele>227</ele><time>2026-10-06T21:34:02Z</time></trkpt>
      <trkpt lat="41.42664237879217" lon="-81.600744696334"><ele>227</ele><time>2026-10-06T21:34:05Z</time></trkpt>
      <trkpt lat="41.426867516711354" lon="-81.60081988200545"><ele>226</ele><time>2026-10-06T21:34:08Z</time></trkpt>
      <trkpt lat="41.42709047533572" lon="-81.60094678401947"><ele>226</ele><time>2026-10-06T21:34:11Z</time></trkpt>
      <trkpt lat="41.42730857245624" lon="-81.60108743235469"><ele>225</ele><time>2026-10-06T21:34:14Z</time></trkpt>
      <trkpt lat="41.427488322369754" lon="-81.60123118199408"><ele>226</ele><time>2026-10-06T21:34:17Z</time></trkpt>
      <trkpt lat="41.42766421660781" lon="-81.60143528133631"><ele>226</ele><time>2026-10-06T21:34:20Z</time></trkpt>
      <trkpt lat="41.42782347276807" lon="-81.60169838927686"><ele>226</ele><time>2026-10-06T21:34:23Z</time></trkpt>
      <trkpt lat="41.42797464039177" lon="-81.60199217498302"><ele>227</ele><time>2026-10-06T21:34:26Z</time></trkpt>
      <trkpt lat="41.42814772669226" lon="-81.60226978361607"><ele>228</ele><time>2026-10-06T21:34:29Z</time></trkpt>
      <trkpt lat="41.4282847288996" lon="-81.60255527123809"><ele>230</ele><time>2026-10-06T21:34:32Z</time></trkpt>
      <trkpt lat="41.42845940776169" lon="-81.60282324068248"><ele>231</ele><time>2026-10-06T21:34:35Z</time></trkpt>
      <trkpt lat="41.428645737469196" lon="-81.60304695367813"><ele>230</ele><time>2026-10-06T21:34:38Z</time></trkpt>
      <trkpt lat="41.42885323148221" lon="-81.60320897586644"><ele>230</ele><time>2026-10-06T21:34:41Z</time></trkpt>
      <trkpt lat="41.4290815545246" lon="-81.60333529114723"><ele>231</ele><time>2026-10-06T21:34:44Z</time></trkpt>
      <trkpt lat="41.429330497048795" lon="-81.60340175963938"><ele>232</ele><time>2026-10-06T21:34:47Z</time></trkpt>
      <trkpt lat="41.42959842458367" lon="-81.60341734997928"><ele>233</ele><time>2026-10-06T21:34:50Z</time></trkpt>
      <trkpt lat="41.4298588084057" lon="-81.60343285650015"><ele>233</ele><time>2026-10-06T21:34:53Z</time></trkpt>
      <trkpt lat="41.430074851959944" lon="-81.6035183519125"><ele>230</ele><time>2026-10-06T21:34:56Z</time></trkpt>
      <trkpt lat="41.4303075755015" lon="-81.60355213098228"><ele>230</ele><time>2026-10-06T21:34:59Z</time></trkpt>
      <trkpt lat="41.430519386194646" lon="-81.60346864722669"><ele>229</ele><time>2026-10-06T21:35:02Z</time></trkpt>
      <trkpt lat="41.43072604201734" lon="-81.60331852734089"><ele>227</ele><time>2026-10-06T21:35:05Z</time></trkpt>
      <trkpt lat="41.43081761430949" lon="-81.6031092312187"><ele>224</ele><time>2026-10-06T21:35:08Z</time></trkpt>
      <trkpt lat="41.43080608919263" lon="-81.60279951989651"><ele>223</ele><time>2026-10-06T21:35:11Z</time></trkpt>
      <trkpt lat="41.43076975364238" lon="-81.60244865342975"><ele>222</ele><time>2026-10-06T21:35:14Z</time></trkpt>
      <trkpt lat="41.4307515649125" lon="-81.60216710530221"><ele>222</ele><time>2026-10-06T21:35:17Z</time></trkpt>
      <trkpt lat="41.43079858738929" lon="-81.60187709145248"><ele>221</ele><time>2026-10-06T21:35:20Z</time></trkpt>
      <trkpt lat="41.43094091210514" lon="-81.60169377923012"><ele>221</ele><time>2026-10-06T21:35:23Z</time></trkpt>
      <trkpt lat="41.43114610109478" lon="-81.60167952999473"><ele>220</ele><time>2026-10-06T21:35:26Z</time></trkpt>
      <trkpt lat="41.43131943885237" lon="-81.60188580863178"><ele>220</ele><time>2026-10-06T21:35:29Z</time></trkpt>
      <trkpt lat="41.431464781053364" lon="-81.60212938673794"><ele>218</ele><time>2026-10-06T21:35:32Z</time></trkpt>
      <trkpt lat="41.431548139080405" lon="-81.60242727957666"><ele>218</ele><time>2026-10-06T21:35:35Z</time></trkpt>
      <trkpt lat="41.43159348517656" lon="-81.602753251791"><ele>217</ele><time>2026-10-06T21:35:38Z</time></trkpt>
      <trkpt lat="41.43161020707339" lon="-81.60306187346578"><ele>217</ele><time>2026-10-06T21:35:41Z</time></trkpt>
      <trkpt lat="41.43163275439292" lon="-81.60335155203938"><ele>216</ele><time>2026-10-06T21:35:44Z</time></trkpt>
      <trkpt lat="41.4316546311602" lon="-81.60364651121199"><ele>215</ele><time>2026-10-06T21:35:47Z</time></trkpt>
      <trkpt lat="41.43168333917856" lon="-81.6039364412427"><ele>215</ele><time>2026-10-06T21:35:50Z</time></trkpt>
      <trkpt lat="41.43171904608607" lon="-81.60417809151113"><ele>214</ele><time>2026-10-06T21:35:53Z</time></trkpt>
      <trkpt lat="41.43178283236921" lon="-81.60446098074317"><ele>215</ele><time>2026-10-06T21:35:56Z</time></trkpt>
      <trkpt lat="41.43190545961261" lon="-81.60474294796586"><ele>213</ele><time>2026-10-06T21:35:59Z</time></trkpt>
      <trkpt lat="41.43207305576652" lon="-81.60499298013747"><ele>213</ele><time>2026-10-06T21:36:02Z</time></trkpt>
      <trkpt lat="41.432278621941805" lon="-81.60520956851542"><ele>213</ele><time>2026-10-06T21:36:05Z</time></trkpt>
      <trkpt lat="41.43248548731208" lon="-81.60542246885598"><ele>213</ele><time>2026-10-06T21:36:08Z</time></trkpt>
      <trkpt lat="41.43267173320055" lon="-81.6056236345321"><ele>211</ele><time>2026-10-06T21:36:11Z</time></trkpt>
      <trkpt lat="41.432893057353795" lon="-81.60571809858084"><ele>211</ele><time>2026-10-06T21:36:14Z</time></trkpt>
      <trkpt lat="41.43308311700821" lon="-81.60588380880654"><ele>211</ele><time>2026-10-06T21:36:17Z</time></trkpt>
      <trkpt lat="41.43318843562156" lon="-81.60610215738416"><ele>210</ele><time>2026-10-06T21:36:20Z</time></trkpt>
      <trkpt lat="41.433241493068635" lon="-81.60636342130601"><ele>210</ele><time>2026-10-06T21:36:23Z</time></trkpt>
      <trkpt lat="41.433299286291" lon="-81.6066546086222"><ele>209</ele><time>2026-10-06T21:36:26Z</time></trkpt>
      <trkpt lat="41.43334161490202" lon="-81.6069561894983"><ele>208</ele><time>2026-10-06T21:36:29Z</time></trkpt>
      <trkpt lat="41.43332422245294" lon="-81.60726279951632"><ele>208</ele><time>2026-10-06T21:36:32Z</time></trkpt>
      <trkpt lat="41.43322858493775" lon="-81.60752590745687"><ele>209</ele><time>2026-10-06T21:36:35Z</time></trkpt>
      <trkpt lat="41.43307389691472" lon="-81.6077474411577"><ele>209</ele><time>2026-10-06T21:36:38Z</time></trkpt>
      <trkpt lat="41.43286095466465" lon="-81.60787845030427"><ele>210</ele><time>2026-10-06T21:36:41Z</time></trkpt>
      <trkpt lat="41.43264273181558" lon="-81.60796361044049"><ele>210</ele><time>2026-10-06T21:36:44Z</time></trkpt>
      <trkpt lat="41.43242467660457" lon="-81.60801155492663"><ele>211</ele><time>2026-10-06T21:36:47Z</time></trkpt>
      <trkpt lat="41.432228330522776" lon="-81.60808179527521"><ele>212</ele><time>2026-10-06T21:36:50Z</time></trkpt>
      <trkpt lat="41.432136674411595" lon="-81.6081293206662"><ele>212</ele><time>2026-10-06T21:36:53Z</time></trkpt>
      <trkpt lat="41.432078713551164" lon="-81.60819042474031"><ele>213</ele><time>2026-10-06T21:36:56Z</time></trkpt>
      <trkpt lat="41.43193886149675" lon="-81.6082466673106"><ele>212</ele><time>2026-10-06T21:36:59Z</time></trkpt>
      <trkpt lat="41.431808564811945" lon="-81.6084171552211"><ele>212</ele><time>2026-10-06T21:37:02Z</time></trkpt>
      <trkpt lat="41.43168040551245" lon="-81.60867439582944"><ele>213</ele><time>2026-10-06T21:37:05Z</time></trkpt>
      <trkpt lat="41.43152735196054" lon="-81.6089195664972"><ele>214</ele><time>2026-10-06T21:37:08Z</time></trkpt>
      <trkpt lat="41.431391229853034" lon="-81.60921419039369"><ele>218</ele><time>2026-10-06T21:37:11Z</time></trkpt>
      <trkpt lat="41.43126147799194" lon="-81.60947310738266"><ele>219</ele><time>2026-10-06T21:37:14Z</time></trkpt>
      <trkpt lat="41.43109207972884" lon="-81.6097105666995"><ele>221</ele><time>2026-10-06T21:37:17Z</time></trkpt>
      <trkpt lat="41.430912245996296" lon="-81.60990645177662"><ele>222</ele><time>2026-10-06T21:37:20Z</time></trkpt>
      <trkpt lat="41.43068367149681" lon="-81.6099563241005"><ele>222</ele><time>2026-10-06T21:37:23Z</time></trkpt>
      <trkpt lat="41.430494408123195" lon="-81.60995464771986"><ele>223</ele><time>2026-10-06T21:37:26Z</time></trkpt>
      <trkpt lat="41.430294080637395" lon="-81.60992757417262"><ele>223</ele><time>2026-10-06T21:37:29Z</time></trkpt>
      <trkpt lat="41.43009014893323" lon="-81.60998658277094"><ele>224</ele><time>2026-10-06T21:37:32Z</time></trkpt>
      <trkpt lat="41.42999882809818" lon="-81.61006059497595"><ele>224</ele><time>2026-10-06T21:37:35Z</time></trkpt>
      <trkpt lat="41.429927623830736" lon="-81.61022001877427"><ele>225</ele><time>2026-10-06T21:37:38Z</time></trkpt>
      <trkpt lat="41.4299261989072" lon="-81.61044741980731"><ele>227</ele><time>2026-10-06T21:37:41Z</time></trkpt>
      <trkpt lat="41.43002963159233" lon="-81.61069401539862"><ele>228</ele><time>2026-10-06T21:37:44Z</time></trkpt>
      <trkpt lat="41.430147774517536" lon="-81.61091898567975"><ele>228</ele><time>2026-10-06T21:37:47Z</time></trkpt>
      <trkpt lat="41.43024374730885" lon="-81.61114504560828"><ele>228</ele><time>2026-10-06T21:37:50Z</time></trkpt>
      <trkpt lat="41.43028465099633" lon="-81.61141946911812"><ele>228</ele><time>2026-10-06T21:37:53Z</time></trkpt>
      <trkpt lat="41.43027564045042" lon="-81.61173303611577"><ele>229</ele><time>2026-10-06T21:37:56Z</time></trkpt>
      <trkpt lat="41.43027614336461" lon="-81.61207526922226"><ele>228</ele><time>2026-10-06T21:37:59Z</time></trkpt>
      <trkpt lat="41.43028951250017" lon="-81.61239135079086"><ele>228</ele><time>2026-10-06T21:38:02Z</time></trkpt>
      <trkpt lat="41.430293577723205" lon="-81.61269050091505"><ele>228</ele><time>2026-10-06T21:38:05Z</time></trkpt>
      <trkpt lat="41.43028469290584" lon="-81.61297741346061"><ele>228</ele><time>2026-10-06T21:38:08Z</time></trkpt>
      <trkpt lat="41.43028196878731" lon="-81.6132974345237"><ele>227</ele><time>2026-10-06T21:38:11Z</time></trkpt>
      <trkpt lat="41.430266168899834" lon="-81.61360228434205"><ele>227</ele><time>2026-10-06T21:38:14Z</time></trkpt>
      <trkpt lat="41.43027388025075" lon="-81.61391149275005"><ele>227</ele><time>2026-10-06T21:38:17Z</time></trkpt>
      <trkpt lat="41.43027509562671" lon="-81.61421743221581"><ele>226</ele><time>2026-10-06T21:38:20Z</time></trkpt>
      <trkpt lat="41.43027463462204" lon="-81.61450115963817"><ele>227</ele><time>2026-10-06T21:38:23Z</time></trkpt>
      <trkpt lat="41.43026851583272" lon="-81.61472386680543"><ele>227</ele><time>2026-10-06T21:38:26Z</time></trkpt>
      <trkpt lat="41.43026679754257" lon="-81.61494481377304"><ele>228</ele><time>2026-10-06T21:38:29Z</time></trkpt>
      <trkpt lat="41.430259170010686" lon="-81.61509677767754"><ele>228</ele><time>2026-10-06T21:38:32Z</time></trkpt>
    </trkseg>
  </trk>
</gpx>
