<?xml version="1.0" encoding="UTF-8"?>
<gpx version="1.1" creator="HoldMyTrack" xmlns="http://www.topografix.com/GPX/1/1" xmlns:gpxtpx="http://www.garmin.com/xmlschemas/TrackPointExtension/v1">
  <trk>
    <type>walking</type>
    <trkseg>
      <trkpt lat="41.9021936660576" lon="12.457974493851736"><ele>31.417958493053447</ele><time>2026-08-03T07:52:28Z</time></trkpt>
      <trkpt lat="41.9021029907685" lon="12.457382757119296"><ele>31.963773606781615</ele><time>2026-08-03T07:53:11Z</time></trkpt>
      <trkpt lat="41.902012315479396" lon="12.456791020386856"><ele>32.50958846852882</ele><time>2026-08-03T07:53:50Z</time></trkpt>
      <trkpt lat="41.901921640190295" lon="12.456199283654417"><ele>33.05540307838237</ele><time>2026-08-03T07:54:29Z</time></trkpt>
      <trkpt lat="41.901830964901194" lon="12.455607546921977"><ele>33.60121743622585</ele><time>2026-08-03T07:55:07Z</time></trkpt>
      <trkpt lat="41.90176440540449" lon="12.455173187136864"><ele>34.02491767259814</ele><time>2026-08-03T07:55:39Z</time></trkpt>
      <trkpt lat="41.901710580854946" lon="12.454573386213008"><ele>34.35839753836626</ele><time>2026-08-03T07:56:22Z</time></trkpt>
      <trkpt lat="41.9016567563054" lon="12.453973585289154"><ele>34.320255145043426</ele><time>2026-08-03T07:57:06Z</time></trkpt>
      <trkpt lat="41.90160293175585" lon="12.453373784365297"><ele>34.21408251233515</ele><time>2026-08-03T07:57:49Z</time></trkpt>
      <trkpt lat="41.90155590633208" lon="12.452849750390811"><ele>34.163443097386455</ele><time>2026-08-03T07:58:23Z</time></trkpt>
      <trkpt lat="41.901484650526896" lon="12.452253241113757"><ele>34.12158368804243</ele><time>2026-08-03T07:59:07Z</time></trkpt>
      <trkpt lat="41.901413394721715" lon="12.451656731836703"><ele>33.76927178076585</ele><time>2026-08-03T07:59:48Z</time></trkpt>
      <trkpt lat="41.90139646540561" lon="12.451515010132965"><ele>33.32816926683923</ele><time>2026-08-03T07:59:58Z</time></trkpt>
      <trkpt lat="41.90153866044038" lon="12.450941869251409"><ele>31.62008955073543</ele><time>2026-08-03T08:00:41Z</time></trkpt>
      <trkpt lat="41.901678552927706" lon="12.450378009172624"><ele>29.72936485055834</ele><time>2026-08-03T08:01:22Z</time></trkpt>
      <trkpt lat="41.90183643915832" lon="12.449812329725727"><ele>27.831704040290788</ele><time>2026-08-03T08:02:00Z</time></trkpt>
      <trkpt lat="41.9018993162062" lon="12.44958705198286"><ele>27.175535055459477</ele><time>2026-08-03T08:02:16Z</time></trkpt>
      <trkpt lat="41.90208328502263" lon="12.449405790911783"><ele>26.528217399667483</ele><time>2026-08-03T08:02:39Z</time></trkpt>
      <trkpt lat="41.901694550563704" lon="12.449102134670618"><ele>27.16703415707191</ele><time>2026-08-03T08:03:22Z</time></trkpt>
      <trkpt lat="41.90155590633208" lon="12.448993834042085"><ele>28.233651070797816</ele><time>2026-08-03T08:03:38Z</time></trkpt>
      <trkpt lat="41.9019142426151" lon="12.448628865557417"><ele>31.22392527228656</ele><time>2026-08-03T08:04:16Z</time></trkpt>
      <trkpt lat="41.90227257889811" lon="12.448263897072747"><ele>34.21813446765009</ele><time>2026-08-03T08:04:55Z</time></trkpt>
      <trkpt lat="41.90231631142828" lon="12.448219355127037"><ele>34.47030501253903</ele><time>2026-08-03T08:05:00Z</time></trkpt>
      <trkpt lat="41.902645819482984" lon="12.448630453037527"><ele>30.162526172316575</ele><time>2026-08-03T08:05:38Z</time></trkpt>
      <trkpt lat="41.902975327537696" lon="12.449041550948017"><ele>26.042826585695828</ele><time>2026-08-03T08:06:17Z</time></trkpt>
      <trkpt lat="41.90317482242665" lon="12.449290442988229"><ele>26.061598741216585</ele><time>2026-08-03T08:06:40Z</time></trkpt>
      <trkpt lat="41.90351040176744" lon="12.449692581635603"><ele>27.411868671304546</ele><time>2026-08-03T08:07:19Z</time></trkpt>
      <trkpt lat="41.90362860214836" lon="12.449834226056225"><ele>27.862281556965158</ele><time>2026-08-03T08:07:34Z</time></trkpt>
      <trkpt lat="41.904028338609066" lon="12.44955754460526"><ele>26.83958858891856</ele><time>2026-08-03T08:08:12Z</time></trkpt>
      <trkpt lat="41.90403332188194" lon="12.449554095384826"><ele>26.82954200624954</ele><time>2026-08-03T08:08:13Z</time></trkpt>
      <trkpt lat="41.90436914815784" lon="12.449955871334545"><ele>27.974520895263424</ele><time>2026-08-03T08:08:52Z</time></trkpt>
      <trkpt lat="41.90470497443374" lon="12.450357647284266"><ele>27.661011631353176</ele><time>2026-08-03T08:09:32Z</time></trkpt>
      <trkpt lat="41.90504080070964" lon="12.450759423233984"><ele>27.15014989535848</ele><time>2026-08-03T08:10:13Z</time></trkpt>
      <trkpt lat="41.90537662698555" lon="12.451161199183703"><ele>26.68483831547201</ele><time>2026-08-03T08:10:55Z</time></trkpt>
      <trkpt lat="41.90571245326145" lon="12.451562975133422"><ele>26.152687507186783</ele><time>2026-08-03T08:11:36Z</time></trkpt>
      <trkpt lat="41.905823869315185" lon="12.451696271108204"><ele>26.012299509588114</ele><time>2026-08-03T08:11:50Z</time></trkpt>
      <trkpt lat="41.905823869315185" lon="12.451926966955227"><ele>26.059665835055057</ele><time>2026-08-03T08:12:07Z</time></trkpt>
      <trkpt lat="41.9053767259647" lon="12.451990801225437"><ele>26.934644631808624</ele><time>2026-08-03T08:12:45Z</time></trkpt>
      <trkpt lat="41.90492958261422" lon="12.452054635495646"><ele>27.769040865254528</ele><time>2026-08-03T08:13:24Z</time></trkpt>
      <trkpt lat="41.90448243926374" lon="12.452118469765855"><ele>28.573446302800992</ele><time>2026-08-03T08:14:01Z</time></trkpt>
      <trkpt lat="41.90403529591326" lon="12.452182304036063"><ele>29.434544255112996</ele><time>2026-08-03T08:14:40Z</time></trkpt>
      <trkpt lat="41.90386162291432" lon="12.452207097626598"><ele>29.75062824046592</ele><time>2026-08-03T08:14:56Z</time></trkpt>
      <trkpt lat="41.90373371842135" lon="12.452786304638945"><ele>30.14966109252418</ele><time>2026-08-03T08:15:35Z</time></trkpt>
      <trkpt lat="41.90360581392837" lon="12.453365511651292"><ele>30.561172248090248</ele><time>2026-08-03T08:16:19Z</time></trkpt>
      <trkpt lat="41.903530487887195" lon="12.453706620632289"><ele>30.80236530908648</ele><time>2026-08-03T08:16:42Z</time></trkpt>
      <trkpt lat="41.90384935868468" lon="12.454085620952412"><ele>30.336772108072182</ele><time>2026-08-03T08:17:21Z</time></trkpt>
      <trkpt lat="41.904297312050254" lon="12.454033029664052"><ele>29.546837502508424</ele><time>2026-08-03T08:18:05Z</time></trkpt>
      <trkpt lat="41.904745265415826" lon="12.453980438375693"><ele>28.67028846644098</ele><time>2026-08-03T08:18:48Z</time></trkpt>
      <trkpt lat="41.90511256196277" lon="12.453937316479312"><ele>27.984629643001085</ele><time>2026-08-03T08:19:21Z</time></trkpt>
      <trkpt lat="41.90507064937932" lon="12.453335770660088"><ele>27.904248838017615</ele><time>2026-08-03T08:20:04Z</time></trkpt>
      <trkpt lat="41.90502873679586" lon="12.452734224840864"><ele>27.782366015663904</ele><time>2026-08-03T08:20:45Z</time></trkpt>
      <trkpt lat="41.904986824212415" lon="12.452132679021638"><ele>27.69325835761265</ele><time>2026-08-03T08:21:25Z</time></trkpt>
      <trkpt lat="41.90494491162896" lon="12.451531133202414"><ele>27.556256751384353</ele><time>2026-08-03T08:22:07Z</time></trkpt>
      <trkpt lat="41.90490299904551" lon="12.45092958738319"><ele>27.479575556828635</ele><time>2026-08-03T08:22:51Z</time></trkpt>
      <trkpt lat="41.904861086462056" lon="12.450328041563965"><ele>27.350636939487806</ele><time>2026-08-03T08:23:32Z</time></trkpt>
      <trkpt lat="41.904842753652844" lon="12.450064921903248"><ele>27.34013201959897</ele><time>2026-08-03T08:23:51Z</time></trkpt>
      <trkpt lat="41.90450809753221" lon="12.449661389173398"><ele>27.142057816381566</ele><time>2026-08-03T08:24:34Z</time></trkpt>
      <trkpt lat="41.90436445430123" lon="12.449488182285648"><ele>26.63755618990399</ele><time>2026-08-03T08:24:53Z</time></trkpt>
      <trkpt lat="41.90403332188194" lon="12.44980126950665"><ele>27.718111021531513</ele><time>2026-08-03T08:25:31Z</time></trkpt>
      <trkpt lat="41.90396694369242" lon="12.450398816475937"><ele>29.00693086147721</ele><time>2026-08-03T08:26:16Z</time></trkpt>
      <trkpt lat="41.90390056550289" lon="12.450996363445224"><ele>29.323180599632902</ele><time>2026-08-03T08:26:56Z</time></trkpt>
      <trkpt lat="41.903834187313365" lon="12.45159391041451"><ele>29.62755894374277</ele><time>2026-08-03T08:27:34Z</time></trkpt>
      <trkpt lat="41.90378803750116" lon="12.452009358329178"><ele>29.80662323202705</ele><time>2026-08-03T08:28:03Z</time></trkpt>
      <trkpt lat="41.90336510786358" lon="12.451804157799055"><ele>30.529750493562297</ele><time>2026-08-03T08:28:42Z</time></trkpt>
      <trkpt lat="41.90334652324117" lon="12.4517951407569"><ele>30.554649311845726</ele><time>2026-08-03T08:28:44Z</time></trkpt>
      <trkpt lat="41.90317799547234" lon="12.451235018357407"><ele>30.719362828477145</ele><time>2026-08-03T08:29:29Z</time></trkpt>
      <trkpt lat="41.90311350059528" lon="12.451020661841909"><ele>30.75373952636889</ele><time>2026-08-03T08:29:46Z</time></trkpt>
      <trkpt lat="41.90267212758141" lon="12.450905207114474"><ele>31.255942158410356</ele><time>2026-08-03T08:30:25Z</time></trkpt>
      <trkpt lat="41.90223075456755" lon="12.45078975238704"><ele>30.93779032122852</ele><time>2026-08-03T08:31:03Z</time></trkpt>
      <trkpt lat="41.90178938155368" lon="12.450674297659605"><ele>30.59236761869397</ele><time>2026-08-03T08:31:43Z</time></trkpt>
      <trkpt lat="41.90172761150001" lon="12.450658139796559"><ele>30.54530443146359</ele><time>2026-08-03T08:31:49Z</time></trkpt>
      <trkpt lat="41.901427576498385" lon="12.451108126730913"><ele>32.105986375012435</ele><time>2026-08-03T08:32:31Z</time></trkpt>
      <trkpt lat="41.90120022987264" lon="12.45144909698638"><ele>33.09913422667887</ele><time>2026-08-03T08:33:00Z</time></trkpt>
      <trkpt lat="41.900785158935534" lon="12.451681457586076"><ele>34.02593352715485</ele><time>2026-08-03T08:33:38Z</time></trkpt>
      <trkpt lat="41.90061151965526" lon="12.451778662482127"><ele>34.30906330794096</ele><time>2026-08-03T08:33:54Z</time></trkpt>
      <trkpt lat="41.90101625851278" lon="12.451959923504802"><ele>34.76401098781535</ele><time>2026-08-03T08:34:35Z</time></trkpt>
      <trkpt lat="41.901465835570484" lon="12.451948307544425"><ele>34.072045322658845</ele><time>2026-08-03T08:35:13Z</time></trkpt>
      <trkpt lat="41.90165402362743" lon="12.45194344523"><ele>33.70964636917982</ele><time>2026-08-03T08:35:31Z</time></trkpt>
      <trkpt lat="41.90166628827876" lon="12.452388358649273"><ele>33.82006480204291</ele><time>2026-08-03T08:36:00Z</time></trkpt>
      <trkpt lat="41.90211557436723" lon="12.452363720078774"><ele>32.97548589648795</ele><time>2026-08-03T08:36:44Z</time></trkpt>
      <trkpt lat="41.90226725330828" lon="12.452355402099698"><ele>32.717197220345064</ele><time>2026-08-03T08:36:57Z</time></trkpt>
      <trkpt lat="41.902569208854935" lon="12.452803072185915"><ele>32.29598665038221</ele><time>2026-08-03T08:37:37Z</time></trkpt>
      <trkpt lat="41.902871164401596" lon="12.453250742272132"><ele>31.865188622585265</ele><time>2026-08-03T08:38:16Z</time></trkpt>
      <trkpt lat="41.902978592359005" lon="12.453410011686088"><ele>31.732257242237992</ele><time>2026-08-03T08:38:31Z</time></trkpt>
      <trkpt lat="41.90309511215713" lon="12.453993533178144"><ele>31.6974231814238</ele><time>2026-08-03T08:39:11Z</time></trkpt>
      <trkpt lat="41.90311350059528" lon="12.454085620952412"><ele>31.694969870426576</ele><time>2026-08-03T08:39:17Z</time></trkpt>
      <trkpt lat="41.90272103947996" lon="12.454184490601136"><ele>32.43641047600249</ele><time>2026-08-03T08:39:53Z</time></trkpt>
      <trkpt lat="41.902697046066585" lon="12.454787784246735"><ele>32.528320213998086</ele><time>2026-08-03T08:40:35Z</time></trkpt>
      <trkpt lat="41.90267305265322" lon="12.455391077892335"><ele>32.23061633469479</ele><time>2026-08-03T08:41:14Z</time></trkpt>
      <trkpt lat="41.90264905923985" lon="12.455994371537933"><ele>31.84376169825555</ele><time>2026-08-03T08:41:56Z</time></trkpt>
      <trkpt lat="41.90263518828945" lon="12.456343144599288"><ele>31.667133376970018</ele><time>2026-08-03T08:42:21Z</time></trkpt>
      <trkpt lat="41.90255361748996" lon="12.45693727355242"><ele>31.415878977223045</ele><time>2026-08-03T08:43:05Z</time></trkpt>
      <trkpt lat="41.90247204669046" lon="12.457531402505552"><ele>31.19589500958682</ele><time>2026-08-03T08:43:44Z</time></trkpt>
      <trkpt lat="41.902402163047554" lon="12.458040406902427"><ele>30.978410518015153</ele><time>2026-08-03T08:44:22Z</time></trkpt>
    </trkseg>
  </trk>
</gpx>
