<?xml version="1.0" encoding="UTF-8"?>
<gpx version="1.1" creator="HoldMyTrack" xmlns="http://www.topografix.com/GPX/1/1" xmlns:gpxtpx="http://www.garmin.com/xmlschemas/TrackPointExtension/v1">
  <trk>
    <type>driving</type>
    <trkseg>
      <trkpt lat="41.897155" lon="12.511951"><ele>50</ele><time>2026-08-06T06:43:00Z</time></trkpt>
      <trkpt lat="41.896726" lon="12.511149"><ele>50.63</ele><time>2026-08-06T06:43:05Z</time></trkpt>
      <trkpt lat="41.896696" lon="12.511041"><ele>51</ele><time>2026-08-06T06:43:06Z</time></trkpt>
      <trkpt lat="41.89668" lon="12.510946"><ele>51</ele><time>2026-08-06T06:43:07Z</time></trkpt>
      <trkpt lat="41.896696" lon="12.510789"><ele>51</ele><time>2026-08-06T06:43:08Z</time></trkpt>
      <trkpt lat="41.897495" lon="12.509955"><ele>51</ele><time>2026-08-06T06:43:14Z</time></trkpt>
      <trkpt lat="41.897915" lon="12.509497"><ele>52</ele><time>2026-08-06T06:43:18Z</time></trkpt>
      <trkpt lat="41.898082" lon="12.509411"><ele>52</ele><time>2026-08-06T06:43:20Z</time></trkpt>
      <trkpt lat="41.898179" lon="12.509374"><ele>52</ele><time>2026-08-06T06:43:21Z</time></trkpt>
      <trkpt lat="41.898352" lon="12.509326"><ele>52</ele><time>2026-08-06T06:43:23Z</time></trkpt>
      <trkpt lat="41.898427" lon="12.509279"><ele>52</ele><time>2026-08-06T06:43:24Z</time></trkpt>
      <trkpt lat="41.898608" lon="12.509288"><ele>52</ele><time>2026-08-06T06:43:26Z</time></trkpt>
      <trkpt lat="41.902505" lon="12.50717"><ele>54</ele><time>2026-08-06T06:43:42Z</time></trkpt>
      <trkpt lat="41.902867" lon="12.506958"><ele>54</ele><time>2026-08-06T06:43:45Z</time></trkpt>
      <trkpt lat="41.902991" lon="12.506897"><ele>54</ele><time>2026-08-06T06:43:46Z</time></trkpt>
      <trkpt lat="41.903064" lon="12.506875"><ele>54</ele><time>2026-08-06T06:43:47Z</time></trkpt>
      <trkpt lat="41.903174" lon="12.506864"><ele>54</ele><time>2026-08-06T06:43:48Z</time></trkpt>
      <trkpt lat="41.90383" lon="12.506859"><ele>55</ele><time>2026-08-06T06:43:53Z</time></trkpt>
      <trkpt lat="41.90389" lon="12.506843"><ele>55</ele><time>2026-08-06T06:43:54Z</time></trkpt>
      <trkpt lat="41.90395" lon="12.506808"><ele>55</ele><time>2026-08-06T06:43:55Z</time></trkpt>
      <trkpt lat="41.904344" lon="12.506394"><ele>56</ele><time>2026-08-06T06:43:59Z</time></trkpt>
      <trkpt lat="41.904411" lon="12.506341"><ele>56</ele><time>2026-08-06T06:44:00Z</time></trkpt>
      <trkpt lat="41.904504" lon="12.506287"><ele>56</ele><time>2026-08-06T06:44:01Z</time></trkpt>
      <trkpt lat="41.905212" lon="12.505947"><ele>57</ele><time>2026-08-06T06:44:05Z</time></trkpt>
      <trkpt lat="41.906224" lon="12.505485"><ele>58</ele><time>2026-08-06T06:44:10Z</time></trkpt>
      <trkpt lat="41.906365" lon="12.505454"><ele>58.69</ele><time>2026-08-06T06:44:11Z</time></trkpt>
      <trkpt lat="41.906476" lon="12.505418"><ele>58.94</ele><time>2026-08-06T06:44:12Z</time></trkpt>
      <trkpt lat="41.907874" lon="12.504763"><ele>60</ele><time>2026-08-06T06:44:20Z</time></trkpt>
      <trkpt lat="41.908063" lon="12.504665"><ele>60</ele><time>2026-08-06T06:44:22Z</time></trkpt>
      <trkpt lat="41.908131" lon="12.504547"><ele>60</ele><time>2026-08-06T06:44:23Z</time></trkpt>
      <trkpt lat="41.908183" lon="12.504476"><ele>60</ele><time>2026-08-06T06:44:24Z</time></trkpt>
      <trkpt lat="41.908211" lon="12.504395"><ele>60</ele><time>2026-08-06T06:44:25Z</time></trkpt>
      <trkpt lat="41.908224" lon="12.504155"><ele>60.67</ele><time>2026-08-06T06:44:27Z</time></trkpt>
      <trkpt lat="41.908242" lon="12.503815"><ele>60.76</ele><time>2026-08-06T06:44:29Z</time></trkpt>
      <trkpt lat="41.908286" lon="12.503461"><ele>60.85</ele><time>2026-08-06T06:44:31Z</time></trkpt>
      <trkpt lat="41.90835" lon="12.503159"><ele>60.93</ele><time>2026-08-06T06:44:33Z</time></trkpt>
      <trkpt lat="41.908431" lon="12.50289"><ele>61</ele><time>2026-08-06T06:44:35Z</time></trkpt>
      <trkpt lat="41.908481" lon="12.502783"><ele>60.95</ele><time>2026-08-06T06:44:36Z</time></trkpt>
      <trkpt lat="41.908625" lon="12.502533"><ele>60.82</ele><time>2026-08-06T06:44:38Z</time></trkpt>
      <trkpt lat="41.908967" lon="12.502062"><ele>60.57</ele><time>2026-08-06T06:44:41Z</time></trkpt>
      <trkpt lat="41.909749" lon="12.500834"><ele>59.93</ele><time>2026-08-06T06:44:48Z</time></trkpt>
      <trkpt lat="41.910776" lon="12.498821"><ele>62.29</ele><time>2026-08-06T06:44:55Z</time></trkpt>
      <trkpt lat="41.910837" lon="12.498686"><ele>62.44</ele><time>2026-08-06T06:44:56Z</time></trkpt>
      <trkpt lat="41.910885" lon="12.498535"><ele>62.6</ele><time>2026-08-06T06:44:57Z</time></trkpt>
      <trkpt lat="41.910908" lon="12.498402"><ele>62.74</ele><time>2026-08-06T06:44:58Z</time></trkpt>
      <trkpt lat="41.910924" lon="12.497847"><ele>63.32</ele><time>2026-08-06T06:45:01Z</time></trkpt>
      <trkpt lat="41.910931" lon="12.496957"><ele>63</ele><time>2026-08-06T06:45:05Z</time></trkpt>
      <trkpt lat="41.911005" lon="12.494219"><ele>62.01</ele><time>2026-08-06T06:45:13Z</time></trkpt>
      <trkpt lat="41.911003" lon="12.493998"><ele>62.02</ele><time>2026-08-06T06:45:14Z</time></trkpt>
      <trkpt lat="41.910954" lon="12.493268"><ele>61</ele><time>2026-08-06T06:45:18Z</time></trkpt>
      <trkpt lat="41.910913" lon="12.492848"><ele>60.48</ele><time>2026-08-06T06:45:20Z</time></trkpt>
      <trkpt lat="41.910869" lon="12.492603"><ele>60.18</ele><time>2026-08-06T06:45:22Z</time></trkpt>
      <trkpt lat="41.910789" lon="12.492288"><ele>60.11</ele><time>2026-08-06T06:45:24Z</time></trkpt>
      <trkpt lat="41.910636" lon="12.491782"><ele>60</ele><time>2026-08-06T06:45:27Z</time></trkpt>
      <trkpt lat="41.9106" lon="12.491615"><ele>60</ele><time>2026-08-06T06:45:28Z</time></trkpt>
      <trkpt lat="41.91052" lon="12.491357"><ele>60</ele><time>2026-08-06T06:45:30Z</time></trkpt>
      <trkpt lat="41.910372" lon="12.490997"><ele>59.4</ele><time>2026-08-06T06:45:32Z</time></trkpt>
      <trkpt lat="41.910146" lon="12.490614"><ele>59.02</ele><time>2026-08-06T06:45:35Z</time></trkpt>
      <trkpt lat="41.909963" lon="12.490271"><ele>60.01</ele><time>2026-08-06T06:45:38Z</time></trkpt>
      <trkpt lat="41.909934" lon="12.49017"><ele>60.49</ele><time>2026-08-06T06:45:39Z</time></trkpt>
      <trkpt lat="41.909919" lon="12.490045"><ele>60.79</ele><time>2026-08-06T06:45:40Z</time></trkpt>
      <trkpt lat="41.909889" lon="12.48939"><ele>63.13</ele><time>2026-08-06T06:45:43Z</time></trkpt>
      <trkpt lat="41.909933" lon="12.489242"><ele>63.99</ele><time>2026-08-06T06:45:44Z</time></trkpt>
      <trkpt lat="41.909944" lon="12.48918"><ele>64</ele><time>2026-08-06T06:45:45Z</time></trkpt>
      <trkpt lat="41.90994" lon="12.489004"><ele>64</ele><time>2026-08-06T06:45:46Z</time></trkpt>
      <trkpt lat="41.90991" lon="12.488731"><ele>63.64</ele><time>2026-08-06T06:45:48Z</time></trkpt>
      <trkpt lat="41.909874" lon="12.488511"><ele>63.24</ele><time>2026-08-06T06:45:49Z</time></trkpt>
      <trkpt lat="41.909842" lon="12.48838"><ele>64</ele><time>2026-08-06T06:45:50Z</time></trkpt>
      <trkpt lat="41.909819" lon="12.488324"><ele>63.94</ele><time>2026-08-06T06:45:51Z</time></trkpt>
      <trkpt lat="41.909806" lon="12.488166"><ele>64.25</ele><time>2026-08-06T06:45:52Z</time></trkpt>
      <trkpt lat="41.909774" lon="12.488007"><ele>64.9</ele><time>2026-08-06T06:45:53Z</time></trkpt>
      <trkpt lat="41.909723" lon="12.487806"><ele>64.83</ele><time>2026-08-06T06:45:55Z</time></trkpt>
      <trkpt lat="41.909674" lon="12.487656"><ele>64.83</ele><time>2026-08-06T06:45:56Z</time></trkpt>
      <trkpt lat="41.909443" lon="12.487178"><ele>65</ele><time>2026-08-06T06:45:59Z</time></trkpt>
      <trkpt lat="41.909328" lon="12.486995"><ele>65</ele><time>2026-08-06T06:46:01Z</time></trkpt>
      <trkpt lat="41.909083" lon="12.486691"><ele>64.17</ele><time>2026-08-06T06:46:03Z</time></trkpt>
      <trkpt lat="41.908907" lon="12.486309"><ele>62.79</ele><time>2026-08-06T06:46:06Z</time></trkpt>
      <trkpt lat="41.908837" lon="12.486127"><ele>62.14</ele><time>2026-08-06T06:46:07Z</time></trkpt>
      <trkpt lat="41.908782" lon="12.485925"><ele>60.82</ele><time>2026-08-06T06:46:08Z</time></trkpt>
      <trkpt lat="41.908744" lon="12.485705"><ele>60.52</ele><time>2026-08-06T06:46:10Z</time></trkpt>
      <trkpt lat="41.908731" lon="12.485585"><ele>60.17</ele><time>2026-08-06T06:46:11Z</time></trkpt>
      <trkpt lat="41.908724" lon="12.485278"><ele>58.96</ele><time>2026-08-06T06:46:13Z</time></trkpt>
      <trkpt lat="41.908739" lon="12.485105"><ele>57.96</ele><time>2026-08-06T06:46:14Z</time></trkpt>
      <trkpt lat="41.908793" lon="12.484857"><ele>56.46</ele><time>2026-08-06T06:46:16Z</time></trkpt>
      <trkpt lat="41.908871" lon="12.484647"><ele>55.29</ele><time>2026-08-06T06:46:18Z</time></trkpt>
      <trkpt lat="41.90896" lon="12.484466"><ele>54.24</ele><time>2026-08-06T06:46:20Z</time></trkpt>
      <trkpt lat="41.909594" lon="12.483405"><ele>48.23</ele><time>2026-08-06T06:46:25Z</time></trkpt>
      <trkpt lat="41.909687" lon="12.483241"><ele>48.89</ele><time>2026-08-06T06:46:26Z</time></trkpt>
      <trkpt lat="41.909784" lon="12.483034"><ele>48.64</ele><time>2026-08-06T06:46:28Z</time></trkpt>
      <trkpt lat="41.90995" lon="12.482579"><ele>48.94</ele><time>2026-08-06T06:46:31Z</time></trkpt>
      <trkpt lat="41.910016" lon="12.482424"><ele>49.75</ele><time>2026-08-06T06:46:32Z</time></trkpt>
      <trkpt lat="41.910176" lon="12.482166"><ele>50.57</ele><time>2026-08-06T06:46:34Z</time></trkpt>
      <trkpt lat="41.910315" lon="12.481991"><ele>50.65</ele><time>2026-08-06T06:46:36Z</time></trkpt>
      <trkpt lat="41.9104" lon="12.481904"><ele>50.96</ele><time>2026-08-06T06:46:37Z</time></trkpt>
      <trkpt lat="41.910566" lon="12.481778"><ele>51.75</ele><time>2026-08-06T06:46:39Z</time></trkpt>
      <trkpt lat="41.910895" lon="12.481615"><ele>51.34</ele><time>2026-08-06T06:46:42Z</time></trkpt>
      <trkpt lat="41.911347" lon="12.481425"><ele>45.33</ele><time>2026-08-06T06:46:45Z</time></trkpt>
      <trkpt lat="41.911664" lon="12.481335"><ele>40.37</ele><time>2026-08-06T06:46:48Z</time></trkpt>
      <trkpt lat="41.912113" lon="12.481229"><ele>35.07</ele><time>2026-08-06T06:46:52Z</time></trkpt>
      <trkpt lat="41.912235" lon="12.481213"><ele>34.46</ele><time>2026-08-06T06:46:53Z</time></trkpt>
      <trkpt lat="41.912365" lon="12.481215"><ele>34.07</ele><time>2026-08-06T06:46:54Z</time></trkpt>
      <trkpt lat="41.91268" lon="12.481286"><ele>33.82</ele><time>2026-08-06T06:46:57Z</time></trkpt>
      <trkpt lat="41.912787" lon="12.4813"><ele>34</ele><time>2026-08-06T06:46:58Z</time></trkpt>
      <trkpt lat="41.912834" lon="12.481296"><ele>34</ele><time>2026-08-06T06:46:59Z</time></trkpt>
      <trkpt lat="41.912936" lon="12.481245"><ele>34.27</ele><time>2026-08-06T06:47:00Z</time></trkpt>
      <trkpt lat="41.913002" lon="12.481183"><ele>34.78</ele><time>2026-08-06T06:47:01Z</time></trkpt>
      <trkpt lat="41.913039" lon="12.481127"><ele>35.07</ele><time>2026-08-06T06:47:02Z</time></trkpt>
      <trkpt lat="41.913077" lon="12.481043"><ele>35.38</ele><time>2026-08-06T06:47:03Z</time></trkpt>
      <trkpt lat="41.913094" lon="12.480977"><ele>35.46</ele><time>2026-08-06T06:47:04Z</time></trkpt>
      <trkpt lat="41.9131" lon="12.480821"><ele>34.6</ele><time>2026-08-06T06:47:05Z</time></trkpt>
      <trkpt lat="41.913084" lon="12.480728"><ele>34.43</ele><time>2026-08-06T06:47:06Z</time></trkpt>
      <trkpt lat="41.912875" lon="12.480078"><ele>29.94</ele><time>2026-08-06T06:47:09Z</time></trkpt>
      <trkpt lat="41.912589" lon="12.478973"><ele>27.44</ele><time>2026-08-06T06:47:14Z</time></trkpt>
      <trkpt lat="41.912423" lon="12.478371"><ele>25.59</ele><time>2026-08-06T06:47:18Z</time></trkpt>
      <trkpt lat="41.912139" lon="12.477518"><ele>22.84</ele><time>2026-08-06T06:47:23Z</time></trkpt>
      <trkpt lat="41.912059" lon="12.47735"><ele>21.87</ele><time>2026-08-06T06:47:24Z</time></trkpt>
      <trkpt lat="41.911903" lon="12.477096"><ele>20.51</ele><time>2026-08-06T06:47:26Z</time></trkpt>
      <trkpt lat="41.911857" lon="12.477003"><ele>20.13</ele><time>2026-08-06T06:47:27Z</time></trkpt>
      <trkpt lat="41.911828" lon="12.476872"><ele>20.56</ele><time>2026-08-06T06:47:28Z</time></trkpt>
      <trkpt lat="41.911749" lon="12.476066"><ele>20</ele><time>2026-08-06T06:47:32Z</time></trkpt>
      <trkpt lat="41.911685" lon="12.475657"><ele>19.49</ele><time>2026-08-06T06:47:34Z</time></trkpt>
      <trkpt lat="41.91151" lon="12.474962"><ele>18</ele><time>2026-08-06T06:47:38Z</time></trkpt>
      <trkpt lat="41.911211" lon="12.473794"><ele>18</ele><time>2026-08-06T06:47:44Z</time></trkpt>
      <trkpt lat="41.91112" lon="12.473548"><ele>18.24</ele><time>2026-08-06T06:47:46Z</time></trkpt>
      <trkpt lat="41.911047" lon="12.473258"><ele>18.96</ele><time>2026-08-06T06:47:48Z</time></trkpt>
      <trkpt lat="41.911035" lon="12.473087"><ele>19</ele><time>2026-08-06T06:47:49Z</time></trkpt>
      <trkpt lat="41.911055" lon="12.473024"><ele>19</ele><time>2026-08-06T06:47:50Z</time></trkpt>
      <trkpt lat="41.911107" lon="12.472971"><ele>19</ele><time>2026-08-06T06:47:51Z</time></trkpt>
      <trkpt lat="41.911834" lon="12.47265"><ele>20</ele><time>2026-08-06T06:47:56Z</time></trkpt>
      <trkpt lat="41.911999" lon="12.472614"><ele>20</ele><time>2026-08-06T06:47:57Z</time></trkpt>
      <trkpt lat="41.912213" lon="12.472618"><ele>20</ele><time>2026-08-06T06:47:59Z</time></trkpt>
      <trkpt lat="41.912341" lon="12.472605"><ele>20</ele><time>2026-08-06T06:48:00Z</time></trkpt>
      <trkpt lat="41.912574" lon="12.472506"><ele>20</ele><time>2026-08-06T06:48:02Z</time></trkpt>
      <trkpt lat="41.912995" lon="12.472363"><ele>20</ele><time>2026-08-06T06:48:05Z</time></trkpt>
      <trkpt lat="41.913059" lon="12.472325"><ele>20</ele><time>2026-08-06T06:48:06Z</time></trkpt>
      <trkpt lat="41.913199" lon="12.472127"><ele>20</ele><time>2026-08-06T06:48:08Z</time></trkpt>
      <trkpt lat="41.913553" lon="12.472"><ele>20</ele><time>2026-08-06T06:48:11Z</time></trkpt>
      <trkpt lat="41.914353" lon="12.471665"><ele>19.12</ele><time>2026-08-06T06:48:16Z</time></trkpt>
      <trkpt lat="41.914524" lon="12.471601"><ele>19</ele><time>2026-08-06T06:48:17Z</time></trkpt>
      <trkpt lat="41.91455" lon="12.4716"><ele>19</ele><time>2026-08-06T06:48:18Z</time></trkpt>
      <trkpt lat="41.914481" lon="12.471164"><ele>19.5</ele><time>2026-08-06T06:48:21Z</time></trkpt>
      <trkpt lat="41.914331" lon="12.469936"><ele>20.87</ele><time>2026-08-06T06:48:26Z</time></trkpt>
      <trkpt lat="41.914305" lon="12.469812"><ele>21</ele><time>2026-08-06T06:48:27Z</time></trkpt>
      <trkpt lat="41.914246" lon="12.469732"><ele>21</ele><time>2026-08-06T06:48:28Z</time></trkpt>
      <trkpt lat="41.91404" lon="12.469503"><ele>21</ele><time>2026-08-06T06:48:30Z</time></trkpt>
      <trkpt lat="41.913965" lon="12.469356"><ele>21</ele><time>2026-08-06T06:48:31Z</time></trkpt>
      <trkpt lat="41.913896" lon="12.469175"><ele>21</ele><time>2026-08-06T06:48:32Z</time></trkpt>
      <trkpt lat="41.913819" lon="12.468908"><ele>21</ele><time>2026-08-06T06:48:34Z</time></trkpt>
      <trkpt lat="41.913713" lon="12.468462"><ele>21</ele><time>2026-08-06T06:48:37Z</time></trkpt>
      <trkpt lat="41.913459" lon="12.467465"><ele>20</ele><time>2026-08-06T06:48:42Z</time></trkpt>
      <trkpt lat="41.913383" lon="12.467235"><ele>20</ele><time>2026-08-06T06:48:44Z</time></trkpt>
      <trkpt lat="41.913245" lon="12.466674"><ele>20</ele><time>2026-08-06T06:48:48Z</time></trkpt>
      <trkpt lat="41.912859" lon="12.4651"><ele>19</ele><time>2026-08-06T06:48:54Z</time></trkpt>
      <trkpt lat="41.912176" lon="12.462257"><ele>18</ele><time>2026-08-06T06:49:02Z</time></trkpt>
      <trkpt lat="41.911884" lon="12.461108"><ele>18</ele><time>2026-08-06T06:49:08Z</time></trkpt>
      <trkpt lat="41.911203" lon="12.4583"><ele>18.24</ele><time>2026-08-06T06:49:16Z</time></trkpt>
      <trkpt lat="41.911197" lon="12.458233"><ele>18.51</ele><time>2026-08-06T06:49:17Z</time></trkpt>
      <trkpt lat="41.911208" lon="12.458093"><ele>19</ele><time>2026-08-06T06:49:18Z</time></trkpt>
      <trkpt lat="41.910418" lon="12.45491"><ele>19</ele><time>2026-08-06T06:49:28Z</time></trkpt>
      <trkpt lat="41.909231" lon="12.450078"><ele>23</ele><time>2026-08-06T06:49:41Z</time></trkpt>
      <trkpt lat="41.908373" lon="12.450466"><ele>23</ele><time>2026-08-06T06:49:46Z</time></trkpt>
      <trkpt lat="41.908056" lon="12.449233"><ele>24</ele><time>2026-08-06T06:49:51Z</time></trkpt>
      <trkpt lat="41.907514" lon="12.449682"><ele>23</ele><time>2026-08-06T06:49:55Z</time></trkpt>
      <trkpt lat="41.907393" lon="12.449678"><ele>23.02</ele><time>2026-08-06T06:49:56Z</time></trkpt>
      <trkpt lat="41.907301" lon="12.449639"><ele>23.25</ele><time>2026-08-06T06:49:57Z</time></trkpt>
      <trkpt lat="41.907067" lon="12.449422"><ele>24</ele><time>2026-08-06T06:50:00Z</time></trkpt>
      <trkpt lat="41.906533" lon="12.448903"><ele>24</ele><time>2026-08-06T06:50:04Z</time></trkpt>
      <trkpt lat="41.905921" lon="12.448265"><ele>28.77</ele><time>2026-08-06T06:50:09Z</time></trkpt>
      <trkpt lat="41.905625" lon="12.447948"><ele>31.93</ele><time>2026-08-06T06:50:12Z</time></trkpt>
      <trkpt lat="41.905099" lon="12.44736"><ele>37.45</ele><time>2026-08-06T06:50:16Z</time></trkpt>
      <trkpt lat="41.905005" lon="12.447237"><ele>38.21</ele><time>2026-08-06T06:50:17Z</time></trkpt>
      <trkpt lat="41.904886" lon="12.447051"><ele>39.91</ele><time>2026-08-06T06:50:19Z</time></trkpt>
      <trkpt lat="41.904386" lon="12.44622"><ele>46.65</ele><time>2026-08-06T06:50:24Z</time></trkpt>
      <trkpt lat="41.904306" lon="12.446169"><ele>47.42</ele><time>2026-08-06T06:50:25Z</time></trkpt>
      <trkpt lat="41.904156" lon="12.445905"><ele>49.28</ele><time>2026-08-06T06:50:27Z</time></trkpt>
      <trkpt lat="41.904007" lon="12.445593"><ele>51.38</ele><time>2026-08-06T06:50:30Z</time></trkpt>
      <trkpt lat="41.903782" lon="12.44509"><ele>54.94</ele><time>2026-08-06T06:50:33Z</time></trkpt>
      <trkpt lat="41.903388" lon="12.444141"><ele>61.86</ele><time>2026-08-06T06:50:38Z</time></trkpt>
      <trkpt lat="41.903342" lon="12.44397"><ele>60.92</ele><time>2026-08-06T06:50:39Z</time></trkpt>
      <trkpt lat="41.903298" lon="12.443843"><ele>58.26</ele><time>2026-08-06T06:50:40Z</time></trkpt>
      <trkpt lat="41.903044" lon="12.443198"><ele>44.91</ele><time>2026-08-06T06:50:44Z</time></trkpt>
      <trkpt lat="41.902961" lon="12.443"><ele>44.29</ele><time>2026-08-06T06:50:46Z</time></trkpt>
      <trkpt lat="41.902638" lon="12.442405"><ele>51.48</ele><time>2026-08-06T06:50:50Z</time></trkpt>
      <trkpt lat="41.902612" lon="12.442316"><ele>52.58</ele><time>2026-08-06T06:50:51Z</time></trkpt>
      <trkpt lat="41.902566" lon="12.442012"><ele>53.52</ele><time>2026-08-06T06:50:53Z</time></trkpt>
      <trkpt lat="41.902417" lon="12.440815"><ele>48.68</ele><time>2026-08-06T06:50:59Z</time></trkpt>
      <trkpt lat="41.902373" lon="12.440599"><ele>46.44</ele><time>2026-08-06T06:51:01Z</time></trkpt>
      <trkpt lat="41.902296" lon="12.440379"><ele>42.34</ele><time>2026-08-06T06:51:03Z</time></trkpt>
      <trkpt lat="41.902276" lon="12.440335"><ele>38.99</ele><time>2026-08-06T06:51:04Z</time></trkpt>
      <trkpt lat="41.901859" lon="12.439521"><ele>35</ele><time>2026-08-06T06:51:09Z</time></trkpt>
      <trkpt lat="41.901731" lon="12.439274"><ele>37.05</ele><time>2026-08-06T06:51:11Z</time></trkpt>
      <trkpt lat="41.901632" lon="12.439096"><ele>41.68</ele><time>2026-08-06T06:51:12Z</time></trkpt>
      <trkpt lat="41.90155" lon="12.438969"><ele>42.72</ele><time>2026-08-06T06:51:13Z</time></trkpt>
      <trkpt lat="41.901373" lon="12.43872"><ele>42.11</ele><time>2026-08-06T06:51:15Z</time></trkpt>
      <trkpt lat="41.901198" lon="12.438475"><ele>44.65</ele><time>2026-08-06T06:51:17Z</time></trkpt>
      <trkpt lat="41.900858" lon="12.438011"><ele>43.39</ele><time>2026-08-06T06:51:20Z</time></trkpt>
      <trkpt lat="41.900503" lon="12.437474"><ele>39.03</ele><time>2026-08-06T06:51:24Z</time></trkpt>
      <trkpt lat="41.900449" lon="12.437394"><ele>40.6</ele><time>2026-08-06T06:51:25Z</time></trkpt>
      <trkpt lat="41.900243" lon="12.43703"><ele>46.84</ele><time>2026-08-06T06:51:28Z</time></trkpt>
      <trkpt lat="41.899952" lon="12.436491"><ele>51.85</ele><time>2026-08-06T06:51:32Z</time></trkpt>
      <trkpt lat="41.899753" lon="12.436092"><ele>55.3</ele><time>2026-08-06T06:51:35Z</time></trkpt>
      <trkpt lat="41.899643" lon="12.435829"><ele>58.08</ele><time>2026-08-06T06:51:37Z</time></trkpt>
      <trkpt lat="41.899565" lon="12.435589"><ele>60.7</ele><time>2026-08-06T06:51:39Z</time></trkpt>
      <trkpt lat="41.899457" lon="12.435197"><ele>65.4</ele><time>2026-08-06T06:51:41Z</time></trkpt>
      <trkpt lat="41.899263" lon="12.434402"><ele>70.29</ele><time>2026-08-06T06:51:45Z</time></trkpt>
      <trkpt lat="41.899108" lon="12.433758"><ele>70.14</ele><time>2026-08-06T06:51:49Z</time></trkpt>
      <trkpt lat="41.898824" lon="12.43263"><ele>74</ele><time>2026-08-06T06:51:54Z</time></trkpt>
      <trkpt lat="41.898573" lon="12.431597"><ele>74</ele><time>2026-08-06T06:51:59Z</time></trkpt>
      <trkpt lat="41.898532" lon="12.431322"><ele>74.74</ele><time>2026-08-06T06:52:01Z</time></trkpt>
      <trkpt lat="41.898509" lon="12.43109"><ele>75.13</ele><time>2026-08-06T06:52:03Z</time></trkpt>
      <trkpt lat="41.898497" lon="12.430819"><ele>77.51</ele><time>2026-08-06T06:52:05Z</time></trkpt>
      <trkpt lat="41.898519" lon="12.430299"><ele>82.33</ele><time>2026-08-06T06:52:08Z</time></trkpt>
      <trkpt lat="41.898568" lon="12.429482"><ele>82.43</ele><time>2026-08-06T06:52:12Z</time></trkpt>
      <trkpt lat="41.898578" lon="12.429251"><ele>82.98</ele><time>2026-08-06T06:52:13Z</time></trkpt>
      <trkpt lat="41.898603" lon="12.42884"><ele>82.3</ele><time>2026-08-06T06:52:15Z</time></trkpt>
      <trkpt lat="41.898607" lon="12.428434"><ele>82.33</ele><time>2026-08-06T06:52:18Z</time></trkpt>
      <trkpt lat="41.898579" lon="12.427859"><ele>83.11</ele><time>2026-08-06T06:52:21Z</time></trkpt>
      <trkpt lat="41.898599" lon="12.427425"><ele>83.56</ele><time>2026-08-06T06:52:23Z</time></trkpt>
      <trkpt lat="41.898648" lon="12.426839"><ele>84.66</ele><time>2026-08-06T06:52:26Z</time></trkpt>
      <trkpt lat="41.898657" lon="12.426668"><ele>84.94</ele><time>2026-08-06T06:52:27Z</time></trkpt>
      <trkpt lat="41.898657" lon="12.426429"><ele>85.72</ele><time>2026-08-06T06:52:29Z</time></trkpt>
      <trkpt lat="41.89865" lon="12.426177"><ele>85.23</ele><time>2026-08-06T06:52:31Z</time></trkpt>
      <trkpt lat="41.898639" lon="12.426033"><ele>84.51</ele><time>2026-08-06T06:52:32Z</time></trkpt>
      <trkpt lat="41.898547" lon="12.425307"><ele>80.9</ele><time>2026-08-06T06:52:36Z</time></trkpt>
      <trkpt lat="41.898527" lon="12.425219"><ele>80.78</ele><time>2026-08-06T06:52:37Z</time></trkpt>
      <trkpt lat="41.898481" lon="12.425119"><ele>80.87</ele><time>2026-08-06T06:52:38Z</time></trkpt>
      <trkpt lat="41.898426" lon="12.42475"><ele>81</ele><time>2026-08-06T06:52:41Z</time></trkpt>
      <trkpt lat="41.898344" lon="12.424352"><ele>80.2</ele><time>2026-08-06T06:52:43Z</time></trkpt>
      <trkpt lat="41.898206" lon="12.423819"><ele>78.2</ele><time>2026-08-06T06:52:46Z</time></trkpt>
      <trkpt lat="41.898111" lon="12.423499"><ele>78</ele><time>2026-08-06T06:52:48Z</time></trkpt>
      <trkpt lat="41.898044" lon="12.423284"><ele>77.94</ele><time>2026-08-06T06:52:49Z</time></trkpt>
      <trkpt lat="41.897954" lon="12.423035"><ele>77.94</ele><time>2026-08-06T06:52:51Z</time></trkpt>
      <trkpt lat="41.897749" lon="12.422525"><ele>80.89</ele><time>2026-08-06T06:52:54Z</time></trkpt>
      <trkpt lat="41.897514" lon="12.421998"><ele>81.99</ele><time>2026-08-06T06:52:58Z</time></trkpt>
      <trkpt lat="41.897019" lon="12.420966"><ele>84</ele><time>2026-08-06T06:53:04Z</time></trkpt>
      <trkpt lat="41.896754" lon="12.420438"><ele>81.86</ele><time>2026-08-06T06:53:07Z</time></trkpt>
      <trkpt lat="41.896368" lon="12.419693"><ele>81.9</ele><time>2026-08-06T06:53:12Z</time></trkpt>
      <trkpt lat="41.895987" lon="12.418979"><ele>82.5</ele><time>2026-08-06T06:53:16Z</time></trkpt>
      <trkpt lat="41.895618" lon="12.418329"><ele>81.99</ele><time>2026-08-06T06:53:20Z</time></trkpt>
      <trkpt lat="41.895458" lon="12.417981"><ele>81.81</ele><time>2026-08-06T06:53:22Z</time></trkpt>
      <trkpt lat="41.895378" lon="12.41783"><ele>81.98</ele><time>2026-08-06T06:53:23Z</time></trkpt>
      <trkpt lat="41.89513" lon="12.417433"><ele>80.92</ele><time>2026-08-06T06:53:26Z</time></trkpt>
      <trkpt lat="41.895035" lon="12.417302"><ele>80.74</ele><time>2026-08-06T06:53:27Z</time></trkpt>
      <trkpt lat="41.894918" lon="12.417156"><ele>80.43</ele><time>2026-08-06T06:53:28Z</time></trkpt>
      <trkpt lat="41.894814" lon="12.417056"><ele>80.52</ele><time>2026-08-06T06:53:29Z</time></trkpt>
      <trkpt lat="41.894359" lon="12.416406"><ele>80</ele><time>2026-08-06T06:53:33Z</time></trkpt>
      <trkpt lat="41.894144" lon="12.416123"><ele>79.94</ele><time>2026-08-06T06:53:35Z</time></trkpt>
      <trkpt lat="41.893862" lon="12.415773"><ele>78</ele><time>2026-08-06T06:53:38Z</time></trkpt>
      <trkpt lat="41.892828" lon="12.414512"><ele>77</ele><time>2026-08-06T06:53:45Z</time></trkpt>
      <trkpt lat="41.892777" lon="12.414416"><ele>76.96</ele><time>2026-08-06T06:53:46Z</time></trkpt>
      <trkpt lat="41.892694" lon="12.414291"><ele>76.24</ele><time>2026-08-06T06:53:47Z</time></trkpt>
      <trkpt lat="41.892505" lon="12.414077"><ele>76</ele><time>2026-08-06T06:53:49Z</time></trkpt>
      <trkpt lat="41.892381" lon="12.413964"><ele>76</ele><time>2026-08-06T06:53:50Z</time></trkpt>
      <trkpt lat="41.892091" lon="12.413731"><ele>76</ele><time>2026-08-06T06:53:52Z</time></trkpt>
      <trkpt lat="41.891699" lon="12.41347"><ele>76</ele><time>2026-08-06T06:53:55Z</time></trkpt>
      <trkpt lat="41.891041" lon="12.413"><ele>74.53</ele><time>2026-08-06T06:54:00Z</time></trkpt>
      <trkpt lat="41.890791" lon="12.412806"><ele>71.99</ele><time>2026-08-06T06:54:02Z</time></trkpt>
      <trkpt lat="41.890442" lon="12.412447"><ele>61.72</ele><time>2026-08-06T06:54:05Z</time></trkpt>
      <trkpt lat="41.890275" lon="12.41223"><ele>56.02</ele><time>2026-08-06T06:54:07Z</time></trkpt>
      <trkpt lat="41.890144" lon="12.412029"><ele>54.72</ele><time>2026-08-06T06:54:09Z</time></trkpt>
      <trkpt lat="41.89009" lon="12.411919"><ele>55.19</ele><time>2026-08-06T06:54:10Z</time></trkpt>
      <trkpt lat="41.889924" lon="12.411529"><ele>59.15</ele><time>2026-08-06T06:54:13Z</time></trkpt>
      <trkpt lat="41.889861" lon="12.411332"><ele>61.9</ele><time>2026-08-06T06:54:15Z</time></trkpt>
      <trkpt lat="41.889813" lon="12.411127"><ele>65.47</ele><time>2026-08-06T06:54:17Z</time></trkpt>
      <trkpt lat="41.889727" lon="12.410639"><ele>72.99</ele><time>2026-08-06T06:54:20Z</time></trkpt>
      <trkpt lat="41.889553" lon="12.409527"><ele>75.79</ele><time>2026-08-06T06:54:25Z</time></trkpt>
      <trkpt lat="41.889492" lon="12.409227"><ele>76.17</ele><time>2026-08-06T06:54:27Z</time></trkpt>
      <trkpt lat="41.889373" lon="12.408863"><ele>77</ele><time>2026-08-06T06:54:30Z</time></trkpt>
      <trkpt lat="41.889063" lon="12.408129"><ele>75</ele><time>2026-08-06T06:54:34Z</time></trkpt>
      <trkpt lat="41.888977" lon="12.40786"><ele>73.87</ele><time>2026-08-06T06:54:36Z</time></trkpt>
      <trkpt lat="41.888431" lon="12.40584"><ele>65.25</ele><time>2026-08-06T06:54:43Z</time></trkpt>
      <trkpt lat="41.888319" lon="12.405452"><ele>62.73</ele><time>2026-08-06T06:54:46Z</time></trkpt>
      <trkpt lat="41.888192" lon="12.405101"><ele>59.84</ele><time>2026-08-06T06:54:48Z</time></trkpt>
      <trkpt lat="41.888074" lon="12.404841"><ele>58.57</ele><time>2026-08-06T06:54:50Z</time></trkpt>
      <trkpt lat="41.887858" lon="12.404453"><ele>56.7</ele><time>2026-08-06T06:54:53Z</time></trkpt>
      <trkpt lat="41.88737" lon="12.403695"><ele>54.28</ele><time>2026-08-06T06:54:58Z</time></trkpt>
      <trkpt lat="41.886823" lon="12.402799"><ele>51.43</ele><time>2026-08-06T06:55:03Z</time></trkpt>
      <trkpt lat="41.886593" lon="12.402374"><ele>50.02</ele><time>2026-08-06T06:55:06Z</time></trkpt>
      <trkpt lat="41.88634" lon="12.401826"><ele>50</ele><time>2026-08-06T06:55:09Z</time></trkpt>
      <trkpt lat="41.884853" lon="12.397977"><ele>46</ele><time>2026-08-06T06:55:20Z</time></trkpt>
      <trkpt lat="41.884533" lon="12.397144"><ele>46.67</ele><time>2026-08-06T06:55:25Z</time></trkpt>
      <trkpt lat="41.884376" lon="12.396671"><ele>46.22</ele><time>2026-08-06T06:55:28Z</time></trkpt>
      <trkpt lat="41.884284" lon="12.396314"><ele>45.47</ele><time>2026-08-06T06:55:30Z</time></trkpt>
      <trkpt lat="41.884202" lon="12.395898"><ele>44.82</ele><time>2026-08-06T06:55:33Z</time></trkpt>
      <trkpt lat="41.884153" lon="12.39556"><ele>44.73</ele><time>2026-08-06T06:55:35Z</time></trkpt>
      <trkpt lat="41.884113" lon="12.395205"><ele>43.5</ele><time>2026-08-06T06:55:37Z</time></trkpt>
      <trkpt lat="41.884096" lon="12.394931"><ele>41.99</ele><time>2026-08-06T06:55:39Z</time></trkpt>
      <trkpt lat="41.884093" lon="12.394483"><ele>41.97</ele><time>2026-08-06T06:55:42Z</time></trkpt>
      <trkpt lat="41.884117" lon="12.393934"><ele>42.31</ele><time>2026-08-06T06:55:45Z</time></trkpt>
      <trkpt lat="41.884153" lon="12.393527"><ele>41.68</ele><time>2026-08-06T06:55:47Z</time></trkpt>
      <trkpt lat="41.884199" lon="12.393199"><ele>40.41</ele><time>2026-08-06T06:55:49Z</time></trkpt>
      <trkpt lat="41.884252" lon="12.392905"><ele>38.9</ele><time>2026-08-06T06:55:51Z</time></trkpt>
      <trkpt lat="41.88432" lon="12.392596"><ele>38.67</ele><time>2026-08-06T06:55:53Z</time></trkpt>
      <trkpt lat="41.884432" lon="12.392198"><ele>42.32</ele><time>2026-08-06T06:55:56Z</time></trkpt>
      <trkpt lat="41.884563" lon="12.391817"><ele>45.07</ele><time>2026-08-06T06:55:59Z</time></trkpt>
      <trkpt lat="41.884743" lon="12.391368"><ele>49.09</ele><time>2026-08-06T06:56:02Z</time></trkpt>
      <trkpt lat="41.884941" lon="12.390925"><ele>52.59</ele><time>2026-08-06T06:56:05Z</time></trkpt>
      <trkpt lat="41.885581" lon="12.389453"><ele>59.34</ele><time>2026-08-06T06:56:12Z</time></trkpt>
      <trkpt lat="41.885983" lon="12.388531"><ele>68.88</ele><time>2026-08-06T06:56:17Z</time></trkpt>
      <trkpt lat="41.886107" lon="12.388246"><ele>68.05</ele><time>2026-08-06T06:56:19Z</time></trkpt>
      <trkpt lat="41.886253" lon="12.387892"><ele>64.91</ele><time>2026-08-06T06:56:21Z</time></trkpt>
      <trkpt lat="41.88631" lon="12.387738"><ele>63.86</ele><time>2026-08-06T06:56:22Z</time></trkpt>
      <trkpt lat="41.886394" lon="12.387417"><ele>62.06</ele><time>2026-08-06T06:56:24Z</time></trkpt>
      <trkpt lat="41.88643" lon="12.387221"><ele>61.63</ele><time>2026-08-06T06:56:25Z</time></trkpt>
      <trkpt lat="41.886467" lon="12.386921"><ele>60.03</ele><time>2026-08-06T06:56:27Z</time></trkpt>
      <trkpt lat="41.886485" lon="12.386633"><ele>58.78</ele><time>2026-08-06T06:56:29Z</time></trkpt>
      <trkpt lat="41.886485" lon="12.386427"><ele>58.35</ele><time>2026-08-06T06:56:30Z</time></trkpt>
      <trkpt lat="41.886475" lon="12.386223"><ele>57.48</ele><time>2026-08-06T06:56:31Z</time></trkpt>
      <trkpt lat="41.886435" lon="12.385867"><ele>55.69</ele><time>2026-08-06T06:56:33Z</time></trkpt>
      <trkpt lat="41.886376" lon="12.385573"><ele>52.89</ele><time>2026-08-06T06:56:35Z</time></trkpt>
      <trkpt lat="41.886346" lon="12.385473"><ele>52.56</ele><time>2026-08-06T06:56:36Z</time></trkpt>
      <trkpt lat="41.886215" lon="12.385115"><ele>51.67</ele><time>2026-08-06T06:56:38Z</time></trkpt>
      <trkpt lat="41.886107" lon="12.384861"><ele>50.43</ele><time>2026-08-06T06:56:40Z</time></trkpt>
      <trkpt lat="41.884583" lon="12.381683"><ele>40.73</ele><time>2026-08-06T06:56:50Z</time></trkpt>
      <trkpt lat="41.884008" lon="12.380479"><ele>39.76</ele><time>2026-08-06T06:56:56Z</time></trkpt>
      <trkpt lat="41.883635" lon="12.37971"><ele>36.51</ele><time>2026-08-06T06:57:00Z</time></trkpt>
      <trkpt lat="41.883536" lon="12.37949"><ele>35.91</ele><time>2026-08-06T06:57:02Z</time></trkpt>
      <trkpt lat="41.883479" lon="12.379341"><ele>35.04</ele><time>2026-08-06T06:57:03Z</time></trkpt>
      <trkpt lat="41.883432" lon="12.379181"><ele>35.72</ele><time>2026-08-06T06:57:04Z</time></trkpt>
      <trkpt lat="41.883403" lon="12.379062"><ele>37.92</ele><time>2026-08-06T06:57:05Z</time></trkpt>
      <trkpt lat="41.883356" lon="12.378822"><ele>43.15</ele><time>2026-08-06T06:57:07Z</time></trkpt>
      <trkpt lat="41.883337" lon="12.378702"><ele>44.47</ele><time>2026-08-06T06:57:08Z</time></trkpt>
      <trkpt lat="41.88332" lon="12.378524"><ele>44.89</ele><time>2026-08-06T06:57:09Z</time></trkpt>
      <trkpt lat="41.88332" lon="12.378235"><ele>43.48</ele><time>2026-08-06T06:57:11Z</time></trkpt>
      <trkpt lat="41.883336" lon="12.377981"><ele>42.25</ele><time>2026-08-06T06:57:13Z</time></trkpt>
      <trkpt lat="41.883351" lon="12.377843"><ele>41.69</ele><time>2026-08-06T06:57:14Z</time></trkpt>
      <trkpt lat="41.883407" lon="12.377548"><ele>41.08</ele><time>2026-08-06T06:57:16Z</time></trkpt>
      <trkpt lat="41.883477" lon="12.377303"><ele>39.54</ele><time>2026-08-06T06:57:18Z</time></trkpt>
      <trkpt lat="41.883606" lon="12.376982"><ele>38.49</ele><time>2026-08-06T06:57:20Z</time></trkpt>
      <trkpt lat="41.883754" lon="12.376717"><ele>37.4</ele><time>2026-08-06T06:57:22Z</time></trkpt>
      <trkpt lat="41.883843" lon="12.376582"><ele>37.03</ele><time>2026-08-06T06:57:23Z</time></trkpt>
      <trkpt lat="41.883914" lon="12.376491"><ele>37.8</ele><time>2026-08-06T06:57:24Z</time></trkpt>
      <trkpt lat="41.884096" lon="12.376288"><ele>38</ele><time>2026-08-06T06:57:26Z</time></trkpt>
      <trkpt lat="41.884794" lon="12.375589"><ele>39</ele><time>2026-08-06T06:57:31Z</time></trkpt>
      <trkpt lat="41.885049" lon="12.375309"><ele>40.14</ele><time>2026-08-06T06:57:34Z</time></trkpt>
      <trkpt lat="41.885319" lon="12.37498"><ele>41.94</ele><time>2026-08-06T06:57:37Z</time></trkpt>
      <trkpt lat="41.885565" lon="12.374658"><ele>43.91</ele><time>2026-08-06T06:57:40Z</time></trkpt>
      <trkpt lat="41.886014" lon="12.374029"><ele>44.89</ele><time>2026-08-06T06:57:44Z</time></trkpt>
      <trkpt lat="41.886377" lon="12.373499"><ele>45.11</ele><time>2026-08-06T06:57:48Z</time></trkpt>
      <trkpt lat="41.886946" lon="12.372678"><ele>42</ele><time>2026-08-06T06:57:53Z</time></trkpt>
      <trkpt lat="41.887389" lon="12.372036"><ele>49.03</ele><time>2026-08-06T06:57:57Z</time></trkpt>
      <trkpt lat="41.88764" lon="12.371657"><ele>48.96</ele><time>2026-08-06T06:58:00Z</time></trkpt>
      <trkpt lat="41.887721" lon="12.371516"><ele>49.46</ele><time>2026-08-06T06:58:01Z</time></trkpt>
      <trkpt lat="41.887902" lon="12.371158"><ele>49.81</ele><time>2026-08-06T06:58:04Z</time></trkpt>
      <trkpt lat="41.888025" lon="12.370837"><ele>49.72</ele><time>2026-08-06T06:58:06Z</time></trkpt>
      <trkpt lat="41.888121" lon="12.370524"><ele>49.57</ele><time>2026-08-06T06:58:08Z</time></trkpt>
      <trkpt lat="41.888252" lon="12.369978"><ele>48.54</ele><time>2026-08-06T06:58:11Z</time></trkpt>
      <trkpt lat="41.88829" lon="12.369754"><ele>48.25</ele><time>2026-08-06T06:58:13Z</time></trkpt>
      <trkpt lat="41.888332" lon="12.369351"><ele>48.92</ele><time>2026-08-06T06:58:16Z</time></trkpt>
      <trkpt lat="41.888345" lon="12.369065"><ele>48.82</ele><time>2026-08-06T06:58:18Z</time></trkpt>
      <trkpt lat="41.888342" lon="12.368643"><ele>48.84</ele><time>2026-08-06T06:58:21Z</time></trkpt>
      <trkpt lat="41.888317" lon="12.368313"><ele>49</ele><time>2026-08-06T06:58:23Z</time></trkpt>
      <trkpt lat="41.888285" lon="12.368066"><ele>49</ele><time>2026-08-06T06:58:25Z</time></trkpt>
      <trkpt lat="41.888162" lon="12.367447"><ele>49</ele><time>2026-08-06T06:58:28Z</time></trkpt>
      <trkpt lat="41.888061" lon="12.367087"><ele>49.2</ele><time>2026-08-06T06:58:31Z</time></trkpt>
      <trkpt lat="41.887983" lon="12.366855"><ele>50</ele><time>2026-08-06T06:58:33Z</time></trkpt>
      <trkpt lat="41.887874" lon="12.366603"><ele>53.08</ele><time>2026-08-06T06:58:35Z</time></trkpt>
      <trkpt lat="41.887487" lon="12.365851"><ele>73.31</ele><time>2026-08-06T06:58:39Z</time></trkpt>
      <trkpt lat="41.88732" lon="12.365521"><ele>75</ele><time>2026-08-06T06:58:41Z</time></trkpt>
      <trkpt lat="41.886605" lon="12.364056"><ele>74.59</ele><time>2026-08-06T06:58:48Z</time></trkpt>
      <trkpt lat="41.886139" lon="12.36309"><ele>72.4</ele><time>2026-08-06T06:58:53Z</time></trkpt>
      <trkpt lat="41.885965" lon="12.362766"><ele>71.73</ele><time>2026-08-06T06:58:56Z</time></trkpt>
      <trkpt lat="41.885773" lon="12.362455"><ele>72.22</ele><time>2026-08-06T06:58:58Z</time></trkpt>
      <trkpt lat="41.885634" lon="12.362267"><ele>72.23</ele><time>2026-08-06T06:59:00Z</time></trkpt>
      <trkpt lat="41.885486" lon="12.362085"><ele>72.29</ele><time>2026-08-06T06:59:02Z</time></trkpt>
      <trkpt lat="41.885287" lon="12.361883"><ele>73</ele><time>2026-08-06T06:59:04Z</time></trkpt>
      <trkpt lat="41.884457" lon="12.361051"><ele>65.46</ele><time>2026-08-06T06:59:10Z</time></trkpt>
      <trkpt lat="41.884056" lon="12.360618"><ele>67.82</ele><time>2026-08-06T06:59:13Z</time></trkpt>
      <trkpt lat="41.883817" lon="12.360279"><ele>71.14</ele><time>2026-08-06T06:59:16Z</time></trkpt>
      <trkpt lat="41.883665" lon="12.360012"><ele>73.13</ele><time>2026-08-06T06:59:18Z</time></trkpt>
      <trkpt lat="41.883372" lon="12.359397"><ele>77.58</ele><time>2026-08-06T06:59:22Z</time></trkpt>
      <trkpt lat="41.883249" lon="12.359059"><ele>78.07</ele><time>2026-08-06T06:59:25Z</time></trkpt>
      <trkpt lat="41.882974" lon="12.358242"><ele>75.28</ele><time>2026-08-06T06:59:29Z</time></trkpt>
      <trkpt lat="41.88253" lon="12.356934"><ele>64.05</ele><time>2026-08-06T06:59:34Z</time></trkpt>
      <trkpt lat="41.882422" lon="12.35662"><ele>64.14</ele><time>2026-08-06T06:59:36Z</time></trkpt>
      <trkpt lat="41.882244" lon="12.355995"><ele>66.3</ele><time>2026-08-06T06:59:40Z</time></trkpt>
      <trkpt lat="41.882157" lon="12.355584"><ele>66.06</ele><time>2026-08-06T06:59:42Z</time></trkpt>
      <trkpt lat="41.882105" lon="12.355159"><ele>63.99</ele><time>2026-08-06T06:59:44Z</time></trkpt>
      <trkpt lat="41.882041" lon="12.354316"><ele>62.48</ele><time>2026-08-06T06:59:49Z</time></trkpt>
      <trkpt lat="41.881971" lon="12.353257"><ele>69.21</ele><time>2026-08-06T06:59:54Z</time></trkpt>
      <trkpt lat="41.881901" lon="12.352198"><ele>67.86</ele><time>2026-08-06T06:59:59Z</time></trkpt>
      <trkpt lat="41.881849" lon="12.351419"><ele>69</ele><time>2026-08-06T07:00:03Z</time></trkpt>
      <trkpt lat="41.88179" lon="12.350566"><ele>58.26</ele><time>2026-08-06T07:00:07Z</time></trkpt>
      <trkpt lat="41.881761" lon="12.350141"><ele>62.99</ele><time>2026-08-06T07:00:09Z</time></trkpt>
      <trkpt lat="41.881738" lon="12.349707"><ele>66</ele><time>2026-08-06T07:00:12Z</time></trkpt>
      <trkpt lat="41.881731" lon="12.349273"><ele>67.84</ele><time>2026-08-06T07:00:14Z</time></trkpt>
      <trkpt lat="41.881743" lon="12.348595"><ele>70.51</ele><time>2026-08-06T07:00:18Z</time></trkpt>
      <trkpt lat="41.881767" lon="12.348256"><ele>71.81</ele><time>2026-08-06T07:00:20Z</time></trkpt>
      <trkpt lat="41.8818" lon="12.347893"><ele>70.2</ele><time>2026-08-06T07:00:22Z</time></trkpt>
      <trkpt lat="41.882051" lon="12.346002"><ele>57.23</ele><time>2026-08-06T07:00:28Z</time></trkpt>
      <trkpt lat="41.8821" lon="12.345639"><ele>57.79</ele><time>2026-08-06T07:00:30Z</time></trkpt>
      <trkpt lat="41.882298" lon="12.344204"><ele>65.96</ele><time>2026-08-06T07:00:36Z</time></trkpt>
      <trkpt lat="41.882348" lon="12.343846"><ele>65.89</ele><time>2026-08-06T07:00:38Z</time></trkpt>
      <trkpt lat="41.882489" lon="12.342827"><ele>54.6</ele><time>2026-08-06T07:00:43Z</time></trkpt>
      <trkpt lat="41.882615" lon="12.341918"><ele>47.66</ele><time>2026-08-06T07:00:47Z</time></trkpt>
      <trkpt lat="41.882693" lon="12.341426"><ele>42.19</ele><time>2026-08-06T07:00:50Z</time></trkpt>
      <trkpt lat="41.882779" lon="12.341004"><ele>40.29</ele><time>2026-08-06T07:00:53Z</time></trkpt>
      <trkpt lat="41.882983" lon="12.340168"><ele>33.98</ele><time>2026-08-06T07:00:57Z</time></trkpt>
      <trkpt lat="41.88312" lon="12.339652"><ele>32.35</ele><time>2026-08-06T07:01:00Z</time></trkpt>
      <trkpt lat="41.883241" lon="12.339226"><ele>30.68</ele><time>2026-08-06T07:01:03Z</time></trkpt>
      <trkpt lat="41.883373" lon="12.338804"><ele>29</ele><time>2026-08-06T07:01:06Z</time></trkpt>
      <trkpt lat="41.883657" lon="12.337944"><ele>28</ele><time>2026-08-06T07:01:11Z</time></trkpt>
      <trkpt lat="41.884063" lon="12.33675"><ele>29</ele><time>2026-08-06T07:01:17Z</time></trkpt>
      <trkpt lat="41.884832" lon="12.3345"><ele>34</ele><time>2026-08-06T07:01:24Z</time></trkpt>
      <trkpt lat="41.885106" lon="12.333665"><ele>36</ele><time>2026-08-06T07:01:28Z</time></trkpt>
      <trkpt lat="41.885224" lon="12.333256"><ele>36</ele><time>2026-08-06T07:01:31Z</time></trkpt>
      <trkpt lat="41.885377" lon="12.332634"><ele>38.52</ele><time>2026-08-06T07:01:35Z</time></trkpt>
      <trkpt lat="41.885483" lon="12.332116"><ele>40.7</ele><time>2026-08-06T07:01:38Z</time></trkpt>
      <trkpt lat="41.885569" lon="12.33161"><ele>41.99</ele><time>2026-08-06T07:01:41Z</time></trkpt>
      <trkpt lat="41.885631" lon="12.331214"><ele>39.26</ele><time>2026-08-06T07:01:44Z</time></trkpt>
      <trkpt lat="41.88568" lon="12.33081"><ele>36.77</ele><time>2026-08-06T07:01:46Z</time></trkpt>
      <trkpt lat="41.885732" lon="12.330236"><ele>33.57</ele><time>2026-08-06T07:01:50Z</time></trkpt>
      <trkpt lat="41.885752" lon="12.329853"><ele>32.17</ele><time>2026-08-06T07:01:53Z</time></trkpt>
      <trkpt lat="41.885757" lon="12.329466"><ele>32.94</ele><time>2026-08-06T07:01:55Z</time></trkpt>
      <trkpt lat="41.885729" lon="12.329036"><ele>34.07</ele><time>2026-08-06T07:01:57Z</time></trkpt>
      <trkpt lat="41.885697" lon="12.327965"><ele>39.66</ele><time>2026-08-06T07:02:02Z</time></trkpt>
      <trkpt lat="41.885659" lon="12.32688"><ele>37.21</ele><time>2026-08-06T07:02:07Z</time></trkpt>
      <trkpt lat="41.885647" lon="12.326518"><ele>37.9</ele><time>2026-08-06T07:02:09Z</time></trkpt>
      <trkpt lat="41.885581" lon="12.32449"><ele>47.82</ele><time>2026-08-06T07:02:16Z</time></trkpt>
      <trkpt lat="41.885541" lon="12.323301"><ele>46.72</ele><time>2026-08-06T07:02:21Z</time></trkpt>
      <trkpt lat="41.885523" lon="12.322594"><ele>50.62</ele><time>2026-08-06T07:02:25Z</time></trkpt>
      <trkpt lat="41.885526" lon="12.321774"><ele>50</ele><time>2026-08-06T07:02:29Z</time></trkpt>
      <trkpt lat="41.885528" lon="12.321363"><ele>52.05</ele><time>2026-08-06T07:02:31Z</time></trkpt>
      <trkpt lat="41.885567" lon="12.320573"><ele>57.16</ele><time>2026-08-06T07:02:35Z</time></trkpt>
      <trkpt lat="41.885597" lon="12.320249"><ele>59</ele><time>2026-08-06T07:02:37Z</time></trkpt>
      <trkpt lat="41.885698" lon="12.319252"><ele>53.18</ele><time>2026-08-06T07:02:42Z</time></trkpt>
      <trkpt lat="41.885767" lon="12.318751"><ele>49.77</ele><time>2026-08-06T07:02:45Z</time></trkpt>
      <trkpt lat="41.885943" lon="12.31775"><ele>46.06</ele><time>2026-08-06T07:02:50Z</time></trkpt>
      <trkpt lat="41.886006" lon="12.317395"><ele>48.24</ele><time>2026-08-06T07:02:52Z</time></trkpt>
      <trkpt lat="41.88613" lon="12.316686"><ele>59.22</ele><time>2026-08-06T07:02:56Z</time></trkpt>
      <trkpt lat="41.886256" lon="12.315973"><ele>64.6</ele><time>2026-08-06T07:03:00Z</time></trkpt>
      <trkpt lat="41.88632" lon="12.315614"><ele>69.33</ele><time>2026-08-06T07:03:02Z</time></trkpt>
      <trkpt lat="41.886767" lon="12.313105"><ele>72</ele><time>2026-08-06T07:03:09Z</time></trkpt>
      <trkpt lat="41.886893" lon="12.312414"><ele>69.87</ele><time>2026-08-06T07:03:13Z</time></trkpt>
      <trkpt lat="41.887018" lon="12.311723"><ele>61.8</ele><time>2026-08-06T07:03:17Z</time></trkpt>
      <trkpt lat="41.887207" lon="12.310687"><ele>65.29</ele><time>2026-08-06T07:03:22Z</time></trkpt>
      <trkpt lat="41.887268" lon="12.310353"><ele>65.72</ele><time>2026-08-06T07:03:24Z</time></trkpt>
      <trkpt lat="41.88739" lon="12.309685"><ele>62.78</ele><time>2026-08-06T07:03:28Z</time></trkpt>
      <trkpt lat="41.887695" lon="12.308015"><ele>66.94</ele><time>2026-08-06T07:03:35Z</time></trkpt>
      <trkpt lat="41.888007" lon="12.30629"><ele>60.15</ele><time>2026-08-06T07:03:42Z</time></trkpt>
      <trkpt lat="41.888069" lon="12.305942"><ele>56.96</ele><time>2026-08-06T07:03:44Z</time></trkpt>
      <trkpt lat="41.888132" lon="12.305594"><ele>50.08</ele><time>2026-08-06T07:03:46Z</time></trkpt>
      <trkpt lat="41.888274" lon="12.304897"><ele>41.35</ele><time>2026-08-06T07:03:50Z</time></trkpt>
      <trkpt lat="41.888416" lon="12.3042"><ele>48.94</ele><time>2026-08-06T07:03:54Z</time></trkpt>
      <trkpt lat="41.888605" lon="12.30345"><ele>63.16</ele><time>2026-08-06T07:03:58Z</time></trkpt>
      <trkpt lat="41.888864" lon="12.302546"><ele>69.22</ele><time>2026-08-06T07:04:03Z</time></trkpt>
      <trkpt lat="41.88911" lon="12.30182"><ele>70.68</ele><time>2026-08-06T07:04:07Z</time></trkpt>
      <trkpt lat="41.88938" lon="12.301077"><ele>70</ele><time>2026-08-06T07:04:11Z</time></trkpt>
      <trkpt lat="41.889636" lon="12.300483"><ele>69.62</ele><time>2026-08-06T07:04:15Z</time></trkpt>
      <trkpt lat="41.889765" lon="12.300186"><ele>64.73</ele><time>2026-08-06T07:04:17Z</time></trkpt>
      <trkpt lat="41.889893" lon="12.299889"><ele>57.5</ele><time>2026-08-06T07:04:19Z</time></trkpt>
      <trkpt lat="41.89021" lon="12.29923"><ele>42.8</ele><time>2026-08-06T07:04:23Z</time></trkpt>
      <trkpt lat="41.890636" lon="12.29844"><ele>45.07</ele><time>2026-08-06T07:04:28Z</time></trkpt>
      <trkpt lat="41.89113" lon="12.297584"><ele>48.98</ele><time>2026-08-06T07:04:33Z</time></trkpt>
      <trkpt lat="41.892854" lon="12.294568"><ele>45</ele><time>2026-08-06T07:04:44Z</time></trkpt>
      <trkpt lat="41.893159" lon="12.294025"><ele>46.78</ele><time>2026-08-06T07:04:47Z</time></trkpt>
      <trkpt lat="41.894277" lon="12.29206"><ele>47.8</ele><time>2026-08-06T07:04:55Z</time></trkpt>
      <trkpt lat="41.894678" lon="12.2913"><ele>48.3</ele><time>2026-08-06T07:05:00Z</time></trkpt>
      <trkpt lat="41.894877" lon="12.29089"><ele>49.03</ele><time>2026-08-06T07:05:03Z</time></trkpt>
      <trkpt lat="41.895081" lon="12.29039"><ele>49.36</ele><time>2026-08-06T07:05:06Z</time></trkpt>
      <trkpt lat="41.895232" lon="12.28996"><ele>50.71</ele><time>2026-08-06T07:05:09Z</time></trkpt>
      <trkpt lat="41.895392" lon="12.289457"><ele>54.09</ele><time>2026-08-06T07:05:12Z</time></trkpt>
      <trkpt lat="41.895481" lon="12.289151"><ele>55.57</ele><time>2026-08-06T07:05:14Z</time></trkpt>
      <trkpt lat="41.895539" lon="12.288922"><ele>55.55</ele><time>2026-08-06T07:05:16Z</time></trkpt>
      <trkpt lat="41.895685" lon="12.288314"><ele>51.49</ele><time>2026-08-06T07:05:19Z</time></trkpt>
      <trkpt lat="41.89587" lon="12.28737"><ele>54.68</ele><time>2026-08-06T07:05:24Z</time></trkpt>
      <trkpt lat="41.896015" lon="12.286625"><ele>61.1</ele><time>2026-08-06T07:05:28Z</time></trkpt>
      <trkpt lat="41.896077" lon="12.286291"><ele>62.57</ele><time>2026-08-06T07:05:30Z</time></trkpt>
      <trkpt lat="41.896388" lon="12.284617"><ele>52.61</ele><time>2026-08-06T07:05:36Z</time></trkpt>
      <trkpt lat="41.896453" lon="12.28429"><ele>52.1</ele><time>2026-08-06T07:05:38Z</time></trkpt>
      <trkpt lat="41.896583" lon="12.283637"><ele>58.05</ele><time>2026-08-06T07:05:41Z</time></trkpt>
      <trkpt lat="41.896812" lon="12.282503"><ele>57.62</ele><time>2026-08-06T07:05:46Z</time></trkpt>
      <trkpt lat="41.896952" lon="12.281726"><ele>56.5</ele><time>2026-08-06T07:05:50Z</time></trkpt>
      <trkpt lat="41.897022" lon="12.281338"><ele>53.44</ele><time>2026-08-06T07:05:53Z</time></trkpt>
      <trkpt lat="41.897106" lon="12.280967"><ele>50.09</ele><time>2026-08-06T07:05:55Z</time></trkpt>
      <trkpt lat="41.897273" lon="12.280225"><ele>52.83</ele><time>2026-08-06T07:05:59Z</time></trkpt>
      <trkpt lat="41.897426" lon="12.279682"><ele>53.83</ele><time>2026-08-06T07:06:02Z</time></trkpt>
      <trkpt lat="41.897774" lon="12.278635"><ele>53.18</ele><time>2026-08-06T07:06:07Z</time></trkpt>
      <trkpt lat="41.897963" lon="12.278165"><ele>51.04</ele><time>2026-08-06T07:06:10Z</time></trkpt>
      <trkpt lat="41.898174" lon="12.277702"><ele>47.11</ele><time>2026-08-06T07:06:13Z</time></trkpt>
      <trkpt lat="41.898526" lon="12.277029"><ele>46.7</ele><time>2026-08-06T07:06:17Z</time></trkpt>
      <trkpt lat="41.898843" lon="12.276514"><ele>49.18</ele><time>2026-08-06T07:06:21Z</time></trkpt>
      <trkpt lat="41.899224" lon="12.27591"><ele>49.1</ele><time>2026-08-06T07:06:25Z</time></trkpt>
      <trkpt lat="41.89953" lon="12.275506"><ele>48.34</ele><time>2026-08-06T07:06:29Z</time></trkpt>
      <trkpt lat="41.899825" lon="12.275138"><ele>47.2</ele><time>2026-08-06T07:06:32Z</time></trkpt>
      <trkpt lat="41.900051" lon="12.274888"><ele>46.45</ele><time>2026-08-06T07:06:34Z</time></trkpt>
      <trkpt lat="41.90041" lon="12.274519"><ele>47</ele><time>2026-08-06T07:06:37Z</time></trkpt>
      <trkpt lat="41.901479" lon="12.273496"><ele>47</ele><time>2026-08-06T07:06:43Z</time></trkpt>
      <trkpt lat="41.90238" lon="12.27262"><ele>47.63</ele><time>2026-08-06T07:06:48Z</time></trkpt>
      <trkpt lat="41.903057" lon="12.271964"><ele>39.07</ele><time>2026-08-06T07:06:53Z</time></trkpt>
      <trkpt lat="41.903912" lon="12.271136"><ele>36.66</ele><time>2026-08-06T07:06:59Z</time></trkpt>
      <trkpt lat="41.904346" lon="12.270673"><ele>33.24</ele><time>2026-08-06T07:07:03Z</time></trkpt>
      <trkpt lat="41.904569" lon="12.27038"><ele>32.58</ele><time>2026-08-06T07:07:05Z</time></trkpt>
      <trkpt lat="41.904787" lon="12.270067"><ele>32.32</ele><time>2026-08-06T07:07:08Z</time></trkpt>
      <trkpt lat="41.904989" lon="12.26972"><ele>30.89</ele><time>2026-08-06T07:07:11Z</time></trkpt>
      <trkpt lat="41.9052" lon="12.269319"><ele>30.2</ele><time>2026-08-06T07:07:14Z</time></trkpt>
      <trkpt lat="41.905311" lon="12.269085"><ele>29.71</ele><time>2026-08-06T07:07:16Z</time></trkpt>
      <trkpt lat="41.905539" lon="12.2685"><ele>28.08</ele><time>2026-08-06T07:07:19Z</time></trkpt>
      <trkpt lat="41.905655" lon="12.268191"><ele>25.81</ele><time>2026-08-06T07:07:21Z</time></trkpt>
      <trkpt lat="41.906069" lon="12.267015"><ele>20</ele><time>2026-08-06T07:07:27Z</time></trkpt>
      <trkpt lat="41.906471" lon="12.265862"><ele>20</ele><time>2026-08-06T07:07:32Z</time></trkpt>
      <trkpt lat="41.906683" lon="12.2653"><ele>19</ele><time>2026-08-06T07:07:36Z</time></trkpt>
      <trkpt lat="41.906875" lon="12.26474"><ele>19</ele><time>2026-08-06T07:07:39Z</time></trkpt>
      <trkpt lat="41.907115" lon="12.264164"><ele>19</ele><time>2026-08-06T07:07:42Z</time></trkpt>
      <trkpt lat="41.907244" lon="12.2639"><ele>19</ele><time>2026-08-06T07:07:44Z</time></trkpt>
      <trkpt lat="41.907437" lon="12.263543"><ele>19</ele><time>2026-08-06T07:07:47Z</time></trkpt>
      <trkpt lat="41.907625" lon="12.263224"><ele>19</ele><time>2026-08-06T07:07:50Z</time></trkpt>
      <trkpt lat="41.907915" lon="12.262764"><ele>19</ele><time>2026-08-06T07:07:53Z</time></trkpt>
      <trkpt lat="41.908251" lon="12.262307"><ele>20</ele><time>2026-08-06T07:07:57Z</time></trkpt>
      <trkpt lat="41.908928" lon="12.261439"><ele>21.85</ele><time>2026-08-06T07:08:03Z</time></trkpt>
      <trkpt lat="41.909134" lon="12.261175"><ele>27.94</ele><time>2026-08-06T07:08:06Z</time></trkpt>
      <trkpt lat="41.909428" lon="12.260793"><ele>34.16</ele><time>2026-08-06T07:08:09Z</time></trkpt>
      <trkpt lat="41.909609" lon="12.260518"><ele>34.44</ele><time>2026-08-06T07:08:11Z</time></trkpt>
      <trkpt lat="41.909766" lon="12.260243"><ele>37.21</ele><time>2026-08-06T07:08:13Z</time></trkpt>
      <trkpt lat="41.909892" lon="12.259981"><ele>39.33</ele><time>2026-08-06T07:08:15Z</time></trkpt>
      <trkpt lat="41.909942" lon="12.259861"><ele>40.16</ele><time>2026-08-06T07:08:16Z</time></trkpt>
      <trkpt lat="41.910019" lon="12.259638"><ele>41.39</ele><time>2026-08-06T07:08:18Z</time></trkpt>
      <trkpt lat="41.910098" lon="12.259353"><ele>44.58</ele><time>2026-08-06T07:08:20Z</time></trkpt>
      <trkpt lat="41.910164" lon="12.259016"><ele>46.53</ele><time>2026-08-06T07:08:22Z</time></trkpt>
      <trkpt lat="41.910213" lon="12.258651"><ele>49.34</ele><time>2026-08-06T07:08:24Z</time></trkpt>
      <trkpt lat="41.910254" lon="12.258275"><ele>52.49</ele><time>2026-08-06T07:08:27Z</time></trkpt>
      <trkpt lat="41.910335" lon="12.257522"><ele>49.54</ele><time>2026-08-06T07:08:31Z</time></trkpt>
      <trkpt lat="41.910376" lon="12.257145"><ele>51.46</ele><time>2026-08-06T07:08:33Z</time></trkpt>
      <trkpt lat="41.910493" lon="12.256088"><ele>52.19</ele><time>2026-08-06T07:08:38Z</time></trkpt>
      <trkpt lat="41.910605" lon="12.255045"><ele>57.51</ele><time>2026-08-06T07:08:43Z</time></trkpt>
      <trkpt lat="41.910716" lon="12.254003"><ele>58.4</ele><time>2026-08-06T07:08:48Z</time></trkpt>
      <trkpt lat="41.910792" lon="12.253384"><ele>53.24</ele><time>2026-08-06T07:08:51Z</time></trkpt>
      <trkpt lat="41.910843" lon="12.253068"><ele>52</ele><time>2026-08-06T07:08:53Z</time></trkpt>
      <trkpt lat="41.910905" lon="12.252745"><ele>52.6</ele><time>2026-08-06T07:08:55Z</time></trkpt>
      <trkpt lat="41.911002" lon="12.252298"><ele>54.5</ele><time>2026-08-06T07:08:58Z</time></trkpt>
      <trkpt lat="41.911074" lon="12.252033"><ele>55.56</ele><time>2026-08-06T07:09:00Z</time></trkpt>
      <trkpt lat="41.911188" lon="12.25167"><ele>59.03</ele><time>2026-08-06T07:09:02Z</time></trkpt>
      <trkpt lat="41.911276" lon="12.25152"><ele>60.82</ele><time>2026-08-06T07:09:03Z</time></trkpt>
      <trkpt lat="41.911333" lon="12.251408"><ele>61.02</ele><time>2026-08-06T07:09:04Z</time></trkpt>
      <trkpt lat="41.911549" lon="12.250944"><ele>62</ele><time>2026-08-06T07:09:07Z</time></trkpt>
      <trkpt lat="41.911654" lon="12.250749"><ele>62.26</ele><time>2026-08-06T07:09:08Z</time></trkpt>
      <trkpt lat="41.911815" lon="12.250507"><ele>63.52</ele><time>2026-08-06T07:09:10Z</time></trkpt>
      <trkpt lat="41.912374" lon="12.24961"><ele>69.9</ele><time>2026-08-06T07:09:15Z</time></trkpt>
      <trkpt lat="41.912456" lon="12.249494"><ele>70</ele><time>2026-08-06T07:09:16Z</time></trkpt>
      <trkpt lat="41.912494" lon="12.249466"><ele>69.95</ele><time>2026-08-06T07:09:17Z</time></trkpt>
      <trkpt lat="41.912519" lon="12.249459"><ele>69.89</ele><time>2026-08-06T07:09:18Z</time></trkpt>
      <trkpt lat="41.912569" lon="12.249468"><ele>69.57</ele><time>2026-08-06T07:09:19Z</time></trkpt>
      <trkpt lat="41.912589" lon="12.24948"><ele>69.44</ele><time>2026-08-06T07:09:20Z</time></trkpt>
      <trkpt lat="41.91262" lon="12.249505"><ele>69.2</ele><time>2026-08-06T07:09:21Z</time></trkpt>
      <trkpt lat="41.912645" lon="12.24955"><ele>69</ele><time>2026-08-06T07:09:22Z</time></trkpt>
      <trkpt lat="41.912661" lon="12.249599"><ele>68.88</ele><time>2026-08-06T07:09:23Z</time></trkpt>
      <trkpt lat="41.91267" lon="12.249658"><ele>68.85</ele><time>2026-08-06T07:09:24Z</time></trkpt>
      <trkpt lat="41.912656" lon="12.249751"><ele>69.46</ele><time>2026-08-06T07:09:25Z</time></trkpt>
      <trkpt lat="41.912666" lon="12.249819"><ele>69.68</ele><time>2026-08-06T07:09:26Z</time></trkpt>
      <trkpt lat="41.912691" lon="12.24988"><ele>69.29</ele><time>2026-08-06T07:09:27Z</time></trkpt>
      <trkpt lat="41.91273" lon="12.249927"><ele>68.68</ele><time>2026-08-06T07:09:28Z</time></trkpt>
      <trkpt lat="41.912776" lon="12.249954"><ele>67.98</ele><time>2026-08-06T07:09:29Z</time></trkpt>
      <trkpt lat="41.912827" lon="12.24996"><ele>67.58</ele><time>2026-08-06T07:09:30Z</time></trkpt>
      <trkpt lat="41.912876" lon="12.249945"><ele>67.2</ele><time>2026-08-06T07:09:31Z</time></trkpt>
      <trkpt lat="41.912919" lon="12.24991"><ele>66.72</ele><time>2026-08-06T07:09:32Z</time></trkpt>
      <trkpt lat="41.912952" lon="12.249859"><ele>66.21</ele><time>2026-08-06T07:09:33Z</time></trkpt>
      <trkpt lat="41.912972" lon="12.249796"><ele>65.98</ele><time>2026-08-06T07:09:34Z</time></trkpt>
      <trkpt lat="41.912976" lon="12.249728"><ele>66.15</ele><time>2026-08-06T07:09:35Z</time></trkpt>
      <trkpt lat="41.912964" lon="12.249662"><ele>66.47</ele><time>2026-08-06T07:09:36Z</time></trkpt>
      <trkpt lat="41.912937" lon="12.249605"><ele>66.72</ele><time>2026-08-06T07:09:37Z</time></trkpt>
      <trkpt lat="41.912935" lon="12.249539"><ele>66.74</ele><time>2026-08-06T07:09:38Z</time></trkpt>
      <trkpt lat="41.912945" lon="12.249406"><ele>66.66</ele><time>2026-08-06T07:09:39Z</time></trkpt>
      <trkpt lat="41.912988" lon="12.249209"><ele>66.7</ele><time>2026-08-06T07:09:40Z</time></trkpt>
      <trkpt lat="41.913083" lon="12.248921"><ele>67.55</ele><time>2026-08-06T07:09:42Z</time></trkpt>
      <trkpt lat="41.913235" lon="12.248551"><ele>69.6</ele><time>2026-08-06T07:09:45Z</time></trkpt>
      <trkpt lat="41.913537" lon="12.247781"><ele>68.18</ele><time>2026-08-06T07:09:49Z</time></trkpt>
      <trkpt lat="41.913654" lon="12.247461"><ele>67.04</ele><time>2026-08-06T07:09:51Z</time></trkpt>
      <trkpt lat="41.913992" lon="12.246532"><ele>69.4</ele><time>2026-08-06T07:09:55Z</time></trkpt>
      <trkpt lat="41.91418" lon="12.246048"><ele>68.07</ele><time>2026-08-06T07:09:58Z</time></trkpt>
      <trkpt lat="41.914292" lon="12.245788"><ele>67.48</ele><time>2026-08-06T07:10:00Z</time></trkpt>
      <trkpt lat="41.914479" lon="12.245397"><ele>66.77</ele><time>2026-08-06T07:10:03Z</time></trkpt>
      <trkpt lat="41.914875" lon="12.244693"><ele>65.66</ele><time>2026-08-06T07:10:07Z</time></trkpt>
      <trkpt lat="41.915415" lon="12.243772"><ele>63.53</ele><time>2026-08-06T07:10:12Z</time></trkpt>
      <trkpt lat="41.915729" lon="12.243205"><ele>63.28</ele><time>2026-08-06T07:10:16Z</time></trkpt>
      <trkpt lat="41.9162" lon="12.242355"><ele>60.18</ele><time>2026-08-06T07:10:21Z</time></trkpt>
      <trkpt lat="41.916357" lon="12.242071"><ele>61.11</ele><time>2026-08-06T07:10:23Z</time></trkpt>
      <trkpt lat="41.916734" lon="12.241416"><ele>66.86</ele><time>2026-08-06T07:10:27Z</time></trkpt>
      <trkpt lat="41.916921" lon="12.241071"><ele>68.47</ele><time>2026-08-06T07:10:30Z</time></trkpt>
      <trkpt lat="41.917267" lon="12.24039"><ele>71.83</ele><time>2026-08-06T07:10:34Z</time></trkpt>
      <trkpt lat="41.917461" lon="12.239968"><ele>73.11</ele><time>2026-08-06T07:10:37Z</time></trkpt>
      <trkpt lat="41.917708" lon="12.239372"><ele>73.86</ele><time>2026-08-06T07:10:40Z</time></trkpt>
      <trkpt lat="41.918225" lon="12.238071"><ele>75.54</ele><time>2026-08-06T07:10:46Z</time></trkpt>
      <trkpt lat="41.918706" lon="12.236895"><ele>73.15</ele><time>2026-08-06T07:10:51Z</time></trkpt>
      <trkpt lat="41.91896" lon="12.236282"><ele>73.94</ele><time>2026-08-06T07:10:55Z</time></trkpt>
      <trkpt lat="41.91906" lon="12.236023"><ele>74.76</ele><time>2026-08-06T07:10:57Z</time></trkpt>
      <trkpt lat="41.919148" lon="12.235747"><ele>74.05</ele><time>2026-08-06T07:10:59Z</time></trkpt>
      <trkpt lat="41.919254" lon="12.235301"><ele>73.37</ele><time>2026-08-06T07:11:02Z</time></trkpt>
      <trkpt lat="41.919328" lon="12.234857"><ele>70.57</ele><time>2026-08-06T07:11:05Z</time></trkpt>
      <trkpt lat="41.91935" lon="12.234628"><ele>69.64</ele><time>2026-08-06T07:11:06Z</time></trkpt>
      <trkpt lat="41.919363" lon="12.234257"><ele>68.29</ele><time>2026-08-06T07:11:08Z</time></trkpt>
      <trkpt lat="41.919352" lon="12.233775"><ele>64.14</ele><time>2026-08-06T07:11:11Z</time></trkpt>
      <trkpt lat="41.919322" lon="12.233437"><ele>61.54</ele><time>2026-08-06T07:11:13Z</time></trkpt>
      <trkpt lat="41.919256" lon="12.233052"><ele>60.2</ele><time>2026-08-06T07:11:16Z</time></trkpt>
      <trkpt lat="41.919177" lon="12.23273"><ele>59.96</ele><time>2026-08-06T07:11:18Z</time></trkpt>
      <trkpt lat="41.919074" lon="12.232422"><ele>60.39</ele><time>2026-08-06T07:11:20Z</time></trkpt>
      <trkpt lat="41.918801" lon="12.231504"><ele>61</ele><time>2026-08-06T07:11:25Z</time></trkpt>
      <trkpt lat="41.918807" lon="12.23136"><ele>61.33</ele><time>2026-08-06T07:11:26Z</time></trkpt>
      <trkpt lat="41.91882" lon="12.231243"><ele>62</ele><time>2026-08-06T07:11:27Z</time></trkpt>
      <trkpt lat="41.918837" lon="12.231174"><ele>62</ele><time>2026-08-06T07:11:28Z</time></trkpt>
      <trkpt lat="41.918856" lon="12.231137"><ele>62</ele><time>2026-08-06T07:11:29Z</time></trkpt>
      <trkpt lat="41.918893" lon="12.231104"><ele>62</ele><time>2026-08-06T07:11:30Z</time></trkpt>
      <trkpt lat="41.919053" lon="12.231034"><ele>61.95</ele><time>2026-08-06T07:11:31Z</time></trkpt>
      <trkpt lat="41.919142" lon="12.231017"><ele>61.48</ele><time>2026-08-06T07:11:32Z</time></trkpt>
      <trkpt lat="41.919225" lon="12.231018"><ele>60.91</ele><time>2026-08-06T07:11:33Z</time></trkpt>
      <trkpt lat="41.919354" lon="12.231041"><ele>59.77</ele><time>2026-08-06T07:11:34Z</time></trkpt>
      <trkpt lat="41.919419" lon="12.231085"><ele>59.07</ele><time>2026-08-06T07:11:35Z</time></trkpt>
      <trkpt lat="41.919803" lon="12.231504"><ele>54.57</ele><time>2026-08-06T07:11:39Z</time></trkpt>
      <trkpt lat="41.919954" lon="12.231651"><ele>53.53</ele><time>2026-08-06T07:11:41Z</time></trkpt>
      <trkpt lat="41.920087" lon="12.231761"><ele>51.86</ele><time>2026-08-06T07:11:42Z</time></trkpt>
      <trkpt lat="41.920319" lon="12.231916"><ele>50.09</ele><time>2026-08-06T07:11:44Z</time></trkpt>
      <trkpt lat="41.920555" lon="12.232058"><ele>49.27</ele><time>2026-08-06T07:11:46Z</time></trkpt>
      <trkpt lat="41.920672" lon="12.23211"><ele>48.26</ele><time>2026-08-06T07:11:47Z</time></trkpt>
      <trkpt lat="41.92079" lon="12.232121"><ele>47.91</ele><time>2026-08-06T07:11:48Z</time></trkpt>
      <trkpt lat="41.920919" lon="12.232093"><ele>47.42</ele><time>2026-08-06T07:11:49Z</time></trkpt>
      <trkpt lat="41.921032" lon="12.232032"><ele>46.9</ele><time>2026-08-06T07:11:50Z</time></trkpt>
      <trkpt lat="41.921144" lon="12.231954"><ele>46.47</ele><time>2026-08-06T07:11:51Z</time></trkpt>
      <trkpt lat="41.921255" lon="12.231864"><ele>46.13</ele><time>2026-08-06T07:11:52Z</time></trkpt>
      <trkpt lat="41.921396" lon="12.231726"><ele>45.34</ele><time>2026-08-06T07:11:54Z</time></trkpt>
      <trkpt lat="41.921548" lon="12.231546"><ele>44.02</ele><time>2026-08-06T07:11:56Z</time></trkpt>
      <trkpt lat="41.92181" lon="12.231181"><ele>43.16</ele><time>2026-08-06T07:11:59Z</time></trkpt>
      <trkpt lat="41.921883" lon="12.231054"><ele>42.76</ele><time>2026-08-06T07:12:00Z</time></trkpt>
      <trkpt lat="41.921977" lon="12.230852"><ele>42.71</ele><time>2026-08-06T07:12:01Z</time></trkpt>
      <trkpt lat="41.922118" lon="12.230522"><ele>43.17</ele><time>2026-08-06T07:12:03Z</time></trkpt>
      <trkpt lat="41.922219" lon="12.23025"><ele>43.34</ele><time>2026-08-06T07:12:05Z</time></trkpt>
      <trkpt lat="41.922443" lon="12.229552"><ele>44.18</ele><time>2026-08-06T07:12:09Z</time></trkpt>
      <trkpt lat="41.922668" lon="12.228854"><ele>37.69</ele><time>2026-08-06T07:12:13Z</time></trkpt>
      <trkpt lat="41.922781" lon="12.228505"><ele>36.63</ele><time>2026-08-06T07:12:15Z</time></trkpt>
      <trkpt lat="41.922871" lon="12.228257"><ele>38.69</ele><time>2026-08-06T07:12:17Z</time></trkpt>
      <trkpt lat="41.922959" lon="12.228057"><ele>39.63</ele><time>2026-08-06T07:12:18Z</time></trkpt>
      <trkpt lat="41.923079" lon="12.227839"><ele>39.44</ele><time>2026-08-06T07:12:20Z</time></trkpt>
      <trkpt lat="41.92315" lon="12.227735"><ele>39.75</ele><time>2026-08-06T07:12:21Z</time></trkpt>
      <trkpt lat="41.92324" lon="12.227633"><ele>40.56</ele><time>2026-08-06T07:12:22Z</time></trkpt>
      <trkpt lat="41.923379" lon="12.227521"><ele>39.7</ele><time>2026-08-06T07:12:24Z</time></trkpt>
      <trkpt lat="41.923436" lon="12.227488"><ele>39.32</ele><time>2026-08-06T07:12:25Z</time></trkpt>
      <trkpt lat="41.923713" lon="12.227381"><ele>37.61</ele><time>2026-08-06T07:12:28Z</time></trkpt>
      <trkpt lat="41.924409" lon="12.227234"><ele>32.77</ele><time>2026-08-06T07:12:33Z</time></trkpt>
      <trkpt lat="41.925131" lon="12.227088"><ele>37.3</ele><time>2026-08-06T07:12:38Z</time></trkpt>
      <trkpt lat="41.925358" lon="12.227059"><ele>39.33</ele><time>2026-08-06T07:12:40Z</time></trkpt>
      <trkpt lat="41.925518" lon="12.227071"><ele>40.8</ele><time>2026-08-06T07:12:42Z</time></trkpt>
      <trkpt lat="41.925922" lon="12.227185"><ele>43.3</ele><time>2026-08-06T07:12:45Z</time></trkpt>
      <trkpt lat="41.926512" lon="12.227416"><ele>44.27</ele><time>2026-08-06T07:12:49Z</time></trkpt>
      <trkpt lat="41.926857" lon="12.22759"><ele>46.56</ele><time>2026-08-06T07:12:52Z</time></trkpt>
      <trkpt lat="41.926987" lon="12.22767"><ele>46.89</ele><time>2026-08-06T07:12:53Z</time></trkpt>
      <trkpt lat="41.927224" lon="12.227865"><ele>47.57</ele><time>2026-08-06T07:12:55Z</time></trkpt>
      <trkpt lat="41.92787" lon="12.228495"><ele>49.01</ele><time>2026-08-06T07:13:00Z</time></trkpt>
      <trkpt lat="41.928059" lon="12.228674"><ele>50.49</ele><time>2026-08-06T07:13:02Z</time></trkpt>
      <trkpt lat="41.928249" lon="12.228853"><ele>56.71</ele><time>2026-08-06T07:13:04Z</time></trkpt>
      <trkpt lat="41.928374" lon="12.228943"><ele>63.59</ele><time>2026-08-06T07:13:05Z</time></trkpt>
      <trkpt lat="41.928438" lon="12.228974"><ele>66.66</ele><time>2026-08-06T07:13:06Z</time></trkpt>
      <trkpt lat="41.92855" lon="12.229007"><ele>70.54</ele><time>2026-08-06T07:13:07Z</time></trkpt>
      <trkpt lat="41.928632" lon="12.229012"><ele>71.85</ele><time>2026-08-06T07:13:08Z</time></trkpt>
      <trkpt lat="41.92869" lon="12.228997"><ele>71.14</ele><time>2026-08-06T07:13:09Z</time></trkpt>
      <trkpt lat="41.928774" lon="12.228946"><ele>68.8</ele><time>2026-08-06T07:13:10Z</time></trkpt>
      <trkpt lat="41.928862" lon="12.228865"><ele>64.03</ele><time>2026-08-06T07:13:11Z</time></trkpt>
      <trkpt lat="41.92903" lon="12.228642"><ele>52.75</ele><time>2026-08-06T07:13:13Z</time></trkpt>
      <trkpt lat="41.929124" lon="12.228428"><ele>48.67</ele><time>2026-08-06T07:13:15Z</time></trkpt>
      <trkpt lat="41.929187" lon="12.228238"><ele>46.62</ele><time>2026-08-06T07:13:16Z</time></trkpt>
      <trkpt lat="41.929354" lon="12.227655"><ele>46</ele><time>2026-08-06T07:13:19Z</time></trkpt>
      <trkpt lat="41.929437" lon="12.227334"><ele>46</ele><time>2026-08-06T07:13:21Z</time></trkpt>
      <trkpt lat="41.929668" lon="12.226692"><ele>43</ele><time>2026-08-06T07:13:25Z</time></trkpt>
      <trkpt lat="41.929713" lon="12.226637"><ele>42.79</ele><time>2026-08-06T07:13:26Z</time></trkpt>
      <trkpt lat="41.929715" lon="12.22648"><ele>43.05</ele><time>2026-08-06T07:13:27Z</time></trkpt>
      <trkpt lat="41.929745" lon="12.226326"><ele>42.18</ele><time>2026-08-06T07:13:28Z</time></trkpt>
      <trkpt lat="41.9298" lon="12.22617"><ele>40.41</ele><time>2026-08-06T07:13:29Z</time></trkpt>
      <trkpt lat="41.929895" lon="12.225988"><ele>37.75</ele><time>2026-08-06T07:13:30Z</time></trkpt>
      <trkpt lat="41.929976" lon="12.225867"><ele>36.31</ele><time>2026-08-06T07:13:31Z</time></trkpt>
      <trkpt lat="41.930034" lon="12.2258"><ele>35.48</ele><time>2026-08-06T07:13:32Z</time></trkpt>
      <trkpt lat="41.930111" lon="12.225725"><ele>34.38</ele><time>2026-08-06T07:13:33Z</time></trkpt>
      <trkpt lat="41.930456" lon="12.225429"><ele>33.54</ele><time>2026-08-06T07:13:36Z</time></trkpt>
      <trkpt lat="41.930498" lon="12.225374"><ele>33.37</ele><time>2026-08-06T07:13:37Z</time></trkpt>
      <trkpt lat="41.930517" lon="12.225299"><ele>32.91</ele><time>2026-08-06T07:13:38Z</time></trkpt>
      <trkpt lat="41.93052" lon="12.225066"><ele>33.25</ele><time>2026-08-06T07:13:40Z</time></trkpt>
      <trkpt lat="41.930512" lon="12.225012"><ele>34.11</ele><time>2026-08-06T07:13:41Z</time></trkpt>
      <trkpt lat="41.930485" lon="12.224944"><ele>35.49</ele><time>2026-08-06T07:13:42Z</time></trkpt>
      <trkpt lat="41.930431" lon="12.224875"><ele>37.07</ele><time>2026-08-06T07:13:43Z</time></trkpt>
      <trkpt lat="41.930353" lon="12.224792"><ele>38.03</ele><time>2026-08-06T07:13:44Z</time></trkpt>
      <trkpt lat="41.930298" lon="12.224755"><ele>38.52</ele><time>2026-08-06T07:13:45Z</time></trkpt>
      <trkpt lat="41.930165" lon="12.224708"><ele>39.91</ele><time>2026-08-06T07:13:46Z</time></trkpt>
      <trkpt lat="41.930075" lon="12.224695"><ele>39.48</ele><time>2026-08-06T07:13:47Z</time></trkpt>
      <trkpt lat="41.929975" lon="12.224609"><ele>41.33</ele><time>2026-08-06T07:13:48Z</time></trkpt>
      <trkpt lat="41.929912" lon="12.224591"><ele>41.68</ele><time>2026-08-06T07:13:49Z</time></trkpt>
      <trkpt lat="41.929521" lon="12.224642"><ele>38.64</ele><time>2026-08-06T07:13:52Z</time></trkpt>
      <trkpt lat="41.929411" lon="12.224632"><ele>37.91</ele><time>2026-08-06T07:13:53Z</time></trkpt>
      <trkpt lat="41.929326" lon="12.224597"><ele>37.21</ele><time>2026-08-06T07:13:54Z</time></trkpt>
      <trkpt lat="41.928797" lon="12.224184"><ele>33.41</ele><time>2026-08-06T07:13:58Z</time></trkpt>
      <trkpt lat="41.928741" lon="12.224079"><ele>32.77</ele><time>2026-08-06T07:13:59Z</time></trkpt>
      <trkpt lat="41.928724" lon="12.22403"><ele>32.64</ele><time>2026-08-06T07:14:00Z</time></trkpt>
      <trkpt lat="41.928732" lon="12.223937"><ele>32.7</ele><time>2026-08-06T07:14:01Z</time></trkpt>
    </trkseg>
  </trk>
</gpx>
