<?xml version="1.0" encoding="UTF-8"?>
<gpx version="1.1" creator="HoldMyTrack" xmlns="http://www.topografix.com/GPX/1/1" xmlns:gpxtpx="http://www.garmin.com/xmlschemas/TrackPointExtension/v1">
  <trk>
    <type>walking</type>
    <trkseg>
      <trkpt lat="43.083932" lon="-79.059679"><ele>176</ele><time>2026-07-16T14:06:00Z</time></trkpt>
      <trkpt lat="43.083897" lon="-79.059588"><ele>176.04</ele><time>2026-07-16T14:06:07Z</time></trkpt>
      <trkpt lat="43.083673" lon="-79.059769"><ele>177</ele><time>2026-07-16T14:06:30Z</time></trkpt>
      <trkpt lat="43.084007" lon="-79.060642"><ele>176.69</ele><time>2026-07-16T14:07:32Z</time></trkpt>
      <trkpt lat="43.083275" lon="-79.061176"><ele>178</ele><time>2026-07-16T14:08:41Z</time></trkpt>
      <trkpt lat="43.083726" lon="-79.062344"><ele>173.02</ele><time>2026-07-16T14:10:05Z</time></trkpt>
      <trkpt lat="43.083607" lon="-79.062394"><ele>173</ele><time>2026-07-16T14:10:15Z</time></trkpt>
      <trkpt lat="43.083363" lon="-79.062605"><ele>173.13</ele><time>2026-07-16T14:10:44Z</time></trkpt>
      <trkpt lat="43.081674" lon="-79.064212"><ele>170.79</ele><time>2026-07-16T14:13:52Z</time></trkpt>
      <trkpt lat="43.081616" lon="-79.064267"><ele>170.79</ele><time>2026-07-16T14:13:58Z</time></trkpt>
      <trkpt lat="43.081575" lon="-79.064339"><ele>170.78</ele><time>2026-07-16T14:14:04Z</time></trkpt>
      <trkpt lat="43.081546" lon="-79.064412"><ele>170.78</ele><time>2026-07-16T14:14:09Z</time></trkpt>
      <trkpt lat="43.081525" lon="-79.06455"><ele>170.77</ele><time>2026-07-16T14:14:19Z</time></trkpt>
      <trkpt lat="43.081548" lon="-79.064979"><ele>170.46</ele><time>2026-07-16T14:14:48Z</time></trkpt>
      <trkpt lat="43.081566" lon="-79.065513"><ele>171.09</ele><time>2026-07-16T14:15:25Z</time></trkpt>
      <trkpt lat="43.081576" lon="-79.065856"><ele>169.61</ele><time>2026-07-16T14:15:48Z</time></trkpt>
      <trkpt lat="43.081556" lon="-79.066069"><ele>169.93</ele><time>2026-07-16T14:16:02Z</time></trkpt>
      <trkpt lat="43.081523" lon="-79.066211"><ele>170.69</ele><time>2026-07-16T14:16:13Z</time></trkpt>
      <trkpt lat="43.081515" lon="-79.06628"><ele>170.93</ele><time>2026-07-16T14:16:18Z</time></trkpt>
      <trkpt lat="43.081516" lon="-79.06635"><ele>171</ele><time>2026-07-16T14:16:23Z</time></trkpt>
      <trkpt lat="43.081578" lon="-79.066629"><ele>170.09</ele><time>2026-07-16T14:16:41Z</time></trkpt>
      <trkpt lat="43.081657" lon="-79.06675"><ele>168.77</ele><time>2026-07-16T14:16:51Z</time></trkpt>
      <trkpt lat="43.081692" lon="-79.066782"><ele>168.31</ele><time>2026-07-16T14:16:55Z</time></trkpt>
      <trkpt lat="43.081685" lon="-79.066826"><ele>168.15</ele><time>2026-07-16T14:16:58Z</time></trkpt>
      <trkpt lat="43.081754" lon="-79.067051"><ele>168.35</ele><time>2026-07-16T14:17:15Z</time></trkpt>
      <trkpt lat="43.081771" lon="-79.067077"><ele>168.5</ele><time>2026-07-16T14:17:17Z</time></trkpt>
      <trkpt lat="43.081739" lon="-79.067151"><ele>168.93</ele><time>2026-07-16T14:17:23Z</time></trkpt>
      <trkpt lat="43.081747" lon="-79.067232"><ele>169.14</ele><time>2026-07-16T14:17:29Z</time></trkpt>
      <trkpt lat="43.081778" lon="-79.067361"><ele>169.66</ele><time>2026-07-16T14:17:37Z</time></trkpt>
      <trkpt lat="43.081915" lon="-79.067666"><ele>170</ele><time>2026-07-16T14:18:02Z</time></trkpt>
      <trkpt lat="43.081956" lon="-79.067814"><ele>169.99</ele><time>2026-07-16T14:18:13Z</time></trkpt>
      <trkpt lat="43.081994" lon="-79.068064"><ele>169.29</ele><time>2026-07-16T14:18:28Z</time></trkpt>
      <trkpt lat="43.081963" lon="-79.068099"><ele>169.83</ele><time>2026-07-16T14:18:31Z</time></trkpt>
      <trkpt lat="43.081932" lon="-79.068198"><ele>169.98</ele><time>2026-07-16T14:18:38Z</time></trkpt>
      <trkpt lat="43.081916" lon="-79.068378"><ele>169.3</ele><time>2026-07-16T14:18:49Z</time></trkpt>
      <trkpt lat="43.081922" lon="-79.068583"><ele>169.26</ele><time>2026-07-16T14:19:03Z</time></trkpt>
      <trkpt lat="43.081938" lon="-79.068733"><ele>169.02</ele><time>2026-07-16T14:19:13Z</time></trkpt>
      <trkpt lat="43.081911" lon="-79.069126"><ele>167.62</ele><time>2026-07-16T14:19:41Z</time></trkpt>
      <trkpt lat="43.081937" lon="-79.069648"><ele>167.66</ele><time>2026-07-16T14:20:13Z</time></trkpt>
      <trkpt lat="43.081987" lon="-79.069864"><ele>167.57</ele><time>2026-07-16T14:20:28Z</time></trkpt>
      <trkpt lat="43.082037" lon="-79.069986"><ele>167.18</ele><time>2026-07-16T14:20:37Z</time></trkpt>
      <trkpt lat="43.082074" lon="-79.070047"><ele>167.38</ele><time>2026-07-16T14:20:42Z</time></trkpt>
      <trkpt lat="43.082131" lon="-79.070113"><ele>166.69</ele><time>2026-07-16T14:20:49Z</time></trkpt>
      <trkpt lat="43.082245" lon="-79.07022"><ele>166.06</ele><time>2026-07-16T14:21:02Z</time></trkpt>
      <trkpt lat="43.082524" lon="-79.070462"><ele>166.73</ele><time>2026-07-16T14:21:34Z</time></trkpt>
      <trkpt lat="43.082721" lon="-79.070655"><ele>166.28</ele><time>2026-07-16T14:21:58Z</time></trkpt>
      <trkpt lat="43.082812" lon="-79.070766"><ele>166.93</ele><time>2026-07-16T14:22:10Z</time></trkpt>
      <trkpt lat="43.083027" lon="-79.070944"><ele>166.85</ele><time>2026-07-16T14:22:34Z</time></trkpt>
      <trkpt lat="43.083049" lon="-79.071"><ele>165.03</ele><time>2026-07-16T14:22:38Z</time></trkpt>
      <trkpt lat="43.083023" lon="-79.071104"><ele>163.75</ele><time>2026-07-16T14:22:46Z</time></trkpt>
      <trkpt lat="43.082984" lon="-79.071169"><ele>161.67</ele><time>2026-07-16T14:22:51Z</time></trkpt>
      <trkpt lat="43.082962" lon="-79.071191"><ele>161.9</ele><time>2026-07-16T14:22:54Z</time></trkpt>
      <trkpt lat="43.082843" lon="-79.071312"><ele>163.15</ele><time>2026-07-16T14:23:08Z</time></trkpt>
      <trkpt lat="43.082763" lon="-79.071351"><ele>161.73</ele><time>2026-07-16T14:23:15Z</time></trkpt>
      <trkpt lat="43.082688" lon="-79.071358"><ele>164</ele><time>2026-07-16T14:23:22Z</time></trkpt>
      <trkpt lat="43.082581" lon="-79.07134"><ele>167.3</ele><time>2026-07-16T14:23:32Z</time></trkpt>
      <trkpt lat="43.082321" lon="-79.07158"><ele>163.88</ele><time>2026-07-16T14:24:01Z</time></trkpt>
      <trkpt lat="43.082242" lon="-79.071623"><ele>165.53</ele><time>2026-07-16T14:24:08Z</time></trkpt>
      <trkpt lat="43.082116" lon="-79.071677"><ele>165.72</ele><time>2026-07-16T14:24:21Z</time></trkpt>
      <trkpt lat="43.082056" lon="-79.07176"><ele>165.48</ele><time>2026-07-16T14:24:28Z</time></trkpt>
      <trkpt lat="43.082006" lon="-79.071875"><ele>160.42</ele><time>2026-07-16T14:24:38Z</time></trkpt>
      <trkpt lat="43.081966" lon="-79.071815"><ele>167.86</ele><time>2026-07-16T14:24:43Z</time></trkpt>
      <trkpt lat="43.081891" lon="-79.071851"><ele>167.62</ele><time>2026-07-16T14:24:50Z</time></trkpt>
      <trkpt lat="43.081885" lon="-79.0719"><ele>166.25</ele><time>2026-07-16T14:24:54Z</time></trkpt>
      <trkpt lat="43.081851" lon="-79.071945"><ele>166.9</ele><time>2026-07-16T14:24:58Z</time></trkpt>
      <trkpt lat="43.081863" lon="-79.071995"><ele>163.98</ele><time>2026-07-16T14:25:02Z</time></trkpt>
      <trkpt lat="43.081747" lon="-79.072083"><ele>165.3</ele><time>2026-07-16T14:25:14Z</time></trkpt>
      <trkpt lat="43.081727" lon="-79.072098"><ele>166.4</ele><time>2026-07-16T14:25:16Z</time></trkpt>
      <trkpt lat="43.081617" lon="-79.072197"><ele>165.88</ele><time>2026-07-16T14:25:29Z</time></trkpt>
      <trkpt lat="43.081551" lon="-79.072276"><ele>165.34</ele><time>2026-07-16T14:25:38Z</time></trkpt>
      <trkpt lat="43.081468" lon="-79.072343"><ele>165.89</ele><time>2026-07-16T14:25:46Z</time></trkpt>
      <trkpt lat="43.081347" lon="-79.072468"><ele>166.56</ele><time>2026-07-16T14:26:01Z</time></trkpt>
      <trkpt lat="43.08118" lon="-79.072723"><ele>159.6</ele><time>2026-07-16T14:26:23Z</time></trkpt>
      <trkpt lat="43.081101" lon="-79.072827"><ele>157.95</ele><time>2026-07-16T14:26:32Z</time></trkpt>
      <trkpt lat="43.080859" lon="-79.073048"><ele>160.37</ele><time>2026-07-16T14:26:56Z</time></trkpt>
      <trkpt lat="43.080772" lon="-79.073123"><ele>160.84</ele><time>2026-07-16T14:27:06Z</time></trkpt>
      <trkpt lat="43.080688" lon="-79.073195"><ele>163.75</ele><time>2026-07-16T14:27:15Z</time></trkpt>
      <trkpt lat="43.080638" lon="-79.073229"><ele>162.4</ele><time>2026-07-16T14:27:20Z</time></trkpt>
      <trkpt lat="43.080501" lon="-79.073253"><ele>165.9</ele><time>2026-07-16T14:27:32Z</time></trkpt>
      <trkpt lat="43.08044" lon="-79.073287"><ele>165.77</ele><time>2026-07-16T14:27:39Z</time></trkpt>
      <trkpt lat="43.08039" lon="-79.073332"><ele>165.2</ele><time>2026-07-16T14:27:44Z</time></trkpt>
      <trkpt lat="43.080369" lon="-79.073362"><ele>164.82</ele><time>2026-07-16T14:27:47Z</time></trkpt>
      <trkpt lat="43.080354" lon="-79.073385"><ele>164.28</ele><time>2026-07-16T14:27:49Z</time></trkpt>
      <trkpt lat="43.080334" lon="-79.073425"><ele>163.61</ele><time>2026-07-16T14:27:53Z</time></trkpt>
      <trkpt lat="43.080321" lon="-79.07345"><ele>163.33</ele><time>2026-07-16T14:27:55Z</time></trkpt>
      <trkpt lat="43.0803" lon="-79.073492"><ele>162.57</ele><time>2026-07-16T14:27:59Z</time></trkpt>
      <trkpt lat="43.080271" lon="-79.073541"><ele>161.78</ele><time>2026-07-16T14:28:03Z</time></trkpt>
      <trkpt lat="43.080202" lon="-79.073698"><ele>160.85</ele><time>2026-07-16T14:28:15Z</time></trkpt>
      <trkpt lat="43.080186" lon="-79.073748"><ele>160.11</ele><time>2026-07-16T14:28:18Z</time></trkpt>
      <trkpt lat="43.080178" lon="-79.073809"><ele>159.12</ele><time>2026-07-16T14:28:22Z</time></trkpt>
      <trkpt lat="43.080186" lon="-79.073748"><ele>160.11</ele><time>2026-07-16T14:28:26Z</time></trkpt>
      <trkpt lat="43.080202" lon="-79.073698"><ele>160.85</ele><time>2026-07-16T14:28:30Z</time></trkpt>
      <trkpt lat="43.080271" lon="-79.073541"><ele>161.78</ele><time>2026-07-16T14:28:43Z</time></trkpt>
      <trkpt lat="43.080259" lon="-79.073473"><ele>162.78</ele><time>2026-07-16T14:28:48Z</time></trkpt>
      <trkpt lat="43.080248" lon="-79.07342"><ele>163.5</ele><time>2026-07-16T14:28:52Z</time></trkpt>
      <trkpt lat="43.080237" lon="-79.073387"><ele>163.9</ele><time>2026-07-16T14:28:55Z</time></trkpt>
      <trkpt lat="43.080224" lon="-79.073347"><ele>164.27</ele><time>2026-07-16T14:28:58Z</time></trkpt>
      <trkpt lat="43.0802" lon="-79.073287"><ele>164.43</ele><time>2026-07-16T14:29:02Z</time></trkpt>
      <trkpt lat="43.080125" lon="-79.073298"><ele>164.33</ele><time>2026-07-16T14:29:08Z</time></trkpt>
      <trkpt lat="43.080013" lon="-79.073256"><ele>164.12</ele><time>2026-07-16T14:29:19Z</time></trkpt>
      <trkpt lat="43.079863" lon="-79.073145"><ele>163.65</ele><time>2026-07-16T14:29:36Z</time></trkpt>
      <trkpt lat="43.079773" lon="-79.072999"><ele>164.18</ele><time>2026-07-16T14:29:48Z</time></trkpt>
      <trkpt lat="43.079664" lon="-79.072794"><ele>166.09</ele><time>2026-07-16T14:30:05Z</time></trkpt>
      <trkpt lat="43.07964" lon="-79.072736"><ele>166.43</ele><time>2026-07-16T14:30:10Z</time></trkpt>
      <trkpt lat="43.079577" lon="-79.072629"><ele>167.22</ele><time>2026-07-16T14:30:20Z</time></trkpt>
      <trkpt lat="43.079595" lon="-79.072437"><ele>167.93</ele><time>2026-07-16T14:30:33Z</time></trkpt>
      <trkpt lat="43.079528" lon="-79.072317"><ele>167.98</ele><time>2026-07-16T14:30:42Z</time></trkpt>
      <trkpt lat="43.079453" lon="-79.072157"><ele>167.91</ele><time>2026-07-16T14:30:55Z</time></trkpt>
      <trkpt lat="43.079359" lon="-79.071963"><ele>167.66</ele><time>2026-07-16T14:31:11Z</time></trkpt>
      <trkpt lat="43.079253" lon="-79.071668"><ele>167.59</ele><time>2026-07-16T14:31:35Z</time></trkpt>
      <trkpt lat="43.079171" lon="-79.071373"><ele>168</ele><time>2026-07-16T14:31:54Z</time></trkpt>
      <trkpt lat="43.079116" lon="-79.071094"><ele>168.14</ele><time>2026-07-16T14:32:15Z</time></trkpt>
      <trkpt lat="43.079085" lon="-79.070735"><ele>169</ele><time>2026-07-16T14:32:39Z</time></trkpt>
      <trkpt lat="43.079093" lon="-79.070349"><ele>169</ele><time>2026-07-16T14:33:03Z</time></trkpt>
      <trkpt lat="43.079199" lon="-79.069769"><ele>169</ele><time>2026-07-16T14:33:46Z</time></trkpt>
      <trkpt lat="43.079257" lon="-79.069319"><ele>169.53</ele><time>2026-07-16T14:34:15Z</time></trkpt>
      <trkpt lat="43.079335" lon="-79.068876"><ele>169.85</ele><time>2026-07-16T14:34:43Z</time></trkpt>
      <trkpt lat="43.079371" lon="-79.068675"><ele>170</ele><time>2026-07-16T14:34:56Z</time></trkpt>
      <trkpt lat="43.079388" lon="-79.068433"><ele>170</ele><time>2026-07-16T14:35:11Z</time></trkpt>
      <trkpt lat="43.079405" lon="-79.068021"><ele>170</ele><time>2026-07-16T14:35:41Z</time></trkpt>
      <trkpt lat="43.079397" lon="-79.067734"><ele>170</ele><time>2026-07-16T14:36:00Z</time></trkpt>
      <trkpt lat="43.07944" lon="-79.067227"><ele>170</ele><time>2026-07-16T14:36:36Z</time></trkpt>
      <trkpt lat="43.079454" lon="-79.066972"><ele>170</ele><time>2026-07-16T14:36:52Z</time></trkpt>
      <trkpt lat="43.079436" lon="-79.066709"><ele>170</ele><time>2026-07-16T14:37:10Z</time></trkpt>
      <trkpt lat="43.079381" lon="-79.06647"><ele>169.54</ele><time>2026-07-16T14:37:27Z</time></trkpt>
      <trkpt lat="43.079252" lon="-79.065999"><ele>169.38</ele><time>2026-07-16T14:37:57Z</time></trkpt>
      <trkpt lat="43.079113" lon="-79.065443"><ele>169.77</ele><time>2026-07-16T14:38:33Z</time></trkpt>
      <trkpt lat="43.078875" lon="-79.064717"><ele>171</ele><time>2026-07-16T14:39:21Z</time></trkpt>
      <trkpt lat="43.078804" lon="-79.064348"><ele>171</ele><time>2026-07-16T14:39:47Z</time></trkpt>
      <trkpt lat="43.078743" lon="-79.063811"><ele>171</ele><time>2026-07-16T14:40:23Z</time></trkpt>
      <trkpt lat="43.078705" lon="-79.0636"><ele>171</ele><time>2026-07-16T14:40:37Z</time></trkpt>
      <trkpt lat="43.078688" lon="-79.06333"><ele>171</ele><time>2026-07-16T14:40:55Z</time></trkpt>
      <trkpt lat="43.078692" lon="-79.063158"><ele>171</ele><time>2026-07-16T14:41:07Z</time></trkpt>
      <trkpt lat="43.078721" lon="-79.061634"><ele>172</ele><time>2026-07-16T14:42:50Z</time></trkpt>
      <trkpt lat="43.078737" lon="-79.061304"><ele>172</ele><time>2026-07-16T14:43:14Z</time></trkpt>
      <trkpt lat="43.078776" lon="-79.061133"><ele>172.04</ele><time>2026-07-16T14:43:26Z</time></trkpt>
      <trkpt lat="43.07886" lon="-79.060948"><ele>172.68</ele><time>2026-07-16T14:43:39Z</time></trkpt>
      <trkpt lat="43.078892" lon="-79.060905"><ele>172.76</ele><time>2026-07-16T14:43:43Z</time></trkpt>
      <trkpt lat="43.078966" lon="-79.060806"><ele>172.96</ele><time>2026-07-16T14:43:52Z</time></trkpt>
      <trkpt lat="43.079064" lon="-79.060714"><ele>173</ele><time>2026-07-16T14:44:03Z</time></trkpt>
      <trkpt lat="43.079183" lon="-79.060647"><ele>173</ele><time>2026-07-16T14:44:15Z</time></trkpt>
      <trkpt lat="43.079303" lon="-79.060618"><ele>172.95</ele><time>2026-07-16T14:44:27Z</time></trkpt>
      <trkpt lat="43.079452" lon="-79.060621"><ele>172.92</ele><time>2026-07-16T14:44:41Z</time></trkpt>
      <trkpt lat="43.079581" lon="-79.060663"><ele>172.91</ele><time>2026-07-16T14:44:52Z</time></trkpt>
      <trkpt lat="43.079716" lon="-79.060755"><ele>172.6</ele><time>2026-07-16T14:45:05Z</time></trkpt>
      <trkpt lat="43.079828" lon="-79.060865"><ele>172.73</ele><time>2026-07-16T14:45:18Z</time></trkpt>
      <trkpt lat="43.079934" lon="-79.061063"><ele>172.53</ele><time>2026-07-16T14:45:33Z</time></trkpt>
      <trkpt lat="43.080028" lon="-79.061417"><ele>172.53</ele><time>2026-07-16T14:45:57Z</time></trkpt>
      <trkpt lat="43.080192" lon="-79.061948"><ele>172.67</ele><time>2026-07-16T14:46:34Z</time></trkpt>
      <trkpt lat="43.080236" lon="-79.061926"><ele>170.85</ele><time>2026-07-16T14:46:38Z</time></trkpt>
      <trkpt lat="43.080455" lon="-79.062531"><ele>171.6</ele><time>2026-07-16T14:47:21Z</time></trkpt>
      <trkpt lat="43.08077" lon="-79.063191"><ele>170.48</ele><time>2026-07-16T14:48:15Z</time></trkpt>
      <trkpt lat="43.08087" lon="-79.063356"><ele>169.35</ele><time>2026-07-16T14:48:29Z</time></trkpt>
      <trkpt lat="43.081105" lon="-79.063614"><ele>168.92</ele><time>2026-07-16T14:48:58Z</time></trkpt>
      <trkpt lat="43.081124" lon="-79.063649"><ele>169.3</ele><time>2026-07-16T14:49:01Z</time></trkpt>
      <trkpt lat="43.08115" lon="-79.06365"><ele>168.62</ele><time>2026-07-16T14:49:03Z</time></trkpt>
      <trkpt lat="43.081192" lon="-79.063687"><ele>169.28</ele><time>2026-07-16T14:49:07Z</time></trkpt>
      <trkpt lat="43.081256" lon="-79.063791"><ele>169.61</ele><time>2026-07-16T14:49:16Z</time></trkpt>
      <trkpt lat="43.081344" lon="-79.064033"><ele>172.46</ele><time>2026-07-16T14:49:32Z</time></trkpt>
      <trkpt lat="43.081405" lon="-79.064126"><ele>172.38</ele><time>2026-07-16T14:49:40Z</time></trkpt>
      <trkpt lat="43.081536" lon="-79.064167"><ele>172.3</ele><time>2026-07-16T14:49:52Z</time></trkpt>
      <trkpt lat="43.081628" lon="-79.064108"><ele>172.22</ele><time>2026-07-16T14:50:02Z</time></trkpt>
      <trkpt lat="43.081974" lon="-79.063762"><ele>172.54</ele><time>2026-07-16T14:50:41Z</time></trkpt>
      <trkpt lat="43.083603" lon="-79.062249"><ele>173.57</ele><time>2026-07-16T14:53:49Z</time></trkpt>
      <trkpt lat="43.083609" lon="-79.062214"><ele>173.77</ele><time>2026-07-16T14:53:51Z</time></trkpt>
      <trkpt lat="43.083666" lon="-79.062191"><ele>173.91</ele><time>2026-07-16T14:53:56Z</time></trkpt>
      <trkpt lat="43.083736" lon="-79.06214"><ele>174.2</ele><time>2026-07-16T14:54:03Z</time></trkpt>
      <trkpt lat="43.084327" lon="-79.061707"><ele>175.08</ele><time>2026-07-16T14:55:02Z</time></trkpt>
      <trkpt lat="43.084358" lon="-79.061661"><ele>175</ele><time>2026-07-16T14:55:06Z</time></trkpt>
      <trkpt lat="43.084431" lon="-79.061605"><ele>175.09</ele><time>2026-07-16T14:55:14Z</time></trkpt>
      <trkpt lat="43.084463" lon="-79.061525"><ele>175.02</ele><time>2026-07-16T14:55:20Z</time></trkpt>
      <trkpt lat="43.084468" lon="-79.061477"><ele>175.01</ele><time>2026-07-16T14:55:23Z</time></trkpt>
      <trkpt lat="43.0843" lon="-79.061041"><ele>176</ele><time>2026-07-16T14:55:54Z</time></trkpt>
      <trkpt lat="43.084281" lon="-79.061016"><ele>176</ele><time>2026-07-16T14:55:56Z</time></trkpt>
      <trkpt lat="43.08358" lon="-79.059214"><ele>177.05</ele><time>2026-07-16T14:58:03Z</time></trkpt>
      <trkpt lat="43.083553" lon="-79.059165"><ele>177.14</ele><time>2026-07-16T14:58:07Z</time></trkpt>
      <trkpt lat="43.083594" lon="-79.059158"><ele>177</ele><time>2026-07-16T14:58:11Z</time></trkpt>
      <trkpt lat="43.083632" lon="-79.059164"><ele>177</ele><time>2026-07-16T14:58:14Z</time></trkpt>
      <trkpt lat="43.083678" lon="-79.059202"><ele>177</ele><time>2026-07-16T14:58:18Z</time></trkpt>
    </trkseg>
  </trk>
</gpx>
