<?xml version="1.0" encoding="UTF-8"?>
<gpx version="1.1" creator="HoldMyTrack" xmlns="http://www.topografix.com/GPX/1/1" xmlns:gpxtpx="http://www.garmin.com/xmlschemas/TrackPointExtension/v1">
  <trk>
    <type>walking</type>
    <trkseg>
      <trkpt lat="41.902346" lon="12.458512"><ele>30.83</ele><time>2026-08-03T11:10:34Z</time></trkpt>
      <trkpt lat="41.902391" lon="12.458461"><ele>30.96</ele><time>2026-08-03T11:10:40Z</time></trkpt>
      <trkpt lat="41.90265" lon="12.458359"><ele>30</ele><time>2026-08-03T11:11:04Z</time></trkpt>
      <trkpt lat="41.902645" lon="12.458278"><ele>30</ele><time>2026-08-03T11:11:09Z</time></trkpt>
      <trkpt lat="41.902629" lon="12.45818"><ele>30.15</ele><time>2026-08-03T11:11:15Z</time></trkpt>
      <trkpt lat="41.902786" lon="12.458094"><ele>30</ele><time>2026-08-03T11:11:31Z</time></trkpt>
      <trkpt lat="41.902934" lon="12.457985"><ele>30</ele><time>2026-08-03T11:11:47Z</time></trkpt>
      <trkpt lat="41.903028" lon="12.457859"><ele>30</ele><time>2026-08-03T11:11:59Z</time></trkpt>
      <trkpt lat="41.903109" lon="12.457714"><ele>30</ele><time>2026-08-03T11:12:11Z</time></trkpt>
      <trkpt lat="41.903157" lon="12.457577"><ele>30</ele><time>2026-08-03T11:12:22Z</time></trkpt>
      <trkpt lat="41.903236" lon="12.457616"><ele>29.94</ele><time>2026-08-03T11:12:29Z</time></trkpt>
      <trkpt lat="41.90331" lon="12.457625"><ele>29.76</ele><time>2026-08-03T11:12:36Z</time></trkpt>
      <trkpt lat="41.903903" lon="12.457646"><ele>28.2</ele><time>2026-08-03T11:13:27Z</time></trkpt>
      <trkpt lat="41.903938" lon="12.457617"><ele>28.02</ele><time>2026-08-03T11:13:31Z</time></trkpt>
      <trkpt lat="41.903967" lon="12.457618"><ele>28</ele><time>2026-08-03T11:13:34Z</time></trkpt>
      <trkpt lat="41.904009" lon="12.457622"><ele>28</ele><time>2026-08-03T11:13:38Z</time></trkpt>
      <trkpt lat="41.904038" lon="12.457645"><ele>28</ele><time>2026-08-03T11:13:41Z</time></trkpt>
      <trkpt lat="41.904135" lon="12.457662"><ele>28</ele><time>2026-08-03T11:13:50Z</time></trkpt>
      <trkpt lat="41.905526" lon="12.457723"><ele>25.15</ele><time>2026-08-03T11:15:49Z</time></trkpt>
      <trkpt lat="41.905526" lon="12.457806"><ele>25</ele><time>2026-08-03T11:15:54Z</time></trkpt>
      <trkpt lat="41.905794" lon="12.457808"><ele>25</ele><time>2026-08-03T11:16:20Z</time></trkpt>
      <trkpt lat="41.90576" lon="12.457992"><ele>25</ele><time>2026-08-03T11:16:33Z</time></trkpt>
      <trkpt lat="41.905733" lon="12.458204"><ele>25</ele><time>2026-08-03T11:16:47Z</time></trkpt>
      <trkpt lat="41.905695" lon="12.458742"><ele>24.3</ele><time>2026-08-03T11:17:26Z</time></trkpt>
      <trkpt lat="41.905681" lon="12.458777"><ele>24.41</ele><time>2026-08-03T11:17:29Z</time></trkpt>
      <trkpt lat="41.905642" lon="12.458797"><ele>24.71</ele><time>2026-08-03T11:17:33Z</time></trkpt>
      <trkpt lat="41.905631" lon="12.458956"><ele>24.06</ele><time>2026-08-03T11:17:44Z</time></trkpt>
      <trkpt lat="41.905614" lon="12.459016"><ele>24</ele><time>2026-08-03T11:17:49Z</time></trkpt>
      <trkpt lat="41.90575" lon="12.459106"><ele>24</ele><time>2026-08-03T11:18:04Z</time></trkpt>
      <trkpt lat="41.905802" lon="12.45897"><ele>24</ele><time>2026-08-03T11:18:13Z</time></trkpt>
      <trkpt lat="41.905869" lon="12.458975"><ele>24</ele><time>2026-08-03T11:18:19Z</time></trkpt>
      <trkpt lat="41.905954" lon="12.458982"><ele>24</ele><time>2026-08-03T11:18:26Z</time></trkpt>
      <trkpt lat="41.905965" lon="12.458994"><ele>24</ele><time>2026-08-03T11:18:27Z</time></trkpt>
      <trkpt lat="41.905969" lon="12.459013"><ele>24</ele><time>2026-08-03T11:18:28Z</time></trkpt>
      <trkpt lat="41.905986" lon="12.459014"><ele>24</ele><time>2026-08-03T11:18:29Z</time></trkpt>
      <trkpt lat="41.90613" lon="12.459029"><ele>23</ele><time>2026-08-03T11:18:42Z</time></trkpt>
      <trkpt lat="41.906147" lon="12.459031"><ele>23</ele><time>2026-08-03T11:18:44Z</time></trkpt>
      <trkpt lat="41.906164" lon="12.459012"><ele>23</ele><time>2026-08-03T11:18:46Z</time></trkpt>
      <trkpt lat="41.906362" lon="12.459027"><ele>23</ele><time>2026-08-03T11:19:04Z</time></trkpt>
      <trkpt lat="41.90665" lon="12.460194"><ele>21.98</ele><time>2026-08-03T11:20:33Z</time></trkpt>
      <trkpt lat="41.906666" lon="12.460258"><ele>21.86</ele><time>2026-08-03T11:20:38Z</time></trkpt>
      <trkpt lat="41.906756" lon="12.460261"><ele>21.49</ele><time>2026-08-03T11:20:46Z</time></trkpt>
      <trkpt lat="41.906856" lon="12.460231"><ele>21.15</ele><time>2026-08-03T11:20:55Z</time></trkpt>
      <trkpt lat="41.906875" lon="12.460306"><ele>21.02</ele><time>2026-08-03T11:21:01Z</time></trkpt>
      <trkpt lat="41.90687" lon="12.460334"><ele>21.01</ele><time>2026-08-03T11:21:03Z</time></trkpt>
      <trkpt lat="41.907008" lon="12.460907"><ele>21</ele><time>2026-08-03T11:21:46Z</time></trkpt>
      <trkpt lat="41.907018" lon="12.460921"><ele>20.96</ele><time>2026-08-03T11:21:47Z</time></trkpt>
      <trkpt lat="41.907027" lon="12.460958"><ele>20.9</ele><time>2026-08-03T11:21:50Z</time></trkpt>
      <trkpt lat="41.90704" lon="12.461024"><ele>20.79</ele><time>2026-08-03T11:21:55Z</time></trkpt>
      <trkpt lat="41.907205" lon="12.461703"><ele>20</ele><time>2026-08-03T11:22:40Z</time></trkpt>
      <trkpt lat="41.907212" lon="12.4617"><ele>20</ele><time>2026-08-03T11:22:41Z</time></trkpt>
      <trkpt lat="41.907223" lon="12.461743"><ele>19.92</ele><time>2026-08-03T11:22:44Z</time></trkpt>
      <trkpt lat="41.907233" lon="12.461786"><ele>19.73</ele><time>2026-08-03T11:22:47Z</time></trkpt>
      <trkpt lat="41.907227" lon="12.461789"><ele>19.74</ele><time>2026-08-03T11:22:48Z</time></trkpt>
      <trkpt lat="41.907432" lon="12.462627"><ele>19</ele><time>2026-08-03T11:23:53Z</time></trkpt>
      <trkpt lat="41.907446" lon="12.462655"><ele>19</ele><time>2026-08-03T11:23:55Z</time></trkpt>
      <trkpt lat="41.907488" lon="12.462847"><ele>19</ele><time>2026-08-03T11:24:10Z</time></trkpt>
      <trkpt lat="41.90757" lon="12.462814"><ele>18.97</ele><time>2026-08-03T11:24:18Z</time></trkpt>
      <trkpt lat="41.907976" lon="12.46265"><ele>18.79</ele><time>2026-08-03T11:24:55Z</time></trkpt>
      <trkpt lat="41.90799" lon="12.462698"><ele>18.57</ele><time>2026-08-03T11:24:58Z</time></trkpt>
      <trkpt lat="41.908117" lon="12.462646"><ele>18.23</ele><time>2026-08-03T11:25:10Z</time></trkpt>
      <trkpt lat="41.908108" lon="12.462607"><ele>18.38</ele><time>2026-08-03T11:25:13Z</time></trkpt>
      <trkpt lat="41.90878" lon="12.462332"><ele>18</ele><time>2026-08-03T11:26:18Z</time></trkpt>
      <trkpt lat="41.908793" lon="12.462386"><ele>18</ele><time>2026-08-03T11:26:22Z</time></trkpt>
      <trkpt lat="41.908812" lon="12.462378"><ele>18</ele><time>2026-08-03T11:26:24Z</time></trkpt>
      <trkpt lat="41.908892" lon="12.462343"><ele>18</ele><time>2026-08-03T11:26:32Z</time></trkpt>
      <trkpt lat="41.908924" lon="12.46233"><ele>18</ele><time>2026-08-03T11:26:35Z</time></trkpt>
      <trkpt lat="41.908923" lon="12.46228"><ele>18</ele><time>2026-08-03T11:26:38Z</time></trkpt>
      <trkpt lat="41.909467" lon="12.462056"><ele>18</ele><time>2026-08-03T11:27:26Z</time></trkpt>
      <trkpt lat="41.909488" lon="12.462112"><ele>18</ele><time>2026-08-03T11:27:31Z</time></trkpt>
      <trkpt lat="41.909606" lon="12.462063"><ele>18</ele><time>2026-08-03T11:27:43Z</time></trkpt>
      <trkpt lat="41.909582" lon="12.46201"><ele>18</ele><time>2026-08-03T11:27:47Z</time></trkpt>
      <trkpt lat="41.9102" lon="12.461758"><ele>18</ele><time>2026-08-03T11:28:45Z</time></trkpt>
      <trkpt lat="41.910223" lon="12.461839"><ele>18</ele><time>2026-08-03T11:28:51Z</time></trkpt>
      <trkpt lat="41.910444" lon="12.461748"><ele>18</ele><time>2026-08-03T11:29:11Z</time></trkpt>
      <trkpt lat="41.910431" lon="12.46169"><ele>18</ele><time>2026-08-03T11:29:15Z</time></trkpt>
      <trkpt lat="41.910444" lon="12.461748"><ele>18</ele><time>2026-08-03T11:29:19Z</time></trkpt>
      <trkpt lat="41.911789" lon="12.461161"><ele>18</ele><time>2026-08-03T11:31:32Z</time></trkpt>
      <trkpt lat="41.911796" lon="12.461147"><ele>18</ele><time>2026-08-03T11:31:33Z</time></trkpt>
      <trkpt lat="41.912093" lon="12.461016"><ele>18</ele><time>2026-08-03T11:31:59Z</time></trkpt>
      <trkpt lat="41.912327" lon="12.461947"><ele>18</ele><time>2026-08-03T11:33:09Z</time></trkpt>
      <trkpt lat="41.91307" lon="12.461629"><ele>18.15</ele><time>2026-08-03T11:34:23Z</time></trkpt>
      <trkpt lat="41.91308" lon="12.461668"><ele>18.27</ele><time>2026-08-03T11:34:26Z</time></trkpt>
      <trkpt lat="41.913086" lon="12.46169"><ele>18.36</ele><time>2026-08-03T11:34:28Z</time></trkpt>
      <trkpt lat="41.913125" lon="12.461672"><ele>18.54</ele><time>2026-08-03T11:34:32Z</time></trkpt>
      <trkpt lat="41.913145" lon="12.461675"><ele>18.66</ele><time>2026-08-03T11:34:34Z</time></trkpt>
      <trkpt lat="41.913433" lon="12.46254"><ele>19</ele><time>2026-08-03T11:35:40Z</time></trkpt>
      <trkpt lat="41.913446" lon="12.462553"><ele>19</ele><time>2026-08-03T11:35:42Z</time></trkpt>
      <trkpt lat="41.913577" lon="12.462496"><ele>19</ele><time>2026-08-03T11:35:55Z</time></trkpt>
      <trkpt lat="41.913585" lon="12.462498"><ele>19</ele><time>2026-08-03T11:35:56Z</time></trkpt>
      <trkpt lat="41.91362" lon="12.462615"><ele>19</ele><time>2026-08-03T11:36:04Z</time></trkpt>
      <trkpt lat="41.913758" lon="12.462586"><ele>19</ele><time>2026-08-03T11:36:17Z</time></trkpt>
      <trkpt lat="41.913913" lon="12.46257"><ele>19</ele><time>2026-08-03T11:36:30Z</time></trkpt>
      <trkpt lat="41.914053" lon="12.462573"><ele>19</ele><time>2026-08-03T11:36:43Z</time></trkpt>
      <trkpt lat="41.914195" lon="12.4626"><ele>19</ele><time>2026-08-03T11:36:57Z</time></trkpt>
      <trkpt lat="41.914257" lon="12.462759"><ele>19</ele><time>2026-08-03T11:37:10Z</time></trkpt>
      <trkpt lat="41.914347" lon="12.462794"><ele>19</ele><time>2026-08-03T11:37:19Z</time></trkpt>
      <trkpt lat="41.914353" lon="12.462808"><ele>19</ele><time>2026-08-03T11:37:20Z</time></trkpt>
      <trkpt lat="41.915087" lon="12.46327"><ele>19</ele><time>2026-08-03T11:38:38Z</time></trkpt>
      <trkpt lat="41.91512" lon="12.463308"><ele>19</ele><time>2026-08-03T11:38:42Z</time></trkpt>
      <trkpt lat="41.915358" lon="12.46397"><ele>19.07</ele><time>2026-08-03T11:39:34Z</time></trkpt>
      <trkpt lat="41.915387" lon="12.464021"><ele>19.37</ele><time>2026-08-03T11:39:39Z</time></trkpt>
      <trkpt lat="41.915497" lon="12.464342"><ele>20</ele><time>2026-08-03T11:40:02Z</time></trkpt>
      <trkpt lat="41.915745" lon="12.464467"><ele>20</ele><time>2026-08-03T11:40:24Z</time></trkpt>
      <trkpt lat="41.915784" lon="12.464424"><ele>20</ele><time>2026-08-03T11:40:29Z</time></trkpt>
      <trkpt lat="41.915947" lon="12.464317"><ele>20</ele><time>2026-08-03T11:40:45Z</time></trkpt>
      <trkpt lat="41.915993" lon="12.464301"><ele>20</ele><time>2026-08-03T11:40:49Z</time></trkpt>
      <trkpt lat="41.916574" lon="12.463921"><ele>19</ele><time>2026-08-03T11:41:47Z</time></trkpt>
      <trkpt lat="41.917303" lon="12.464454"><ele>19</ele><time>2026-08-03T11:43:01Z</time></trkpt>
      <trkpt lat="41.917325" lon="12.464405"><ele>19</ele><time>2026-08-03T11:43:05Z</time></trkpt>
      <trkpt lat="41.918207" lon="12.465022"><ele>19</ele><time>2026-08-03T11:44:31Z</time></trkpt>
      <trkpt lat="41.918884" lon="12.465518"><ele>19.07</ele><time>2026-08-03T11:45:41Z</time></trkpt>
      <trkpt lat="41.919309" lon="12.465802"><ele>19</ele><time>2026-08-03T11:46:21Z</time></trkpt>
      <trkpt lat="41.919385" lon="12.465862"><ele>19.07</ele><time>2026-08-03T11:46:29Z</time></trkpt>
      <trkpt lat="41.919402" lon="12.465806"><ele>19.05</ele><time>2026-08-03T11:46:33Z</time></trkpt>
      <trkpt lat="41.919385" lon="12.465862"><ele>19.07</ele><time>2026-08-03T11:46:37Z</time></trkpt>
      <trkpt lat="41.919628" lon="12.466042"><ele>19.51</ele><time>2026-08-03T11:47:02Z</time></trkpt>
      <trkpt lat="41.919588" lon="12.466154"><ele>19.94</ele><time>2026-08-03T11:47:10Z</time></trkpt>
      <trkpt lat="41.919381" lon="12.467027"><ele>20</ele><time>2026-08-03T11:48:14Z</time></trkpt>
      <trkpt lat="41.919046" lon="12.468587"><ele>21</ele><time>2026-08-03T11:49:55Z</time></trkpt>
      <trkpt lat="41.919038" lon="12.46871"><ele>21</ele><time>2026-08-03T11:50:03Z</time></trkpt>
      <trkpt lat="41.918954" lon="12.469111"><ele>21</ele><time>2026-08-03T11:50:33Z</time></trkpt>
      <trkpt lat="41.918936" lon="12.469198"><ele>21</ele><time>2026-08-03T11:50:39Z</time></trkpt>
      <trkpt lat="41.91881" lon="12.469005"><ele>21</ele><time>2026-08-03T11:50:56Z</time></trkpt>
      <trkpt lat="41.918762" lon="12.469147"><ele>21</ele><time>2026-08-03T11:51:07Z</time></trkpt>
      <trkpt lat="41.918643" lon="12.469627"><ele>21</ele><time>2026-08-03T11:51:43Z</time></trkpt>
      <trkpt lat="41.918719" lon="12.469618"><ele>21</ele><time>2026-08-03T11:51:51Z</time></trkpt>
      <trkpt lat="41.918779" lon="12.469894"><ele>21</ele><time>2026-08-03T11:52:12Z</time></trkpt>
      <trkpt lat="41.919342" lon="12.469696"><ele>21</ele><time>2026-08-03T11:53:03Z</time></trkpt>
      <trkpt lat="41.919824" lon="12.469483"><ele>21</ele><time>2026-08-03T11:53:53Z</time></trkpt>
      <trkpt lat="41.920044" lon="12.469357"><ele>21</ele><time>2026-08-03T11:54:16Z</time></trkpt>
      <trkpt lat="41.920166" lon="12.469272"><ele>21</ele><time>2026-08-03T11:54:29Z</time></trkpt>
      <trkpt lat="41.920431" lon="12.469045"><ele>21</ele><time>2026-08-03T11:54:57Z</time></trkpt>
      <trkpt lat="41.92067" lon="12.468792"><ele>21</ele><time>2026-08-03T11:55:25Z</time></trkpt>
      <trkpt lat="41.92082" lon="12.468589"><ele>20.93</ele><time>2026-08-03T11:55:43Z</time></trkpt>
      <trkpt lat="41.920915" lon="12.468442"><ele>20.03</ele><time>2026-08-03T11:55:57Z</time></trkpt>
      <trkpt lat="41.921135" lon="12.468025"><ele>20</ele><time>2026-08-03T11:56:33Z</time></trkpt>
      <trkpt lat="41.921221" lon="12.467812"><ele>20</ele><time>2026-08-03T11:56:50Z</time></trkpt>
      <trkpt lat="41.921315" lon="12.467501"><ele>20</ele><time>2026-08-03T11:57:15Z</time></trkpt>
      <trkpt lat="41.921372" lon="12.467279"><ele>20</ele><time>2026-08-03T11:57:32Z</time></trkpt>
      <trkpt lat="41.921644" lon="12.465794"><ele>19</ele><time>2026-08-03T11:59:23Z</time></trkpt>
      <trkpt lat="41.92176" lon="12.465062"><ele>19</ele><time>2026-08-03T12:00:11Z</time></trkpt>
      <trkpt lat="41.922021" lon="12.463627"><ele>19</ele><time>2026-08-03T12:01:59Z</time></trkpt>
      <trkpt lat="41.922168" lon="12.463136"><ele>19</ele><time>2026-08-03T12:02:34Z</time></trkpt>
      <trkpt lat="41.922222" lon="12.462981"><ele>19</ele><time>2026-08-03T12:02:46Z</time></trkpt>
      <trkpt lat="41.922375" lon="12.462605"><ele>19</ele><time>2026-08-03T12:03:14Z</time></trkpt>
      <trkpt lat="41.922458" lon="12.462431"><ele>19</ele><time>2026-08-03T12:03:28Z</time></trkpt>
      <trkpt lat="41.92262" lon="12.462143"><ele>19</ele><time>2026-08-03T12:03:53Z</time></trkpt>
      <trkpt lat="41.922848" lon="12.461778"><ele>19</ele><time>2026-08-03T12:04:23Z</time></trkpt>
      <trkpt lat="41.923845" lon="12.460306"><ele>19</ele><time>2026-08-03T12:06:34Z</time></trkpt>
      <trkpt lat="41.924083" lon="12.459976"><ele>19</ele><time>2026-08-03T12:07:05Z</time></trkpt>
      <trkpt lat="41.924133" lon="12.459885"><ele>19</ele><time>2026-08-03T12:07:13Z</time></trkpt>
      <trkpt lat="41.924152" lon="12.459828"><ele>19</ele><time>2026-08-03T12:07:17Z</time></trkpt>
      <trkpt lat="41.924158" lon="12.459771"><ele>19</ele><time>2026-08-03T12:07:21Z</time></trkpt>
      <trkpt lat="41.924157" lon="12.459472"><ele>19</ele><time>2026-08-03T12:07:41Z</time></trkpt>
      <trkpt lat="41.924188" lon="12.458752"><ele>20</ele><time>2026-08-03T12:08:26Z</time></trkpt>
      <trkpt lat="41.924049" lon="12.458767"><ele>19.84</ele><time>2026-08-03T12:08:38Z</time></trkpt>
      <trkpt lat="41.924033" lon="12.4586"><ele>19</ele><time>2026-08-03T12:08:50Z</time></trkpt>
      <trkpt lat="41.924098" lon="12.458601"><ele>19.11</ele><time>2026-08-03T12:08:56Z</time></trkpt>
    </trkseg>
  </trk>
</gpx>
