<?xml version='1.0' encoding='UTF-8'?>
<gpx xmlns="http://www.topografix.com/GPX/1/1" creator="https://gpx.studio" version="1.1">
  <metadata>
    <name>Bike - 2026-04-18</name>
  </metadata>
  <trk>
    <name>Bike - 2026-04-18</name>
    <type>cycling</type>
    <trkseg>
      <trkpt lat="41.49949792698872" lon="-81.71149491209229">
        <ele>176.9480207851</ele>
        <time>2026-04-18T10:46:18Z</time>
      </trkpt>
      <trkpt lat="41.49857956270165" lon="-81.71327034811266">
        <ele>177.5344540133</ele>
        <time>2026-04-18T10:46:57Z</time>
      </trkpt>
      <trkpt lat="41.49870792965294" lon="-81.71331824911107">
        <ele>176.9104566294</ele>
        <time>2026-04-18T10:46:59Z</time>
      </trkpt>
      <trkpt lat="41.49889035350346" lon="-81.71332853806102">
        <ele>176.9141579018</ele>
        <time>2026-04-18T10:47:03Z</time>
      </trkpt>
      <trkpt lat="41.49883573324648" lon="-81.71347069446416">
        <ele>177.0036768824</ele>
        <time>2026-04-18T10:47:05Z</time>
      </trkpt>
      <trkpt lat="41.49873854079619" lon="-81.71366721780815">
        <ele>177.1210582152</ele>
        <time>2026-04-18T10:47:09Z</time>
      </trkpt>
      <trkpt lat="41.49863602132242" lon="-81.71380558600617">
        <ele>176.7995052750</ele>
        <time>2026-04-18T10:47:12Z</time>
      </trkpt>
      <trkpt lat="41.49852375718726" lon="-81.71390131128778">
        <ele>177.1459421653</ele>
        <time>2026-04-18T10:47:14Z</time>
      </trkpt>
      <trkpt lat="41.49833543116554" lon="-81.71402340087144">
        <ele>176.8426109096</ele>
        <time>2026-04-18T10:47:21Z</time>
      </trkpt>
      <trkpt lat="41.49827153033119" lon="-81.71408383610999">
        <ele>176.8785400834</ele>
        <time>2026-04-18T10:47:22Z</time>
      </trkpt>
      <trkpt lat="41.49817204070829" lon="-81.71422704807793">
        <ele>176.9852967093</ele>
        <time>2026-04-18T10:47:25Z</time>
      </trkpt>
      <trkpt lat="41.49811907791403" lon="-81.71433871018986">
        <ele>176.9511966631</ele>
        <time>2026-04-18T10:47:28Z</time>
      </trkpt>
      <trkpt lat="41.49803967731070" lon="-81.71454307773784">
        <ele>176.2351286841</ele>
        <time>2026-04-18T10:47:31Z</time>
      </trkpt>
      <trkpt lat="41.49785561973276" lon="-81.71482132505129">
        <ele>176.0031471320</ele>
        <time>2026-04-18T10:47:38Z</time>
      </trkpt>
      <trkpt lat="41.49726029432079" lon="-81.71603167324190">
        <ele>176.7422719006</ele>
        <time>2026-04-18T10:47:56Z</time>
      </trkpt>
      <trkpt lat="41.49698567135643" lon="-81.71648381848442">
        <ele>176.9634438605</ele>
        <time>2026-04-18T10:48:06Z</time>
      </trkpt>
      <trkpt lat="41.49692807346149" lon="-81.71654773889814">
        <ele>177.0707640862</ele>
        <time>2026-04-18T10:48:07Z</time>
      </trkpt>
      <trkpt lat="41.49659900007629" lon="-81.71681156965565">
        <ele>177.6657515184</ele>
        <time>2026-04-18T10:48:22Z</time>
      </trkpt>
      <trkpt lat="41.49637565059113" lon="-81.71712526122221">
        <ele>179.7419254771</ele>
        <time>2026-04-18T10:48:27Z</time>
      </trkpt>
      <trkpt lat="41.49627670724089" lon="-81.71727239033528">
        <ele>180.5596529617</ele>
        <time>2026-04-18T10:48:30Z</time>
      </trkpt>
      <trkpt lat="41.49604533027590" lon="-81.71771253642115">
        <ele>179.7045207130</ele>
        <time>2026-04-18T10:48:36Z</time>
      </trkpt>
      <trkpt lat="41.49598729631001" lon="-81.71781539667028">
        <ele>180.3682839742</ele>
        <time>2026-04-18T10:48:38Z</time>
      </trkpt>
      <trkpt lat="41.49592519677931" lon="-81.71796728404199">
        <ele>180.4448054893</ele>
        <time>2026-04-18T10:48:41Z</time>
      </trkpt>
      <trkpt lat="41.49571057375879" lon="-81.71854534536165">
        <ele>178.3555242285</ele>
        <time>2026-04-18T10:48:53Z</time>
      </trkpt>
      <trkpt lat="41.49563442238039" lon="-81.71871678408534">
        <ele>178.1846561191</ele>
        <time>2026-04-18T10:48:56Z</time>
      </trkpt>
      <trkpt lat="41.49540254000132" lon="-81.71914004694123">
        <ele>177.9736941354</ele>
        <time>2026-04-18T10:49:03Z</time>
      </trkpt>
      <trkpt lat="41.49527582750309" lon="-81.71952549172983">
        <ele>176.6678762374</ele>
        <time>2026-04-18T10:49:12Z</time>
      </trkpt>
      <trkpt lat="41.49517387326890" lon="-81.71965090728928">
        <ele>177.8665864358</ele>
        <time>2026-04-18T10:49:16Z</time>
      </trkpt>
      <trkpt lat="41.49510296830103" lon="-81.71975616924237">
        <ele>178.3241099115</ele>
        <time>2026-04-18T10:49:18Z</time>
      </trkpt>
      <trkpt lat="41.49508830492542" lon="-81.71984797619795">
        <ele>177.6923525546</ele>
        <time>2026-04-18T10:49:20Z</time>
      </trkpt>
      <trkpt lat="41.49497406876516" lon="-81.72009572095224">
        <ele>177.6284135483</ele>
        <time>2026-04-18T10:49:24Z</time>
      </trkpt>
      <trkpt lat="41.49490187124883" lon="-81.72020053139349">
        <ele>177.9657033333</ele>
        <time>2026-04-18T10:49:26Z</time>
      </trkpt>
      <trkpt lat="41.49482814600767" lon="-81.72032043160115">
        <ele>177.9320448476</ele>
        <time>2026-04-18T10:49:28Z</time>
      </trkpt>
      <trkpt lat="41.49469607327011" lon="-81.72059744909508">
        <ele>177.8518217443</ele>
        <time>2026-04-18T10:49:33Z</time>
      </trkpt>
      <trkpt lat="41.49459120055766" lon="-81.72075504969635">
        <ele>177.7642549013</ele>
        <time>2026-04-18T10:49:37Z</time>
      </trkpt>
      <trkpt lat="41.49455726904054" lon="-81.72088525347972">
        <ele>177.6153763815</ele>
        <time>2026-04-18T10:49:42Z</time>
      </trkpt>
      <trkpt lat="41.49433651695909" lon="-81.72126569880048">
        <ele>177.8349200062</ele>
        <time>2026-04-18T10:49:50Z</time>
      </trkpt>
      <trkpt lat="41.49413972559811" lon="-81.72165497705463">
        <ele>178.5973468002</ele>
        <time>2026-04-18T10:49:56Z</time>
      </trkpt>
      <trkpt lat="41.49406829663098" lon="-81.72184269674952">
        <ele>178.2140132198</ele>
        <time>2026-04-18T10:49:59Z</time>
      </trkpt>
      <trkpt lat="41.49404469689210" lon="-81.72190455288033">
        <ele>178.1390289678</ele>
        <time>2026-04-18T10:50:01Z</time>
      </trkpt>
      <trkpt lat="41.49383862038565" lon="-81.72221647405854">
        <ele>178.1504546219</ele>
        <time>2026-04-18T10:50:07Z</time>
      </trkpt>
      <trkpt lat="41.49381432621740" lon="-81.72231220521695">
        <ele>177.7732194056</ele>
        <time>2026-04-18T10:50:09Z</time>
      </trkpt>
      <trkpt lat="41.49370799783284" lon="-81.72250819688284">
        <ele>178.1010652864</ele>
        <time>2026-04-18T10:50:12Z</time>
      </trkpt>
      <trkpt lat="41.49365598937724" lon="-81.72256283820546">
        <ele>178.3574123297</ele>
        <time>2026-04-18T10:50:13Z</time>
      </trkpt>
      <trkpt lat="41.49351487215990" lon="-81.72288116866908">
        <ele>178.9376962989</ele>
        <time>2026-04-18T10:50:22Z</time>
      </trkpt>
      <trkpt lat="41.49323653232992" lon="-81.72341482388572">
        <ele>179.1769431722</ele>
        <time>2026-04-18T10:50:30Z</time>
      </trkpt>
      <trkpt lat="41.49315118382474" lon="-81.72355571522482">
        <ele>178.8513826710</ele>
        <time>2026-04-18T10:50:33Z</time>
      </trkpt>
      <trkpt lat="41.49301821263190" lon="-81.72386334955401">
        <ele>178.5876000296</ele>
        <time>2026-04-18T10:50:37Z</time>
      </trkpt>
      <trkpt lat="41.49290107221059" lon="-81.72403329211113">
        <ele>178.5122614919</ele>
        <time>2026-04-18T10:50:41Z</time>
      </trkpt>
      <trkpt lat="41.49283005504417" lon="-81.72419843667907">
        <ele>177.3917818360</ele>
        <time>2026-04-18T10:50:43Z</time>
      </trkpt>
      <trkpt lat="41.49254797499233" lon="-81.72459578930771">
        <ele>177.8785966532</ele>
        <time>2026-04-18T10:50:51Z</time>
      </trkpt>
      <trkpt lat="41.49251669343721" lon="-81.72463099800497">
        <ele>178.2662292551</ele>
        <time>2026-04-18T10:50:52Z</time>
      </trkpt>
      <trkpt lat="41.49242706790051" lon="-81.72472029148322">
        <ele>180.7816849931</ele>
        <time>2026-04-18T10:50:54Z</time>
      </trkpt>
      <trkpt lat="41.49215401026456" lon="-81.72528008983781">
        <ele>182.2558833077</ele>
        <time>2026-04-18T10:51:05Z</time>
      </trkpt>
      <trkpt lat="41.49187600649392" lon="-81.72587556156081">
        <ele>184.1559697527</ele>
        <time>2026-04-18T10:51:16Z</time>
      </trkpt>
      <trkpt lat="41.49155592885140" lon="-81.72659170669888">
        <ele>184.9603838104</ele>
        <time>2026-04-18T10:51:30Z</time>
      </trkpt>
      <trkpt lat="41.49150930296689" lon="-81.72674958236416">
        <ele>184.4530265780</ele>
        <time>2026-04-18T10:51:32Z</time>
      </trkpt>
      <trkpt lat="41.49150649978898" lon="-81.72681176407079">
        <ele>183.4411377501</ele>
        <time>2026-04-18T10:51:33Z</time>
      </trkpt>
      <trkpt lat="41.49149805846833" lon="-81.72689876921777">
        <ele>181.8224994225</ele>
        <time>2026-04-18T10:52:04Z</time>
      </trkpt>
      <trkpt lat="41.49151483299365" lon="-81.72705968437927">
        <ele>180.6736109078</ele>
        <time>2026-04-18T10:52:07Z</time>
      </trkpt>
      <trkpt lat="41.49156017321964" lon="-81.72716041289934">
        <ele>180.4572976137</ele>
        <time>2026-04-18T10:52:09Z</time>
      </trkpt>
      <trkpt lat="41.49157269849233" lon="-81.72721869659377">
        <ele>180.6321611796</ele>
        <time>2026-04-18T10:52:10Z</time>
      </trkpt>
      <trkpt lat="41.49169165763085" lon="-81.72763965091329">
        <ele>179.9734459934</ele>
        <time>2026-04-18T10:52:16Z</time>
      </trkpt>
      <trkpt lat="41.49172588909775" lon="-81.72768963198628">
        <ele>179.9004397429</ele>
        <time>2026-04-18T10:52:17Z</time>
      </trkpt>
      <trkpt lat="41.49177436840026" lon="-81.72799753411077">
        <ele>179.1725473160</ele>
        <time>2026-04-18T10:52:22Z</time>
      </trkpt>
      <trkpt lat="41.49179363233839" lon="-81.72815770485238">
        <ele>178.8544729381</ele>
        <time>2026-04-18T10:52:31Z</time>
      </trkpt>
      <trkpt lat="41.49176823132877" lon="-81.72891967086797">
        <ele>178.3288403029</ele>
        <time>2026-04-18T10:52:43Z</time>
      </trkpt>
      <trkpt lat="41.49180145979636" lon="-81.72945449011125">
        <ele>177.2620099206</ele>
        <time>2026-04-18T10:52:52Z</time>
      </trkpt>
      <trkpt lat="41.49180423325795" lon="-81.72949773338166">
        <ele>177.2439760958</ele>
        <time>2026-04-18T10:52:53Z</time>
      </trkpt>
      <trkpt lat="41.49095816896652" lon="-81.73174972929554">
        <ele>178.8937484164</ele>
        <time>2026-04-18T10:53:28Z</time>
      </trkpt>
      <trkpt lat="41.49082268054737" lon="-81.73212281430528">
        <ele>177.8577671751</ele>
        <time>2026-04-18T10:53:35Z</time>
      </trkpt>
      <trkpt lat="41.49081247672720" lon="-81.73226719034048">
        <ele>177.9940689829</ele>
        <time>2026-04-18T10:53:38Z</time>
      </trkpt>
      <trkpt lat="41.49079999547761" lon="-81.73233980860532">
        <ele>177.2899623427</ele>
        <time>2026-04-18T10:53:39Z</time>
      </trkpt>
      <trkpt lat="41.49087175918130" lon="-81.73296899776255">
        <ele>177.0789361240</ele>
        <time>2026-04-18T10:53:50Z</time>
      </trkpt>
      <trkpt lat="41.49087283635295" lon="-81.73307911948841">
        <ele>176.9259864057</ele>
        <time>2026-04-18T10:53:51Z</time>
      </trkpt>
      <trkpt lat="41.49081878005868" lon="-81.73350198629105">
        <ele>176.9129655372</ele>
        <time>2026-04-18T10:53:57Z</time>
      </trkpt>
      <trkpt lat="41.49079321701435" lon="-81.73365218136711">
        <ele>177.1044911495</ele>
        <time>2026-04-18T10:53:59Z</time>
      </trkpt>
      <trkpt lat="41.49077245503954" lon="-81.73373901209487">
        <ele>177.0843430622</ele>
        <time>2026-04-18T10:54:00Z</time>
      </trkpt>
      <trkpt lat="41.49068003342500" lon="-81.73368827592004">
        <ele>176.7622388816</ele>
        <time>2026-04-18T10:54:02Z</time>
      </trkpt>
      <trkpt lat="41.49057875696823" lon="-81.73370528081148">
        <ele>177.0155275380</ele>
        <time>2026-04-18T10:54:05Z</time>
      </trkpt>
      <trkpt lat="41.49050378791114" lon="-81.73374917460784">
        <ele>177.0640397481</ele>
        <time>2026-04-18T10:54:06Z</time>
      </trkpt>
      <trkpt lat="41.49048220091579" lon="-81.73381315783234">
        <ele>176.8919615379</ele>
        <time>2026-04-18T10:54:07Z</time>
      </trkpt>
      <trkpt lat="41.49039823800825" lon="-81.73392983600048">
        <ele>176.8631284422</ele>
        <time>2026-04-18T10:54:10Z</time>
      </trkpt>
      <trkpt lat="41.49035110362449" lon="-81.73399861870003">
        <ele>176.8252787533</ele>
        <time>2026-04-18T10:54:12Z</time>
      </trkpt>
      <trkpt lat="41.49030200225831" lon="-81.73403437663481">
        <ele>177.1446324151</ele>
        <time>2026-04-18T10:54:13Z</time>
      </trkpt>
      <trkpt lat="41.49020053713406" lon="-81.73405931075091">
        <ele>177.2644596208</ele>
        <time>2026-04-18T10:54:15Z</time>
      </trkpt>
      <trkpt lat="41.49004255889545" lon="-81.73418137661152">
        <ele>177.9038890525</ele>
        <time>2026-04-18T10:54:18Z</time>
      </trkpt>
      <trkpt lat="41.48996546163305" lon="-81.73427346776219">
        <ele>178.1634149097</ele>
        <time>2026-04-18T10:54:20Z</time>
      </trkpt>
      <trkpt lat="41.48989517134589" lon="-81.73435012092828">
        <ele>177.9568865065</ele>
        <time>2026-04-18T10:54:22Z</time>
      </trkpt>
      <trkpt lat="41.48982915165747" lon="-81.73447814287006">
        <ele>178.1257345214</ele>
        <time>2026-04-18T10:54:24Z</time>
      </trkpt>
      <trkpt lat="41.48973191871756" lon="-81.73470272543015">
        <ele>178.0252733638</ele>
        <time>2026-04-18T10:54:30Z</time>
      </trkpt>
      <trkpt lat="41.48964407998053" lon="-81.73491407771871">
        <ele>178.0734070618</ele>
        <time>2026-04-18T10:54:33Z</time>
      </trkpt>
      <trkpt lat="41.48953037580611" lon="-81.73533121959886">
        <ele>177.7533268243</ele>
        <time>2026-04-18T10:54:38Z</time>
      </trkpt>
      <trkpt lat="41.48949513098150" lon="-81.73540932030140">
        <ele>178.0672957687</ele>
        <time>2026-04-18T10:54:40Z</time>
      </trkpt>
      <trkpt lat="41.48939192166183" lon="-81.73556380869771">
        <ele>177.9423864243</ele>
        <time>2026-04-18T10:55:11Z</time>
      </trkpt>
      <trkpt lat="41.48895868626893" lon="-81.73659689547246">
        <ele>178.0369487888</ele>
        <time>2026-04-18T10:55:28Z</time>
      </trkpt>
      <trkpt lat="41.48881691229553" lon="-81.73695760498742">
        <ele>178.2704626581</ele>
        <time>2026-04-18T10:55:33Z</time>
      </trkpt>
      <trkpt lat="41.48865550861198" lon="-81.73747175669105">
        <ele>179.0398023727</ele>
        <time>2026-04-18T10:55:38Z</time>
      </trkpt>
      <trkpt lat="41.48845166815684" lon="-81.73797149522915">
        <ele>179.1746498553</ele>
        <time>2026-04-18T10:55:46Z</time>
      </trkpt>
      <trkpt lat="41.48831564223119" lon="-81.73832591608331">
        <ele>179.1415866912</ele>
        <time>2026-04-18T10:55:51Z</time>
      </trkpt>
      <trkpt lat="41.48827659274874" lon="-81.73844699817613">
        <ele>178.8334162855</ele>
        <time>2026-04-18T10:55:53Z</time>
      </trkpt>
      <trkpt lat="41.48822219418577" lon="-81.73855410643155">
        <ele>178.3242373266</ele>
        <time>2026-04-18T10:55:55Z</time>
      </trkpt>
      <trkpt lat="41.48799430195095" lon="-81.73907756205345">
        <ele>178.0812678608</ele>
        <time>2026-04-18T10:56:04Z</time>
      </trkpt>
      <trkpt lat="41.48758715292720" lon="-81.74017322371198">
        <ele>180.2830479637</ele>
        <time>2026-04-18T10:56:22Z</time>
      </trkpt>
      <trkpt lat="41.48735355215659" lon="-81.74098956891443">
        <ele>184.0367926579</ele>
        <time>2026-04-18T10:56:34Z</time>
      </trkpt>
      <trkpt lat="41.48705347847999" lon="-81.74237490945019">
        <ele>194.1934694634</ele>
        <time>2026-04-18T10:56:55Z</time>
      </trkpt>
      <trkpt lat="41.48698172889375" lon="-81.74264641469304">
        <ele>194.1436590677</ele>
        <time>2026-04-18T10:57:00Z</time>
      </trkpt>
      <trkpt lat="41.48674795515410" lon="-81.74346036199866">
        <ele>195.0493054915</ele>
        <time>2026-04-18T10:57:13Z</time>
      </trkpt>
      <trkpt lat="41.48673943078350" lon="-81.74369281975827">
        <ele>195.1179944233</ele>
        <time>2026-04-18T10:57:16Z</time>
      </trkpt>
      <trkpt lat="41.48675190108803" lon="-81.74442661686854">
        <ele>195.0498802163</ele>
        <time>2026-04-18T10:57:27Z</time>
      </trkpt>
      <trkpt lat="41.48677088120407" lon="-81.74481977322122">
        <ele>195.0038423538</ele>
        <time>2026-04-18T10:57:33Z</time>
      </trkpt>
      <trkpt lat="41.48679861923382" lon="-81.74493873843033">
        <ele>195.1314407048</ele>
        <time>2026-04-18T10:57:35Z</time>
      </trkpt>
      <trkpt lat="41.48688181789725" lon="-81.74585548972517">
        <ele>195.3694886561</ele>
        <time>2026-04-18T10:57:48Z</time>
      </trkpt>
      <trkpt lat="41.48698610132660" lon="-81.74662552639558">
        <ele>194.9967713628</ele>
        <time>2026-04-18T10:58:04Z</time>
      </trkpt>
      <trkpt lat="41.48709515465182" lon="-81.74704903268928">
        <ele>195.0014424879</ele>
        <time>2026-04-18T10:58:11Z</time>
      </trkpt>
      <trkpt lat="41.48727374505414" lon="-81.74773937800062">
        <ele>194.9698450272</ele>
        <time>2026-04-18T10:58:21Z</time>
      </trkpt>
      <trkpt lat="41.48730681278717" lon="-81.74788728154159">
        <ele>195.0880714057</ele>
        <time>2026-04-18T10:58:23Z</time>
      </trkpt>
      <trkpt lat="41.48730839421530" lon="-81.74804658611413">
        <ele>195.0015360832</ele>
        <time>2026-04-18T10:58:25Z</time>
      </trkpt>
      <trkpt lat="41.48727722068485" lon="-81.74875570834993">
        <ele>194.8412062486</ele>
        <time>2026-04-18T10:58:37Z</time>
      </trkpt>
      <trkpt lat="41.48724649124648" lon="-81.74889306949977">
        <ele>194.8040107224</ele>
        <time>2026-04-18T10:58:40Z</time>
      </trkpt>
      <trkpt lat="41.48720189881914" lon="-81.74896728102122">
        <ele>195.0225484632</ele>
        <time>2026-04-18T10:58:42Z</time>
      </trkpt>
      <trkpt lat="41.48715713193916" lon="-81.74900956384364">
        <ele>194.9659117013</ele>
        <time>2026-04-18T10:58:43Z</time>
      </trkpt>
      <trkpt lat="41.48711217204215" lon="-81.74900979751794">
        <ele>195.0748719697</ele>
        <time>2026-04-18T10:58:44Z</time>
      </trkpt>
      <trkpt lat="41.48692777946667" lon="-81.74895828632613">
        <ele>194.8815363842</ele>
        <time>2026-04-18T10:58:48Z</time>
      </trkpt>
      <trkpt lat="41.48683656980047" lon="-81.74896340483524">
        <ele>195.0586152872</ele>
        <time>2026-04-18T10:58:49Z</time>
      </trkpt>
      <trkpt lat="41.48679762049203" lon="-81.74900495505446">
        <ele>195.2335064384</ele>
        <time>2026-04-18T10:58:50Z</time>
      </trkpt>
      <trkpt lat="41.48673651457027" lon="-81.74909343024935">
        <ele>195.8487642402</ele>
        <time>2026-04-18T10:58:52Z</time>
      </trkpt>
      <trkpt lat="41.48669559939830" lon="-81.74925717932557">
        <ele>195.8571984738</ele>
        <time>2026-04-18T10:58:55Z</time>
      </trkpt>
      <trkpt lat="41.48669128834440" lon="-81.74941319159518">
        <ele>195.8614621366</ele>
        <time>2026-04-18T10:58:58Z</time>
      </trkpt>
      <trkpt lat="41.48669737078939" lon="-81.74961546069528">
        <ele>195.8195983374</ele>
        <time>2026-04-18T10:59:01Z</time>
      </trkpt>
      <trkpt lat="41.48674421417679" lon="-81.74973533463903">
        <ele>195.8869601309</ele>
        <time>2026-04-18T10:59:03Z</time>
      </trkpt>
      <trkpt lat="41.48677759317423" lon="-81.74980357528480">
        <ele>195.8141627492</ele>
        <time>2026-04-18T10:59:04Z</time>
      </trkpt>
      <trkpt lat="41.48692594922103" lon="-81.74990969191539">
        <ele>195.1203268766</ele>
        <time>2026-04-18T10:59:08Z</time>
      </trkpt>
      <trkpt lat="41.48707350687367" lon="-81.75006659262824">
        <ele>194.8785039048</ele>
        <time>2026-04-18T10:59:11Z</time>
      </trkpt>
      <trkpt lat="41.48713534530996" lon="-81.75010521784000">
        <ele>194.8247138980</ele>
        <time>2026-04-18T10:59:13Z</time>
      </trkpt>
      <trkpt lat="41.48720978511341" lon="-81.75013498913172">
        <ele>195.0896319096</ele>
        <time>2026-04-18T10:59:14Z</time>
      </trkpt>
      <trkpt lat="41.48727658445289" lon="-81.75014906679820">
        <ele>195.0668322937</ele>
        <time>2026-04-18T10:59:16Z</time>
      </trkpt>
      <trkpt lat="41.48743997554423" lon="-81.75011631918396">
        <ele>195.1894871343</ele>
        <time>2026-04-18T10:59:20Z</time>
      </trkpt>
      <trkpt lat="41.48750885595157" lon="-81.75012997071212">
        <ele>195.0462003877</ele>
        <time>2026-04-18T10:59:21Z</time>
      </trkpt>
      <trkpt lat="41.48757109996436" lon="-81.75013735171339">
        <ele>194.8508262423</ele>
        <time>2026-04-18T10:59:22Z</time>
      </trkpt>
      <trkpt lat="41.48761472960196" lon="-81.75016931215205">
        <ele>195.0276360520</ele>
        <time>2026-04-18T10:59:23Z</time>
      </trkpt>
      <trkpt lat="41.48764981578302" lon="-81.75019786321808">
        <ele>194.8161094895</ele>
        <time>2026-04-18T10:59:25Z</time>
      </trkpt>
      <trkpt lat="41.48767320921655" lon="-81.75025988082407">
        <ele>195.0981850698</ele>
        <time>2026-04-18T10:59:26Z</time>
      </trkpt>
      <trkpt lat="41.48768682335515" lon="-81.75030169203072">
        <ele>195.0596942985</ele>
        <time>2026-04-18T10:59:27Z</time>
      </trkpt>
      <trkpt lat="41.48768048170290" lon="-81.75034841672678">
        <ele>194.8118281501</ele>
        <time>2026-04-18T10:59:28Z</time>
      </trkpt>
      <trkpt lat="41.48767092588382" lon="-81.75041640933560">
        <ele>194.6448941285</ele>
        <time>2026-04-18T10:59:29Z</time>
      </trkpt>
      <trkpt lat="41.48766254515563" lon="-81.75046704007164">
        <ele>194.6661462812</ele>
        <time>2026-04-18T10:59:30Z</time>
      </trkpt>
      <trkpt lat="41.48763410008179" lon="-81.75050618006358">
        <ele>194.4295504421</ele>
        <time>2026-04-18T10:59:31Z</time>
      </trkpt>
      <trkpt lat="41.48749560834677" lon="-81.75066133455715">
        <ele>194.2710204630</ele>
        <time>2026-04-18T10:59:34Z</time>
      </trkpt>
      <trkpt lat="41.48719340370648" lon="-81.75110970624145">
        <ele>193.8252643626</ele>
        <time>2026-04-18T10:59:43Z</time>
      </trkpt>
      <trkpt lat="41.48718073340363" lon="-81.75114977620314">
        <ele>193.2853232723</ele>
        <time>2026-04-18T10:59:44Z</time>
      </trkpt>
      <trkpt lat="41.48713059540502" lon="-81.75132589688782">
        <ele>191.8994617337</ele>
        <time>2026-04-18T10:59:47Z</time>
      </trkpt>
      <trkpt lat="41.48709158387041" lon="-81.75137391294167">
        <ele>191.7204353498</ele>
        <time>2026-04-18T10:59:48Z</time>
      </trkpt>
      <trkpt lat="41.48699859125983" lon="-81.75147946869697">
        <ele>191.1583870509</ele>
        <time>2026-04-18T10:59:52Z</time>
      </trkpt>
      <trkpt lat="41.48685083446718" lon="-81.75155835355326">
        <ele>191.6942114222</ele>
        <time>2026-04-18T10:59:54Z</time>
      </trkpt>
      <trkpt lat="41.48688058435729" lon="-81.75166117222530">
        <ele>191.8255713079</ele>
        <time>2026-04-18T10:59:57Z</time>
      </trkpt>
      <trkpt lat="41.48707500916807" lon="-81.75221288408302">
        <ele>192.9749292004</ele>
        <time>2026-04-18T11:00:07Z</time>
      </trkpt>
      <trkpt lat="41.48731423650302" lon="-81.75309731403811">
        <ele>195.1685755698</ele>
        <time>2026-04-18T11:00:17Z</time>
      </trkpt>
      <trkpt lat="41.48740611187949" lon="-81.75358845219445">
        <ele>195.0429597795</ele>
        <time>2026-04-18T11:00:24Z</time>
      </trkpt>
      <trkpt lat="41.48745567633681" lon="-81.75386211157438">
        <ele>194.9989182304</ele>
        <time>2026-04-18T11:00:28Z</time>
      </trkpt>
      <trkpt lat="41.48762551448148" lon="-81.75513648016477">
        <ele>194.0542173731</ele>
        <time>2026-04-18T11:00:51Z</time>
      </trkpt>
      <trkpt lat="41.48783370113577" lon="-81.75620542979603">
        <ele>195.0896196782</ele>
        <time>2026-04-18T11:01:06Z</time>
      </trkpt>
      <trkpt lat="41.48804178393181" lon="-81.75696521740514">
        <ele>195.0784865783</ele>
        <time>2026-04-18T11:01:18Z</time>
      </trkpt>
      <trkpt lat="41.48819776963730" lon="-81.75754644303704">
        <ele>194.7726810897</ele>
        <time>2026-04-18T11:01:27Z</time>
      </trkpt>
      <trkpt lat="41.48832664631735" lon="-81.75821025635284">
        <ele>194.8417613348</ele>
        <time>2026-04-18T11:01:37Z</time>
      </trkpt>
      <trkpt lat="41.48887289414909" lon="-81.76122553828952">
        <ele>192.8330369568</ele>
        <time>2026-04-18T11:02:38Z</time>
      </trkpt>
      <trkpt lat="41.48890182178063" lon="-81.76162152878437">
        <ele>192.8823538620</ele>
        <time>2026-04-18T11:02:44Z</time>
      </trkpt>
      <trkpt lat="41.48887567934199" lon="-81.76241837412678">
        <ele>194.2001810110</ele>
        <time>2026-04-18T11:03:08Z</time>
      </trkpt>
      <trkpt lat="41.48892307150420" lon="-81.76276821511391">
        <ele>195.1111587966</ele>
        <time>2026-04-18T11:03:16Z</time>
      </trkpt>
      <trkpt lat="41.48911844381605" lon="-81.76392631940719">
        <ele>195.0463147769</ele>
        <time>2026-04-18T11:03:33Z</time>
      </trkpt>
      <trkpt lat="41.48947684542045" lon="-81.76580242782467">
        <ele>194.8132118751</ele>
        <time>2026-04-18T11:04:02Z</time>
      </trkpt>
      <trkpt lat="41.48997342380709" lon="-81.76866835895365">
        <ele>194.9087980067</ele>
        <time>2026-04-18T11:04:39Z</time>
      </trkpt>
      <trkpt lat="41.48885139314267" lon="-81.76869908303409">
        <ele>196.8969433983</ele>
        <time>2026-04-18T11:04:57Z</time>
      </trkpt>
      <trkpt lat="41.49020000957689" lon="-81.77441114799899">
        <ele>197.1416795333</ele>
        <time>2026-04-18T11:06:28Z</time>
      </trkpt>
      <trkpt lat="41.49030333781737" lon="-81.77493984245297">
        <ele>197.1089000376</ele>
        <time>2026-04-18T11:06:42Z</time>
      </trkpt>
      <trkpt lat="41.49087351417359" lon="-81.77727362475748">
        <ele>197.2310800764</ele>
        <time>2026-04-18T11:07:27Z</time>
      </trkpt>
      <trkpt lat="41.49158575889526" lon="-81.78027595126245">
        <ele>196.9621852080</ele>
        <time>2026-04-18T11:08:21Z</time>
      </trkpt>
      <trkpt lat="41.49215789373109" lon="-81.78273660095310">
        <ele>195.9503060991</ele>
        <time>2026-04-18T11:09:07Z</time>
      </trkpt>
      <trkpt lat="41.49267427321810" lon="-81.79070519096250">
        <ele>195.5374927576</ele>
        <time>2026-04-18T11:10:34Z</time>
      </trkpt>
      <trkpt lat="41.49295007603018" lon="-81.79448243330681">
        <ele>194.8768927619</ele>
        <time>2026-04-18T11:11:41Z</time>
      </trkpt>
      <trkpt lat="41.49301459211721" lon="-81.79580084724540">
        <ele>194.7522353807</ele>
        <time>2026-04-18T11:12:00Z</time>
      </trkpt>
      <trkpt lat="41.49308519723200" lon="-81.79686223209468">
        <ele>194.1771100113</ele>
        <time>2026-04-18T11:12:22Z</time>
      </trkpt>
      <trkpt lat="41.49349965959210" lon="-81.79685230905035">
        <ele>194.1080562257</ele>
        <time>2026-04-18T11:12:34Z</time>
      </trkpt>
      <trkpt lat="41.49351432277097" lon="-81.79677143712577">
        <ele>194.0785636230</ele>
        <time>2026-04-18T11:12:35Z</time>
      </trkpt>
      <trkpt lat="41.49354561085190" lon="-81.79671362661621">
        <ele>193.8418771910</ele>
        <time>2026-04-18T11:12:36Z</time>
      </trkpt>
      <trkpt lat="41.49358204541416" lon="-81.79665866691653">
        <ele>194.0000766563</ele>
        <time>2026-04-18T11:12:37Z</time>
      </trkpt>
      <trkpt lat="41.49363555708157" lon="-81.79664405565558">
        <ele>193.9879522808</ele>
        <time>2026-04-18T11:12:38Z</time>
      </trkpt>
      <trkpt lat="41.49368222671229" lon="-81.79663416674282">
        <ele>193.8803346385</ele>
        <time>2026-04-18T11:12:39Z</time>
      </trkpt>
      <trkpt lat="41.49385777024943" lon="-81.79667522106477">
        <ele>193.9383354472</ele>
        <time>2026-04-18T11:12:42Z</time>
      </trkpt>
      <trkpt lat="41.49389045397592" lon="-81.79667011552536">
        <ele>194.0185470931</ele>
        <time>2026-04-18T11:12:43Z</time>
      </trkpt>
      <trkpt lat="41.49444105430700" lon="-81.79653142071768">
        <ele>193.6879174891</ele>
        <time>2026-04-18T11:13:02Z</time>
      </trkpt>
      <trkpt lat="41.49450914095623" lon="-81.79645455983935">
        <ele>193.1167602839</ele>
        <time>2026-04-18T11:13:04Z</time>
      </trkpt>
      <trkpt lat="41.49501488675353" lon="-81.79607588323039">
        <ele>192.8031675725</ele>
        <time>2026-04-18T11:13:16Z</time>
      </trkpt>
      <trkpt lat="41.49508047003221" lon="-81.79604601319031">
        <ele>192.9632736055</ele>
        <time>2026-04-18T11:13:17Z</time>
      </trkpt>
      <trkpt lat="41.49521236737850" lon="-81.79602352393196">
        <ele>192.8551890505</ele>
        <time>2026-04-18T11:13:20Z</time>
      </trkpt>
      <trkpt lat="41.49532492494206" lon="-81.79606079273086">
        <ele>193.1889955413</ele>
        <time>2026-04-18T11:13:23Z</time>
      </trkpt>
      <trkpt lat="41.49544549440775" lon="-81.79612507424990">
        <ele>192.9157109149</ele>
        <time>2026-04-18T11:13:25Z</time>
      </trkpt>
      <trkpt lat="41.49550296201669" lon="-81.79618738580906">
        <ele>192.9733949681</ele>
        <time>2026-04-18T11:13:27Z</time>
      </trkpt>
      <trkpt lat="41.49551924206538" lon="-81.79625362718046">
        <ele>192.9916531940</ele>
        <time>2026-04-18T11:13:28Z</time>
      </trkpt>
      <trkpt lat="41.49552650871854" lon="-81.79631905226431">
        <ele>193.3464423849</ele>
        <time>2026-04-18T11:13:29Z</time>
      </trkpt>
    </trkseg>
  </trk>
</gpx>