<?xml version='1.0' encoding='UTF-8'?>
<gpx xmlns="http://www.topografix.com/GPX/1/1" creator="https://gpx.studio" version="1.1">
  <metadata>
    <name>Bike - 2026-08-25</name>
  </metadata>
  <trk>
    <name>Bike - 2026-08-25</name>
    <type>cycling</type>
    <trkseg>
      <trkpt lat="41.43061910634916" lon="-81.66232293712041">
        <ele>198.0462808095</ele>
        <time>2026-08-25T13:51:39Z</time>
      </trkpt>
      <trkpt lat="41.43077184249949" lon="-81.66231516482414">
        <ele>199.1529378266</ele>
        <time>2026-08-25T13:51:42Z</time>
      </trkpt>
      <trkpt lat="41.43087952058035" lon="-81.66229974195349">
        <ele>198.8618281917</ele>
        <time>2026-08-25T13:51:44Z</time>
      </trkpt>
      <trkpt lat="41.43089932457384" lon="-81.66236977868488">
        <ele>198.9161975834</ele>
        <time>2026-08-25T13:51:45Z</time>
      </trkpt>
      <trkpt lat="41.43082925854480" lon="-81.66268950409830">
        <ele>197.1862669172</ele>
        <time>2026-08-25T13:51:50Z</time>
      </trkpt>
      <trkpt lat="41.43077969528942" lon="-81.66297802274654">
        <ele>194.4034029635</ele>
        <time>2026-08-25T13:51:54Z</time>
      </trkpt>
      <trkpt lat="41.43068992472875" lon="-81.66321787365175">
        <ele>192.7262599389</ele>
        <time>2026-08-25T13:51:58Z</time>
      </trkpt>
      <trkpt lat="41.43050264251586" lon="-81.66334880168756">
        <ele>191.2938729029</ele>
        <time>2026-08-25T13:52:02Z</time>
      </trkpt>
      <trkpt lat="41.43003351768807" lon="-81.66346839584961">
        <ele>190.2565808901</ele>
        <time>2026-08-25T13:52:15Z</time>
      </trkpt>
      <trkpt lat="41.42998451513328" lon="-81.66362628625380">
        <ele>188.2227687170</ele>
        <time>2026-08-25T13:52:19Z</time>
      </trkpt>
      <trkpt lat="41.42993118261491" lon="-81.66372130329277">
        <ele>186.2337254937</ele>
        <time>2026-08-25T13:52:21Z</time>
      </trkpt>
      <trkpt lat="41.42979078245756" lon="-81.66375908121729">
        <ele>185.4286059212</ele>
        <time>2026-08-25T13:52:24Z</time>
      </trkpt>
      <trkpt lat="41.42959836643671" lon="-81.66373267871165">
        <ele>185.3492021643</ele>
        <time>2026-08-25T13:52:27Z</time>
      </trkpt>
      <trkpt lat="41.42951223317363" lon="-81.66372068105275">
        <ele>185.7538498401</ele>
        <time>2026-08-25T13:52:29Z</time>
      </trkpt>
      <trkpt lat="41.42943558784114" lon="-81.66372326500725">
        <ele>185.6144485544</ele>
        <time>2026-08-25T13:52:31Z</time>
      </trkpt>
      <trkpt lat="41.42935231232420" lon="-81.66376976024932">
        <ele>186.2933656154</ele>
        <time>2026-08-25T13:52:33Z</time>
      </trkpt>
      <trkpt lat="41.42925516694941" lon="-81.66392530254672">
        <ele>185.1391188050</ele>
        <time>2026-08-25T13:52:36Z</time>
      </trkpt>
      <trkpt lat="41.42908955299582" lon="-81.66403846813417">
        <ele>185.1642606884</ele>
        <time>2026-08-25T13:52:40Z</time>
      </trkpt>
      <trkpt lat="41.42894746470441" lon="-81.66409869385872">
        <ele>184.3752746972</ele>
        <time>2026-08-25T13:52:43Z</time>
      </trkpt>
      <trkpt lat="41.42882740873336" lon="-81.66410713943934">
        <ele>184.3110374718</ele>
        <time>2026-08-25T13:52:45Z</time>
      </trkpt>
      <trkpt lat="41.42861920061893" lon="-81.66416141098179">
        <ele>184.3466474139</ele>
        <time>2026-08-25T13:52:50Z</time>
      </trkpt>
      <trkpt lat="41.42844915693122" lon="-81.66435307907088">
        <ele>183.6221020404</ele>
        <time>2026-08-25T13:52:55Z</time>
      </trkpt>
      <trkpt lat="41.42817294930470" lon="-81.66474434724275">
        <ele>181.9243802055</ele>
        <time>2026-08-25T13:53:03Z</time>
      </trkpt>
      <trkpt lat="41.42808453766079" lon="-81.66492516245160">
        <ele>181.9910354487</ele>
        <time>2026-08-25T13:53:06Z</time>
      </trkpt>
      <trkpt lat="41.42805749876298" lon="-81.66510812316814">
        <ele>180.2979587043</ele>
        <time>2026-08-25T13:53:10Z</time>
      </trkpt>
      <trkpt lat="41.42799513868659" lon="-81.66539457560226">
        <ele>181.1151498864</ele>
        <time>2026-08-25T13:53:16Z</time>
      </trkpt>
      <trkpt lat="41.42796588390144" lon="-81.66546692985852">
        <ele>180.6018794144</ele>
        <time>2026-08-25T13:53:17Z</time>
      </trkpt>
      <trkpt lat="41.42840914665449" lon="-81.66563777231497">
        <ele>180.9959645848</ele>
        <time>2026-08-25T13:53:25Z</time>
      </trkpt>
      <trkpt lat="41.42861072332020" lon="-81.66570572279218">
        <ele>180.7888934334</ele>
        <time>2026-08-25T13:53:28Z</time>
      </trkpt>
      <trkpt lat="41.42880167723720" lon="-81.66573023556353">
        <ele>180.9320295395</ele>
        <time>2026-08-25T13:53:56Z</time>
      </trkpt>
      <trkpt lat="41.42932819248422" lon="-81.66573049977339">
        <ele>181.0704540551</ele>
        <time>2026-08-25T13:54:05Z</time>
      </trkpt>
      <trkpt lat="41.42966106857961" lon="-81.66566650840701">
        <ele>181.7299378006</ele>
        <time>2026-08-25T13:54:15Z</time>
      </trkpt>
      <trkpt lat="41.42983619197981" lon="-81.66559419440108">
        <ele>181.9751587120</ele>
        <time>2026-08-25T13:54:19Z</time>
      </trkpt>
      <trkpt lat="41.43048265329941" lon="-81.66527226776704">
        <ele>181.5574968183</ele>
        <time>2026-08-25T13:54:33Z</time>
      </trkpt>
      <trkpt lat="41.43209730786058" lon="-81.66450625283341">
        <ele>180.8535438266</ele>
        <time>2026-08-25T13:55:10Z</time>
      </trkpt>
      <trkpt lat="41.43351945548915" lon="-81.66381000183064">
        <ele>181.1856596420</ele>
        <time>2026-08-25T13:55:40Z</time>
      </trkpt>
      <trkpt lat="41.43440050758102" lon="-81.66335129475497">
        <ele>180.0195412554</ele>
        <time>2026-08-25T13:55:59Z</time>
      </trkpt>
      <trkpt lat="41.43484801221479" lon="-81.66313074661463">
        <ele>181.4665462716</ele>
        <time>2026-08-25T13:56:12Z</time>
      </trkpt>
      <trkpt lat="41.43513902920514" lon="-81.66301606280496">
        <ele>181.4933996167</ele>
        <time>2026-08-25T13:56:18Z</time>
      </trkpt>
      <trkpt lat="41.43531618692191" lon="-81.66297137428172">
        <ele>181.9061985602</ele>
        <time>2026-08-25T13:56:21Z</time>
      </trkpt>
      <trkpt lat="41.43550659138979" lon="-81.66295493588436">
        <ele>181.8227523135</ele>
        <time>2026-08-25T13:56:25Z</time>
      </trkpt>
      <trkpt lat="41.43592921971904" lon="-81.66292217144841">
        <ele>182.6523269138</ele>
        <time>2026-08-25T13:56:34Z</time>
      </trkpt>
      <trkpt lat="41.43603390381285" lon="-81.66292280120463">
        <ele>182.6443157545</ele>
        <time>2026-08-25T13:56:36Z</time>
      </trkpt>
      <trkpt lat="41.43613865344933" lon="-81.66295147407511">
        <ele>182.1141146101</ele>
        <time>2026-08-25T13:56:38Z</time>
      </trkpt>
      <trkpt lat="41.43643992418104" lon="-81.66294045382404">
        <ele>180.8517447308</ele>
        <time>2026-08-25T13:56:46Z</time>
      </trkpt>
      <trkpt lat="41.43663555911814" lon="-81.66296253249541">
        <ele>181.8029677907</ele>
        <time>2026-08-25T13:56:51Z</time>
      </trkpt>
      <trkpt lat="41.43688937745885" lon="-81.66314039870615">
        <ele>180.2027212122</ele>
        <time>2026-08-25T13:56:57Z</time>
      </trkpt>
      <trkpt lat="41.43704546050365" lon="-81.66331374567211">
        <ele>179.4753439100</ele>
        <time>2026-08-25T13:57:02Z</time>
      </trkpt>
      <trkpt lat="41.43713397990278" lon="-81.66343780947197">
        <ele>177.6373573753</ele>
        <time>2026-08-25T13:57:04Z</time>
      </trkpt>
      <trkpt lat="41.43722971837267" lon="-81.66350690370417">
        <ele>178.0825590639</ele>
        <time>2026-08-25T13:57:06Z</time>
      </trkpt>
      <trkpt lat="41.43731982250875" lon="-81.66364729030472">
        <ele>178.1990238960</ele>
        <time>2026-08-25T13:57:09Z</time>
      </trkpt>
      <trkpt lat="41.43736990864487" lon="-81.66374556239118">
        <ele>177.6474182025</ele>
        <time>2026-08-25T13:57:10Z</time>
      </trkpt>
      <trkpt lat="41.43747268757923" lon="-81.66391658582351">
        <ele>177.7578497024</ele>
        <time>2026-08-25T13:57:14Z</time>
      </trkpt>
      <trkpt lat="41.43773867074948" lon="-81.66417836812599">
        <ele>178.2305949272</ele>
        <time>2026-08-25T13:57:19Z</time>
      </trkpt>
      <trkpt lat="41.43808776685314" lon="-81.66467658573710">
        <ele>179.7098589414</ele>
        <time>2026-08-25T13:57:29Z</time>
      </trkpt>
      <trkpt lat="41.43827597797716" lon="-81.66497915245756">
        <ele>178.4983409706</ele>
        <time>2026-08-25T13:57:35Z</time>
      </trkpt>
      <trkpt lat="41.43844759958773" lon="-81.66527926439925">
        <ele>179.7509970549</ele>
        <time>2026-08-25T13:57:40Z</time>
      </trkpt>
      <trkpt lat="41.43859270156732" lon="-81.66577712922890">
        <ele>179.2558689660</ele>
        <time>2026-08-25T13:57:47Z</time>
      </trkpt>
      <trkpt lat="41.43872354056995" lon="-81.66605097214662">
        <ele>179.0226734660</ele>
        <time>2026-08-25T13:57:52Z</time>
      </trkpt>
      <trkpt lat="41.43878026263729" lon="-81.66613189680486">
        <ele>179.0318221354</ele>
        <time>2026-08-25T13:57:55Z</time>
      </trkpt>
      <trkpt lat="41.43883500514657" lon="-81.66616784032738">
        <ele>179.0359510409</ele>
        <time>2026-08-25T13:57:56Z</time>
      </trkpt>
      <trkpt lat="41.43903386472816" lon="-81.66621859690952">
        <ele>179.1066775579</ele>
        <time>2026-08-25T13:58:01Z</time>
      </trkpt>
      <trkpt lat="41.43915029033101" lon="-81.66626940712008">
        <ele>178.6694496571</ele>
        <time>2026-08-25T13:58:04Z</time>
      </trkpt>
      <trkpt lat="41.43931609982798" lon="-81.66639698417470">
        <ele>178.4738357791</ele>
        <time>2026-08-25T13:58:07Z</time>
      </trkpt>
      <trkpt lat="41.43954861410453" lon="-81.66673096593449">
        <ele>177.8696717665</ele>
        <time>2026-08-25T13:58:14Z</time>
      </trkpt>
      <trkpt lat="41.43979346265417" lon="-81.66704373650256">
        <ele>178.0178485426</ele>
        <time>2026-08-25T13:58:21Z</time>
      </trkpt>
      <trkpt lat="41.43987215695167" lon="-81.66714190833544">
        <ele>178.0709799711</ele>
        <time>2026-08-25T13:58:23Z</time>
      </trkpt>
      <trkpt lat="41.44002055836104" lon="-81.66734928580804">
        <ele>178.0066089810</ele>
        <time>2026-08-25T13:58:29Z</time>
      </trkpt>
      <trkpt lat="41.44014654341636" lon="-81.66756249461321">
        <ele>178.4899201413</ele>
        <time>2026-08-25T13:58:33Z</time>
      </trkpt>
      <trkpt lat="41.44037056518455" lon="-81.66788092771016">
        <ele>179.3903558190</ele>
        <time>2026-08-25T13:58:38Z</time>
      </trkpt>
      <trkpt lat="41.44047796264132" lon="-81.66801063263935">
        <ele>180.0646661912</ele>
        <time>2026-08-25T13:58:42Z</time>
      </trkpt>
      <trkpt lat="41.44062347944148" lon="-81.66816715013806">
        <ele>180.2459748927</ele>
        <time>2026-08-25T13:59:12Z</time>
      </trkpt>
      <trkpt lat="41.44066994945629" lon="-81.66827907930711">
        <ele>180.3186168359</ele>
        <time>2026-08-25T13:59:14Z</time>
      </trkpt>
      <trkpt lat="41.44069759977637" lon="-81.66833711607271">
        <ele>180.2973514330</ele>
        <time>2026-08-25T13:59:15Z</time>
      </trkpt>
      <trkpt lat="41.44069176340513" lon="-81.66848754166558">
        <ele>180.4612220797</ele>
        <time>2026-08-25T13:59:17Z</time>
      </trkpt>
      <trkpt lat="41.44066948457949" lon="-81.66860087207414">
        <ele>180.7851889646</ele>
        <time>2026-08-25T13:59:19Z</time>
      </trkpt>
      <trkpt lat="41.44057952151152" lon="-81.66881887118474">
        <ele>180.3145096098</ele>
        <time>2026-08-25T13:59:24Z</time>
      </trkpt>
      <trkpt lat="41.44056738280376" lon="-81.66897778952561">
        <ele>180.1952085033</ele>
        <time>2026-08-25T13:59:27Z</time>
      </trkpt>
      <trkpt lat="41.44056123762991" lon="-81.66910102164834">
        <ele>180.2923764799</ele>
        <time>2026-08-25T13:59:29Z</time>
      </trkpt>
      <trkpt lat="41.44058587259641" lon="-81.66918308868904">
        <ele>180.2648396391</ele>
        <time>2026-08-25T13:59:30Z</time>
      </trkpt>
      <trkpt lat="41.44068666375772" lon="-81.66946680387257">
        <ele>180.3810590818</ele>
        <time>2026-08-25T13:59:35Z</time>
      </trkpt>
      <trkpt lat="41.44070471076490" lon="-81.66953605447418">
        <ele>180.3214072051</ele>
        <time>2026-08-25T13:59:36Z</time>
      </trkpt>
      <trkpt lat="41.44071121489358" lon="-81.66970603883968">
        <ele>180.2694852577</ele>
        <time>2026-08-25T13:59:38Z</time>
      </trkpt>
      <trkpt lat="41.44060199206452" lon="-81.67008512003521">
        <ele>179.9934656030</ele>
        <time>2026-08-25T13:59:44Z</time>
      </trkpt>
      <trkpt lat="41.44058464274219" lon="-81.67020058800529">
        <ele>179.8712637836</ele>
        <time>2026-08-25T13:59:46Z</time>
      </trkpt>
      <trkpt lat="41.44056210853464" lon="-81.67028768235795">
        <ele>179.6204877632</ele>
        <time>2026-08-25T13:59:48Z</time>
      </trkpt>
      <trkpt lat="41.44050001346911" lon="-81.67036019899753">
        <ele>178.8048766781</ele>
        <time>2026-08-25T13:59:49Z</time>
      </trkpt>
      <trkpt lat="41.44047116641258" lon="-81.67047792559892">
        <ele>179.0402054929</ele>
        <time>2026-08-25T14:00:12Z</time>
      </trkpt>
      <trkpt lat="41.44044938541096" lon="-81.67058169918170">
        <ele>179.1959865115</ele>
        <time>2026-08-25T14:00:13Z</time>
      </trkpt>
      <trkpt lat="41.44047811097279" lon="-81.67097550037964">
        <ele>179.1040215009</ele>
        <time>2026-08-25T14:00:20Z</time>
      </trkpt>
      <trkpt lat="41.44044732089922" lon="-81.67112424858085">
        <ele>179.4810959760</ele>
        <time>2026-08-25T14:00:22Z</time>
      </trkpt>
      <trkpt lat="41.44037818184710" lon="-81.67122860446072">
        <ele>179.8230064848</ele>
        <time>2026-08-25T14:00:25Z</time>
      </trkpt>
      <trkpt lat="41.44013592271380" lon="-81.67145409142319">
        <ele>180.0080370189</ele>
        <time>2026-08-25T14:00:31Z</time>
      </trkpt>
      <trkpt lat="41.44009408983119" lon="-81.67156467096217">
        <ele>180.3147408725</ele>
        <time>2026-08-25T14:00:33Z</time>
      </trkpt>
      <trkpt lat="41.44006114158043" lon="-81.67170367354983">
        <ele>181.9739660095</ele>
        <time>2026-08-25T14:00:35Z</time>
      </trkpt>
      <trkpt lat="41.44000324668496" lon="-81.67179645479736">
        <ele>182.1434244353</ele>
        <time>2026-08-25T14:00:37Z</time>
      </trkpt>
      <trkpt lat="41.43996464337025" lon="-81.67184075734221">
        <ele>182.1892310110</ele>
        <time>2026-08-25T14:00:38Z</time>
      </trkpt>
      <trkpt lat="41.43991000445860" lon="-81.67187010879331">
        <ele>182.1348531211</ele>
        <time>2026-08-25T14:00:39Z</time>
      </trkpt>
      <trkpt lat="41.43972493743763" lon="-81.67184962287855">
        <ele>182.0851160716</ele>
        <time>2026-08-25T14:00:43Z</time>
      </trkpt>
      <trkpt lat="41.43957645713510" lon="-81.67181925945498">
        <ele>181.7097895360</ele>
        <time>2026-08-25T14:00:47Z</time>
      </trkpt>
      <trkpt lat="41.43945846878248" lon="-81.67181485762904">
        <ele>181.3984173463</ele>
        <time>2026-08-25T14:00:49Z</time>
      </trkpt>
      <trkpt lat="41.43937043514359" lon="-81.67182842915753">
        <ele>181.6375694440</ele>
        <time>2026-08-25T14:00:51Z</time>
      </trkpt>
      <trkpt lat="41.43922836692430" lon="-81.67188907828226">
        <ele>181.0055516314</ele>
        <time>2026-08-25T14:00:54Z</time>
      </trkpt>
      <trkpt lat="41.43919122852852" lon="-81.67195256658466">
        <ele>180.3719791908</ele>
        <time>2026-08-25T14:00:55Z</time>
      </trkpt>
      <trkpt lat="41.43912354120690" lon="-81.67207444731666">
        <ele>180.1307680119</ele>
        <time>2026-08-25T14:00:58Z</time>
      </trkpt>
      <trkpt lat="41.43910519372904" lon="-81.67222078510838">
        <ele>180.0296933483</ele>
        <time>2026-08-25T14:01:00Z</time>
      </trkpt>
      <trkpt lat="41.43914754759939" lon="-81.67233591344520">
        <ele>179.3758976361</ele>
        <time>2026-08-25T14:01:02Z</time>
      </trkpt>
      <trkpt lat="41.43921006688783" lon="-81.67245268836278">
        <ele>179.5727219655</ele>
        <time>2026-08-25T14:01:03Z</time>
      </trkpt>
      <trkpt lat="41.43932487868801" lon="-81.67260516021121">
        <ele>179.1660882608</ele>
        <time>2026-08-25T14:01:07Z</time>
      </trkpt>
      <trkpt lat="41.43935060391418" lon="-81.67270686675542">
        <ele>179.0252071842</ele>
        <time>2026-08-25T14:01:08Z</time>
      </trkpt>
      <trkpt lat="41.43938288850410" lon="-81.67277676955202">
        <ele>179.0691893919</ele>
        <time>2026-08-25T14:01:09Z</time>
      </trkpt>
      <trkpt lat="41.43945750695951" lon="-81.67301719221670">
        <ele>179.4011627773</ele>
        <time>2026-08-25T14:01:14Z</time>
      </trkpt>
      <trkpt lat="41.43956633178351" lon="-81.67323483515349">
        <ele>179.5262112278</ele>
        <time>2026-08-25T14:01:18Z</time>
      </trkpt>
      <trkpt lat="41.43998622398980" lon="-81.67357059903073">
        <ele>179.7753867796</ele>
        <time>2026-08-25T14:01:29Z</time>
      </trkpt>
      <trkpt lat="41.44016413826687" lon="-81.67380496795690">
        <ele>180.0659606810</ele>
        <time>2026-08-25T14:01:34Z</time>
      </trkpt>
      <trkpt lat="41.44019709201004" lon="-81.67390052213302">
        <ele>180.2358778687</ele>
        <time>2026-08-25T14:01:35Z</time>
      </trkpt>
      <trkpt lat="41.44023584033305" lon="-81.67406890694198">
        <ele>179.9074061843</ele>
        <time>2026-08-25T14:01:38Z</time>
      </trkpt>
      <trkpt lat="41.44031196479714" lon="-81.67413378942163">
        <ele>180.0014564912</ele>
        <time>2026-08-25T14:01:39Z</time>
      </trkpt>
      <trkpt lat="41.44044510483005" lon="-81.67418841229876">
        <ele>180.0692074207</ele>
        <time>2026-08-25T14:01:42Z</time>
      </trkpt>
      <trkpt lat="41.44054725646696" lon="-81.67431220696484">
        <ele>179.7486346012</ele>
        <time>2026-08-25T14:01:45Z</time>
      </trkpt>
      <trkpt lat="41.44068080267341" lon="-81.67473272856773">
        <ele>179.9786297743</ele>
        <time>2026-08-25T14:01:50Z</time>
      </trkpt>
      <trkpt lat="41.44074136835731" lon="-81.67492292128638">
        <ele>179.9464595072</ele>
        <time>2026-08-25T14:01:53Z</time>
      </trkpt>
      <trkpt lat="41.44077946550993" lon="-81.67499097039524">
        <ele>179.8595599476</ele>
        <time>2026-08-25T14:01:55Z</time>
      </trkpt>
      <trkpt lat="41.44097190449557" lon="-81.67504590074529">
        <ele>179.7856243884</ele>
        <time>2026-08-25T14:02:01Z</time>
      </trkpt>
      <trkpt lat="41.44102649826048" lon="-81.67507751113352">
        <ele>179.7171105646</ele>
        <time>2026-08-25T14:02:02Z</time>
      </trkpt>
      <trkpt lat="41.44106162854764" lon="-81.67513058386881">
        <ele>179.6675935308</ele>
        <time>2026-08-25T14:02:03Z</time>
      </trkpt>
      <trkpt lat="41.44123758887093" lon="-81.67565425749774">
        <ele>179.9752858866</ele>
        <time>2026-08-25T14:02:13Z</time>
      </trkpt>
      <trkpt lat="41.44138064545714" lon="-81.67600522986383">
        <ele>179.9663371347</ele>
        <time>2026-08-25T14:02:22Z</time>
      </trkpt>
      <trkpt lat="41.44147973535055" lon="-81.67612119224914">
        <ele>180.1571369913</ele>
        <time>2026-08-25T14:02:25Z</time>
      </trkpt>
      <trkpt lat="41.44172607686959" lon="-81.67634619859308">
        <ele>179.8579114648</ele>
        <time>2026-08-25T14:02:29Z</time>
      </trkpt>
      <trkpt lat="41.44179336644515" lon="-81.67647964538614">
        <ele>179.1678660215</ele>
        <time>2026-08-25T14:02:32Z</time>
      </trkpt>
      <trkpt lat="41.44179893940065" lon="-81.67659518951683">
        <ele>178.9506261219</ele>
        <time>2026-08-25T14:02:34Z</time>
      </trkpt>
      <trkpt lat="41.44192289070615" lon="-81.67668079613409">
        <ele>179.0988815403</ele>
        <time>2026-08-25T14:02:38Z</time>
      </trkpt>
      <trkpt lat="41.44205286066245" lon="-81.67672834777765">
        <ele>179.1126852838</ele>
        <time>2026-08-25T14:02:40Z</time>
      </trkpt>
      <trkpt lat="41.44214699530374" lon="-81.67672810519423">
        <ele>179.1600357260</ele>
        <time>2026-08-25T14:02:42Z</time>
      </trkpt>
      <trkpt lat="41.44221119216813" lon="-81.67671143645411">
        <ele>179.0123560933</ele>
        <time>2026-08-25T14:02:44Z</time>
      </trkpt>
      <trkpt lat="41.44237121036251" lon="-81.67660401240643">
        <ele>179.0105149768</ele>
        <time>2026-08-25T14:02:48Z</time>
      </trkpt>
      <trkpt lat="41.44240420971409" lon="-81.67654455428257">
        <ele>179.0626080612</ele>
        <time>2026-08-25T14:02:49Z</time>
      </trkpt>
      <trkpt lat="41.44248904783718" lon="-81.67633442677274">
        <ele>179.9815690281</ele>
        <time>2026-08-25T14:02:54Z</time>
      </trkpt>
      <trkpt lat="41.44251800379271" lon="-81.67631190488451">
        <ele>180.1696043343</ele>
        <time>2026-08-25T14:02:55Z</time>
      </trkpt>
      <trkpt lat="41.44258769659490" lon="-81.67631155408755">
        <ele>180.0029577461</ele>
        <time>2026-08-25T14:02:56Z</time>
      </trkpt>
      <trkpt lat="41.44289081900831" lon="-81.67643212244997">
        <ele>179.5758142832</ele>
        <time>2026-08-25T14:03:02Z</time>
      </trkpt>
      <trkpt lat="41.44295245104655" lon="-81.67643073070838">
        <ele>179.4616526953</ele>
        <time>2026-08-25T14:03:03Z</time>
      </trkpt>
      <trkpt lat="41.44301401861537" lon="-81.67645059793463">
        <ele>179.6270835174</ele>
        <time>2026-08-25T14:03:05Z</time>
      </trkpt>
      <trkpt lat="41.44310084427126" lon="-81.67656450895363">
        <ele>178.9081962094</ele>
        <time>2026-08-25T14:03:06Z</time>
      </trkpt>
      <trkpt lat="41.44321231882878" lon="-81.67660224216874">
        <ele>178.8877843049</ele>
        <time>2026-08-25T14:03:08Z</time>
      </trkpt>
      <trkpt lat="41.44340996845624" lon="-81.67663278348039">
        <ele>178.5408147311</ele>
        <time>2026-08-25T14:03:13Z</time>
      </trkpt>
      <trkpt lat="41.44349916666633" lon="-81.67665432747872">
        <ele>177.9952141879</ele>
        <time>2026-08-25T14:03:15Z</time>
      </trkpt>
      <trkpt lat="41.44385853631277" lon="-81.67655666748641">
        <ele>182.0107448679</ele>
        <time>2026-08-25T14:03:48Z</time>
      </trkpt>
      <trkpt lat="41.44394582033762" lon="-81.67656527657310">
        <ele>183.3806498055</ele>
        <time>2026-08-25T14:03:51Z</time>
      </trkpt>
      <trkpt lat="41.44400917300703" lon="-81.67655434387042">
        <ele>184.5711635878</ele>
        <time>2026-08-25T14:03:52Z</time>
      </trkpt>
      <trkpt lat="41.44416384950114" lon="-81.67663343157730">
        <ele>185.6878589588</ele>
        <time>2026-08-25T14:03:55Z</time>
      </trkpt>
      <trkpt lat="41.44426355576052" lon="-81.67670864597630">
        <ele>186.9160053381</ele>
        <time>2026-08-25T14:03:57Z</time>
      </trkpt>
      <trkpt lat="41.44436377437513" lon="-81.67683693773031">
        <ele>187.6742967891</ele>
        <time>2026-08-25T14:04:00Z</time>
      </trkpt>
      <trkpt lat="41.44441320110933" lon="-81.67697435212700">
        <ele>187.6291856593</ele>
        <time>2026-08-25T14:04:02Z</time>
      </trkpt>
      <trkpt lat="41.44450068362281" lon="-81.67725911373611">
        <ele>186.8797858079</ele>
        <time>2026-08-25T14:04:08Z</time>
      </trkpt>
      <trkpt lat="41.44456576239665" lon="-81.67744679324464">
        <ele>186.6991868085</ele>
        <time>2026-08-25T14:04:10Z</time>
      </trkpt>
      <trkpt lat="41.44460689723579" lon="-81.67757980260430">
        <ele>186.1088818503</ele>
        <time>2026-08-25T14:04:13Z</time>
      </trkpt>
      <trkpt lat="41.44473167123829" lon="-81.67790091990494">
        <ele>186.9789575904</ele>
        <time>2026-08-25T14:04:18Z</time>
      </trkpt>
      <trkpt lat="41.44502746818089" lon="-81.67861749624804">
        <ele>186.4771529899</ele>
        <time>2026-08-25T14:04:31Z</time>
      </trkpt>
      <trkpt lat="41.44513967170456" lon="-81.67884402360865">
        <ele>187.0827448090</ele>
        <time>2026-08-25T14:04:35Z</time>
      </trkpt>
      <trkpt lat="41.44543553540809" lon="-81.67923402241657">
        <ele>186.2740770700</ele>
        <time>2026-08-25T14:04:43Z</time>
      </trkpt>
      <trkpt lat="41.44547873724467" lon="-81.67940634844160">
        <ele>186.8745252500</ele>
        <time>2026-08-25T14:04:45Z</time>
      </trkpt>
      <trkpt lat="41.44551346523240" lon="-81.67952358792176">
        <ele>187.4186035787</ele>
        <time>2026-08-25T14:04:48Z</time>
      </trkpt>
      <trkpt lat="41.44553246544157" lon="-81.67977659813451">
        <ele>186.6867979206</ele>
        <time>2026-08-25T14:04:51Z</time>
      </trkpt>
      <trkpt lat="41.44552623914634" lon="-81.67998752944280">
        <ele>186.6028454547</ele>
        <time>2026-08-25T14:04:54Z</time>
      </trkpt>
      <trkpt lat="41.44554738946231" lon="-81.68039113689994">
        <ele>186.3769033292</ele>
        <time>2026-08-25T14:05:00Z</time>
      </trkpt>
      <trkpt lat="41.44548841034546" lon="-81.68097556282062">
        <ele>186.4127238148</ele>
        <time>2026-08-25T14:05:09Z</time>
      </trkpt>
      <trkpt lat="41.44547239896638" lon="-81.68176634459837">
        <ele>186.3772718602</ele>
        <time>2026-08-25T14:05:20Z</time>
      </trkpt>
      <trkpt lat="41.44544829410386" lon="-81.68229601784468">
        <ele>186.2907466632</ele>
        <time>2026-08-25T14:05:29Z</time>
      </trkpt>
      <trkpt lat="41.44540798631425" lon="-81.68268827601830">
        <ele>185.8289270229</ele>
        <time>2026-08-25T14:05:34Z</time>
      </trkpt>
      <trkpt lat="41.44542041988747" lon="-81.68285148797011">
        <ele>185.2091188682</ele>
        <time>2026-08-25T14:05:36Z</time>
      </trkpt>
      <trkpt lat="41.44543514715798" lon="-81.68291461797190">
        <ele>184.7664729239</ele>
        <time>2026-08-25T14:05:37Z</time>
      </trkpt>
      <trkpt lat="41.44548209140655" lon="-81.68298238636835">
        <ele>184.6012581955</ele>
        <time>2026-08-25T14:05:38Z</time>
      </trkpt>
      <trkpt lat="41.44553610200154" lon="-81.68303480370560">
        <ele>184.2765826602</ele>
        <time>2026-08-25T14:05:39Z</time>
      </trkpt>
      <trkpt lat="41.44562586141369" lon="-81.68308447662403">
        <ele>184.5798578591</ele>
        <time>2026-08-25T14:05:41Z</time>
      </trkpt>
      <trkpt lat="41.44574393481125" lon="-81.68307013358299">
        <ele>185.1028142893</ele>
        <time>2026-08-25T14:05:44Z</time>
      </trkpt>
      <trkpt lat="41.44591599149462" lon="-81.68310897947508">
        <ele>184.7642854054</ele>
        <time>2026-08-25T14:05:48Z</time>
      </trkpt>
      <trkpt lat="41.44607940409863" lon="-81.68310300840814">
        <ele>184.8464731253</ele>
        <time>2026-08-25T14:05:51Z</time>
      </trkpt>
      <trkpt lat="41.44617940943422" lon="-81.68308590228787">
        <ele>184.8851194632</ele>
        <time>2026-08-25T14:05:53Z</time>
      </trkpt>
      <trkpt lat="41.44633671175589" lon="-81.68299682074746">
        <ele>184.8032673735</ele>
        <time>2026-08-25T14:05:57Z</time>
      </trkpt>
      <trkpt lat="41.44647115136864" lon="-81.68285782786911">
        <ele>185.4941021041</ele>
        <time>2026-08-25T14:06:02Z</time>
      </trkpt>
      <trkpt lat="41.44653168275173" lon="-81.68274872086525">
        <ele>185.6158811982</ele>
        <time>2026-08-25T14:06:04Z</time>
      </trkpt>
      <trkpt lat="41.44672864122166" lon="-81.68259049527555">
        <ele>186.4901590765</ele>
        <time>2026-08-25T14:06:08Z</time>
      </trkpt>
      <trkpt lat="41.44685462267146" lon="-81.68251740567887">
        <ele>186.2124586957</ele>
        <time>2026-08-25T14:06:13Z</time>
      </trkpt>
      <trkpt lat="41.44689692679542" lon="-81.68248954151629">
        <ele>185.9484948192</ele>
        <time>2026-08-25T14:06:14Z</time>
      </trkpt>
      <trkpt lat="41.44703028196841" lon="-81.68256346392383">
        <ele>184.9927200155</ele>
        <time>2026-08-25T14:06:17Z</time>
      </trkpt>
      <trkpt lat="41.44707800423794" lon="-81.68255983336164">
        <ele>185.0044208222</ele>
        <time>2026-08-25T14:06:18Z</time>
      </trkpt>
      <trkpt lat="41.44725448915790" lon="-81.68253130165701">
        <ele>185.3007805623</ele>
        <time>2026-08-25T14:06:22Z</time>
      </trkpt>
      <trkpt lat="41.44728894780878" lon="-81.68254638228669">
        <ele>184.9901624211</ele>
        <time>2026-08-25T14:06:23Z</time>
      </trkpt>
      <trkpt lat="41.44731166127467" lon="-81.68262454083543">
        <ele>184.9703424717</ele>
        <time>2026-08-25T14:06:24Z</time>
      </trkpt>
      <trkpt lat="41.44729954968022" lon="-81.68370348711160">
        <ele>182.1645820040</ele>
        <time>2026-08-25T14:06:37Z</time>
      </trkpt>
      <trkpt lat="41.44729993176865" lon="-81.68403095533515">
        <ele>181.6181498284</ele>
        <time>2026-08-25T14:06:42Z</time>
      </trkpt>
      <trkpt lat="41.44732450767174" lon="-81.68435599424922">
        <ele>181.1398799217</ele>
        <time>2026-08-25T14:06:46Z</time>
      </trkpt>
      <trkpt lat="41.44733492936317" lon="-81.68517593087620">
        <ele>180.9657050305</ele>
        <time>2026-08-25T14:07:00Z</time>
      </trkpt>
      <trkpt lat="41.44730954632188" lon="-81.68537302949460">
        <ele>180.8783545097</ele>
        <time>2026-08-25T14:07:02Z</time>
      </trkpt>
      <trkpt lat="41.44732349789489" lon="-81.68570627103492">
        <ele>180.0970198342</ele>
        <time>2026-08-25T14:07:10Z</time>
      </trkpt>
      <trkpt lat="41.44735788693703" lon="-81.68613581324811">
        <ele>180.0448326164</ele>
        <time>2026-08-25T14:07:16Z</time>
      </trkpt>
      <trkpt lat="41.44738366431556" lon="-81.68682863971561">
        <ele>180.9557483851</ele>
        <time>2026-08-25T14:07:27Z</time>
      </trkpt>
      <trkpt lat="41.44738633669301" lon="-81.68704752366662">
        <ele>180.1747394306</ele>
        <time>2026-08-25T14:07:31Z</time>
      </trkpt>
      <trkpt lat="41.44729933088301" lon="-81.68750153736390">
        <ele>180.1493882187</ele>
        <time>2026-08-25T14:07:39Z</time>
      </trkpt>
      <trkpt lat="41.44730976557153" lon="-81.68755314937283">
        <ele>179.9224589861</ele>
        <time>2026-08-25T14:07:40Z</time>
      </trkpt>
      <trkpt lat="41.44732485494487" lon="-81.68759050468510">
        <ele>180.1568882055</ele>
        <time>2026-08-25T14:07:41Z</time>
      </trkpt>
      <trkpt lat="41.44734652885697" lon="-81.68763588367648">
        <ele>180.0000743702</ele>
        <time>2026-08-25T14:07:42Z</time>
      </trkpt>
      <trkpt lat="41.44741787620616" lon="-81.68764713299548">
        <ele>180.2036125661</ele>
        <time>2026-08-25T14:07:43Z</time>
      </trkpt>
      <trkpt lat="41.44782899743844" lon="-81.68768763908864">
        <ele>180.3702849369</ele>
        <time>2026-08-25T14:07:52Z</time>
      </trkpt>
      <trkpt lat="41.44867862784996" lon="-81.68769001652299">
        <ele>180.0314021171</ele>
        <time>2026-08-25T14:08:12Z</time>
      </trkpt>
      <trkpt lat="41.44876479112023" lon="-81.68770546475567">
        <ele>180.0465852202</ele>
        <time>2026-08-25T14:08:14Z</time>
      </trkpt>
      <trkpt lat="41.44885854498830" lon="-81.68773989309653">
        <ele>179.7587694367</ele>
        <time>2026-08-25T14:08:16Z</time>
      </trkpt>
      <trkpt lat="41.44903696306940" lon="-81.68775578660936">
        <ele>180.1112104096</ele>
        <time>2026-08-25T14:08:19Z</time>
      </trkpt>
      <trkpt lat="41.45019284710747" lon="-81.68777557073825">
        <ele>181.1606517014</ele>
        <time>2026-08-25T14:08:37Z</time>
      </trkpt>
      <trkpt lat="41.45081942599294" lon="-81.68777961522584">
        <ele>180.0430304951</ele>
        <time>2026-08-25T14:08:49Z</time>
      </trkpt>
      <trkpt lat="41.45101770806977" lon="-81.68778774535799">
        <ele>180.4331458617</ele>
        <time>2026-08-25T14:08:53Z</time>
      </trkpt>
      <trkpt lat="41.45115432732445" lon="-81.68776571844879">
        <ele>180.9401928045</ele>
        <time>2026-08-25T14:08:57Z</time>
      </trkpt>
      <trkpt lat="41.45184184391608" lon="-81.68762513616088">
        <ele>183.3757616769</ele>
        <time>2026-08-25T14:09:17Z</time>
      </trkpt>
      <trkpt lat="41.45191285063471" lon="-81.68762834028681">
        <ele>183.5273622501</ele>
        <time>2026-08-25T14:09:19Z</time>
      </trkpt>
      <trkpt lat="41.45207924272400" lon="-81.68761607460443">
        <ele>183.6037735613</ele>
        <time>2026-08-25T14:09:23Z</time>
      </trkpt>
      <trkpt lat="41.45222120516199" lon="-81.68763273378268">
        <ele>183.0558603548</ele>
        <time>2026-08-25T14:09:25Z</time>
      </trkpt>
      <trkpt lat="41.45297081818723" lon="-81.68766715208270">
        <ele>184.5938555413</ele>
        <time>2026-08-25T14:09:40Z</time>
      </trkpt>
      <trkpt lat="41.45317916607272" lon="-81.68770577351169">
        <ele>185.2798986437</ele>
        <time>2026-08-25T14:09:44Z</time>
      </trkpt>
      <trkpt lat="41.45331654614509" lon="-81.68765624174191">
        <ele>185.4381463005</ele>
        <time>2026-08-25T14:09:46Z</time>
      </trkpt>
      <trkpt lat="41.45347570726045" lon="-81.68757833908805">
        <ele>185.3449480098</ele>
        <time>2026-08-25T14:09:49Z</time>
      </trkpt>
      <trkpt lat="41.45362480266353" lon="-81.68746285725790">
        <ele>185.6630245122</ele>
        <time>2026-08-25T14:09:52Z</time>
      </trkpt>
      <trkpt lat="41.45374801572816" lon="-81.68741070427764">
        <ele>185.7952965590</ele>
        <time>2026-08-25T14:09:55Z</time>
      </trkpt>
      <trkpt lat="41.45418501250077" lon="-81.68738105621249">
        <ele>185.9326918452</ele>
        <time>2026-08-25T14:10:04Z</time>
      </trkpt>
      <trkpt lat="41.45440659906872" lon="-81.68742368528001">
        <ele>185.3041135295</ele>
        <time>2026-08-25T14:10:09Z</time>
      </trkpt>
      <trkpt lat="41.45470234744003" lon="-81.68753808717554">
        <ele>186.9215530459</ele>
        <time>2026-08-25T14:10:15Z</time>
      </trkpt>
      <trkpt lat="41.45588084097002" lon="-81.68797721695496">
        <ele>183.4738090172</ele>
        <time>2026-08-25T14:10:36Z</time>
      </trkpt>
      <trkpt lat="41.45608293388313" lon="-81.68806487841394">
        <ele>184.0497267598</ele>
        <time>2026-08-25T14:10:41Z</time>
      </trkpt>
      <trkpt lat="41.45663536980702" lon="-81.68813969703456">
        <ele>182.1504737006</ele>
        <time>2026-08-25T14:10:50Z</time>
      </trkpt>
      <trkpt lat="41.45701034623877" lon="-81.68817358743057">
        <ele>180.7836966774</ele>
        <time>2026-08-25T14:10:57Z</time>
      </trkpt>
      <trkpt lat="41.45750861998606" lon="-81.68817431572742">
        <ele>180.7484310516</ele>
        <time>2026-08-25T14:11:09Z</time>
      </trkpt>
      <trkpt lat="41.45799894717286" lon="-81.68816178853218">
        <ele>180.4036503512</ele>
        <time>2026-08-25T14:11:18Z</time>
      </trkpt>
      <trkpt lat="41.45905914606399" lon="-81.68795697246581">
        <ele>180.2614212726</ele>
        <time>2026-08-25T14:11:35Z</time>
      </trkpt>
      <trkpt lat="41.45925893693314" lon="-81.68792530075855">
        <ele>180.0834638988</ele>
        <time>2026-08-25T14:11:40Z</time>
      </trkpt>
      <trkpt lat="41.45948277979100" lon="-81.68793494945278">
        <ele>181.1491231694</ele>
        <time>2026-08-25T14:11:46Z</time>
      </trkpt>
      <trkpt lat="41.45959843455053" lon="-81.68791570258908">
        <ele>180.8323084161</ele>
        <time>2026-08-25T14:11:49Z</time>
      </trkpt>
      <trkpt lat="41.45980734191981" lon="-81.68781661475187">
        <ele>180.6465144071</ele>
        <time>2026-08-25T14:11:53Z</time>
      </trkpt>
      <trkpt lat="41.45998231256415" lon="-81.68775338844274">
        <ele>180.0962679799</ele>
        <time>2026-08-25T14:11:57Z</time>
      </trkpt>
      <trkpt lat="41.46033873247782" lon="-81.68768284180575">
        <ele>180.4614892124</ele>
        <time>2026-08-25T14:12:05Z</time>
      </trkpt>
      <trkpt lat="41.46049220898891" lon="-81.68768257835082">
        <ele>180.5930379970</ele>
        <time>2026-08-25T14:12:07Z</time>
      </trkpt>
      <trkpt lat="41.46063157859373" lon="-81.68769606643177">
        <ele>180.9861106570</ele>
        <time>2026-08-25T14:12:10Z</time>
      </trkpt>
      <trkpt lat="41.46075066467960" lon="-81.68765971517432">
        <ele>180.6525551154</ele>
        <time>2026-08-25T14:12:12Z</time>
      </trkpt>
      <trkpt lat="41.46089447537643" lon="-81.68756932820145">
        <ele>180.2090510522</ele>
        <time>2026-08-25T14:12:15Z</time>
      </trkpt>
      <trkpt lat="41.46104486605374" lon="-81.68750908184963">
        <ele>180.6009514009</ele>
        <time>2026-08-25T14:12:19Z</time>
      </trkpt>
      <trkpt lat="41.46227918395140" lon="-81.68724398739218">
        <ele>180.1331614138</ele>
        <time>2026-08-25T14:12:51Z</time>
      </trkpt>
      <trkpt lat="41.46319508290414" lon="-81.68696639755831">
        <ele>180.5111867022</ele>
        <time>2026-08-25T14:13:08Z</time>
      </trkpt>
      <trkpt lat="41.46386494744494" lon="-81.68665578780548">
        <ele>180.0759970616</ele>
        <time>2026-08-25T14:13:22Z</time>
      </trkpt>
      <trkpt lat="41.46413441554697" lon="-81.68652767419141">
        <ele>180.0708737211</ele>
        <time>2026-08-25T14:13:28Z</time>
      </trkpt>
      <trkpt lat="41.46514084617439" lon="-81.68571798197353">
        <ele>180.7146854288</ele>
        <time>2026-08-25T14:14:01Z</time>
      </trkpt>
      <trkpt lat="41.46520359573380" lon="-81.68570399280010">
        <ele>180.3593719735</ele>
        <time>2026-08-25T14:14:02Z</time>
      </trkpt>
      <trkpt lat="41.46529427544991" lon="-81.68573178357438">
        <ele>180.4941802114</ele>
        <time>2026-08-25T14:14:04Z</time>
      </trkpt>
      <trkpt lat="41.46535259575852" lon="-81.68583080221855">
        <ele>180.8090415873</ele>
        <time>2026-08-25T14:14:06Z</time>
      </trkpt>
      <trkpt lat="41.46547222236919" lon="-81.68605089734390">
        <ele>181.0839077929</ele>
        <time>2026-08-25T14:14:11Z</time>
      </trkpt>
      <trkpt lat="41.46561837058798" lon="-81.68626271670885">
        <ele>182.0186143366</ele>
        <time>2026-08-25T14:14:15Z</time>
      </trkpt>
      <trkpt lat="41.46569509525121" lon="-81.68637457280076">
        <ele>183.9509062840</ele>
        <time>2026-08-25T14:14:17Z</time>
      </trkpt>
      <trkpt lat="41.46604896383550" lon="-81.68685902977225">
        <ele>181.8737346810</ele>
        <time>2026-08-25T14:14:26Z</time>
      </trkpt>
      <trkpt lat="41.46612201171874" lon="-81.68691375896182">
        <ele>182.5029402749</ele>
        <time>2026-08-25T14:14:28Z</time>
      </trkpt>
      <trkpt lat="41.46622139677638" lon="-81.68692333925465">
        <ele>184.7381073285</ele>
        <time>2026-08-25T14:14:30Z</time>
      </trkpt>
      <trkpt lat="41.46628732035293" lon="-81.68692087045467">
        <ele>187.8427030399</ele>
        <time>2026-08-25T14:14:31Z</time>
      </trkpt>
      <trkpt lat="41.46679642722987" lon="-81.68692030034410">
        <ele>185.0333357905</ele>
        <time>2026-08-25T14:14:43Z</time>
      </trkpt>
      <trkpt lat="41.46681151118072" lon="-81.68691875214724">
        <ele>184.6916412882</ele>
        <time>2026-08-25T14:14:44Z</time>
      </trkpt>
      <trkpt lat="41.46683827073809" lon="-81.68688161441038">
        <ele>184.4879307542</ele>
        <time>2026-08-25T14:14:45Z</time>
      </trkpt>
      <trkpt lat="41.46688793537501" lon="-81.68678465727953">
        <ele>185.9952899973</ele>
        <time>2026-08-25T14:14:47Z</time>
      </trkpt>
      <trkpt lat="41.46694762560502" lon="-81.68656513741867">
        <ele>186.4913764285</ele>
        <time>2026-08-25T14:14:50Z</time>
      </trkpt>
      <trkpt lat="41.46699722285458" lon="-81.68649271916873">
        <ele>186.1850242388</ele>
        <time>2026-08-25T14:14:52Z</time>
      </trkpt>
      <trkpt lat="41.46696586737703" lon="-81.68643802592266">
        <ele>186.0397994608</ele>
        <time>2026-08-25T14:14:53Z</time>
      </trkpt>
      <trkpt lat="41.46690462035154" lon="-81.68631232652984">
        <ele>186.1060686507</ele>
        <time>2026-08-25T14:14:56Z</time>
      </trkpt>
      <trkpt lat="41.46686657237282" lon="-81.68627749492531">
        <ele>186.7156934185</ele>
        <time>2026-08-25T14:15:22Z</time>
      </trkpt>
      <trkpt lat="41.46682785696495" lon="-81.68625021200927">
        <ele>187.0186785097</ele>
        <time>2026-08-25T14:15:23Z</time>
      </trkpt>
      <trkpt lat="41.46679614902948" lon="-81.68627690422619">
        <ele>187.8381405068</ele>
        <time>2026-08-25T14:15:24Z</time>
      </trkpt>
      <trkpt lat="41.46675950426033" lon="-81.68631599128510">
        <ele>188.0905066405</ele>
        <time>2026-08-25T14:15:25Z</time>
      </trkpt>
      <trkpt lat="41.46672245929435" lon="-81.68646501091625">
        <ele>188.6559523200</ele>
        <time>2026-08-25T14:15:27Z</time>
      </trkpt>
      <trkpt lat="41.46662527758756" lon="-81.68692404207511">
        <ele>189.2728896116</ele>
        <time>2026-08-25T14:15:34Z</time>
      </trkpt>
      <trkpt lat="41.46646009916458" lon="-81.68766582042525">
        <ele>193.6536654853</ele>
        <time>2026-08-25T14:15:47Z</time>
      </trkpt>
      <trkpt lat="41.46637016739940" lon="-81.68810001999529">
        <ele>196.7878443167</ele>
        <time>2026-08-25T14:15:56Z</time>
      </trkpt>
      <trkpt lat="41.46633434005905" lon="-81.68836362433365">
        <ele>198.1182793771</ele>
        <time>2026-08-25T14:15:59Z</time>
      </trkpt>
      <trkpt lat="41.46630053578195" lon="-81.68867976100137">
        <ele>199.7184674202</ele>
        <time>2026-08-25T14:16:05Z</time>
      </trkpt>
      <trkpt lat="41.46628573465085" lon="-81.68891886471729">
        <ele>201.6386478977</ele>
        <time>2026-08-25T14:16:09Z</time>
      </trkpt>
      <trkpt lat="41.46624850783768" lon="-81.69044312573055">
        <ele>208.2171437589</ele>
        <time>2026-08-25T14:16:36Z</time>
      </trkpt>
      <trkpt lat="41.46625465843254" lon="-81.69056676335141">
        <ele>208.5278176368</ele>
        <time>2026-08-25T14:16:38Z</time>
      </trkpt>
      <trkpt lat="41.46631162344834" lon="-81.69069342790611">
        <ele>208.8624353036</ele>
        <time>2026-08-25T14:16:40Z</time>
      </trkpt>
      <trkpt lat="41.46638407766975" lon="-81.69084585470590">
        <ele>209.1758745435</ele>
        <time>2026-08-25T14:16:42Z</time>
      </trkpt>
      <trkpt lat="41.46646120336399" lon="-81.69089447219488">
        <ele>208.5894790608</ele>
        <time>2026-08-25T14:16:44Z</time>
      </trkpt>
      <trkpt lat="41.46650355824436" lon="-81.69092327283289">
        <ele>208.5297194413</ele>
        <time>2026-08-25T14:16:45Z</time>
      </trkpt>
      <trkpt lat="41.46651532349602" lon="-81.69100870791770">
        <ele>208.0801122652</ele>
        <time>2026-08-25T14:16:46Z</time>
      </trkpt>
      <trkpt lat="41.46675855299495" lon="-81.69111227577831">
        <ele>208.2402677497</ele>
        <time>2026-08-25T14:16:52Z</time>
      </trkpt>
      <trkpt lat="41.46700312374557" lon="-81.69115157904896">
        <ele>208.0227525855</ele>
        <time>2026-08-25T14:16:59Z</time>
      </trkpt>
      <trkpt lat="41.46797285339623" lon="-81.69118706711171">
        <ele>208.8357958372</ele>
        <time>2026-08-25T14:17:16Z</time>
      </trkpt>
      <trkpt lat="41.46885063068979" lon="-81.69118312967838">
        <ele>208.2372517917</ele>
        <time>2026-08-25T14:17:34Z</time>
      </trkpt>
      <trkpt lat="41.47003554059803" lon="-81.69120444295659">
        <ele>207.9904950794</ele>
        <time>2026-08-25T14:17:55Z</time>
      </trkpt>
      <trkpt lat="41.47360951948330" lon="-81.69125905709454">
        <ele>208.0314820048</ele>
        <time>2026-08-25T14:19:20Z</time>
      </trkpt>
      <trkpt lat="41.47504846999859" lon="-81.69128533034745">
        <ele>207.0748925304</ele>
        <time>2026-08-25T14:19:45Z</time>
      </trkpt>
      <trkpt lat="41.47606593460713" lon="-81.69128410830868">
        <ele>206.9310750297</ele>
        <time>2026-08-25T14:20:20Z</time>
      </trkpt>
      <trkpt lat="41.47706614028158" lon="-81.69131189649124">
        <ele>207.1775818882</ele>
        <time>2026-08-25T14:21:11Z</time>
      </trkpt>
      <trkpt lat="41.47922934397538" lon="-81.69133645312719">
        <ele>206.9577383129</ele>
        <time>2026-08-25T14:22:35Z</time>
      </trkpt>
      <trkpt lat="41.47953773765449" lon="-81.69135128991105">
        <ele>206.7727182802</ele>
        <time>2026-08-25T14:22:41Z</time>
      </trkpt>
      <trkpt lat="41.48225715545911" lon="-81.69136815069255">
        <ele>205.9376712312</ele>
        <time>2026-08-25T14:24:07Z</time>
      </trkpt>
      <trkpt lat="41.48236654279511" lon="-81.69141587208885">
        <ele>206.0671307747</ele>
        <time>2026-08-25T14:24:09Z</time>
      </trkpt>
      <trkpt lat="41.48237304284459" lon="-81.69123998655942">
        <ele>206.3753634595</ele>
        <time>2026-08-25T14:24:11Z</time>
      </trkpt>
      <trkpt lat="41.48243920130187" lon="-81.69121777690523">
        <ele>206.5035016337</ele>
        <time>2026-08-25T14:24:12Z</time>
      </trkpt>
      <trkpt lat="41.48263963784154" lon="-81.69124633132644">
        <ele>206.7772071629</ele>
        <time>2026-08-25T14:24:16Z</time>
      </trkpt>
      <trkpt lat="41.48282254998409" lon="-81.69124156595730">
        <ele>206.2873291470</ele>
        <time>2026-08-25T14:24:20Z</time>
      </trkpt>
      <trkpt lat="41.48292193553041" lon="-81.69121317159373">
        <ele>206.1807912704</ele>
        <time>2026-08-25T14:24:22Z</time>
      </trkpt>
      <trkpt lat="41.48299524658066" lon="-81.69116733645576">
        <ele>206.0514864978</ele>
        <time>2026-08-25T14:24:24Z</time>
      </trkpt>
      <trkpt lat="41.48322542583576" lon="-81.69097112014241">
        <ele>206.1483089956</ele>
        <time>2026-08-25T14:24:30Z</time>
      </trkpt>
      <trkpt lat="41.48332863391069" lon="-81.69091599654308">
        <ele>206.4523175987</ele>
        <time>2026-08-25T14:24:32Z</time>
      </trkpt>
      <trkpt lat="41.48341913901806" lon="-81.69087452702357">
        <ele>206.2733259286</ele>
        <time>2026-08-25T14:24:34Z</time>
      </trkpt>
      <trkpt lat="41.48353599407492" lon="-81.69088658616859">
        <ele>206.1859702585</ele>
        <time>2026-08-25T14:24:37Z</time>
      </trkpt>
      <trkpt lat="41.48373989502903" lon="-81.69096555748051">
        <ele>206.1891820026</ele>
        <time>2026-08-25T14:24:40Z</time>
      </trkpt>
      <trkpt lat="41.48380586972986" lon="-81.69098030724795">
        <ele>206.0409789226</ele>
        <time>2026-08-25T14:24:42Z</time>
      </trkpt>
      <trkpt lat="41.48387567683194" lon="-81.69095368727675">
        <ele>206.0256453617</ele>
        <time>2026-08-25T14:24:43Z</time>
      </trkpt>
      <trkpt lat="41.48395853558167" lon="-81.69091374495673">
        <ele>205.7977768015</ele>
        <time>2026-08-25T14:24:46Z</time>
      </trkpt>
      <trkpt lat="41.48403309155755" lon="-81.69084816880071">
        <ele>205.5936330588</ele>
        <time>2026-08-25T14:24:47Z</time>
      </trkpt>
      <trkpt lat="41.48407608385341" lon="-81.69074048960829">
        <ele>205.5029617405</ele>
        <time>2026-08-25T14:24:49Z</time>
      </trkpt>
      <trkpt lat="41.48412371409071" lon="-81.69059601438367">
        <ele>205.9330177915</ele>
        <time>2026-08-25T14:24:51Z</time>
      </trkpt>
      <trkpt lat="41.48418477922937" lon="-81.69051710804024">
        <ele>206.1268157470</ele>
        <time>2026-08-25T14:24:53Z</time>
      </trkpt>
      <trkpt lat="41.48424749633307" lon="-81.69045772038734">
        <ele>206.0530821935</ele>
        <time>2026-08-25T14:24:56Z</time>
      </trkpt>
      <trkpt lat="41.48433867803340" lon="-81.69041985460917">
        <ele>205.9813621977</ele>
        <time>2026-08-25T14:24:57Z</time>
      </trkpt>
      <trkpt lat="41.48446454904379" lon="-81.69042211425095">
        <ele>205.8983280317</ele>
        <time>2026-08-25T14:25:00Z</time>
      </trkpt>
      <trkpt lat="41.48451289743441" lon="-81.69039589301336">
        <ele>206.0752196330</ele>
        <time>2026-08-25T14:25:01Z</time>
      </trkpt>
      <trkpt lat="41.48468080030293" lon="-81.69039563085086">
        <ele>205.6473723353</ele>
        <time>2026-08-25T14:25:05Z</time>
      </trkpt>
      <trkpt lat="41.48494343729148" lon="-81.69042599316577">
        <ele>205.1791621904</ele>
        <time>2026-08-25T14:25:10Z</time>
      </trkpt>
      <trkpt lat="41.48495007839983" lon="-81.69049771754383">
        <ele>203.6149589535</ele>
        <time>2026-08-25T14:25:11Z</time>
      </trkpt>
      <trkpt lat="41.48482255661624" lon="-81.69048916004763">
        <ele>203.8649677177</ele>
        <time>2026-08-25T14:25:14Z</time>
      </trkpt>
      <trkpt lat="41.48468055138839" lon="-81.69054560612550">
        <ele>203.7818036924</ele>
        <time>2026-08-25T14:25:17Z</time>
      </trkpt>
      <trkpt lat="41.48463247188720" lon="-81.69060060549937">
        <ele>203.8717642552</ele>
        <time>2026-08-25T14:25:19Z</time>
      </trkpt>
      <trkpt lat="41.48460937060736" lon="-81.69064784087881">
        <ele>203.9295440634</ele>
        <time>2026-08-25T14:25:20Z</time>
      </trkpt>
      <trkpt lat="41.48457551728192" lon="-81.69073512699889">
        <ele>203.4401331843</ele>
        <time>2026-08-25T14:25:21Z</time>
      </trkpt>
      <trkpt lat="41.48455386717261" lon="-81.69079518493348">
        <ele>202.9498409360</ele>
        <time>2026-08-25T14:25:22Z</time>
      </trkpt>
      <trkpt lat="41.48455510144465" lon="-81.69089125897325">
        <ele>202.8788746280</ele>
        <time>2026-08-25T14:25:23Z</time>
      </trkpt>
      <trkpt lat="41.48456647505009" lon="-81.69099278228563">
        <ele>202.1898029452</ele>
        <time>2026-08-25T14:25:50Z</time>
      </trkpt>
      <trkpt lat="41.48467697926392" lon="-81.69125642551489">
        <ele>201.0157754668</ele>
        <time>2026-08-25T14:25:54Z</time>
      </trkpt>
      <trkpt lat="41.48473944037527" lon="-81.69148488391573">
        <ele>200.1164591592</ele>
        <time>2026-08-25T14:25:59Z</time>
      </trkpt>
      <trkpt lat="41.48474395827157" lon="-81.69165547077397">
        <ele>199.2662306397</ele>
        <time>2026-08-25T14:26:02Z</time>
      </trkpt>
      <trkpt lat="41.48475384439626" lon="-81.69186430071309">
        <ele>198.1490362467</ele>
        <time>2026-08-25T14:26:05Z</time>
      </trkpt>
      <trkpt lat="41.48476139954435" lon="-81.69200505691381">
        <ele>197.6199393594</ele>
        <time>2026-08-25T14:26:07Z</time>
      </trkpt>
      <trkpt lat="41.48476773888850" lon="-81.69211424554028">
        <ele>197.4161224256</ele>
        <time>2026-08-25T14:26:09Z</time>
      </trkpt>
      <trkpt lat="41.48483367243315" lon="-81.69224973104065">
        <ele>196.6300828807</ele>
        <time>2026-08-25T14:26:12Z</time>
      </trkpt>
      <trkpt lat="41.48493133818120" lon="-81.69240017585982">
        <ele>195.6252451240</ele>
        <time>2026-08-25T14:26:15Z</time>
      </trkpt>
      <trkpt lat="41.48504496296794" lon="-81.69249932313437">
        <ele>194.2113203632</ele>
        <time>2026-08-25T14:26:18Z</time>
      </trkpt>
      <trkpt lat="41.48515458863257" lon="-81.69255680270300">
        <ele>193.4820908575</ele>
        <time>2026-08-25T14:26:20Z</time>
      </trkpt>
      <trkpt lat="41.48526710545706" lon="-81.69257070339184">
        <ele>192.9337723916</ele>
        <time>2026-08-25T14:26:22Z</time>
      </trkpt>
      <trkpt lat="41.48540475503688" lon="-81.69258184122140">
        <ele>191.5809852479</ele>
        <time>2026-08-25T14:26:25Z</time>
      </trkpt>
      <trkpt lat="41.48552121743131" lon="-81.69251664416548">
        <ele>189.7117518981</ele>
        <time>2026-08-25T14:26:28Z</time>
      </trkpt>
      <trkpt lat="41.48570433359469" lon="-81.69240666612390">
        <ele>189.2124095199</ele>
        <time>2026-08-25T14:26:32Z</time>
      </trkpt>
      <trkpt lat="41.48583337905959" lon="-81.69234546217413">
        <ele>188.5665966242</ele>
        <time>2026-08-25T14:26:36Z</time>
      </trkpt>
      <trkpt lat="41.48591849654971" lon="-81.69234333063336">
        <ele>188.7668874654</ele>
        <time>2026-08-25T14:26:37Z</time>
      </trkpt>
      <trkpt lat="41.48607850073040" lon="-81.69241779455471">
        <ele>187.6421274271</ele>
        <time>2026-08-25T14:26:41Z</time>
      </trkpt>
      <trkpt lat="41.48617870931989" lon="-81.69251241499242">
        <ele>187.6713497654</ele>
        <time>2026-08-25T14:26:43Z</time>
      </trkpt>
      <trkpt lat="41.48621578950503" lon="-81.69257172506303">
        <ele>187.5918804767</ele>
        <time>2026-08-25T14:26:45Z</time>
      </trkpt>
      <trkpt lat="41.48625781206358" lon="-81.69269856452301">
        <ele>187.2146346394</ele>
        <time>2026-08-25T14:26:47Z</time>
      </trkpt>
      <trkpt lat="41.48633436231302" lon="-81.69295703320118">
        <ele>186.6873972018</ele>
        <time>2026-08-25T14:26:52Z</time>
      </trkpt>
      <trkpt lat="41.48637619458145" lon="-81.69309464034126">
        <ele>186.3508596379</ele>
        <time>2026-08-25T14:26:54Z</time>
      </trkpt>
      <trkpt lat="41.48648096620465" lon="-81.69326420438586">
        <ele>185.2286897288</ele>
        <time>2026-08-25T14:26:57Z</time>
      </trkpt>
      <trkpt lat="41.48661348615733" lon="-81.69344987092367">
        <ele>184.0341260529</ele>
        <time>2026-08-25T14:27:01Z</time>
      </trkpt>
      <trkpt lat="41.48673288617984" lon="-81.69353268716367">
        <ele>183.6817850407</ele>
        <time>2026-08-25T14:27:04Z</time>
      </trkpt>
      <trkpt lat="41.48680203091527" lon="-81.69358337214508">
        <ele>183.2031386600</ele>
        <time>2026-08-25T14:27:05Z</time>
      </trkpt>
      <trkpt lat="41.48690927658840" lon="-81.69363147079407">
        <ele>182.6762823188</ele>
        <time>2026-08-25T14:27:07Z</time>
      </trkpt>
      <trkpt lat="41.48709289147935" lon="-81.69369436033131">
        <ele>180.9793107406</ele>
        <time>2026-08-25T14:27:10Z</time>
      </trkpt>
      <trkpt lat="41.48721106750644" lon="-81.69376085149125">
        <ele>179.9418470319</ele>
        <time>2026-08-25T14:27:13Z</time>
      </trkpt>
      <trkpt lat="41.48745348136302" lon="-81.69398684319016">
        <ele>178.4808109606</ele>
        <time>2026-08-25T14:27:21Z</time>
      </trkpt>
      <trkpt lat="41.48759452546413" lon="-81.69409737508751">
        <ele>177.9324500826</ele>
        <time>2026-08-25T14:27:25Z</time>
      </trkpt>
      <trkpt lat="41.48770735459958" lon="-81.69414973120324">
        <ele>176.9360734443</ele>
        <time>2026-08-25T14:27:28Z</time>
      </trkpt>
      <trkpt lat="41.48786988275837" lon="-81.69423341933211">
        <ele>176.6443394003</ele>
        <time>2026-08-25T14:27:31Z</time>
      </trkpt>
      <trkpt lat="41.48807763093386" lon="-81.69428450115439">
        <ele>177.0147429245</ele>
        <time>2026-08-25T14:27:35Z</time>
      </trkpt>
      <trkpt lat="41.48829232537609" lon="-81.69432706144866">
        <ele>176.5490410715</ele>
        <time>2026-08-25T14:27:39Z</time>
      </trkpt>
      <trkpt lat="41.48842027695305" lon="-81.69433053443193">
        <ele>176.7386264285</ele>
        <time>2026-08-25T14:27:41Z</time>
      </trkpt>
      <trkpt lat="41.48860690748830" lon="-81.69432312757425">
        <ele>176.5482908163</ele>
        <time>2026-08-25T14:27:45Z</time>
      </trkpt>
      <trkpt lat="41.48914291210360" lon="-81.69419769357881">
        <ele>176.5248600287</ele>
        <time>2026-08-25T14:27:55Z</time>
      </trkpt>
      <trkpt lat="41.48919702815658" lon="-81.69420774808530">
        <ele>176.7517226480</ele>
        <time>2026-08-25T14:27:56Z</time>
      </trkpt>
      <trkpt lat="41.48935094362199" lon="-81.69423318231934">
        <ele>176.0421876685</ele>
        <time>2026-08-25T14:28:00Z</time>
      </trkpt>
      <trkpt lat="41.48970924642427" lon="-81.69433814496372">
        <ele>176.4010351408</ele>
        <time>2026-08-25T14:28:11Z</time>
      </trkpt>
      <trkpt lat="41.48982392685087" lon="-81.69436143239750">
        <ele>176.5736279572</ele>
        <time>2026-08-25T14:28:13Z</time>
      </trkpt>
      <trkpt lat="41.49011906343133" lon="-81.69437298836475">
        <ele>176.6643275486</ele>
        <time>2026-08-25T14:28:17Z</time>
      </trkpt>
      <trkpt lat="41.49043738148022" lon="-81.69431884965141">
        <ele>176.2470051742</ele>
        <time>2026-08-25T14:28:29Z</time>
      </trkpt>
      <trkpt lat="41.49070714295310" lon="-81.69426672197464">
        <ele>176.0762511434</ele>
        <time>2026-08-25T14:28:34Z</time>
      </trkpt>
      <trkpt lat="41.49110916546385" lon="-81.69424664902716">
        <ele>176.5428116892</ele>
        <time>2026-08-25T14:28:43Z</time>
      </trkpt>
      <trkpt lat="41.49138861420693" lon="-81.69418102724821">
        <ele>176.5580442874</ele>
        <time>2026-08-25T14:28:48Z</time>
      </trkpt>
      <trkpt lat="41.49156038021215" lon="-81.69412387442087">
        <ele>176.0655730467</ele>
        <time>2026-08-25T14:28:51Z</time>
      </trkpt>
      <trkpt lat="41.49177405221306" lon="-81.69400580868917">
        <ele>176.5339357592</ele>
        <time>2026-08-25T14:28:56Z</time>
      </trkpt>
      <trkpt lat="41.49198812482587" lon="-81.69387089482765">
        <ele>176.7382507747</ele>
        <time>2026-08-25T14:29:01Z</time>
      </trkpt>
      <trkpt lat="41.49209474922928" lon="-81.69382641613440">
        <ele>176.9952613169</ele>
        <time>2026-08-25T14:29:03Z</time>
      </trkpt>
      <trkpt lat="41.49220803152519" lon="-81.69378825255990">
        <ele>176.7382100356</ele>
        <time>2026-08-25T14:29:05Z</time>
      </trkpt>
      <trkpt lat="41.49249289193674" lon="-81.69371589722687">
        <ele>176.8224448817</ele>
        <time>2026-08-25T14:29:12Z</time>
      </trkpt>
      <trkpt lat="41.49266790450019" lon="-81.69363611600474">
        <ele>176.4914179814</ele>
        <time>2026-08-25T14:29:15Z</time>
      </trkpt>
      <trkpt lat="41.49281838870264" lon="-81.69355436502345">
        <ele>175.7819536957</ele>
        <time>2026-08-25T14:29:19Z</time>
      </trkpt>
      <trkpt lat="41.49303474195238" lon="-81.69335103538366">
        <ele>175.9143048356</ele>
        <time>2026-08-25T14:29:24Z</time>
      </trkpt>
      <trkpt lat="41.49316468847715" lon="-81.69326967407224">
        <ele>176.4380091612</ele>
        <time>2026-08-25T14:29:27Z</time>
      </trkpt>
      <trkpt lat="41.49326710141499" lon="-81.69323187454269">
        <ele>176.8014999740</ele>
        <time>2026-08-25T14:29:30Z</time>
      </trkpt>
      <trkpt lat="41.49335127664651" lon="-81.69323741172484">
        <ele>177.0651681673</ele>
        <time>2026-08-25T14:29:32Z</time>
      </trkpt>
      <trkpt lat="41.49361485710898" lon="-81.69323547455693">
        <ele>178.0607239666</ele>
        <time>2026-08-25T14:29:36Z</time>
      </trkpt>
      <trkpt lat="41.49367946493873" lon="-81.69325650484903">
        <ele>177.9203318857</ele>
        <time>2026-08-25T14:29:38Z</time>
      </trkpt>
      <trkpt lat="41.49374095448752" lon="-81.69352366292057">
        <ele>177.1520644494</ele>
        <time>2026-08-25T14:29:42Z</time>
      </trkpt>
      <trkpt lat="41.49335345073051" lon="-81.69533029199815">
        <ele>177.0417077629</ele>
        <time>2026-08-25T14:30:14Z</time>
      </trkpt>
      <trkpt lat="41.49314246185126" lon="-81.69642932434922">
        <ele>176.6773669737</ele>
        <time>2026-08-25T14:30:32Z</time>
      </trkpt>
      <trkpt lat="41.49312206235933" lon="-81.69654830529132">
        <ele>176.8529378331</ele>
        <time>2026-08-25T14:30:34Z</time>
      </trkpt>
      <trkpt lat="41.49315782302777" lon="-81.69665650593332">
        <ele>177.1225871168</ele>
        <time>2026-08-25T14:30:36Z</time>
      </trkpt>
      <trkpt lat="41.49376504747943" lon="-81.69736693541890">
        <ele>180.1798699806</ele>
        <time>2026-08-25T14:30:52Z</time>
      </trkpt>
      <trkpt lat="41.49390615403110" lon="-81.69751549495703">
        <ele>179.6394950397</ele>
        <time>2026-08-25T14:30:55Z</time>
      </trkpt>
      <trkpt lat="41.49407395665632" lon="-81.69765858040128">
        <ele>179.5461344373</ele>
        <time>2026-08-25T14:30:59Z</time>
      </trkpt>
      <trkpt lat="41.49443633380840" lon="-81.69794408869811">
        <ele>179.5254073583</ele>
        <time>2026-08-25T14:31:07Z</time>
      </trkpt>
      <trkpt lat="41.49477866210661" lon="-81.69818238558783">
        <ele>179.5884337564</ele>
        <time>2026-08-25T14:31:16Z</time>
      </trkpt>
      <trkpt lat="41.49531172352668" lon="-81.69871356241534">
        <ele>180.0239940114</ele>
        <time>2026-08-25T14:31:30Z</time>
      </trkpt>
      <trkpt lat="41.49531529837591" lon="-81.69876059310666">
        <ele>180.6129865993</ele>
        <time>2026-08-25T14:31:31Z</time>
      </trkpt>
      <trkpt lat="41.49538992052996" lon="-81.69885059158879">
        <ele>182.7298014409</ele>
        <time>2026-08-25T14:31:33Z</time>
      </trkpt>
      <trkpt lat="41.49532178881579" lon="-81.69899577664437">
        <ele>182.8924420061</ele>
        <time>2026-08-25T14:31:35Z</time>
      </trkpt>
      <trkpt lat="41.49530426600770" lon="-81.69909370471608">
        <ele>182.9805922459</ele>
        <time>2026-08-25T14:31:44Z</time>
      </trkpt>
      <trkpt lat="41.49534598927691" lon="-81.69916475354457">
        <ele>183.0123437860</ele>
        <time>2026-08-25T14:31:45Z</time>
      </trkpt>
      <trkpt lat="41.49523779114641" lon="-81.69919154994597">
        <ele>183.0971484175</ele>
        <time>2026-08-25T14:31:47Z</time>
      </trkpt>
      <trkpt lat="41.49508603255705" lon="-81.69923098045400">
        <ele>180.0992221434</ele>
        <time>2026-08-25T14:31:50Z</time>
      </trkpt>
      <trkpt lat="41.49494246642477" lon="-81.69928500430659">
        <ele>180.5895560145</ele>
        <time>2026-08-25T14:31:53Z</time>
      </trkpt>
      <trkpt lat="41.49461347277388" lon="-81.69937922641321">
        <ele>179.6305592167</ele>
        <time>2026-08-25T14:31:59Z</time>
      </trkpt>
      <trkpt lat="41.49451890790407" lon="-81.69944149268687">
        <ele>178.9288943698</ele>
        <time>2026-08-25T14:32:01Z</time>
      </trkpt>
      <trkpt lat="41.49443621010874" lon="-81.69950091198355">
        <ele>178.9197129019</ele>
        <time>2026-08-25T14:32:02Z</time>
      </trkpt>
      <trkpt lat="41.49436655597214" lon="-81.69959850048798">
        <ele>178.7829879622</ele>
        <time>2026-08-25T14:32:04Z</time>
      </trkpt>
      <trkpt lat="41.49417770004550" lon="-81.70003225856435">
        <ele>177.9381675672</ele>
        <time>2026-08-25T14:32:12Z</time>
      </trkpt>
      <trkpt lat="41.49415640707834" lon="-81.70016245791750">
        <ele>177.5602489104</ele>
        <time>2026-08-25T14:32:14Z</time>
      </trkpt>
      <trkpt lat="41.49416716863548" lon="-81.70046143970374">
        <ele>176.8084428662</ele>
        <time>2026-08-25T14:32:18Z</time>
      </trkpt>
      <trkpt lat="41.49420529679837" lon="-81.70290997121944">
        <ele>176.1340733900</ele>
        <time>2026-08-25T14:32:59Z</time>
      </trkpt>
      <trkpt lat="41.49441423918012" lon="-81.70392117408925">
        <ele>178.3083235096</ele>
        <time>2026-08-25T14:33:15Z</time>
      </trkpt>
      <trkpt lat="41.49442153546624" lon="-81.70393633815232">
        <ele>178.4905244630</ele>
        <time>2026-08-25T14:33:16Z</time>
      </trkpt>
      <trkpt lat="41.49437256749951" lon="-81.70394827613269">
        <ele>178.6307755053</ele>
        <time>2026-08-25T14:33:17Z</time>
      </trkpt>
      <trkpt lat="41.49424235744643" lon="-81.70401616657951">
        <ele>179.3408415571</ele>
        <time>2026-08-25T14:33:20Z</time>
      </trkpt>
      <trkpt lat="41.49413581509410" lon="-81.70410939214209">
        <ele>180.2533214493</ele>
        <time>2026-08-25T14:33:23Z</time>
      </trkpt>
      <trkpt lat="41.49406148503819" lon="-81.70415908858512">
        <ele>180.9246707582</ele>
        <time>2026-08-25T14:33:25Z</time>
      </trkpt>
      <trkpt lat="41.49347068012565" lon="-81.70469701246437">
        <ele>185.0435856888</ele>
        <time>2026-08-25T14:33:40Z</time>
      </trkpt>
      <trkpt lat="41.49340508356463" lon="-81.70470006088257">
        <ele>185.4584530147</ele>
        <time>2026-08-25T14:33:41Z</time>
      </trkpt>
      <trkpt lat="41.49337044115205" lon="-81.70470285105358">
        <ele>185.8966945817</ele>
        <time>2026-08-25T14:33:42Z</time>
      </trkpt>
      <trkpt lat="41.49331740126338" lon="-81.70475396029177">
        <ele>186.2747826425</ele>
        <time>2026-08-25T14:33:43Z</time>
      </trkpt>
      <trkpt lat="41.49317024764931" lon="-81.70499847234066">
        <ele>186.5967704060</ele>
        <time>2026-08-25T14:33:48Z</time>
      </trkpt>
      <trkpt lat="41.49320066748835" lon="-81.70505113987852">
        <ele>187.1472939079</ele>
        <time>2026-08-25T14:33:49Z</time>
      </trkpt>
      <trkpt lat="41.49325610489739" lon="-81.70513611578102">
        <ele>187.2320196216</ele>
        <time>2026-08-25T14:33:51Z</time>
      </trkpt>
      <trkpt lat="41.49357246582036" lon="-81.70550833487769">
        <ele>187.1021161772</ele>
        <time>2026-08-25T14:34:04Z</time>
      </trkpt>
      <trkpt lat="41.49380827342395" lon="-81.70571284997358">
        <ele>187.1772849198</ele>
        <time>2026-08-25T14:34:10Z</time>
      </trkpt>
      <trkpt lat="41.49407780027990" lon="-81.70597878041521">
        <ele>184.7119120846</ele>
        <time>2026-08-25T14:34:15Z</time>
      </trkpt>
      <trkpt lat="41.49429531198304" lon="-81.70625829151795">
        <ele>183.3116671833</ele>
        <time>2026-08-25T14:34:23Z</time>
      </trkpt>
      <trkpt lat="41.49439519675312" lon="-81.70641600036339">
        <ele>182.6617822732</ele>
        <time>2026-08-25T14:34:27Z</time>
      </trkpt>
      <trkpt lat="41.49457667229088" lon="-81.70676027260650">
        <ele>182.4592411885</ele>
        <time>2026-08-25T14:34:33Z</time>
      </trkpt>
      <trkpt lat="41.49470590908499" lon="-81.70702326975632">
        <ele>181.8538717177</ele>
        <time>2026-08-25T14:34:37Z</time>
      </trkpt>
      <trkpt lat="41.49475266611930" lon="-81.70715782559591">
        <ele>182.7666972298</ele>
        <time>2026-08-25T14:34:41Z</time>
      </trkpt>
      <trkpt lat="41.49482110144298" lon="-81.70738916447348">
        <ele>183.7538831115</ele>
        <time>2026-08-25T14:34:45Z</time>
      </trkpt>
      <trkpt lat="41.49489647373410" lon="-81.70755840776819">
        <ele>182.8584128890</ele>
        <time>2026-08-25T14:34:47Z</time>
      </trkpt>
      <trkpt lat="41.49498961137515" lon="-81.70771024404881">
        <ele>182.3434829211</ele>
        <time>2026-08-25T14:34:52Z</time>
      </trkpt>
      <trkpt lat="41.49519966500959" lon="-81.70855487831284">
        <ele>179.8188464866</ele>
        <time>2026-08-25T14:35:06Z</time>
      </trkpt>
      <trkpt lat="41.49531496861985" lon="-81.70897010911084">
        <ele>179.2026539925</ele>
        <time>2026-08-25T14:35:12Z</time>
      </trkpt>
      <trkpt lat="41.49542337675778" lon="-81.70938651763647">
        <ele>179.4927201236</ele>
        <time>2026-08-25T14:35:19Z</time>
      </trkpt>
      <trkpt lat="41.49542574760413" lon="-81.70951084915193">
        <ele>178.9068597309</ele>
        <time>2026-08-25T14:35:21Z</time>
      </trkpt>
      <trkpt lat="41.49542566295464" lon="-81.70958640859992">
        <ele>179.2532784219</ele>
        <time>2026-08-25T14:35:22Z</time>
      </trkpt>
      <trkpt lat="41.49541074194019" lon="-81.70970730495145">
        <ele>179.4516690052</ele>
        <time>2026-08-25T14:35:23Z</time>
      </trkpt>
      <trkpt lat="41.49542369774517" lon="-81.70983752938133">
        <ele>179.0354349558</ele>
        <time>2026-08-25T14:35:25Z</time>
      </trkpt>
      <trkpt lat="41.49552440806678" lon="-81.71019960163032">
        <ele>178.2596599646</ele>
        <time>2026-08-25T14:35:31Z</time>
      </trkpt>
      <trkpt lat="41.49552054749720" lon="-81.71028227536345">
        <ele>178.2134154361</ele>
        <time>2026-08-25T14:35:33Z</time>
      </trkpt>
      <trkpt lat="41.49550457307442" lon="-81.71037495812325">
        <ele>178.4677089614</ele>
        <time>2026-08-25T14:35:34Z</time>
      </trkpt>
      <trkpt lat="41.49541952886219" lon="-81.71069646528196">
        <ele>177.9798131595</ele>
        <time>2026-08-25T14:35:39Z</time>
      </trkpt>
      <trkpt lat="41.49540821385213" lon="-81.71077555746913">
        <ele>177.9368595475</ele>
        <time>2026-08-25T14:35:40Z</time>
      </trkpt>
      <trkpt lat="41.49541094299021" lon="-81.71082467725900">
        <ele>178.0425361723</ele>
        <time>2026-08-25T14:35:41Z</time>
      </trkpt>
      <trkpt lat="41.49547426326690" lon="-81.71107797863640">
        <ele>176.7877778227</ele>
        <time>2026-08-25T14:35:45Z</time>
      </trkpt>
      <trkpt lat="41.49550213585932" lon="-81.71112184471832">
        <ele>176.7815085701</ele>
        <time>2026-08-25T14:35:46Z</time>
      </trkpt>
      <trkpt lat="41.49556044357566" lon="-81.71108878672177">
        <ele>176.8446241287</ele>
        <time>2026-08-25T14:35:47Z</time>
      </trkpt>
      <trkpt lat="41.49561705683468" lon="-81.71127900409159">
        <ele>176.9193330555</ele>
        <time>2026-08-25T14:35:50Z</time>
      </trkpt>
      <trkpt lat="41.49595189650844" lon="-81.71112364531793">
        <ele>177.0108380080</ele>
        <time>2026-08-25T14:35:59Z</time>
      </trkpt>
      <trkpt lat="41.49680839592676" lon="-81.71073357249955">
        <ele>176.6213268737</ele>
        <time>2026-08-25T14:36:16Z</time>
      </trkpt>
      <trkpt lat="41.49697096275123" lon="-81.71065010017516">
        <ele>176.3753473278</ele>
        <time>2026-08-25T14:36:22Z</time>
      </trkpt>
      <trkpt lat="41.49711181375166" lon="-81.71059719982961">
        <ele>176.9638234104</ele>
        <time>2026-08-25T14:36:25Z</time>
      </trkpt>
      <trkpt lat="41.49720083148446" lon="-81.71062341822348">
        <ele>176.6728911301</ele>
        <time>2026-08-25T14:36:27Z</time>
      </trkpt>
      <trkpt lat="41.49816803211530" lon="-81.71074065857167">
        <ele>176.0371149800</ele>
        <time>2026-08-25T14:36:51Z</time>
      </trkpt>
      <trkpt lat="41.49826992224857" lon="-81.71075805574836">
        <ele>176.7688734864</ele>
        <time>2026-08-25T14:36:53Z</time>
      </trkpt>
      <trkpt lat="41.49830712804471" lon="-81.71080053751227">
        <ele>177.0994574752</ele>
        <time>2026-08-25T14:36:54Z</time>
      </trkpt>
      <trkpt lat="41.49833438391176" lon="-81.71081928518637">
        <ele>177.1909988674</ele>
        <time>2026-08-25T14:36:55Z</time>
      </trkpt>
      <trkpt lat="41.49835983498167" lon="-81.71090280541713">
        <ele>177.2122769103</ele>
        <time>2026-08-25T14:36:56Z</time>
      </trkpt>
      <trkpt lat="41.49837159931513" lon="-81.71095387307976">
        <ele>177.1030172794</ele>
        <time>2026-08-25T14:36:57Z</time>
      </trkpt>
      <trkpt lat="41.49836521588559" lon="-81.71098734997123">
        <ele>177.2590290377</ele>
        <time>2026-08-25T14:36:58Z</time>
      </trkpt>
      <trkpt lat="41.49834897079125" lon="-81.71101528927922">
        <ele>177.3115860982</ele>
        <time>2026-08-25T14:36:59Z</time>
      </trkpt>
      <trkpt lat="41.49832159607315" lon="-81.71103670510917">
        <ele>177.5288454513</ele>
        <time>2026-08-25T14:37:00Z</time>
      </trkpt>
      <trkpt lat="41.49829897961062" lon="-81.71104606933699">
        <ele>177.8134101919</ele>
        <time>2026-08-25T14:37:01Z</time>
      </trkpt>
      <trkpt lat="41.49810704668729" lon="-81.71105803774303">
        <ele>177.1541792088</ele>
        <time>2026-08-25T14:37:04Z</time>
      </trkpt>
      <trkpt lat="41.49807461869456" lon="-81.71108768112917">
        <ele>176.8910979755</ele>
        <time>2026-08-25T14:37:06Z</time>
      </trkpt>
      <trkpt lat="41.49805182707092" lon="-81.71112061950801">
        <ele>176.5541101354</ele>
        <time>2026-08-25T14:37:07Z</time>
      </trkpt>
      <trkpt lat="41.49804321045499" lon="-81.71115415361575">
        <ele>176.7230013624</ele>
        <time>2026-08-25T14:37:08Z</time>
      </trkpt>
      <trkpt lat="41.49805184713745" lon="-81.71118811516585">
        <ele>176.7808716071</ele>
        <time>2026-08-25T14:37:09Z</time>
      </trkpt>
      <trkpt lat="41.49806479911020" lon="-81.71122161302657">
        <ele>177.2092185393</ele>
        <time>2026-08-25T14:37:10Z</time>
      </trkpt>
      <trkpt lat="41.49810451048685" lon="-81.71126225429180">
        <ele>177.6897639683</ele>
        <time>2026-08-25T14:37:11Z</time>
      </trkpt>
      <trkpt lat="41.49813688609262" lon="-81.71127021307557">
        <ele>177.9040960348</ele>
        <time>2026-08-25T14:37:12Z</time>
      </trkpt>
      <trkpt lat="41.49821224051398" lon="-81.71123116708819">
        <ele>178.0167263225</ele>
        <time>2026-08-25T14:37:14Z</time>
      </trkpt>
      <trkpt lat="41.49829011112227" lon="-81.71114424450076">
        <ele>177.9641800113</ele>
        <time>2026-08-25T14:37:15Z</time>
      </trkpt>
      <trkpt lat="41.49831842052797" lon="-81.71112557554916">
        <ele>177.6060945430</ele>
        <time>2026-08-25T14:37:16Z</time>
      </trkpt>
      <trkpt lat="41.49833806071398" lon="-81.71112739965592">
        <ele>177.3870189271</ele>
        <time>2026-08-25T14:37:17Z</time>
      </trkpt>
      <trkpt lat="41.49917079305695" lon="-81.71206101559517">
        <ele>178.9719068568</ele>
        <time>2026-08-25T14:37:37Z</time>
      </trkpt>
      <trkpt lat="41.49948858037955" lon="-81.71245097925113">
        <ele>179.7476431338</ele>
        <time>2026-08-25T14:37:48Z</time>
      </trkpt>
      <trkpt lat="41.49956384736901" lon="-81.71252336844573">
        <ele>180.4765706848</ele>
        <time>2026-08-25T14:37:50Z</time>
      </trkpt>
      <trkpt lat="41.49966319738331" lon="-81.71255861987592">
        <ele>180.5979496890</ele>
        <time>2026-08-25T14:37:52Z</time>
      </trkpt>
      <trkpt lat="41.49972926129234" lon="-81.71255793510363">
        <ele>180.6369350519</ele>
        <time>2026-08-25T14:37:53Z</time>
      </trkpt>
      <trkpt lat="41.49979996747171" lon="-81.71252906638951">
        <ele>180.8136220855</ele>
        <time>2026-08-25T14:37:55Z</time>
      </trkpt>
      <trkpt lat="41.49983414396184" lon="-81.71246317740869">
        <ele>181.3769143377</ele>
        <time>2026-08-25T14:37:56Z</time>
      </trkpt>
      <trkpt lat="41.49987593479190" lon="-81.71236976992319">
        <ele>181.4084613577</ele>
        <time>2026-08-25T14:37:58Z</time>
      </trkpt>
      <trkpt lat="41.49988895845497" lon="-81.71228863705312">
        <ele>181.4899109890</ele>
        <time>2026-08-25T14:37:59Z</time>
      </trkpt>
      <trkpt lat="41.49988802664641" lon="-81.71221524077349">
        <ele>181.8034999321</ele>
        <time>2026-08-25T14:38:00Z</time>
      </trkpt>
      <trkpt lat="41.49987129277427" lon="-81.71211569261847">
        <ele>182.0088557982</ele>
        <time>2026-08-25T14:38:01Z</time>
      </trkpt>
      <trkpt lat="41.49984525167628" lon="-81.71202425951881">
        <ele>181.9958807686</ele>
        <time>2026-08-25T14:38:03Z</time>
      </trkpt>
      <trkpt lat="41.49979050698338" lon="-81.71196004200419">
        <ele>182.0392121159</ele>
        <time>2026-08-25T14:38:05Z</time>
      </trkpt>
      <trkpt lat="41.49974224970752" lon="-81.71171952171395">
        <ele>180.6489485091</ele>
        <time>2026-08-25T14:38:08Z</time>
      </trkpt>
      <trkpt lat="41.49974261884826" lon="-81.71158271487305">
        <ele>180.0721187087</ele>
        <time>2026-08-25T14:38:10Z</time>
      </trkpt>
      <trkpt lat="41.49973534043362" lon="-81.71133632342105">
        <ele>178.0308728331</ele>
        <time>2026-08-25T14:38:13Z</time>
      </trkpt>
      <trkpt lat="41.49981913252970" lon="-81.71110343906417">
        <ele>177.0798277001</ele>
        <time>2026-08-25T14:38:17Z</time>
      </trkpt>
      <trkpt lat="41.49998866945419" lon="-81.71073556418156">
        <ele>177.3458258263</ele>
        <time>2026-08-25T14:38:24Z</time>
      </trkpt>
      <trkpt lat="41.50002548975228" lon="-81.71062812413999">
        <ele>177.0192443596</ele>
        <time>2026-08-25T14:38:26Z</time>
      </trkpt>
      <trkpt lat="41.50004319107120" lon="-81.71053944363510">
        <ele>177.1768038005</ele>
        <time>2026-08-25T14:38:53Z</time>
      </trkpt>
      <trkpt lat="41.49993276215352" lon="-81.71066403399115">
        <ele>176.9645657885</ele>
        <time>2026-08-25T14:38:56Z</time>
      </trkpt>
      <trkpt lat="41.49980207264641" lon="-81.71091666362722">
        <ele>176.9038849201</ele>
        <time>2026-08-25T14:39:01Z</time>
      </trkpt>
      <trkpt lat="41.49957450652140" lon="-81.71136015971155">
        <ele>176.9613896872</ele>
        <time>2026-08-25T14:39:12Z</time>
      </trkpt>
    </trkseg>
  </trk>
</gpx>