<?xml version='1.0' encoding='UTF-8'?>
<gpx xmlns="http://www.topografix.com/GPX/1/1" creator="https://gpx.studio" version="1.1">
  <metadata>
    <name>Bike - 2026-06-15</name>
  </metadata>
  <trk>
    <name>Bike - 2026-06-15</name>
    <type>cycling</type>
    <trkseg>
      <trkpt lat="41.41333135790528" lon="-81.75416226345568">
        <ele>234.5913635667</ele>
        <time>2026-06-15T13:37:15Z</time>
        <hr>82</hr>
      </trkpt>
      <trkpt lat="41.41328239228862" lon="-81.75414761301126">
        <ele>235.1000834004</ele>
        <time>2026-06-15T13:37:16Z</time>
        <hr>86</hr>
      </trkpt>
      <trkpt lat="41.41323993416820" lon="-81.75417231395247">
        <ele>235.0351687102</ele>
        <time>2026-06-15T13:37:17Z</time>
        <hr>88</hr>
      </trkpt>
      <trkpt lat="41.41321695110293" lon="-81.75426713494737">
        <ele>235.0801629907</ele>
        <time>2026-06-15T13:37:18Z</time>
        <hr>89</hr>
      </trkpt>
      <trkpt lat="41.41317587824445" lon="-81.75430928611776">
        <ele>234.6311583383</ele>
        <time>2026-06-15T13:37:19Z</time>
        <hr>89</hr>
      </trkpt>
      <trkpt lat="41.41315657343672" lon="-81.75460171447858">
        <ele>234.9157609591</ele>
        <time>2026-06-15T13:37:23Z</time>
        <hr>88</hr>
      </trkpt>
      <trkpt lat="41.41314622006664" lon="-81.75461965951608">
        <ele>234.9327013729</ele>
        <time>2026-06-15T13:37:24Z</time>
        <hr>87</hr>
      </trkpt>
      <trkpt lat="41.41320828316308" lon="-81.75465591615715">
        <ele>235.0088013414</ele>
        <time>2026-06-15T13:37:26Z</time>
        <hr>88</hr>
      </trkpt>
      <trkpt lat="41.41322254106745" lon="-81.75467622460509">
        <ele>235.0226305487</ele>
        <time>2026-06-15T13:37:27Z</time>
        <hr>88</hr>
      </trkpt>
      <trkpt lat="41.41324313709590" lon="-81.75471587338835">
        <ele>234.8678547761</ele>
        <time>2026-06-15T13:37:28Z</time>
        <hr>91</hr>
      </trkpt>
      <trkpt lat="41.41325308542682" lon="-81.75476076610798">
        <ele>235.0750622060</ele>
        <time>2026-06-15T13:37:29Z</time>
        <hr>93</hr>
      </trkpt>
      <trkpt lat="41.41325584709794" lon="-81.75480945316899">
        <ele>235.1014433841</ele>
        <time>2026-06-15T13:37:30Z</time>
        <hr>91</hr>
      </trkpt>
      <trkpt lat="41.41321590465921" lon="-81.75490775089334">
        <ele>235.2012159744</ele>
        <time>2026-06-15T13:37:31Z</time>
        <hr>92</hr>
      </trkpt>
      <trkpt lat="41.41320362544192" lon="-81.75500382271500">
        <ele>235.1810064227</ele>
        <time>2026-06-15T13:37:33Z</time>
        <hr>92</hr>
      </trkpt>
      <trkpt lat="41.41325213564232" lon="-81.75520055522922">
        <ele>235.5169841741</ele>
        <time>2026-06-15T13:37:37Z</time>
        <hr>90</hr>
      </trkpt>
      <trkpt lat="41.41318037061518" lon="-81.75545533290145">
        <ele>237.0615515243</ele>
        <time>2026-06-15T13:37:40Z</time>
        <hr>90</hr>
      </trkpt>
      <trkpt lat="41.41310262691934" lon="-81.75543550817929">
        <ele>237.2037339802</ele>
        <time>2026-06-15T13:37:42Z</time>
        <hr>90</hr>
      </trkpt>
      <trkpt lat="41.41277978347242" lon="-81.75536103879010">
        <ele>236.8338406006</ele>
        <time>2026-06-15T13:37:49Z</time>
        <hr>91</hr>
      </trkpt>
      <trkpt lat="41.41269220397163" lon="-81.75532680336997">
        <ele>237.0189758999</ele>
        <time>2026-06-15T13:38:08Z</time>
        <hr>93</hr>
      </trkpt>
      <trkpt lat="41.41255473220284" lon="-81.75526592692590">
        <ele>236.0239169552</ele>
        <time>2026-06-15T13:38:11Z</time>
        <hr>94</hr>
      </trkpt>
      <trkpt lat="41.41229822094832" lon="-81.75514776054291">
        <ele>237.2007044352</ele>
        <time>2026-06-15T13:38:18Z</time>
        <hr>94</hr>
      </trkpt>
      <trkpt lat="41.41220884189121" lon="-81.75509337510816">
        <ele>237.0149443083</ele>
        <time>2026-06-15T13:38:20Z</time>
        <hr>98</hr>
      </trkpt>
      <trkpt lat="41.41213831707227" lon="-81.75508370506489">
        <ele>237.0576960451</ele>
        <time>2026-06-15T13:38:22Z</time>
        <hr>101</hr>
      </trkpt>
      <trkpt lat="41.41205645827908" lon="-81.75507569904119">
        <ele>236.7620747273</ele>
        <time>2026-06-15T13:38:24Z</time>
        <hr>101</hr>
      </trkpt>
      <trkpt lat="41.41195344207351" lon="-81.75509053247144">
        <ele>236.9946132937</ele>
        <time>2026-06-15T13:38:26Z</time>
        <hr>101</hr>
      </trkpt>
      <trkpt lat="41.41181417132788" lon="-81.75512363029678">
        <ele>236.7603945281</ele>
        <time>2026-06-15T13:38:29Z</time>
        <hr>102</hr>
      </trkpt>
      <trkpt lat="41.41171577985073" lon="-81.75513932535623">
        <ele>236.9678139756</ele>
        <time>2026-06-15T13:38:31Z</time>
        <hr>101</hr>
      </trkpt>
      <trkpt lat="41.41154380119698" lon="-81.75513391773990">
        <ele>237.1074565870</ele>
        <time>2026-06-15T13:38:34Z</time>
        <hr>99</hr>
      </trkpt>
      <trkpt lat="41.41140766922800" lon="-81.75513187807367">
        <ele>236.8989856468</ele>
        <time>2026-06-15T13:38:39Z</time>
        <hr>99</hr>
      </trkpt>
      <trkpt lat="41.41117872659105" lon="-81.75508606971296">
        <ele>237.0161963301</ele>
        <time>2026-06-15T13:38:43Z</time>
        <hr>100</hr>
      </trkpt>
      <trkpt lat="41.41069759627502" lon="-81.75502916293875">
        <ele>237.1286979224</ele>
        <time>2026-06-15T13:38:53Z</time>
        <hr>105</hr>
      </trkpt>
      <trkpt lat="41.41060046776295" lon="-81.75502569399580">
        <ele>237.4608973038</ele>
        <time>2026-06-15T13:38:55Z</time>
        <hr>106</hr>
      </trkpt>
      <trkpt lat="41.41049813174177" lon="-81.75504977261289">
        <ele>237.2770365873</ele>
        <time>2026-06-15T13:38:57Z</time>
        <hr>106</hr>
      </trkpt>
      <trkpt lat="41.41034440738923" lon="-81.75509032803132">
        <ele>239.0403645076</ele>
        <time>2026-06-15T13:39:01Z</time>
        <hr>108</hr>
      </trkpt>
      <trkpt lat="41.41016974995750" lon="-81.75517345990440">
        <ele>238.9304001885</ele>
        <time>2026-06-15T13:39:04Z</time>
        <hr>110</hr>
      </trkpt>
      <trkpt lat="41.41000276246947" lon="-81.75526557319625">
        <ele>239.1697929132</ele>
        <time>2026-06-15T13:39:07Z</time>
        <hr>111</hr>
      </trkpt>
      <trkpt lat="41.40956189941766" lon="-81.75557779669890">
        <ele>239.4979390878</ele>
        <time>2026-06-15T13:39:22Z</time>
        <hr>115</hr>
      </trkpt>
      <trkpt lat="41.40931141495104" lon="-81.75575944830008">
        <ele>238.6965382333</ele>
        <time>2026-06-15T13:39:29Z</time>
        <hr>113</hr>
      </trkpt>
      <trkpt lat="41.40908019149747" lon="-81.75596951488093">
        <ele>238.9919228182</ele>
        <time>2026-06-15T13:39:34Z</time>
        <hr>115</hr>
      </trkpt>
      <trkpt lat="41.40899980313847" lon="-81.75605236370957">
        <ele>239.2965236539</ele>
        <time>2026-06-15T13:39:36Z</time>
        <hr>117</hr>
      </trkpt>
      <trkpt lat="41.40885738085767" lon="-81.75622077031032">
        <ele>239.7826160240</ele>
        <time>2026-06-15T13:39:41Z</time>
        <hr>118</hr>
      </trkpt>
      <trkpt lat="41.40871599526864" lon="-81.75635502254994">
        <ele>239.4133457896</ele>
        <time>2026-06-15T13:39:44Z</time>
        <hr>118</hr>
      </trkpt>
      <trkpt lat="41.40867911456750" lon="-81.75642687454420">
        <ele>238.9033555418</ele>
        <time>2026-06-15T13:39:46Z</time>
        <hr>120</hr>
      </trkpt>
      <trkpt lat="41.40865490565361" lon="-81.75653438505496">
        <ele>239.1048840218</ele>
        <time>2026-06-15T13:39:47Z</time>
        <hr>122</hr>
      </trkpt>
      <trkpt lat="41.40866196369051" lon="-81.75683613563201">
        <ele>238.8643208946</ele>
        <time>2026-06-15T13:39:54Z</time>
        <hr>124</hr>
      </trkpt>
      <trkpt lat="41.40862461453779" lon="-81.75705590422042">
        <ele>239.7589773046</ele>
        <time>2026-06-15T13:39:59Z</time>
        <hr>124</hr>
      </trkpt>
      <trkpt lat="41.40861200521019" lon="-81.75710848807522">
        <ele>239.6777558308</ele>
        <time>2026-06-15T13:40:00Z</time>
        <hr>120</hr>
      </trkpt>
      <trkpt lat="41.40848772631852" lon="-81.75738409456923">
        <ele>240.7385773811</ele>
        <time>2026-06-15T13:40:03Z</time>
        <hr>122</hr>
      </trkpt>
      <trkpt lat="41.40837403540505" lon="-81.75751063155825">
        <ele>240.9324985117</ele>
        <time>2026-06-15T13:40:08Z</time>
        <hr>125</hr>
      </trkpt>
      <trkpt lat="41.40831629878218" lon="-81.75754580253162">
        <ele>240.4112259769</ele>
        <time>2026-06-15T13:40:09Z</time>
        <hr>124</hr>
      </trkpt>
      <trkpt lat="41.40808099852445" lon="-81.75763556802890">
        <ele>241.8883995267</ele>
        <time>2026-06-15T13:40:15Z</time>
        <hr>120</hr>
      </trkpt>
      <trkpt lat="41.40802077815678" lon="-81.75763388809757">
        <ele>241.6379068296</ele>
        <time>2026-06-15T13:40:16Z</time>
        <hr>124</hr>
      </trkpt>
      <trkpt lat="41.40791322097188" lon="-81.75760505725457">
        <ele>241.0062433433</ele>
        <time>2026-06-15T13:40:19Z</time>
        <hr>126</hr>
      </trkpt>
      <trkpt lat="41.40782662828376" lon="-81.75760365183233">
        <ele>240.8692632120</ele>
        <time>2026-06-15T13:40:21Z</time>
        <hr>129</hr>
      </trkpt>
      <trkpt lat="41.40771480191439" lon="-81.75762578172440">
        <ele>241.1027619478</ele>
        <time>2026-06-15T13:40:23Z</time>
        <hr>128</hr>
      </trkpt>
      <trkpt lat="41.40766697894479" lon="-81.75762583894246">
        <ele>240.8038628913</ele>
        <time>2026-06-15T13:40:24Z</time>
        <hr>129</hr>
      </trkpt>
      <trkpt lat="41.40754635468993" lon="-81.75755513437339">
        <ele>240.1590281642</ele>
        <time>2026-06-15T13:40:27Z</time>
        <hr>130</hr>
      </trkpt>
      <trkpt lat="41.40750740460856" lon="-81.75754416000952">
        <ele>240.3059192720</ele>
        <time>2026-06-15T13:40:28Z</time>
        <hr>133</hr>
      </trkpt>
      <trkpt lat="41.40742620160678" lon="-81.75756082276128">
        <ele>240.7887223966</ele>
        <time>2026-06-15T13:40:30Z</time>
        <hr>130</hr>
      </trkpt>
      <trkpt lat="41.40739581702548" lon="-81.75758787413049">
        <ele>241.5310766182</ele>
        <time>2026-06-15T13:40:31Z</time>
        <hr>132</hr>
      </trkpt>
      <trkpt lat="41.40731730032634" lon="-81.75767462644130">
        <ele>242.5802774325</ele>
        <time>2026-06-15T13:40:33Z</time>
        <hr>132</hr>
      </trkpt>
      <trkpt lat="41.40723989193097" lon="-81.75773842006046">
        <ele>243.1129321956</ele>
        <time>2026-06-15T13:40:34Z</time>
        <hr>132</hr>
      </trkpt>
      <trkpt lat="41.40710759749182" lon="-81.75776161356757">
        <ele>244.3220948789</ele>
        <time>2026-06-15T13:40:38Z</time>
        <hr>131</hr>
      </trkpt>
      <trkpt lat="41.40703531260760" lon="-81.75775335800205">
        <ele>245.0015723144</ele>
        <time>2026-06-15T13:40:40Z</time>
        <hr>131</hr>
      </trkpt>
      <trkpt lat="41.40656670763514" lon="-81.75769663845277">
        <ele>245.9668993186</ele>
        <time>2026-06-15T13:40:50Z</time>
        <hr>131</hr>
      </trkpt>
      <trkpt lat="41.40645450928019" lon="-81.75768362757711">
        <ele>245.9541010899</ele>
        <time>2026-06-15T13:40:52Z</time>
        <hr>133</hr>
      </trkpt>
      <trkpt lat="41.40613640477363" lon="-81.75775140950559">
        <ele>245.8560534978</ele>
        <time>2026-06-15T13:40:58Z</time>
        <hr>134</hr>
      </trkpt>
      <trkpt lat="41.40596281280062" lon="-81.75776749195745">
        <ele>246.1828402787</ele>
        <time>2026-06-15T13:41:02Z</time>
        <hr>133</hr>
      </trkpt>
      <trkpt lat="41.40585253904504" lon="-81.75775260114673">
        <ele>246.0847242304</ele>
        <time>2026-06-15T13:41:04Z</time>
        <hr>133</hr>
      </trkpt>
      <trkpt lat="41.40568708888267" lon="-81.75773640239839">
        <ele>245.9592260920</ele>
        <time>2026-06-15T13:41:08Z</time>
        <hr>133</hr>
      </trkpt>
      <trkpt lat="41.40547316493557" lon="-81.75768577689279">
        <ele>246.0308740930</ele>
        <time>2026-06-15T13:41:13Z</time>
        <hr>133</hr>
      </trkpt>
      <trkpt lat="41.40523067735850" lon="-81.75767211308731">
        <ele>245.9501930048</ele>
        <time>2026-06-15T13:41:20Z</time>
        <hr>132</hr>
      </trkpt>
      <trkpt lat="41.40517935490443" lon="-81.75767133511303">
        <ele>245.6329807106</ele>
        <time>2026-06-15T13:41:21Z</time>
        <hr>131</hr>
      </trkpt>
      <trkpt lat="41.40513495751991" lon="-81.75769280749788">
        <ele>245.4285923071</ele>
        <time>2026-06-15T13:41:22Z</time>
        <hr>131</hr>
      </trkpt>
      <trkpt lat="41.40510177735408" lon="-81.75772744162735">
        <ele>245.2494926372</ele>
        <time>2026-06-15T13:41:23Z</time>
        <hr>129</hr>
      </trkpt>
      <trkpt lat="41.40505631709826" lon="-81.75778043113714">
        <ele>244.7946920755</ele>
        <time>2026-06-15T13:41:24Z</time>
        <hr>130</hr>
      </trkpt>
      <trkpt lat="41.40486202068890" lon="-81.75780327267250">
        <ele>245.0597513213</ele>
        <time>2026-06-15T13:41:27Z</time>
        <hr>129</hr>
      </trkpt>
      <trkpt lat="41.40486047222663" lon="-81.75778604795423">
        <ele>245.0575259509</ele>
        <time>2026-06-15T13:41:28Z</time>
        <hr>129</hr>
      </trkpt>
      <trkpt lat="41.40459599089263" lon="-81.75780317174261">
        <ele>246.0046979630</ele>
        <time>2026-06-15T13:41:37Z</time>
        <hr>127</hr>
      </trkpt>
      <trkpt lat="41.40452787992916" lon="-81.75777246863814">
        <ele>245.9019177429</ele>
        <time>2026-06-15T13:41:38Z</time>
        <hr>128</hr>
      </trkpt>
      <trkpt lat="41.40447509713629" lon="-81.75776507088972">
        <ele>246.0801524435</ele>
        <time>2026-06-15T13:41:39Z</time>
        <hr>127</hr>
      </trkpt>
      <trkpt lat="41.40416051390076" lon="-81.75782826115564">
        <ele>246.0314485733</ele>
        <time>2026-06-15T13:41:44Z</time>
        <hr>127</hr>
      </trkpt>
      <trkpt lat="41.40403786811561" lon="-81.75788351978325">
        <ele>245.9607546357</ele>
        <time>2026-06-15T13:41:47Z</time>
        <hr>130</hr>
      </trkpt>
      <trkpt lat="41.40389686839151" lon="-81.75796603797943">
        <ele>246.3091758766</ele>
        <time>2026-06-15T13:41:50Z</time>
        <hr>129</hr>
      </trkpt>
      <trkpt lat="41.40379696953565" lon="-81.75802866793289">
        <ele>246.8379237929</ele>
        <time>2026-06-15T13:41:52Z</time>
        <hr>130</hr>
      </trkpt>
      <trkpt lat="41.40370407470657" lon="-81.75808370512476">
        <ele>246.4352810497</ele>
        <time>2026-06-15T13:41:54Z</time>
        <hr>129</hr>
      </trkpt>
      <trkpt lat="41.40339456985478" lon="-81.75816812212946">
        <ele>245.2506887969</ele>
        <time>2026-06-15T13:42:02Z</time>
        <hr>129</hr>
      </trkpt>
      <trkpt lat="41.40328351970741" lon="-81.75822038625199">
        <ele>244.2318112333</ele>
        <time>2026-06-15T13:42:04Z</time>
        <hr>127</hr>
      </trkpt>
      <trkpt lat="41.40310092005223" lon="-81.75834275414341">
        <ele>243.3042462204</ele>
        <time>2026-06-15T13:42:09Z</time>
        <hr>128</hr>
      </trkpt>
      <trkpt lat="41.40294619275399" lon="-81.75840385902052">
        <ele>242.2961829425</ele>
        <time>2026-06-15T13:42:12Z</time>
        <hr>131</hr>
      </trkpt>
      <trkpt lat="41.40291073726880" lon="-81.75839844066947">
        <ele>242.2648631464</ele>
        <time>2026-06-15T13:42:13Z</time>
        <hr>130</hr>
      </trkpt>
      <trkpt lat="41.40288072580196" lon="-81.75839177614510">
        <ele>241.8463202585</ele>
        <time>2026-06-15T13:42:14Z</time>
        <hr>131</hr>
      </trkpt>
      <trkpt lat="41.40281763408899" lon="-81.75828874127731">
        <ele>241.0959559761</ele>
        <time>2026-06-15T13:42:16Z</time>
        <hr>129</hr>
      </trkpt>
      <trkpt lat="41.40278271103387" lon="-81.75825106167105">
        <ele>241.1337981982</ele>
        <time>2026-06-15T13:42:17Z</time>
        <hr>129</hr>
      </trkpt>
      <trkpt lat="41.40277017908844" lon="-81.75825770946066">
        <ele>241.0614443151</ele>
        <time>2026-06-15T13:42:18Z</time>
        <hr>128</hr>
      </trkpt>
      <trkpt lat="41.40272460413857" lon="-81.75829455541158">
        <ele>241.0878505014</ele>
        <time>2026-06-15T13:42:19Z</time>
        <hr>128</hr>
      </trkpt>
      <trkpt lat="41.40255066806787" lon="-81.75848795929133">
        <ele>240.9747053138</ele>
        <time>2026-06-15T13:42:24Z</time>
        <hr>130</hr>
      </trkpt>
      <trkpt lat="41.40245976220557" lon="-81.75855912201762">
        <ele>241.1451584954</ele>
        <time>2026-06-15T13:42:26Z</time>
        <hr>129</hr>
      </trkpt>
      <trkpt lat="41.40240548208470" lon="-81.75859714601808">
        <ele>240.9190437379</ele>
        <time>2026-06-15T13:42:27Z</time>
        <hr>130</hr>
      </trkpt>
      <trkpt lat="41.40232579798867" lon="-81.75860409820287">
        <ele>240.7042356412</ele>
        <time>2026-06-15T13:42:29Z</time>
        <hr>128</hr>
      </trkpt>
      <trkpt lat="41.40225550204816" lon="-81.75866589531410">
        <ele>240.3937937362</ele>
        <time>2026-06-15T13:42:31Z</time>
        <hr>129</hr>
      </trkpt>
      <trkpt lat="41.40208382581308" lon="-81.75884771971432">
        <ele>240.1030296483</ele>
        <time>2026-06-15T13:42:35Z</time>
        <hr>132</hr>
      </trkpt>
      <trkpt lat="41.40196539335992" lon="-81.75894125884470">
        <ele>241.0065623942</ele>
        <time>2026-06-15T13:42:38Z</time>
        <hr>132</hr>
      </trkpt>
      <trkpt lat="41.40173104409107" lon="-81.75909230826660">
        <ele>239.9402365497</ele>
        <time>2026-06-15T13:42:43Z</time>
        <hr>133</hr>
      </trkpt>
      <trkpt lat="41.40164376698252" lon="-81.75919568119403">
        <ele>240.1226714862</ele>
        <time>2026-06-15T13:42:46Z</time>
        <hr>133</hr>
      </trkpt>
      <trkpt lat="41.40132139862090" lon="-81.75956795879924">
        <ele>240.7317882483</ele>
        <time>2026-06-15T13:42:57Z</time>
        <hr>134</hr>
      </trkpt>
      <trkpt lat="41.40124313399903" lon="-81.75965762292240">
        <ele>240.9823836741</ele>
        <time>2026-06-15T13:42:59Z</time>
        <hr>131</hr>
      </trkpt>
      <trkpt lat="41.40089307010648" lon="-81.76002435774838">
        <ele>241.1374565349</ele>
        <time>2026-06-15T13:43:08Z</time>
        <hr>131</hr>
      </trkpt>
      <trkpt lat="41.40074156388704" lon="-81.76011226870311">
        <ele>241.1960277771</ele>
        <time>2026-06-15T13:43:12Z</time>
        <hr>134</hr>
      </trkpt>
      <trkpt lat="41.40050468150028" lon="-81.76030933479547">
        <ele>240.9772925051</ele>
        <time>2026-06-15T13:43:17Z</time>
        <hr>133</hr>
      </trkpt>
      <trkpt lat="41.40039354551597" lon="-81.76036428812435">
        <ele>241.3621738690</ele>
        <time>2026-06-15T13:43:20Z</time>
        <hr>131</hr>
      </trkpt>
      <trkpt lat="41.39999216304467" lon="-81.76050128181259">
        <ele>241.8981306346</ele>
        <time>2026-06-15T13:43:27Z</time>
        <hr>129</hr>
      </trkpt>
      <trkpt lat="41.39989122017419" lon="-81.76052585745170">
        <ele>241.8760166313</ele>
        <time>2026-06-15T13:43:28Z</time>
        <hr>132</hr>
      </trkpt>
      <trkpt lat="41.39982074925702" lon="-81.76053526012815">
        <ele>242.0544484042</ele>
        <time>2026-06-15T13:43:29Z</time>
        <hr>131</hr>
      </trkpt>
      <trkpt lat="41.39975440441844" lon="-81.76055654874790">
        <ele>242.0367328397</ele>
        <time>2026-06-15T13:43:30Z</time>
        <hr>130</hr>
      </trkpt>
      <trkpt lat="41.39967388986955" lon="-81.76061036995185">
        <ele>241.8914791029</ele>
        <time>2026-06-15T13:43:32Z</time>
        <hr>129</hr>
      </trkpt>
      <trkpt lat="41.39953983375644" lon="-81.76066213105972">
        <ele>242.0222648222</ele>
        <time>2026-06-15T13:43:35Z</time>
        <hr>131</hr>
      </trkpt>
      <trkpt lat="41.39897168622144" lon="-81.76079140813717">
        <ele>243.6377521983</ele>
        <time>2026-06-15T13:43:49Z</time>
        <hr>131</hr>
      </trkpt>
      <trkpt lat="41.39883892221017" lon="-81.76085804074864">
        <ele>244.3677365247</ele>
        <time>2026-06-15T13:43:53Z</time>
        <hr>132</hr>
      </trkpt>
      <trkpt lat="41.39847585581210" lon="-81.76107340277544">
        <ele>246.1621775657</ele>
        <time>2026-06-15T13:44:03Z</time>
        <hr>131</hr>
      </trkpt>
      <trkpt lat="41.39840068186975" lon="-81.76113358267700">
        <ele>246.7756979238</ele>
        <time>2026-06-15T13:44:06Z</time>
        <hr>130</hr>
      </trkpt>
      <trkpt lat="41.39808562806705" lon="-81.76147043206637">
        <ele>249.7235985598</ele>
        <time>2026-06-15T13:44:14Z</time>
        <hr>130</hr>
      </trkpt>
      <trkpt lat="41.39798664460814" lon="-81.76162438295385">
        <ele>250.5291522867</ele>
        <time>2026-06-15T13:44:17Z</time>
        <hr>130</hr>
      </trkpt>
      <trkpt lat="41.39790870040570" lon="-81.76180865775220">
        <ele>251.4018508382</ele>
        <time>2026-06-15T13:44:20Z</time>
        <hr>128</hr>
      </trkpt>
      <trkpt lat="41.39771461038458" lon="-81.76236021472101">
        <ele>253.1029000773</ele>
        <time>2026-06-15T13:44:28Z</time>
        <hr>129</hr>
      </trkpt>
      <trkpt lat="41.39765640755639" lon="-81.76258560147699">
        <ele>253.2922652348</ele>
        <time>2026-06-15T13:44:52Z</time>
        <hr>131</hr>
      </trkpt>
      <trkpt lat="41.39757602570196" lon="-81.76278460877165">
        <ele>254.2173439633</ele>
        <time>2026-06-15T13:44:55Z</time>
        <hr>131</hr>
      </trkpt>
      <trkpt lat="41.39749716644749" lon="-81.76297180938101">
        <ele>253.9928103849</ele>
        <time>2026-06-15T13:44:59Z</time>
        <hr>132</hr>
      </trkpt>
      <trkpt lat="41.39739532564423" lon="-81.76315102054058">
        <ele>254.6971388965</ele>
        <time>2026-06-15T13:45:03Z</time>
        <hr>129</hr>
      </trkpt>
      <trkpt lat="41.39728498443121" lon="-81.76331824670842">
        <ele>254.8926753870</ele>
        <time>2026-06-15T13:45:06Z</time>
        <hr>128</hr>
      </trkpt>
      <trkpt lat="41.39715729680632" lon="-81.76349075865309">
        <ele>254.6442031225</ele>
        <time>2026-06-15T13:45:09Z</time>
        <hr>131</hr>
      </trkpt>
      <trkpt lat="41.39683754058734" lon="-81.76387241583330">
        <ele>256.0446357584</ele>
        <time>2026-06-15T13:45:16Z</time>
        <hr>132</hr>
      </trkpt>
      <trkpt lat="41.39677718959419" lon="-81.76391668363792">
        <ele>255.9992959637</ele>
        <time>2026-06-15T13:45:18Z</time>
        <hr>132</hr>
      </trkpt>
      <trkpt lat="41.39650566586381" lon="-81.76405886509048">
        <ele>255.8149202794</ele>
        <time>2026-06-15T13:45:26Z</time>
        <hr>135</hr>
      </trkpt>
      <trkpt lat="41.39621341381749" lon="-81.76424582546423">
        <ele>255.8868230406</ele>
        <time>2026-06-15T13:45:36Z</time>
        <hr>135</hr>
      </trkpt>
      <trkpt lat="41.39615557105930" lon="-81.76430801320977">
        <ele>255.8873605635</ele>
        <time>2026-06-15T13:45:37Z</time>
        <hr>135</hr>
      </trkpt>
      <trkpt lat="41.39601245271137" lon="-81.76457455153985">
        <ele>256.0248990299</ele>
        <time>2026-06-15T13:45:42Z</time>
        <hr>132</hr>
      </trkpt>
      <trkpt lat="41.39592424870386" lon="-81.76467922811840">
        <ele>256.9256990340</ele>
        <time>2026-06-15T13:45:45Z</time>
        <hr>133</hr>
      </trkpt>
      <trkpt lat="41.39579836092012" lon="-81.76482448412041">
        <ele>257.1737711298</ele>
        <time>2026-06-15T13:45:48Z</time>
        <hr>130</hr>
      </trkpt>
      <trkpt lat="41.39557173927722" lon="-81.76510656885658">
        <ele>257.0478025055</ele>
        <time>2026-06-15T13:45:53Z</time>
        <hr>130</hr>
      </trkpt>
      <trkpt lat="41.39548948035587" lon="-81.76516660258575">
        <ele>256.7366168617</ele>
        <time>2026-06-15T13:45:55Z</time>
        <hr>129</hr>
      </trkpt>
      <trkpt lat="41.39530338170463" lon="-81.76523283355490">
        <ele>256.5090666746</ele>
        <time>2026-06-15T13:46:00Z</time>
        <hr>128</hr>
      </trkpt>
      <trkpt lat="41.39512955572624" lon="-81.76538779521502">
        <ele>256.9733626129</ele>
        <time>2026-06-15T13:46:04Z</time>
        <hr>128</hr>
      </trkpt>
      <trkpt lat="41.39504668359231" lon="-81.76541950586123">
        <ele>256.8693322205</ele>
        <time>2026-06-15T13:46:06Z</time>
        <hr>129</hr>
      </trkpt>
      <trkpt lat="41.39496939310700" lon="-81.76547987251384">
        <ele>257.1824506305</ele>
        <time>2026-06-15T13:46:08Z</time>
        <hr>129</hr>
      </trkpt>
      <trkpt lat="41.39490417796632" lon="-81.76555071288621">
        <ele>256.9311544845</ele>
        <time>2026-06-15T13:46:10Z</time>
        <hr>133</hr>
      </trkpt>
      <trkpt lat="41.39486141635037" lon="-81.76563289618441">
        <ele>256.8890060374</ele>
        <time>2026-06-15T13:46:11Z</time>
        <hr>133</hr>
      </trkpt>
      <trkpt lat="41.39482921696698" lon="-81.76573336440008">
        <ele>256.8495118793</ele>
        <time>2026-06-15T13:46:13Z</time>
        <hr>132</hr>
      </trkpt>
      <trkpt lat="41.39477893898138" lon="-81.76579393305860">
        <ele>256.7264417868</ele>
        <time>2026-06-15T13:46:14Z</time>
        <hr>133</hr>
      </trkpt>
      <trkpt lat="41.39468213386012" lon="-81.76589352887932">
        <ele>256.7337732951</ele>
        <time>2026-06-15T13:46:16Z</time>
        <hr>132</hr>
      </trkpt>
      <trkpt lat="41.39451290604142" lon="-81.76603621940866">
        <ele>257.0604360009</ele>
        <time>2026-06-15T13:46:21Z</time>
        <hr>131</hr>
      </trkpt>
      <trkpt lat="41.39432146723928" lon="-81.76619818233335">
        <ele>256.8690085945</ele>
        <time>2026-06-15T13:46:25Z</time>
        <hr>135</hr>
      </trkpt>
      <trkpt lat="41.39417551871299" lon="-81.76634413105494">
        <ele>256.7257378313</ele>
        <time>2026-06-15T13:46:29Z</time>
        <hr>134</hr>
      </trkpt>
      <trkpt lat="41.39410817518386" lon="-81.76639858593656">
        <ele>256.5685551691</ele>
        <time>2026-06-15T13:46:31Z</time>
        <hr>134</hr>
      </trkpt>
      <trkpt lat="41.39383158544997" lon="-81.76649195954373">
        <ele>257.0140912817</ele>
        <time>2026-06-15T13:46:35Z</time>
        <hr>131</hr>
      </trkpt>
      <trkpt lat="41.39375916288157" lon="-81.76652992968279">
        <ele>257.1377024577</ele>
        <time>2026-06-15T13:46:36Z</time>
        <hr>131</hr>
      </trkpt>
      <trkpt lat="41.39364761585311" lon="-81.76662492851513">
        <ele>257.0674105120</ele>
        <time>2026-06-15T13:46:39Z</time>
        <hr>130</hr>
      </trkpt>
      <trkpt lat="41.39361759928727" lon="-81.76667981858316">
        <ele>257.1287887048</ele>
        <time>2026-06-15T13:46:41Z</time>
        <hr>129</hr>
      </trkpt>
      <trkpt lat="41.39352170171176" lon="-81.76675113224202">
        <ele>257.0800373301</ele>
        <time>2026-06-15T13:46:43Z</time>
        <hr>130</hr>
      </trkpt>
      <trkpt lat="41.39326791089234" lon="-81.76690987497882">
        <ele>256.9676214326</ele>
        <time>2026-06-15T13:46:50Z</time>
        <hr>131</hr>
      </trkpt>
      <trkpt lat="41.39284231033822" lon="-81.76727657909771">
        <ele>257.0316141567</ele>
        <time>2026-06-15T13:46:59Z</time>
        <hr>132</hr>
      </trkpt>
      <trkpt lat="41.39267435289821" lon="-81.76746728293254">
        <ele>256.8351895589</ele>
        <time>2026-06-15T13:47:03Z</time>
        <hr>129</hr>
      </trkpt>
      <trkpt lat="41.39257515177242" lon="-81.76751580811468">
        <ele>256.8314774923</ele>
        <time>2026-06-15T13:47:05Z</time>
        <hr>131</hr>
      </trkpt>
      <trkpt lat="41.39252206150267" lon="-81.76759483972455">
        <ele>257.0742028529</ele>
        <time>2026-06-15T13:47:07Z</time>
        <hr>130</hr>
      </trkpt>
      <trkpt lat="41.39243402636459" lon="-81.76786653950076">
        <ele>257.0474130427</ele>
        <time>2026-06-15T13:47:12Z</time>
        <hr>131</hr>
      </trkpt>
      <trkpt lat="41.39240008570955" lon="-81.76799644820599">
        <ele>256.5466530104</ele>
        <time>2026-06-15T13:47:15Z</time>
        <hr>131</hr>
      </trkpt>
      <trkpt lat="41.39236999464781" lon="-81.76813448178012">
        <ele>256.6707741245</ele>
        <time>2026-06-15T13:47:17Z</time>
        <hr>133</hr>
      </trkpt>
      <trkpt lat="41.39235875899072" lon="-81.76839980167654">
        <ele>256.4520507372</ele>
        <time>2026-06-15T13:47:21Z</time>
        <hr>131</hr>
      </trkpt>
      <trkpt lat="41.39229402530009" lon="-81.76870758315141">
        <ele>256.0338868400</ele>
        <time>2026-06-15T13:47:26Z</time>
        <hr>134</hr>
      </trkpt>
      <trkpt lat="41.39222158580041" lon="-81.76896249317261">
        <ele>257.8132031997</ele>
        <time>2026-06-15T13:47:30Z</time>
        <hr>131</hr>
      </trkpt>
      <trkpt lat="41.39219076261986" lon="-81.76912883428889">
        <ele>258.0353767836</ele>
        <time>2026-06-15T13:47:32Z</time>
        <hr>129</hr>
      </trkpt>
      <trkpt lat="41.39216070723707" lon="-81.76922623853150">
        <ele>258.0595327756</ele>
        <time>2026-06-15T13:47:34Z</time>
        <hr>129</hr>
      </trkpt>
      <trkpt lat="41.39197702604234" lon="-81.76963459863055">
        <ele>256.9391373506</ele>
        <time>2026-06-15T13:47:41Z</time>
        <hr>129</hr>
      </trkpt>
      <trkpt lat="41.39175447167917" lon="-81.76999821259733">
        <ele>256.7926294769</ele>
        <time>2026-06-15T13:47:48Z</time>
        <hr>129</hr>
      </trkpt>
      <trkpt lat="41.39170826631095" lon="-81.77007783722506">
        <ele>256.9738938547</ele>
        <time>2026-06-15T13:47:50Z</time>
        <hr>130</hr>
      </trkpt>
      <trkpt lat="41.39166428072995" lon="-81.77010901380648">
        <ele>257.1699193096</ele>
        <time>2026-06-15T13:47:51Z</time>
        <hr>127</hr>
      </trkpt>
      <trkpt lat="41.39160657650235" lon="-81.77012543146712">
        <ele>256.6176699955</ele>
        <time>2026-06-15T13:47:53Z</time>
        <hr>128</hr>
      </trkpt>
      <trkpt lat="41.39151751857199" lon="-81.77009769044913">
        <ele>256.0168674371</ele>
        <time>2026-06-15T13:47:55Z</time>
        <hr>129</hr>
      </trkpt>
      <trkpt lat="41.39140088283636" lon="-81.77002285787701">
        <ele>256.8849514066</ele>
        <time>2026-06-15T13:47:58Z</time>
        <hr>131</hr>
      </trkpt>
      <trkpt lat="41.39131994893611" lon="-81.77000321223234">
        <ele>257.2078787301</ele>
        <time>2026-06-15T13:47:59Z</time>
        <hr>132</hr>
      </trkpt>
      <trkpt lat="41.39117081050739" lon="-81.76999195468338">
        <ele>257.7156350007</ele>
        <time>2026-06-15T13:48:16Z</time>
        <hr>134</hr>
      </trkpt>
      <trkpt lat="41.39101085247906" lon="-81.77001182810930">
        <ele>258.0473029461</ele>
        <time>2026-06-15T13:48:20Z</time>
        <hr>134</hr>
      </trkpt>
      <trkpt lat="41.39088286462646" lon="-81.77003669566871">
        <ele>257.7890879813</ele>
        <time>2026-06-15T13:48:23Z</time>
        <hr>134</hr>
      </trkpt>
      <trkpt lat="41.39080226809320" lon="-81.77009117553249">
        <ele>257.3960514077</ele>
        <time>2026-06-15T13:48:25Z</time>
        <hr>134</hr>
      </trkpt>
      <trkpt lat="41.39073077807337" lon="-81.77014221445154">
        <ele>256.6301607074</ele>
        <time>2026-06-15T13:48:27Z</time>
        <hr>131</hr>
      </trkpt>
      <trkpt lat="41.39066964665637" lon="-81.77024423688087">
        <ele>255.4937608168</ele>
        <time>2026-06-15T13:48:29Z</time>
        <hr>133</hr>
      </trkpt>
      <trkpt lat="41.39052093255096" lon="-81.77035692478799">
        <ele>256.3585457273</ele>
        <time>2026-06-15T13:48:35Z</time>
        <hr>131</hr>
      </trkpt>
      <trkpt lat="41.39048117821212" lon="-81.77041568655369">
        <ele>256.6569796446</ele>
        <time>2026-06-15T13:48:36Z</time>
        <hr>133</hr>
      </trkpt>
      <trkpt lat="41.39046948007583" lon="-81.77048581477207">
        <ele>256.7455165669</ele>
        <time>2026-06-15T13:48:37Z</time>
        <hr>131</hr>
      </trkpt>
      <trkpt lat="41.39045988258335" lon="-81.77077414749216">
        <ele>256.3126053712</ele>
        <time>2026-06-15T13:49:11Z</time>
        <hr>129</hr>
      </trkpt>
      <trkpt lat="41.39042605542645" lon="-81.77091033578640">
        <ele>256.8865217865</ele>
        <time>2026-06-15T13:49:12Z</time>
        <hr>131</hr>
      </trkpt>
      <trkpt lat="41.39039010941730" lon="-81.77100846563071">
        <ele>257.4198068735</ele>
        <time>2026-06-15T13:49:14Z</time>
        <hr>133</hr>
      </trkpt>
      <trkpt lat="41.39034157081834" lon="-81.77106806122444">
        <ele>257.3930128276</ele>
        <time>2026-06-15T13:49:16Z</time>
        <hr>133</hr>
      </trkpt>
      <trkpt lat="41.39028413105208" lon="-81.77109771305119">
        <ele>256.9231155126</ele>
        <time>2026-06-15T13:49:17Z</time>
        <hr>132</hr>
      </trkpt>
      <trkpt lat="41.39001432135816" lon="-81.77115253395827">
        <ele>254.6064436194</ele>
        <time>2026-06-15T13:49:22Z</time>
        <hr>131</hr>
      </trkpt>
      <trkpt lat="41.38996703854154" lon="-81.77119017962490">
        <ele>254.7132266531</ele>
        <time>2026-06-15T13:49:24Z</time>
        <hr>130</hr>
      </trkpt>
      <trkpt lat="41.38995150430070" lon="-81.77121348865522">
        <ele>255.0425382273</ele>
        <time>2026-06-15T13:49:25Z</time>
        <hr>128</hr>
      </trkpt>
      <trkpt lat="41.38990969217357" lon="-81.77132639665749">
        <ele>255.2926506281</ele>
        <time>2026-06-15T13:49:27Z</time>
        <hr>128</hr>
      </trkpt>
      <trkpt lat="41.38986820525552" lon="-81.77159769335735">
        <ele>256.6496720980</ele>
        <time>2026-06-15T13:49:31Z</time>
        <hr>131</hr>
      </trkpt>
      <trkpt lat="41.38983731098928" lon="-81.77169221056057">
        <ele>257.1274601479</ele>
        <time>2026-06-15T13:49:32Z</time>
        <hr>134</hr>
      </trkpt>
      <trkpt lat="41.38972518354253" lon="-81.77179731898866">
        <ele>257.5642392323</ele>
        <time>2026-06-15T13:49:37Z</time>
        <hr>134</hr>
      </trkpt>
      <trkpt lat="41.38949095040171" lon="-81.77193983324408">
        <ele>256.7917800686</ele>
        <time>2026-06-15T13:49:43Z</time>
        <hr>133</hr>
      </trkpt>
      <trkpt lat="41.38932877138025" lon="-81.77202318656045">
        <ele>255.4022128199</ele>
        <time>2026-06-15T13:49:48Z</time>
        <hr>133</hr>
      </trkpt>
      <trkpt lat="41.38920146968032" lon="-81.77207794692764">
        <ele>255.5472626560</ele>
        <time>2026-06-15T13:49:50Z</time>
        <hr>131</hr>
      </trkpt>
      <trkpt lat="41.38912244068249" lon="-81.77213017767335">
        <ele>255.4889493647</ele>
        <time>2026-06-15T13:49:53Z</time>
        <hr>130</hr>
      </trkpt>
      <trkpt lat="41.38897690847310" lon="-81.77227913997245">
        <ele>255.7900495882</ele>
        <time>2026-06-15T13:49:58Z</time>
        <hr>129</hr>
      </trkpt>
      <trkpt lat="41.38890247215421" lon="-81.77233883631919">
        <ele>255.7260831877</ele>
        <time>2026-06-15T13:49:59Z</time>
        <hr>129</hr>
      </trkpt>
      <trkpt lat="41.38858575467547" lon="-81.77245383766170">
        <ele>254.8680599569</ele>
        <time>2026-06-15T13:50:08Z</time>
        <hr>129</hr>
      </trkpt>
      <trkpt lat="41.38828614474372" lon="-81.77259465429779">
        <ele>255.5625088415</ele>
        <time>2026-06-15T13:50:12Z</time>
        <hr>129</hr>
      </trkpt>
      <trkpt lat="41.38821088859200" lon="-81.77265371137500">
        <ele>255.8085435322</ele>
        <time>2026-06-15T13:50:14Z</time>
        <hr>130</hr>
      </trkpt>
      <trkpt lat="41.38815690373439" lon="-81.77270255064279">
        <ele>256.0594796857</ele>
        <time>2026-06-15T13:50:16Z</time>
        <hr>127</hr>
      </trkpt>
      <trkpt lat="41.38812611772043" lon="-81.77275798000120">
        <ele>255.8525850046</ele>
        <time>2026-06-15T13:50:17Z</time>
        <hr>128</hr>
      </trkpt>
      <trkpt lat="41.38810468712004" lon="-81.77284275375239">
        <ele>256.1565340903</ele>
        <time>2026-06-15T13:50:18Z</time>
        <hr>129</hr>
      </trkpt>
      <trkpt lat="41.38806711468909" lon="-81.77301560722756">
        <ele>256.1687973048</ele>
        <time>2026-06-15T13:50:21Z</time>
        <hr>125</hr>
      </trkpt>
      <trkpt lat="41.38805095863396" lon="-81.77311714652265">
        <ele>255.8504975548</ele>
        <time>2026-06-15T13:50:22Z</time>
        <hr>126</hr>
      </trkpt>
      <trkpt lat="41.38806235911007" lon="-81.77318288346743">
        <ele>255.9246634549</ele>
        <time>2026-06-15T13:50:24Z</time>
        <hr>127</hr>
      </trkpt>
      <trkpt lat="41.38803592459499" lon="-81.77325089758730">
        <ele>255.7944280222</ele>
        <time>2026-06-15T13:50:25Z</time>
        <hr>127</hr>
      </trkpt>
      <trkpt lat="41.38788967749536" lon="-81.77336973396119">
        <ele>256.0229955479</ele>
        <time>2026-06-15T13:50:29Z</time>
        <hr>129</hr>
      </trkpt>
      <trkpt lat="41.38754452350022" lon="-81.77375757980391">
        <ele>256.0306351897</ele>
        <time>2026-06-15T13:50:36Z</time>
        <hr>129</hr>
      </trkpt>
      <trkpt lat="41.38736398428663" lon="-81.77407275951057">
        <ele>256.1976566182</ele>
        <time>2026-06-15T13:50:42Z</time>
        <hr>130</hr>
      </trkpt>
      <trkpt lat="41.38731858409365" lon="-81.77412663675025">
        <ele>256.1614860308</ele>
        <time>2026-06-15T13:50:44Z</time>
        <hr>132</hr>
      </trkpt>
      <trkpt lat="41.38724254146926" lon="-81.77422678608599">
        <ele>256.1819019547</ele>
        <time>2026-06-15T13:50:46Z</time>
        <hr>132</hr>
      </trkpt>
      <trkpt lat="41.38715965440657" lon="-81.77435427014682">
        <ele>256.7844803966</ele>
        <time>2026-06-15T13:50:48Z</time>
        <hr>131</hr>
      </trkpt>
      <trkpt lat="41.38707191765770" lon="-81.77450863663512">
        <ele>257.1383906235</ele>
        <time>2026-06-15T13:50:50Z</time>
        <hr>127</hr>
      </trkpt>
      <trkpt lat="41.38700735221571" lon="-81.77470170930303">
        <ele>257.0010839593</ele>
        <time>2026-06-15T13:50:53Z</time>
        <hr>128</hr>
      </trkpt>
      <trkpt lat="41.38687265719846" lon="-81.77490107603994">
        <ele>256.8115926947</ele>
        <time>2026-06-15T13:50:57Z</time>
        <hr>131</hr>
      </trkpt>
      <trkpt lat="41.38681271649373" lon="-81.77499870393849">
        <ele>256.8801407839</ele>
        <time>2026-06-15T13:50:59Z</time>
        <hr>131</hr>
      </trkpt>
      <trkpt lat="41.38677048790787" lon="-81.77506281821786">
        <ele>257.2169971967</ele>
        <time>2026-06-15T13:51:00Z</time>
        <hr>132</hr>
      </trkpt>
      <trkpt lat="41.38670561315826" lon="-81.77521532880141">
        <ele>257.0556203204</ele>
        <time>2026-06-15T13:51:02Z</time>
        <hr>132</hr>
      </trkpt>
      <trkpt lat="41.38652684072743" lon="-81.77554783326539">
        <ele>256.8426589867</ele>
        <time>2026-06-15T13:51:09Z</time>
        <hr>129</hr>
      </trkpt>
      <trkpt lat="41.38639331240202" lon="-81.77586152233724">
        <ele>257.0740546291</ele>
        <time>2026-06-15T13:51:14Z</time>
        <hr>128</hr>
      </trkpt>
      <trkpt lat="41.38629838770751" lon="-81.77606676723663">
        <ele>256.6915863555</ele>
        <time>2026-06-15T13:51:18Z</time>
        <hr>129</hr>
      </trkpt>
      <trkpt lat="41.38622311244090" lon="-81.77622840205598">
        <ele>257.2585141608</ele>
        <time>2026-06-15T13:51:21Z</time>
        <hr>133</hr>
      </trkpt>
      <trkpt lat="41.38602942489153" lon="-81.77665672815570">
        <ele>257.8627550675</ele>
        <time>2026-06-15T13:51:27Z</time>
        <hr>134</hr>
      </trkpt>
      <trkpt lat="41.38598264952827" lon="-81.77679958296015">
        <ele>258.0991797538</ele>
        <time>2026-06-15T13:51:29Z</time>
        <hr>131</hr>
      </trkpt>
      <trkpt lat="41.38583621103869" lon="-81.77719510906905">
        <ele>257.8373683003</ele>
        <time>2026-06-15T13:51:35Z</time>
        <hr>129</hr>
      </trkpt>
      <trkpt lat="41.38574853341861" lon="-81.77747285251262">
        <ele>258.0519989794</ele>
        <time>2026-06-15T13:51:40Z</time>
        <hr>127</hr>
      </trkpt>
      <trkpt lat="41.38569065054855" lon="-81.77755665603154">
        <ele>258.1044283985</ele>
        <time>2026-06-15T13:51:43Z</time>
        <hr>126</hr>
      </trkpt>
      <trkpt lat="41.38565392460130" lon="-81.77769576492182">
        <ele>257.7218875123</ele>
        <time>2026-06-15T13:51:45Z</time>
        <hr>126</hr>
      </trkpt>
      <trkpt lat="41.38557986628756" lon="-81.77796646250499">
        <ele>258.2548489578</ele>
        <time>2026-06-15T13:51:51Z</time>
        <hr>125</hr>
      </trkpt>
      <trkpt lat="41.38549454134434" lon="-81.77817157418157">
        <ele>258.4950205562</ele>
        <time>2026-06-15T13:51:55Z</time>
        <hr>126</hr>
      </trkpt>
      <trkpt lat="41.38542308241396" lon="-81.77840235536958">
        <ele>258.0108968110</ele>
        <time>2026-06-15T13:52:07Z</time>
        <hr>125</hr>
      </trkpt>
      <trkpt lat="41.38535045837813" lon="-81.77869356721241">
        <ele>259.1294727909</ele>
        <time>2026-06-15T13:52:11Z</time>
        <hr>126</hr>
      </trkpt>
      <trkpt lat="41.38514006225127" lon="-81.77965224174520">
        <ele>258.9510858160</ele>
        <time>2026-06-15T13:52:23Z</time>
        <hr>125</hr>
      </trkpt>
      <trkpt lat="41.38505099968285" lon="-81.78017577673319">
        <ele>259.1803336918</ele>
        <time>2026-06-15T13:52:32Z</time>
        <hr>126</hr>
      </trkpt>
      <trkpt lat="41.38499313516165" lon="-81.78030891402409">
        <ele>258.8595508106</ele>
        <time>2026-06-15T13:52:34Z</time>
        <hr>127</hr>
      </trkpt>
      <trkpt lat="41.38494184568935" lon="-81.78069393873812">
        <ele>259.1980528752</ele>
        <time>2026-06-15T13:52:39Z</time>
        <hr>128</hr>
      </trkpt>
      <trkpt lat="41.38488657237104" lon="-81.78084268398705">
        <ele>259.5518613566</ele>
        <time>2026-06-15T13:52:41Z</time>
        <hr>130</hr>
      </trkpt>
      <trkpt lat="41.38482927315005" lon="-81.78101727126463">
        <ele>260.0803024530</ele>
        <time>2026-06-15T13:52:44Z</time>
        <hr>130</hr>
      </trkpt>
      <trkpt lat="41.38479924855011" lon="-81.78113858453953">
        <ele>260.0062366549</ele>
        <time>2026-06-15T13:52:45Z</time>
        <hr>129</hr>
      </trkpt>
      <trkpt lat="41.38476940402879" lon="-81.78137988579620">
        <ele>260.0958067756</ele>
        <time>2026-06-15T13:52:49Z</time>
        <hr>129</hr>
      </trkpt>
      <trkpt lat="41.38472298358561" lon="-81.78153920941186">
        <ele>259.9245279270</ele>
        <time>2026-06-15T13:52:51Z</time>
        <hr>130</hr>
      </trkpt>
      <trkpt lat="41.38463645166029" lon="-81.78174427872871">
        <ele>259.7698631371</ele>
        <time>2026-06-15T13:52:56Z</time>
        <hr>130</hr>
      </trkpt>
      <trkpt lat="41.38456048297134" lon="-81.78199922915617">
        <ele>259.8515392362</ele>
        <time>2026-06-15T13:53:00Z</time>
        <hr>132</hr>
      </trkpt>
      <trkpt lat="41.38447990905436" lon="-81.78234421388822">
        <ele>259.9065961056</ele>
        <time>2026-06-15T13:53:04Z</time>
        <hr>130</hr>
      </trkpt>
      <trkpt lat="41.38435630425207" lon="-81.78277517834879">
        <ele>259.8574839522</ele>
        <time>2026-06-15T13:53:09Z</time>
        <hr>131</hr>
      </trkpt>
      <trkpt lat="41.38428617280374" lon="-81.78294472801382">
        <ele>259.9233549843</ele>
        <time>2026-06-15T13:53:13Z</time>
        <hr>131</hr>
      </trkpt>
      <trkpt lat="41.38412260508590" lon="-81.78340954482729">
        <ele>260.0631437201</ele>
        <time>2026-06-15T13:53:23Z</time>
        <hr>130</hr>
      </trkpt>
      <trkpt lat="41.38402684408299" lon="-81.78371334735968">
        <ele>259.9913265110</ele>
        <time>2026-06-15T13:53:29Z</time>
        <hr>128</hr>
      </trkpt>
      <trkpt lat="41.38374671907717" lon="-81.78447178615748">
        <ele>259.8952842545</ele>
        <time>2026-06-15T13:53:41Z</time>
        <hr>128</hr>
      </trkpt>
      <trkpt lat="41.38372864113853" lon="-81.78453847388636">
        <ele>260.0296937980</ele>
        <time>2026-06-15T13:53:43Z</time>
        <hr>130</hr>
      </trkpt>
      <trkpt lat="41.38363100177040" lon="-81.78476976843682">
        <ele>260.2575582665</ele>
        <time>2026-06-15T13:53:47Z</time>
        <hr>130</hr>
      </trkpt>
      <trkpt lat="41.38356275442475" lon="-81.78489529134069">
        <ele>259.9059818317</ele>
        <time>2026-06-15T13:53:50Z</time>
        <hr>129</hr>
      </trkpt>
      <trkpt lat="41.38329322427357" lon="-81.78545403277262">
        <ele>260.0366548504</ele>
        <time>2026-06-15T13:54:05Z</time>
        <hr>129</hr>
      </trkpt>
      <trkpt lat="41.38319890546128" lon="-81.78570863888348">
        <ele>259.9913825976</ele>
        <time>2026-06-15T13:54:09Z</time>
        <hr>131</hr>
      </trkpt>
      <trkpt lat="41.38312231751877" lon="-81.78593294512510">
        <ele>258.8072453651</ele>
        <time>2026-06-15T13:54:25Z</time>
        <hr>130</hr>
      </trkpt>
      <trkpt lat="41.38285679882509" lon="-81.78662168862007">
        <ele>258.9151740522</ele>
        <time>2026-06-15T13:54:35Z</time>
        <hr>129</hr>
      </trkpt>
      <trkpt lat="41.38263135478615" lon="-81.78728723201003">
        <ele>259.0845177522</ele>
        <time>2026-06-15T13:54:47Z</time>
        <hr>129</hr>
      </trkpt>
      <trkpt lat="41.38242585293849" lon="-81.78795596755843">
        <ele>259.0023996368</ele>
        <time>2026-06-15T13:54:59Z</time>
        <hr>131</hr>
      </trkpt>
      <trkpt lat="41.38232402855382" lon="-81.78828722685887">
        <ele>258.7632984235</ele>
        <time>2026-06-15T13:55:08Z</time>
        <hr>130</hr>
      </trkpt>
      <trkpt lat="41.38223927466377" lon="-81.78862330369853">
        <ele>259.1612967752</ele>
        <time>2026-06-15T13:55:13Z</time>
        <hr>129</hr>
      </trkpt>
      <trkpt lat="41.38217283473583" lon="-81.78883477609831">
        <ele>259.1230717636</ele>
        <time>2026-06-15T13:55:17Z</time>
        <hr>129</hr>
      </trkpt>
      <trkpt lat="41.38204958303931" lon="-81.78927701453613">
        <ele>259.1083195280</ele>
        <time>2026-06-15T13:55:26Z</time>
        <hr>131</hr>
      </trkpt>
      <trkpt lat="41.38169427939410" lon="-81.79047825021551">
        <ele>258.0359821352</ele>
        <time>2026-06-15T13:55:44Z</time>
        <hr>132</hr>
      </trkpt>
      <trkpt lat="41.38160434923920" lon="-81.79076007013978">
        <ele>258.0772805904</ele>
        <time>2026-06-15T13:55:48Z</time>
        <hr>129</hr>
      </trkpt>
      <trkpt lat="41.38136857885474" lon="-81.79140541700768">
        <ele>257.9771497505</ele>
        <time>2026-06-15T13:56:00Z</time>
        <hr>127</hr>
      </trkpt>
      <trkpt lat="41.38107582759761" lon="-81.79199485752615">
        <ele>258.1388395823</ele>
        <time>2026-06-15T13:56:11Z</time>
        <hr>126</hr>
      </trkpt>
      <trkpt lat="41.38036707291536" lon="-81.79355345200685">
        <ele>257.8270566069</ele>
        <time>2026-06-15T13:56:42Z</time>
        <hr>126</hr>
      </trkpt>
      <trkpt lat="41.37974388843522" lon="-81.79489182878395">
        <ele>257.1399879336</ele>
        <time>2026-06-15T13:57:05Z</time>
        <hr>127</hr>
      </trkpt>
      <trkpt lat="41.37968670064707" lon="-81.79502955871278">
        <ele>257.5083638817</ele>
        <time>2026-06-15T13:57:07Z</time>
        <hr>129</hr>
      </trkpt>
      <trkpt lat="41.37968147386724" lon="-81.79504736326547">
        <ele>257.1604723839</ele>
        <time>2026-06-15T13:57:08Z</time>
        <hr>131</hr>
      </trkpt>
      <trkpt lat="41.37969988375080" lon="-81.79512430216761">
        <ele>257.4710303480</ele>
        <time>2026-06-15T13:57:09Z</time>
        <hr>132</hr>
      </trkpt>
      <trkpt lat="41.37966981557861" lon="-81.79515494140671">
        <ele>257.7583293848</ele>
        <time>2026-06-15T13:57:10Z</time>
        <hr>133</hr>
      </trkpt>
      <trkpt lat="41.37955792765861" lon="-81.79535916530398">
        <ele>257.9404125311</ele>
        <time>2026-06-15T13:57:15Z</time>
        <hr>130</hr>
      </trkpt>
      <trkpt lat="41.37914486221409" lon="-81.79597370111875">
        <ele>256.8188628888</ele>
        <time>2026-06-15T13:57:29Z</time>
        <hr>131</hr>
      </trkpt>
      <trkpt lat="41.37907918541136" lon="-81.79603589804240">
        <ele>257.0018091171</ele>
        <time>2026-06-15T13:57:30Z</time>
        <hr>133</hr>
      </trkpt>
      <trkpt lat="41.37891110577655" lon="-81.79618479696758">
        <ele>257.1397329022</ele>
        <time>2026-06-15T13:57:33Z</time>
        <hr>134</hr>
      </trkpt>
      <trkpt lat="41.37862509908489" lon="-81.79651694436585">
        <ele>256.8640674703</ele>
        <time>2026-06-15T13:57:40Z</time>
        <hr>133</hr>
      </trkpt>
      <trkpt lat="41.37821864562608" lon="-81.79695257923741">
        <ele>256.9289602246</ele>
        <time>2026-06-15T13:57:51Z</time>
        <hr>131</hr>
      </trkpt>
      <trkpt lat="41.37813830163861" lon="-81.79705423302026">
        <ele>257.0603527822</ele>
        <time>2026-06-15T13:57:53Z</time>
        <hr>133</hr>
      </trkpt>
      <trkpt lat="41.37799920409788" lon="-81.79717924793609">
        <ele>257.0261091321</ele>
        <time>2026-06-15T13:57:56Z</time>
        <hr>135</hr>
      </trkpt>
      <trkpt lat="41.37780970625452" lon="-81.79740003487407">
        <ele>257.2103316950</ele>
        <time>2026-06-15T13:58:00Z</time>
        <hr>135</hr>
      </trkpt>
      <trkpt lat="41.37747996533751" lon="-81.79781886605296">
        <ele>257.1263021335</ele>
        <time>2026-06-15T13:58:11Z</time>
        <hr>135</hr>
      </trkpt>
      <trkpt lat="41.37721209774595" lon="-81.79823416854694">
        <ele>256.9996695261</ele>
        <time>2026-06-15T13:58:20Z</time>
        <hr>135</hr>
      </trkpt>
      <trkpt lat="41.37690549311011" lon="-81.79882808080377">
        <ele>256.8225517415</ele>
        <time>2026-06-15T13:58:32Z</time>
        <hr>137</hr>
      </trkpt>
      <trkpt lat="41.37683189622043" lon="-81.79903992625960">
        <ele>257.1443897216</ele>
        <time>2026-06-15T13:58:36Z</time>
        <hr>133</hr>
      </trkpt>
      <trkpt lat="41.37673589598746" lon="-81.79922343617874">
        <ele>256.8273957101</ele>
        <time>2026-06-15T13:59:05Z</time>
        <hr>133</hr>
      </trkpt>
      <trkpt lat="41.37666264750778" lon="-81.79939241177495">
        <ele>257.0984928969</ele>
        <time>2026-06-15T13:59:07Z</time>
        <hr>130</hr>
      </trkpt>
      <trkpt lat="41.37662924014239" lon="-81.79952142637765">
        <ele>257.0282813850</ele>
        <time>2026-06-15T13:59:09Z</time>
        <hr>132</hr>
      </trkpt>
      <trkpt lat="41.37651464508905" lon="-81.79973664498175">
        <ele>256.6138996934</ele>
        <time>2026-06-15T13:59:13Z</time>
        <hr>132</hr>
      </trkpt>
      <trkpt lat="41.37644378128738" lon="-81.79994101582624">
        <ele>256.8416684951</ele>
        <time>2026-06-15T13:59:16Z</time>
        <hr>134</hr>
      </trkpt>
      <trkpt lat="41.37632305900424" lon="-81.80022944154902">
        <ele>256.1221019986</ele>
        <time>2026-06-15T13:59:22Z</time>
        <hr>136</hr>
      </trkpt>
      <trkpt lat="41.37614241652680" lon="-81.80054883785348">
        <ele>255.8654708136</ele>
        <time>2026-06-15T13:59:30Z</time>
        <hr>136</hr>
      </trkpt>
      <trkpt lat="41.37584589425439" lon="-81.80099589242555">
        <ele>256.0909825239</ele>
        <time>2026-06-15T13:59:40Z</time>
        <hr>135</hr>
      </trkpt>
      <trkpt lat="41.37560143726621" lon="-81.80128541967237">
        <ele>256.0346512794</ele>
        <time>2026-06-15T13:59:50Z</time>
        <hr>130</hr>
      </trkpt>
      <trkpt lat="41.37527596091178" lon="-81.80164396563707">
        <ele>256.0054093502</ele>
        <time>2026-06-15T13:59:59Z</time>
        <hr>131</hr>
      </trkpt>
      <trkpt lat="41.37497676559339" lon="-81.80199775029391">
        <ele>255.9042487093</ele>
        <time>2026-06-15T14:00:05Z</time>
        <hr>133</hr>
      </trkpt>
      <trkpt lat="41.37485991899970" lon="-81.80213718064300">
        <ele>255.9532096952</ele>
        <time>2026-06-15T14:00:08Z</time>
        <hr>133</hr>
      </trkpt>
      <trkpt lat="41.37464597714028" lon="-81.80243241391931">
        <ele>256.0389675182</ele>
        <time>2026-06-15T14:00:13Z</time>
        <hr>133</hr>
      </trkpt>
      <trkpt lat="41.37456682996589" lon="-81.80257869172249">
        <ele>255.9894963419</ele>
        <time>2026-06-15T14:00:16Z</time>
        <hr>134</hr>
      </trkpt>
      <trkpt lat="41.37452677055023" lon="-81.80263168957434">
        <ele>255.9870870153</ele>
        <time>2026-06-15T14:00:17Z</time>
        <hr>131</hr>
      </trkpt>
      <trkpt lat="41.37437736922737" lon="-81.80286144369825">
        <ele>255.9039224971</ele>
        <time>2026-06-15T14:00:21Z</time>
        <hr>130</hr>
      </trkpt>
      <trkpt lat="41.37429611154509" lon="-81.80304167492378">
        <ele>255.7713418486</ele>
        <time>2026-06-15T14:00:23Z</time>
        <hr>129</hr>
      </trkpt>
      <trkpt lat="41.37412720154335" lon="-81.80331280894102">
        <ele>255.7177555640</ele>
        <time>2026-06-15T14:00:31Z</time>
        <hr>129</hr>
      </trkpt>
      <trkpt lat="41.37403479922823" lon="-81.80351097035017">
        <ele>255.8780472253</ele>
        <time>2026-06-15T14:00:34Z</time>
        <hr>128</hr>
      </trkpt>
      <trkpt lat="41.37387422539212" lon="-81.80378262975752">
        <ele>256.0533937656</ele>
        <time>2026-06-15T14:00:40Z</time>
        <hr>129</hr>
      </trkpt>
      <trkpt lat="41.37365577558695" lon="-81.80417672665692">
        <ele>255.9886329586</ele>
        <time>2026-06-15T14:00:47Z</time>
        <hr>132</hr>
      </trkpt>
      <trkpt lat="41.37360393975033" lon="-81.80426743187127">
        <ele>255.8261689782</ele>
        <time>2026-06-15T14:00:50Z</time>
        <hr>131</hr>
      </trkpt>
      <trkpt lat="41.37345750113604" lon="-81.80452031641951">
        <ele>255.8685071876</ele>
        <time>2026-06-15T14:00:54Z</time>
        <hr>131</hr>
      </trkpt>
      <trkpt lat="41.37320014405810" lon="-81.80489650116657">
        <ele>255.6421687343</ele>
        <time>2026-06-15T14:01:05Z</time>
        <hr>131</hr>
      </trkpt>
      <trkpt lat="41.37304178576286" lon="-81.80510843430071">
        <ele>255.5187460068</ele>
        <time>2026-06-15T14:01:10Z</time>
        <hr>131</hr>
      </trkpt>
      <trkpt lat="41.37261557453431" lon="-81.80561974461956">
        <ele>255.6968478689</ele>
        <time>2026-06-15T14:01:21Z</time>
        <hr>127</hr>
      </trkpt>
      <trkpt lat="41.37160901474368" lon="-81.80676203479956">
        <ele>255.0048765105</ele>
        <time>2026-06-15T14:01:44Z</time>
        <hr>129</hr>
      </trkpt>
      <trkpt lat="41.37144927342809" lon="-81.80694938106465">
        <ele>254.8596354379</ele>
        <time>2026-06-15T14:01:48Z</time>
        <hr>128</hr>
      </trkpt>
      <trkpt lat="41.37093195743282" lon="-81.80753808137057">
        <ele>255.5453514005</ele>
        <time>2026-06-15T14:02:05Z</time>
        <hr>128</hr>
      </trkpt>
      <trkpt lat="41.37087783727008" lon="-81.80760052898509">
        <ele>256.1731241438</ele>
        <time>2026-06-15T14:02:06Z</time>
        <hr>129</hr>
      </trkpt>
      <trkpt lat="41.37084145042392" lon="-81.80770934213771">
        <ele>256.0356659887</ele>
        <time>2026-06-15T14:02:08Z</time>
        <hr>128</hr>
      </trkpt>
      <trkpt lat="41.37075620797008" lon="-81.80780491449993">
        <ele>255.9840680082</ele>
        <time>2026-06-15T14:02:10Z</time>
        <hr>128</hr>
      </trkpt>
      <trkpt lat="41.37068286199156" lon="-81.80787745432150">
        <ele>255.7010112375</ele>
        <time>2026-06-15T14:02:13Z</time>
        <hr>130</hr>
      </trkpt>
      <trkpt lat="41.37059799506935" lon="-81.80790690102386">
        <ele>255.1690690943</ele>
        <time>2026-06-15T14:02:39Z</time>
        <hr>129</hr>
      </trkpt>
      <trkpt lat="41.37030723035172" lon="-81.80821794549352">
        <ele>254.5410725310</ele>
        <time>2026-06-15T14:02:46Z</time>
        <hr>131</hr>
      </trkpt>
      <trkpt lat="41.36982190816120" lon="-81.80882747691228">
        <ele>254.7585572074</ele>
        <time>2026-06-15T14:02:56Z</time>
        <hr>134</hr>
      </trkpt>
      <trkpt lat="41.36948719143323" lon="-81.80923383449611">
        <ele>254.9170255125</ele>
        <time>2026-06-15T14:03:06Z</time>
        <hr>135</hr>
      </trkpt>
      <trkpt lat="41.36891193018080" lon="-81.80999517987503">
        <ele>253.7734229555</ele>
        <time>2026-06-15T14:03:25Z</time>
        <hr>134</hr>
      </trkpt>
      <trkpt lat="41.36837154127097" lon="-81.81066061001276">
        <ele>253.8818275879</ele>
        <time>2026-06-15T14:03:41Z</time>
        <hr>134</hr>
      </trkpt>
      <trkpt lat="41.36781001957020" lon="-81.81126450029353">
        <ele>253.9773341251</ele>
        <time>2026-06-15T14:03:55Z</time>
        <hr>134</hr>
      </trkpt>
      <trkpt lat="41.36750980639464" lon="-81.81166488542564">
        <ele>254.0395063649</ele>
        <time>2026-06-15T14:04:02Z</time>
        <hr>135</hr>
      </trkpt>
      <trkpt lat="41.36742974721049" lon="-81.81177202657624">
        <ele>253.7410972464</ele>
        <time>2026-06-15T14:04:04Z</time>
        <hr>134</hr>
      </trkpt>
      <trkpt lat="41.36739310758865" lon="-81.81182242337070">
        <ele>253.4178666580</ele>
        <time>2026-06-15T14:04:05Z</time>
        <hr>134</hr>
      </trkpt>
      <trkpt lat="41.36718017424327" lon="-81.81187045765355">
        <ele>253.6067519719</ele>
        <time>2026-06-15T14:04:10Z</time>
        <hr>131</hr>
      </trkpt>
      <trkpt lat="41.36706949305307" lon="-81.81192544795499">
        <ele>254.1261519657</ele>
        <time>2026-06-15T14:04:13Z</time>
        <hr>131</hr>
      </trkpt>
      <trkpt lat="41.36692455282928" lon="-81.81203913111530">
        <ele>253.9161240235</ele>
        <time>2026-06-15T14:04:18Z</time>
        <hr>129</hr>
      </trkpt>
      <trkpt lat="41.36676688420598" lon="-81.81215483664835">
        <ele>253.9941924289</ele>
        <time>2026-06-15T14:04:22Z</time>
        <hr>127</hr>
      </trkpt>
      <trkpt lat="41.36659692274490" lon="-81.81233647099440">
        <ele>254.1086665209</ele>
        <time>2026-06-15T14:04:27Z</time>
        <hr>126</hr>
      </trkpt>
      <trkpt lat="41.36635685743314" lon="-81.81259917350771">
        <ele>254.8614297246</ele>
        <time>2026-06-15T14:04:42Z</time>
        <hr>129</hr>
      </trkpt>
      <trkpt lat="41.36618354777872" lon="-81.81281981049069">
        <ele>254.6261612668</ele>
        <time>2026-06-15T14:04:46Z</time>
        <hr>126</hr>
      </trkpt>
      <trkpt lat="41.36602921896470" lon="-81.81303959809864">
        <ele>254.2884082584</ele>
        <time>2026-06-15T14:04:54Z</time>
        <hr>128</hr>
      </trkpt>
      <trkpt lat="41.36590706078876" lon="-81.81315430945493">
        <ele>253.7498739746</ele>
        <time>2026-06-15T14:04:57Z</time>
        <hr>132</hr>
      </trkpt>
      <trkpt lat="41.36522529408120" lon="-81.81400175308175">
        <ele>254.8081565403</ele>
        <time>2026-06-15T14:05:14Z</time>
        <hr>132</hr>
      </trkpt>
      <trkpt lat="41.36515740787498" lon="-81.81405340069715">
        <ele>255.0245952533</ele>
        <time>2026-06-15T14:05:15Z</time>
        <hr>130</hr>
      </trkpt>
      <trkpt lat="41.36432707033939" lon="-81.81511835989373">
        <ele>253.6478424850</ele>
        <time>2026-06-15T14:05:37Z</time>
        <hr>130</hr>
      </trkpt>
      <trkpt lat="41.36420392709326" lon="-81.81527333388722">
        <ele>253.8495976458</ele>
        <time>2026-06-15T14:05:40Z</time>
        <hr>130</hr>
      </trkpt>
      <trkpt lat="41.36399535200287" lon="-81.81551884064491">
        <ele>252.8317952378</ele>
        <time>2026-06-15T14:05:46Z</time>
        <hr>130</hr>
      </trkpt>
      <trkpt lat="41.36374867899541" lon="-81.81581999388034">
        <ele>253.0261667019</ele>
        <time>2026-06-15T14:05:53Z</time>
        <hr>128</hr>
      </trkpt>
      <trkpt lat="41.36362292525573" lon="-81.81597054116523">
        <ele>253.0066461989</ele>
        <time>2026-06-15T14:05:56Z</time>
        <hr>129</hr>
      </trkpt>
      <trkpt lat="41.36347346853930" lon="-81.81620387561809">
        <ele>252.2005174319</ele>
        <time>2026-06-15T14:06:01Z</time>
        <hr>129</hr>
      </trkpt>
      <trkpt lat="41.36337864256164" lon="-81.81631099307667">
        <ele>252.2116739424</ele>
        <time>2026-06-15T14:06:03Z</time>
        <hr>130</hr>
      </trkpt>
      <trkpt lat="41.36318973299175" lon="-81.81664967269634">
        <ele>252.5810555065</ele>
        <time>2026-06-15T14:06:11Z</time>
        <hr>131</hr>
      </trkpt>
      <trkpt lat="41.36305486146653" lon="-81.81693932110943">
        <ele>253.5709540556</ele>
        <time>2026-06-15T14:06:19Z</time>
        <hr>128</hr>
      </trkpt>
      <trkpt lat="41.36297423185214" lon="-81.81706639280647">
        <ele>253.8742232360</ele>
        <time>2026-06-15T14:06:22Z</time>
        <hr>128</hr>
      </trkpt>
      <trkpt lat="41.36274124125651" lon="-81.81770930162972">
        <ele>252.9101337402</ele>
        <time>2026-06-15T14:06:33Z</time>
        <hr>129</hr>
      </trkpt>
      <trkpt lat="41.36273558721616" lon="-81.81775630391496">
        <ele>252.9848338877</ele>
        <time>2026-06-15T14:06:34Z</time>
        <hr>130</hr>
      </trkpt>
      <trkpt lat="41.36275431518083" lon="-81.81815722870361">
        <ele>252.6966057136</ele>
        <time>2026-06-15T14:06:41Z</time>
        <hr>129</hr>
      </trkpt>
      <trkpt lat="41.36273388033788" lon="-81.81827600186841">
        <ele>252.8081685166</ele>
        <time>2026-06-15T14:06:54Z</time>
        <hr>129</hr>
      </trkpt>
      <trkpt lat="41.36266751208841" lon="-81.81847605144317">
        <ele>252.1241095622</ele>
        <time>2026-06-15T14:06:58Z</time>
        <hr>129</hr>
      </trkpt>
      <trkpt lat="41.36264838107741" lon="-81.81857342315065">
        <ele>251.3394193630</ele>
        <time>2026-06-15T14:07:00Z</time>
        <hr>128</hr>
      </trkpt>
      <trkpt lat="41.36264591935242" lon="-81.81865508187883">
        <ele>250.9001605985</ele>
        <time>2026-06-15T14:07:01Z</time>
        <hr>129</hr>
      </trkpt>
      <trkpt lat="41.36271340846960" lon="-81.81894226698945">
        <ele>248.8374985006</ele>
        <time>2026-06-15T14:07:04Z</time>
        <hr>130</hr>
      </trkpt>
      <trkpt lat="41.36276404588637" lon="-81.81923794851902">
        <ele>249.2780671769</ele>
        <time>2026-06-15T14:07:30Z</time>
        <hr>129</hr>
      </trkpt>
      <trkpt lat="41.36281038218309" lon="-81.81950370636545">
        <ele>248.9020901022</ele>
        <time>2026-06-15T14:07:34Z</time>
        <hr>127</hr>
      </trkpt>
      <trkpt lat="41.36282112472563" lon="-81.81969264157661">
        <ele>248.6765161136</ele>
        <time>2026-06-15T14:07:37Z</time>
        <hr>127</hr>
      </trkpt>
      <trkpt lat="41.36282383542550" lon="-81.81989168825507">
        <ele>248.6001782893</ele>
        <time>2026-06-15T14:07:40Z</time>
        <hr>126</hr>
      </trkpt>
      <trkpt lat="41.36280270376201" lon="-81.82005402202613">
        <ele>249.0349304941</ele>
        <time>2026-06-15T14:07:43Z</time>
        <hr>127</hr>
      </trkpt>
      <trkpt lat="41.36276159608098" lon="-81.82023122646866">
        <ele>249.4164677905</ele>
        <time>2026-06-15T14:07:46Z</time>
        <hr>127</hr>
      </trkpt>
      <trkpt lat="41.36272139929331" lon="-81.82036786106332">
        <ele>248.8713279312</ele>
        <time>2026-06-15T14:07:48Z</time>
        <hr>129</hr>
      </trkpt>
      <trkpt lat="41.36257236445231" lon="-81.82072543625785">
        <ele>249.4012443924</ele>
        <time>2026-06-15T14:07:53Z</time>
        <hr>132</hr>
      </trkpt>
      <trkpt lat="41.36241754929696" lon="-81.82100060493090">
        <ele>250.1831695649</ele>
        <time>2026-06-15T14:08:25Z</time>
        <hr>130</hr>
      </trkpt>
      <trkpt lat="41.36212888565603" lon="-81.82145029040727">
        <ele>250.2320280972</ele>
        <time>2026-06-15T14:08:33Z</time>
        <hr>132</hr>
      </trkpt>
      <trkpt lat="41.36199996389244" lon="-81.82162611675513">
        <ele>250.7512138948</ele>
        <time>2026-06-15T14:08:37Z</time>
        <hr>131</hr>
      </trkpt>
      <trkpt lat="41.36181627989239" lon="-81.82184533353383">
        <ele>251.0236952994</ele>
        <time>2026-06-15T14:08:43Z</time>
        <hr>131</hr>
      </trkpt>
      <trkpt lat="41.36163441112533" lon="-81.82204031189976">
        <ele>252.0084450986</ele>
        <time>2026-06-15T14:08:49Z</time>
        <hr>132</hr>
      </trkpt>
      <trkpt lat="41.36148510187057" lon="-81.82217642528040">
        <ele>252.1316970679</ele>
        <time>2026-06-15T14:08:53Z</time>
        <hr>130</hr>
      </trkpt>
      <trkpt lat="41.36137204062916" lon="-81.82231653492087">
        <ele>251.9798370559</ele>
        <time>2026-06-15T14:08:58Z</time>
        <hr>130</hr>
      </trkpt>
      <trkpt lat="41.36109317529929" lon="-81.82255065092706">
        <ele>252.9136372571</ele>
        <time>2026-06-15T14:09:06Z</time>
        <hr>130</hr>
      </trkpt>
      <trkpt lat="41.36104227849388" lon="-81.82261671138275">
        <ele>252.8789168281</ele>
        <time>2026-06-15T14:09:07Z</time>
        <hr>129</hr>
      </trkpt>
      <trkpt lat="41.36093352510224" lon="-81.82268698942360">
        <ele>252.9883721964</ele>
        <time>2026-06-15T14:09:09Z</time>
        <hr>128</hr>
      </trkpt>
      <trkpt lat="41.36072708475083" lon="-81.82286428074845">
        <ele>252.9485632223</ele>
        <time>2026-06-15T14:09:14Z</time>
        <hr>130</hr>
      </trkpt>
      <trkpt lat="41.36054241811409" lon="-81.82299626214208">
        <ele>253.0830386348</ele>
        <time>2026-06-15T14:09:18Z</time>
        <hr>130</hr>
      </trkpt>
      <trkpt lat="41.36034225595940" lon="-81.82313529061045">
        <ele>253.2729291140</ele>
        <time>2026-06-15T14:09:22Z</time>
        <hr>128</hr>
      </trkpt>
      <trkpt lat="41.36015761240540" lon="-81.82323569895256">
        <ele>253.0173107125</ele>
        <time>2026-06-15T14:09:26Z</time>
        <hr>130</hr>
      </trkpt>
      <trkpt lat="41.35988420303678" lon="-81.82343529342711">
        <ele>251.9066469712</ele>
        <time>2026-06-15T14:09:32Z</time>
        <hr>133</hr>
      </trkpt>
      <trkpt lat="41.35971818110345" lon="-81.82355727348664">
        <ele>252.1785822617</ele>
        <time>2026-06-15T14:09:36Z</time>
        <hr>132</hr>
      </trkpt>
      <trkpt lat="41.35942659396780" lon="-81.82367393786249">
        <ele>252.0034563814</ele>
        <time>2026-06-15T14:09:42Z</time>
        <hr>131</hr>
      </trkpt>
      <trkpt lat="41.35940346274372" lon="-81.82370714517673">
        <ele>251.9734098573</ele>
        <time>2026-06-15T14:09:43Z</time>
        <hr>129</hr>
      </trkpt>
      <trkpt lat="41.35939089692685" lon="-81.82374088180508">
        <ele>252.0534047854</ele>
        <time>2026-06-15T14:09:44Z</time>
        <hr>130</hr>
      </trkpt>
      <trkpt lat="41.35939994106143" lon="-81.82385135299363">
        <ele>251.8452498895</ele>
        <time>2026-06-15T14:10:04Z</time>
        <hr>131</hr>
      </trkpt>
      <trkpt lat="41.35938453933532" lon="-81.82389846250531">
        <ele>252.0171571871</ele>
        <time>2026-06-15T14:10:05Z</time>
        <hr>131</hr>
      </trkpt>
      <trkpt lat="41.35936191192724" lon="-81.82392642310748">
        <ele>252.0094464241</ele>
        <time>2026-06-15T14:10:06Z</time>
        <hr>131</hr>
      </trkpt>
      <trkpt lat="41.35937925233957" lon="-81.82400050417303">
        <ele>251.6928608928</ele>
        <time>2026-06-15T14:10:07Z</time>
        <hr>135</hr>
      </trkpt>
      <trkpt lat="41.35935200553612" lon="-81.82418352939841">
        <ele>251.3861050365</ele>
        <time>2026-06-15T14:10:10Z</time>
        <hr>134</hr>
      </trkpt>
      <trkpt lat="41.35936302310208" lon="-81.82433466014298">
        <ele>251.0989664867</ele>
        <time>2026-06-15T14:10:13Z</time>
        <hr>135</hr>
      </trkpt>
      <trkpt lat="41.35935365072656" lon="-81.82460429885428">
        <ele>251.0458998037</ele>
        <time>2026-06-15T14:10:18Z</time>
        <hr>134</hr>
      </trkpt>
      <trkpt lat="41.35935358751944" lon="-81.82524564463884">
        <ele>248.8127164881</ele>
        <time>2026-06-15T14:10:28Z</time>
        <hr>133</hr>
      </trkpt>
      <trkpt lat="41.35930732875689" lon="-81.82679937773092">
        <ele>248.5159372490</ele>
        <time>2026-06-15T14:10:51Z</time>
        <hr>132</hr>
      </trkpt>
      <trkpt lat="41.35931852814862" lon="-81.82687272040840">
        <ele>248.9988954373</ele>
        <time>2026-06-15T14:10:52Z</time>
        <hr>130</hr>
      </trkpt>
      <trkpt lat="41.35936729779820" lon="-81.82694551599333">
        <ele>248.8814484735</ele>
        <time>2026-06-15T14:10:53Z</time>
        <hr>130</hr>
      </trkpt>
      <trkpt lat="41.35942754215024" lon="-81.82699358577780">
        <ele>248.7460262132</ele>
        <time>2026-06-15T14:10:55Z</time>
        <hr>127</hr>
      </trkpt>
      <trkpt lat="41.35949266393878" lon="-81.82704680015004">
        <ele>248.9342163965</ele>
        <time>2026-06-15T14:10:56Z</time>
        <hr>127</hr>
      </trkpt>
      <trkpt lat="41.35976490750430" lon="-81.82711582626892">
        <ele>249.3076835205</ele>
        <time>2026-06-15T14:11:02Z</time>
        <hr>129</hr>
      </trkpt>
      <trkpt lat="41.36013793171712" lon="-81.82718087571162">
        <ele>248.0013958743</ele>
        <time>2026-06-15T14:11:09Z</time>
        <hr>129</hr>
      </trkpt>
      <trkpt lat="41.36023404071679" lon="-81.82718723658820">
        <ele>247.1747046518</ele>
        <time>2026-06-15T14:11:11Z</time>
        <hr>129</hr>
      </trkpt>
      <trkpt lat="41.36057657779835" lon="-81.82714146722522">
        <ele>245.6333446356</ele>
        <time>2026-06-15T14:11:19Z</time>
        <hr>129</hr>
      </trkpt>
      <trkpt lat="41.36068062238933" lon="-81.82718474251854">
        <ele>246.0904496857</ele>
        <time>2026-06-15T14:11:21Z</time>
        <hr>130</hr>
      </trkpt>
      <trkpt lat="41.36072130491490" lon="-81.82719673596557">
        <ele>246.3886044621</ele>
        <time>2026-06-15T14:11:22Z</time>
        <hr>130</hr>
      </trkpt>
      <trkpt lat="41.36075410268773" lon="-81.82724188682903">
        <ele>247.0484874178</ele>
        <time>2026-06-15T14:11:23Z</time>
        <hr>130</hr>
      </trkpt>
      <trkpt lat="41.36126087870030" lon="-81.82771285402241">
        <ele>241.5532786187</ele>
        <time>2026-06-15T14:11:34Z</time>
        <hr>131</hr>
      </trkpt>
      <trkpt lat="41.36129778752252" lon="-81.82776079643133">
        <ele>241.7613159194</ele>
        <time>2026-06-15T14:11:35Z</time>
        <hr>131</hr>
      </trkpt>
      <trkpt lat="41.36133879835791" lon="-81.82782460522664">
        <ele>241.9618980150</ele>
        <time>2026-06-15T14:11:36Z</time>
        <hr>129</hr>
      </trkpt>
      <trkpt lat="41.36145328902180" lon="-81.82822142100804">
        <ele>242.9640824746</ele>
        <time>2026-06-15T14:11:43Z</time>
        <hr>130</hr>
      </trkpt>
      <trkpt lat="41.36152458196839" lon="-81.82851271755524">
        <ele>243.0427593721</ele>
        <time>2026-06-15T14:11:47Z</time>
        <hr>128</hr>
      </trkpt>
      <trkpt lat="41.36154137494682" lon="-81.82862444147761">
        <ele>243.0665415489</ele>
        <time>2026-06-15T14:11:48Z</time>
        <hr>126</hr>
      </trkpt>
      <trkpt lat="41.36155380882887" lon="-81.82877993170767">
        <ele>243.1983788096</ele>
        <time>2026-06-15T14:11:51Z</time>
        <hr>127</hr>
      </trkpt>
      <trkpt lat="41.36154970794728" lon="-81.82889640843878">
        <ele>243.5225674215</ele>
        <time>2026-06-15T14:11:52Z</time>
        <hr>126</hr>
      </trkpt>
      <trkpt lat="41.36151741669629" lon="-81.82918657976589">
        <ele>243.1730365890</ele>
        <time>2026-06-15T14:11:56Z</time>
        <hr>126</hr>
      </trkpt>
      <trkpt lat="41.36151220839432" lon="-81.82927905384705">
        <ele>243.3106243023</ele>
        <time>2026-06-15T14:11:58Z</time>
        <hr>127</hr>
      </trkpt>
      <trkpt lat="41.36152663104343" lon="-81.82937193787457">
        <ele>243.0388023674</ele>
        <time>2026-06-15T14:11:59Z</time>
        <hr>128</hr>
      </trkpt>
      <trkpt lat="41.36155235249424" lon="-81.82944936430039">
        <ele>243.1203294681</ele>
        <time>2026-06-15T14:12:00Z</time>
        <hr>129</hr>
      </trkpt>
      <trkpt lat="41.36161612370127" lon="-81.82956852913412">
        <ele>243.1124036744</ele>
        <time>2026-06-15T14:12:33Z</time>
        <hr>132</hr>
      </trkpt>
      <trkpt lat="41.36168339211648" lon="-81.82965408769324">
        <ele>243.2784004918</ele>
        <time>2026-06-15T14:12:34Z</time>
        <hr>133</hr>
      </trkpt>
      <trkpt lat="41.36174392529028" lon="-81.82968883574034">
        <ele>243.2630585976</ele>
        <time>2026-06-15T14:12:36Z</time>
        <hr>133</hr>
      </trkpt>
      <trkpt lat="41.36180597904483" lon="-81.82969674379791">
        <ele>243.1750148286</ele>
        <time>2026-06-15T14:12:37Z</time>
        <hr>132</hr>
      </trkpt>
      <trkpt lat="41.36188175977396" lon="-81.82971100473478">
        <ele>243.0429931112</ele>
        <time>2026-06-15T14:12:39Z</time>
        <hr>133</hr>
      </trkpt>
      <trkpt lat="41.36196464787702" lon="-81.82970089271139">
        <ele>243.3185791977</ele>
        <time>2026-06-15T14:12:40Z</time>
        <hr>130</hr>
      </trkpt>
      <trkpt lat="41.36213045502908" lon="-81.82956629586921">
        <ele>243.3368657114</ele>
        <time>2026-06-15T14:12:44Z</time>
        <hr>130</hr>
      </trkpt>
      <trkpt lat="41.36217550524769" lon="-81.82953559494648">
        <ele>243.1572316572</ele>
        <time>2026-06-15T14:12:45Z</time>
        <hr>131</hr>
      </trkpt>
      <trkpt lat="41.36222330845452" lon="-81.82953179848136">
        <ele>243.2477696343</ele>
        <time>2026-06-15T14:12:46Z</time>
        <hr>130</hr>
      </trkpt>
      <trkpt lat="41.36229425701966" lon="-81.82956912947371">
        <ele>243.1312990558</ele>
        <time>2026-06-15T14:12:54Z</time>
        <hr>133</hr>
      </trkpt>
      <trkpt lat="41.36251287864949" lon="-81.82977449830116">
        <ele>243.4413343361</ele>
        <time>2026-06-15T14:13:00Z</time>
        <hr>133</hr>
      </trkpt>
      <trkpt lat="41.36275567222165" lon="-81.82993157427350">
        <ele>243.4639171653</ele>
        <time>2026-06-15T14:13:05Z</time>
        <hr>136</hr>
      </trkpt>
      <trkpt lat="41.36280620777161" lon="-81.82999348568991">
        <ele>243.2850591229</ele>
        <time>2026-06-15T14:13:06Z</time>
        <hr>136</hr>
      </trkpt>
      <trkpt lat="41.36282089250003" lon="-81.83004057083026">
        <ele>243.3167454394</ele>
        <time>2026-06-15T14:13:07Z</time>
        <hr>137</hr>
      </trkpt>
      <trkpt lat="41.36284276122834" lon="-81.83012255051365">
        <ele>243.3127619881</ele>
        <time>2026-06-15T14:13:09Z</time>
        <hr>136</hr>
      </trkpt>
      <trkpt lat="41.36286018326184" lon="-81.83028356885730">
        <ele>243.4244505873</ele>
        <time>2026-06-15T14:13:12Z</time>
        <hr>134</hr>
      </trkpt>
      <trkpt lat="41.36287306406649" lon="-81.83034235935303">
        <ele>243.2998294355</ele>
        <time>2026-06-15T14:13:13Z</time>
        <hr>132</hr>
      </trkpt>
      <trkpt lat="41.36290146349814" lon="-81.83038762008022">
        <ele>243.1908958753</ele>
        <time>2026-06-15T14:13:14Z</time>
        <hr>133</hr>
      </trkpt>
      <trkpt lat="41.36295001563264" lon="-81.83039925028275">
        <ele>243.5653036980</ele>
        <time>2026-06-15T14:13:15Z</time>
        <hr>133</hr>
      </trkpt>
      <trkpt lat="41.36360159385236" lon="-81.83039103478467">
        <ele>243.5394706878</ele>
        <time>2026-06-15T14:13:27Z</time>
        <hr>130</hr>
      </trkpt>
      <trkpt lat="41.36385752824923" lon="-81.83033627075146">
        <ele>243.5703348787</ele>
        <time>2026-06-15T14:13:33Z</time>
        <hr>129</hr>
      </trkpt>
      <trkpt lat="41.36392928281882" lon="-81.83034594582708">
        <ele>243.6371458760</ele>
        <time>2026-06-15T14:13:34Z</time>
        <hr>131</hr>
      </trkpt>
      <trkpt lat="41.36404210969134" lon="-81.83039750814167">
        <ele>243.5605520139</ele>
        <time>2026-06-15T14:13:36Z</time>
        <hr>134</hr>
      </trkpt>
      <trkpt lat="41.36424260312983" lon="-81.83051594346115">
        <ele>243.6930116780</ele>
        <time>2026-06-15T14:13:41Z</time>
        <hr>134</hr>
      </trkpt>
      <trkpt lat="41.36440327477783" lon="-81.83060056120500">
        <ele>243.6294410332</ele>
        <time>2026-06-15T14:13:45Z</time>
        <hr>131</hr>
      </trkpt>
      <trkpt lat="41.36521807704707" lon="-81.83089955430152">
        <ele>243.9520478382</ele>
        <time>2026-06-15T14:13:59Z</time>
        <hr>127</hr>
      </trkpt>
      <trkpt lat="41.36533283106253" lon="-81.83097187348466">
        <ele>243.9528455947</ele>
        <time>2026-06-15T14:14:15Z</time>
        <hr>129</hr>
      </trkpt>
      <trkpt lat="41.36546742932486" lon="-81.83107889621031">
        <ele>243.9379643309</ele>
        <time>2026-06-15T14:14:18Z</time>
        <hr>125</hr>
      </trkpt>
      <trkpt lat="41.36557874676367" lon="-81.83117115782423">
        <ele>243.9715934979</ele>
        <time>2026-06-15T14:14:20Z</time>
        <hr>124</hr>
      </trkpt>
      <trkpt lat="41.36566299608187" lon="-81.83127216631250">
        <ele>243.9787828711</ele>
        <time>2026-06-15T14:14:22Z</time>
        <hr>124</hr>
      </trkpt>
      <trkpt lat="41.36587151135839" lon="-81.83159004623191">
        <ele>243.9515373352</ele>
        <time>2026-06-15T14:14:27Z</time>
        <hr>126</hr>
      </trkpt>
      <trkpt lat="41.36597326614751" lon="-81.83170309046595">
        <ele>244.2854657127</ele>
        <time>2026-06-15T14:14:30Z</time>
        <hr>125</hr>
      </trkpt>
      <trkpt lat="41.36592134838340" lon="-81.83181770134732">
        <ele>245.1439293550</ele>
        <time>2026-06-15T14:14:32Z</time>
        <hr>125</hr>
      </trkpt>
      <trkpt lat="41.36579033921823" lon="-81.83202551001902">
        <ele>245.6867265191</ele>
        <time>2026-06-15T14:14:36Z</time>
        <hr>128</hr>
      </trkpt>
      <trkpt lat="41.36571529769263" lon="-81.83223308455310">
        <ele>245.1964349769</ele>
        <time>2026-06-15T14:14:38Z</time>
        <hr>125</hr>
      </trkpt>
      <trkpt lat="41.36568496841728" lon="-81.83242864904985">
        <ele>244.9554054952</ele>
        <time>2026-06-15T14:14:41Z</time>
        <hr>125</hr>
      </trkpt>
      <trkpt lat="41.36564982900393" lon="-81.83247927432990">
        <ele>244.9440634274</ele>
        <time>2026-06-15T14:14:42Z</time>
        <hr>122</hr>
      </trkpt>
      <trkpt lat="41.36557425930236" lon="-81.83249360947516">
        <ele>245.1652075470</ele>
        <time>2026-06-15T14:14:44Z</time>
        <hr>124</hr>
      </trkpt>
      <trkpt lat="41.36547936759170" lon="-81.83225708748560">
        <ele>244.9287975465</ele>
        <time>2026-06-15T14:14:48Z</time>
        <hr>123</hr>
      </trkpt>
      <trkpt lat="41.36476649276020" lon="-81.83117734348480">
        <ele>244.9605522322</ele>
        <time>2026-06-15T14:15:06Z</time>
        <hr>125</hr>
      </trkpt>
      <trkpt lat="41.36458510243654" lon="-81.83099692241532">
        <ele>244.9433819306</ele>
        <time>2026-06-15T14:15:12Z</time>
        <hr>123</hr>
      </trkpt>
      <trkpt lat="41.36421011067575" lon="-81.83107484544144">
        <ele>244.0178485688</ele>
        <time>2026-06-15T14:15:20Z</time>
        <hr>121</hr>
      </trkpt>
      <trkpt lat="41.36404972495639" lon="-81.83115375894975">
        <ele>243.9810142478</ele>
        <time>2026-06-15T14:15:22Z</time>
        <hr>121</hr>
      </trkpt>
      <trkpt lat="41.36393748376195" lon="-81.83102617606731">
        <ele>243.4392956250</ele>
        <time>2026-06-15T14:15:25Z</time>
        <hr>118</hr>
      </trkpt>
      <trkpt lat="41.36371204061994" lon="-81.83070103312035">
        <ele>242.1778938011</ele>
        <time>2026-06-15T14:15:32Z</time>
        <hr>120</hr>
      </trkpt>
    </trkseg>
  </trk>
</gpx>