<?xml version='1.0' encoding='UTF-8'?>
<gpx xmlns="http://www.topografix.com/GPX/1/1" creator="https://gpx.studio" version="1.1">
  <metadata>
    <name>Bike - 2026-03-01</name>
  </metadata>
  <trk>
    <name>Bike - 2026-03-01</name>
    <type>cycling</type>
    <trkseg>
      <trkpt lat="41.40715346330277" lon="-81.88292546308313">
        <ele>199.5803924946</ele>
        <time>2026-03-01T12:25:51Z</time>
      </trkpt>
      <trkpt lat="41.40714388881556" lon="-81.88297916872281">
        <ele>199.9041363411</ele>
        <time>2026-03-01T12:25:52Z</time>
      </trkpt>
      <trkpt lat="41.40717106052843" lon="-81.88306180843051">
        <ele>199.9670273901</ele>
        <time>2026-03-01T12:25:53Z</time>
      </trkpt>
      <trkpt lat="41.40720950070699" lon="-81.88312459857833">
        <ele>200.0125819037</ele>
        <time>2026-03-01T12:25:54Z</time>
      </trkpt>
      <trkpt lat="41.40729073611891" lon="-81.88314903328971">
        <ele>199.7463333425</ele>
        <time>2026-03-01T12:25:55Z</time>
      </trkpt>
      <trkpt lat="41.40727130556780" lon="-81.88329080780601">
        <ele>199.8128295640</ele>
        <time>2026-03-01T12:25:58Z</time>
      </trkpt>
      <trkpt lat="41.40731022505875" lon="-81.88352976978655">
        <ele>199.9238018463</ele>
        <time>2026-03-01T12:26:02Z</time>
      </trkpt>
      <trkpt lat="41.40737269577674" lon="-81.88376291528641">
        <ele>200.0151266225</ele>
        <time>2026-03-01T12:26:06Z</time>
      </trkpt>
      <trkpt lat="41.40758750317092" lon="-81.88432678479084">
        <ele>199.9538022181</ele>
        <time>2026-03-01T12:26:18Z</time>
      </trkpt>
      <trkpt lat="41.40763209621651" lon="-81.88455530551521">
        <ele>200.3680269220</ele>
        <time>2026-03-01T12:26:23Z</time>
      </trkpt>
      <trkpt lat="41.40764004228543" lon="-81.88476552632827">
        <ele>200.9305420777</ele>
        <time>2026-03-01T12:26:25Z</time>
      </trkpt>
      <trkpt lat="41.40761281107796" lon="-81.88498335421275">
        <ele>201.0070400405</ele>
        <time>2026-03-01T12:26:29Z</time>
      </trkpt>
      <trkpt lat="41.40752447425961" lon="-81.88527041950090">
        <ele>202.0122820442</ele>
        <time>2026-03-01T12:26:35Z</time>
      </trkpt>
      <trkpt lat="41.40743508894649" lon="-81.88545096386036">
        <ele>201.9133335565</ele>
        <time>2026-03-01T12:26:47Z</time>
      </trkpt>
      <trkpt lat="41.40727713527454" lon="-81.88564822060204">
        <ele>202.9846203105</ele>
        <time>2026-03-01T12:26:51Z</time>
      </trkpt>
      <trkpt lat="41.40716384373383" lon="-81.88576992291578">
        <ele>203.1219247430</ele>
        <time>2026-03-01T12:26:54Z</time>
      </trkpt>
      <trkpt lat="41.40700198470705" lon="-81.88587419740371">
        <ele>202.9670765809</ele>
        <time>2026-03-01T12:26:57Z</time>
      </trkpt>
      <trkpt lat="41.40681506966550" lon="-81.88599343876551">
        <ele>202.8115553413</ele>
        <time>2026-03-01T12:27:01Z</time>
      </trkpt>
      <trkpt lat="41.40659326443778" lon="-81.88607353603606">
        <ele>202.0251154864</ele>
        <time>2026-03-01T12:27:18Z</time>
      </trkpt>
      <trkpt lat="41.40640463276826" lon="-81.88612597318969">
        <ele>201.7175939034</ele>
        <time>2026-03-01T12:27:24Z</time>
      </trkpt>
      <trkpt lat="41.40641500291255" lon="-81.88627506088982">
        <ele>201.6044586951</ele>
        <time>2026-03-01T12:27:25Z</time>
      </trkpt>
      <trkpt lat="41.40627946883447" lon="-81.88633257415241">
        <ele>201.6863145212</ele>
        <time>2026-03-01T12:27:27Z</time>
      </trkpt>
      <trkpt lat="41.40619579115315" lon="-81.88633661836931">
        <ele>201.7924616218</ele>
        <time>2026-03-01T12:27:29Z</time>
      </trkpt>
      <trkpt lat="41.40582014410494" lon="-81.88620394159470">
        <ele>201.9476967700</ele>
        <time>2026-03-01T12:27:36Z</time>
      </trkpt>
      <trkpt lat="41.40570341255360" lon="-81.88611432942461">
        <ele>202.0869798212</ele>
        <time>2026-03-01T12:27:40Z</time>
      </trkpt>
      <trkpt lat="41.40565793607045" lon="-81.88605445619035">
        <ele>202.2655394053</ele>
        <time>2026-03-01T12:27:41Z</time>
      </trkpt>
      <trkpt lat="41.40554650498398" lon="-81.88588880330275">
        <ele>202.2965578214</ele>
        <time>2026-03-01T12:27:45Z</time>
      </trkpt>
      <trkpt lat="41.40544739625546" lon="-81.88575590738607">
        <ele>202.3884578237</ele>
        <time>2026-03-01T12:27:49Z</time>
      </trkpt>
      <trkpt lat="41.40532014484298" lon="-81.88556797469860">
        <ele>202.6544100656</ele>
        <time>2026-03-01T12:27:52Z</time>
      </trkpt>
      <trkpt lat="41.40521090990647" lon="-81.88547218192545">
        <ele>202.9282546260</ele>
        <time>2026-03-01T12:27:56Z</time>
      </trkpt>
      <trkpt lat="41.40509280081986" lon="-81.88529233760239">
        <ele>202.9868990275</ele>
        <time>2026-03-01T12:27:58Z</time>
      </trkpt>
      <trkpt lat="41.40486513111005" lon="-81.88509231500656">
        <ele>203.7557852209</ele>
        <time>2026-03-01T12:28:03Z</time>
      </trkpt>
      <trkpt lat="41.40459335281763" lon="-81.88489369281062">
        <ele>204.6038379959</ele>
        <time>2026-03-01T12:28:10Z</time>
      </trkpt>
      <trkpt lat="41.40456146523403" lon="-81.88485806922733">
        <ele>205.1007173604</ele>
        <time>2026-03-01T12:28:11Z</time>
      </trkpt>
      <trkpt lat="41.40451124411266" lon="-81.88470916356731">
        <ele>204.1856807211</ele>
        <time>2026-03-01T12:28:14Z</time>
      </trkpt>
      <trkpt lat="41.40446180164724" lon="-81.88460269019856">
        <ele>204.0254451654</ele>
        <time>2026-03-01T12:28:29Z</time>
      </trkpt>
      <trkpt lat="41.40436021510977" lon="-81.88448969149306">
        <ele>204.1246459325</ele>
        <time>2026-03-01T12:28:31Z</time>
      </trkpt>
      <trkpt lat="41.40429879479031" lon="-81.88434498941305">
        <ele>203.9269524944</ele>
        <time>2026-03-01T12:28:34Z</time>
      </trkpt>
      <trkpt lat="41.40404322446570" lon="-81.88417073012340">
        <ele>204.0796584853</ele>
        <time>2026-03-01T12:28:38Z</time>
      </trkpt>
      <trkpt lat="41.40400780412425" lon="-81.88415729444765">
        <ele>204.1781295080</ele>
        <time>2026-03-01T12:28:39Z</time>
      </trkpt>
      <trkpt lat="41.40394852941090" lon="-81.88415428251453">
        <ele>203.9533130990</ele>
        <time>2026-03-01T12:28:40Z</time>
      </trkpt>
      <trkpt lat="41.40384724401104" lon="-81.88415955414766">
        <ele>204.5987274609</ele>
        <time>2026-03-01T12:28:42Z</time>
      </trkpt>
      <trkpt lat="41.40378726401125" lon="-81.88414586225146">
        <ele>204.8109832926</ele>
        <time>2026-03-01T12:28:43Z</time>
      </trkpt>
      <trkpt lat="41.40366252462076" lon="-81.88406287556124">
        <ele>204.6740997470</ele>
        <time>2026-03-01T12:28:47Z</time>
      </trkpt>
      <trkpt lat="41.40358941218354" lon="-81.88403506616457">
        <ele>205.1033842019</ele>
        <time>2026-03-01T12:28:49Z</time>
      </trkpt>
      <trkpt lat="41.40340715958543" lon="-81.88403090482403">
        <ele>204.9233389680</ele>
        <time>2026-03-01T12:28:52Z</time>
      </trkpt>
      <trkpt lat="41.40317425910813" lon="-81.88396049707791">
        <ele>204.8927459439</ele>
        <time>2026-03-01T12:28:58Z</time>
      </trkpt>
      <trkpt lat="41.40298440830039" lon="-81.88393420081339">
        <ele>204.3368383544</ele>
        <time>2026-03-01T12:29:03Z</time>
      </trkpt>
      <trkpt lat="41.40292103086310" lon="-81.88392823194276">
        <ele>204.1110340463</ele>
        <time>2026-03-01T12:29:04Z</time>
      </trkpt>
      <trkpt lat="41.40278940049757" lon="-81.88399033961720">
        <ele>203.7837751930</ele>
        <time>2026-03-01T12:29:06Z</time>
      </trkpt>
      <trkpt lat="41.40253994275168" lon="-81.88413422221491">
        <ele>204.0270729830</ele>
        <time>2026-03-01T12:29:20Z</time>
      </trkpt>
      <trkpt lat="41.40239524816632" lon="-81.88419593007339">
        <ele>203.5152367536</ele>
        <time>2026-03-01T12:29:23Z</time>
      </trkpt>
      <trkpt lat="41.40233772056783" lon="-81.88421044470805">
        <ele>203.4418159046</ele>
        <time>2026-03-01T12:29:24Z</time>
      </trkpt>
      <trkpt lat="41.40220840413017" lon="-81.88419739166858">
        <ele>203.9981236867</ele>
        <time>2026-03-01T12:29:28Z</time>
      </trkpt>
      <trkpt lat="41.40174210309898" lon="-81.88438047931385">
        <ele>204.6154431397</ele>
        <time>2026-03-01T12:29:38Z</time>
      </trkpt>
      <trkpt lat="41.40162291257950" lon="-81.88444744999451">
        <ele>204.6743534611</ele>
        <time>2026-03-01T12:29:40Z</time>
      </trkpt>
      <trkpt lat="41.40130347375062" lon="-81.88456813779032">
        <ele>204.9076387812</ele>
        <time>2026-03-01T12:29:48Z</time>
      </trkpt>
      <trkpt lat="41.40117613762633" lon="-81.88461309755886">
        <ele>205.0324585318</ele>
        <time>2026-03-01T12:29:50Z</time>
      </trkpt>
      <trkpt lat="41.40102247388279" lon="-81.88461237698017">
        <ele>205.0554409475</ele>
        <time>2026-03-01T12:29:53Z</time>
      </trkpt>
      <trkpt lat="41.40085690785489" lon="-81.88461256914229">
        <ele>205.1758599938</ele>
        <time>2026-03-01T12:29:56Z</time>
      </trkpt>
      <trkpt lat="41.40045026821304" lon="-81.88457554338568">
        <ele>205.5401529562</ele>
        <time>2026-03-01T12:30:05Z</time>
      </trkpt>
      <trkpt lat="41.40009149881762" lon="-81.88447730742975">
        <ele>206.1728707087</ele>
        <time>2026-03-01T12:30:11Z</time>
      </trkpt>
      <trkpt lat="41.39971137679166" lon="-81.88429990312719">
        <ele>205.8478651737</ele>
        <time>2026-03-01T12:30:17Z</time>
      </trkpt>
      <trkpt lat="41.39902634735778" lon="-81.88400992999254">
        <ele>204.6916419280</ele>
        <time>2026-03-01T12:30:32Z</time>
      </trkpt>
      <trkpt lat="41.39890806661052" lon="-81.88393912635040">
        <ele>205.1801747737</ele>
        <time>2026-03-01T12:30:35Z</time>
      </trkpt>
      <trkpt lat="41.39879571260860" lon="-81.88385534944507">
        <ele>204.9260665714</ele>
        <time>2026-03-01T12:30:38Z</time>
      </trkpt>
      <trkpt lat="41.39854588375542" lon="-81.88360597028907">
        <ele>205.5820585108</ele>
        <time>2026-03-01T12:30:56Z</time>
      </trkpt>
      <trkpt lat="41.39838861969641" lon="-81.88342708324436">
        <ele>205.6241894349</ele>
        <time>2026-03-01T12:31:00Z</time>
      </trkpt>
      <trkpt lat="41.39828726144232" lon="-81.88327863591819">
        <ele>205.6288249378</ele>
        <time>2026-03-01T12:31:02Z</time>
      </trkpt>
      <trkpt lat="41.39823455941308" lon="-81.88314890445905">
        <ele>205.7590231101</ele>
        <time>2026-03-01T12:31:04Z</time>
      </trkpt>
      <trkpt lat="41.39813491610919" lon="-81.88281868701884">
        <ele>206.6610929614</ele>
        <time>2026-03-01T12:31:10Z</time>
      </trkpt>
      <trkpt lat="41.39789450918021" lon="-81.88230419390764">
        <ele>207.2648456615</ele>
        <time>2026-03-01T12:31:21Z</time>
      </trkpt>
      <trkpt lat="41.39786166358717" lon="-81.88224070274281">
        <ele>206.7454798204</ele>
        <time>2026-03-01T12:31:23Z</time>
      </trkpt>
      <trkpt lat="41.39776752865907" lon="-81.88216926062714">
        <ele>207.2242752566</ele>
        <time>2026-03-01T12:31:25Z</time>
      </trkpt>
      <trkpt lat="41.39772603805494" lon="-81.88214848042693">
        <ele>207.3941636464</ele>
        <time>2026-03-01T12:31:26Z</time>
      </trkpt>
      <trkpt lat="41.39766939555692" lon="-81.88216950753787">
        <ele>207.0222897459</ele>
        <time>2026-03-01T12:31:27Z</time>
      </trkpt>
      <trkpt lat="41.39739039658131" lon="-81.88230332011570">
        <ele>205.8395174604</ele>
        <time>2026-03-01T12:31:35Z</time>
      </trkpt>
      <trkpt lat="41.39724908090535" lon="-81.88241124466860">
        <ele>206.5951275883</ele>
        <time>2026-03-01T12:31:38Z</time>
      </trkpt>
      <trkpt lat="41.39704506411642" lon="-81.88258146616157">
        <ele>206.0853309142</ele>
        <time>2026-03-01T12:31:45Z</time>
      </trkpt>
      <trkpt lat="41.39680469440539" lon="-81.88285616777493">
        <ele>207.0515766941</ele>
        <time>2026-03-01T12:31:56Z</time>
      </trkpt>
      <trkpt lat="41.39672576390831" lon="-81.88293022746112">
        <ele>207.0708882972</ele>
        <time>2026-03-01T12:31:58Z</time>
      </trkpt>
      <trkpt lat="41.39654087649411" lon="-81.88302912689018">
        <ele>206.9070864814</ele>
        <time>2026-03-01T12:32:02Z</time>
      </trkpt>
      <trkpt lat="41.39628314759150" lon="-81.88312929875669">
        <ele>206.2486226383</ele>
        <time>2026-03-01T12:32:16Z</time>
      </trkpt>
      <trkpt lat="41.39615363240107" lon="-81.88314015540543">
        <ele>206.1002977198</ele>
        <time>2026-03-01T12:32:30Z</time>
      </trkpt>
      <trkpt lat="41.39581231022505" lon="-81.88310952359123">
        <ele>205.8880426165</ele>
        <time>2026-03-01T12:32:53Z</time>
      </trkpt>
      <trkpt lat="41.39568725897573" lon="-81.88305068642026">
        <ele>205.9690511193</ele>
        <time>2026-03-01T12:32:56Z</time>
      </trkpt>
      <trkpt lat="41.39564194735748" lon="-81.88304778377820">
        <ele>205.7021365739</ele>
        <time>2026-03-01T12:32:57Z</time>
      </trkpt>
      <trkpt lat="41.39545912444193" lon="-81.88310329492712">
        <ele>206.0447040772</ele>
        <time>2026-03-01T12:33:00Z</time>
      </trkpt>
      <trkpt lat="41.39533555672347" lon="-81.88311931094786">
        <ele>205.8271316240</ele>
        <time>2026-03-01T12:33:03Z</time>
      </trkpt>
      <trkpt lat="41.39526842714475" lon="-81.88314155957011">
        <ele>206.0416665775</ele>
        <time>2026-03-01T12:33:04Z</time>
      </trkpt>
      <trkpt lat="41.39502376103879" lon="-81.88333716135079">
        <ele>206.7202430774</ele>
        <time>2026-03-01T12:33:10Z</time>
      </trkpt>
      <trkpt lat="41.39490502923761" lon="-81.88339792789399">
        <ele>206.2929057841</ele>
        <time>2026-03-01T12:33:13Z</time>
      </trkpt>
      <trkpt lat="41.39479091080586" lon="-81.88345836246704">
        <ele>206.5704990731</ele>
        <time>2026-03-01T12:33:15Z</time>
      </trkpt>
      <trkpt lat="41.39470881480641" lon="-81.88349852654748">
        <ele>206.4883052123</ele>
        <time>2026-03-01T12:33:18Z</time>
      </trkpt>
      <trkpt lat="41.39464335215884" lon="-81.88352874219397">
        <ele>206.5560598675</ele>
        <time>2026-03-01T12:33:20Z</time>
      </trkpt>
      <trkpt lat="41.39450034579610" lon="-81.88355121490154">
        <ele>206.4108093331</ele>
        <time>2026-03-01T12:33:22Z</time>
      </trkpt>
      <trkpt lat="41.39439168459817" lon="-81.88356953922569">
        <ele>206.7306346019</ele>
        <time>2026-03-01T12:33:25Z</time>
      </trkpt>
      <trkpt lat="41.39435403968456" lon="-81.88356076823447">
        <ele>207.0356612149</ele>
        <time>2026-03-01T12:33:26Z</time>
      </trkpt>
      <trkpt lat="41.39428880561680" lon="-81.88353092716217">
        <ele>207.2278514028</ele>
        <time>2026-03-01T12:33:27Z</time>
      </trkpt>
      <trkpt lat="41.39408099267551" lon="-81.88359248664220">
        <ele>206.6210249378</ele>
        <time>2026-03-01T12:33:31Z</time>
      </trkpt>
      <trkpt lat="41.39404727670023" lon="-81.88357371475976">
        <ele>206.9642349017</ele>
        <time>2026-03-01T12:33:32Z</time>
      </trkpt>
      <trkpt lat="41.39399957236393" lon="-81.88356387538045">
        <ele>207.0900810770</ele>
        <time>2026-03-01T12:33:33Z</time>
      </trkpt>
      <trkpt lat="41.39392628039462" lon="-81.88351203234735">
        <ele>206.7305027161</ele>
        <time>2026-03-01T12:33:35Z</time>
      </trkpt>
      <trkpt lat="41.39383632329646" lon="-81.88341738569750">
        <ele>207.0838360349</ele>
        <time>2026-03-01T12:33:37Z</time>
      </trkpt>
      <trkpt lat="41.39373116640885" lon="-81.88329044449183">
        <ele>207.1929513045</ele>
        <time>2026-03-01T12:33:41Z</time>
      </trkpt>
      <trkpt lat="41.39366052148031" lon="-81.88317461728209">
        <ele>207.6195933710</ele>
        <time>2026-03-01T12:33:43Z</time>
      </trkpt>
      <trkpt lat="41.39361505406519" lon="-81.88302260198533">
        <ele>207.9306589971</ele>
        <time>2026-03-01T12:33:47Z</time>
      </trkpt>
      <trkpt lat="41.39358470771934" lon="-81.88285732976651">
        <ele>208.4604789227</ele>
        <time>2026-03-01T12:33:49Z</time>
      </trkpt>
      <trkpt lat="41.39357237491912" lon="-81.88272645940596">
        <ele>208.6213985258</ele>
        <time>2026-03-01T12:33:51Z</time>
      </trkpt>
      <trkpt lat="41.39356338904886" lon="-81.88253223627125">
        <ele>208.6356135578</ele>
        <time>2026-03-01T12:33:54Z</time>
      </trkpt>
      <trkpt lat="41.39359110752076" lon="-81.88232908562803">
        <ele>209.3059358920</ele>
        <time>2026-03-01T12:33:58Z</time>
      </trkpt>
      <trkpt lat="41.39361960633600" lon="-81.88213331229171">
        <ele>208.9437364130</ele>
        <time>2026-03-01T12:34:02Z</time>
      </trkpt>
      <trkpt lat="41.39376192654657" lon="-81.88153839997467">
        <ele>209.0799832538</ele>
        <time>2026-03-01T12:34:15Z</time>
      </trkpt>
      <trkpt lat="41.39380411266883" lon="-81.88134447816996">
        <ele>209.1098417437</ele>
        <time>2026-03-01T12:34:18Z</time>
      </trkpt>
      <trkpt lat="41.39382514952419" lon="-81.88126932749434">
        <ele>209.2258918755</ele>
        <time>2026-03-01T12:34:19Z</time>
      </trkpt>
      <trkpt lat="41.39385240698763" lon="-81.88122355661218">
        <ele>209.3684917519</ele>
        <time>2026-03-01T12:34:20Z</time>
      </trkpt>
      <trkpt lat="41.39389210332737" lon="-81.88119575562821">
        <ele>209.0664748559</ele>
        <time>2026-03-01T12:34:21Z</time>
      </trkpt>
      <trkpt lat="41.39391683265784" lon="-81.88113706826799">
        <ele>209.1254178771</ele>
        <time>2026-03-01T12:34:22Z</time>
      </trkpt>
      <trkpt lat="41.39399729620566" lon="-81.88074328661561">
        <ele>209.0756414981</ele>
        <time>2026-03-01T12:34:28Z</time>
      </trkpt>
      <trkpt lat="41.39402393915327" lon="-81.88054903412029">
        <ele>209.0223258353</ele>
        <time>2026-03-01T12:34:30Z</time>
      </trkpt>
      <trkpt lat="41.39402824868128" lon="-81.88040830577016">
        <ele>208.9118938822</ele>
        <time>2026-03-01T12:34:32Z</time>
      </trkpt>
      <trkpt lat="41.39401639769716" lon="-81.88029484267017">
        <ele>209.0193640800</ele>
        <time>2026-03-01T12:34:34Z</time>
      </trkpt>
      <trkpt lat="41.39394388119543" lon="-81.87996991865484">
        <ele>208.7214479646</ele>
        <time>2026-03-01T12:34:39Z</time>
      </trkpt>
      <trkpt lat="41.39389049581764" lon="-81.87982559198561">
        <ele>209.0706497440</ele>
        <time>2026-03-01T12:34:42Z</time>
      </trkpt>
      <trkpt lat="41.39380182048607" lon="-81.87964336767733">
        <ele>208.7997410350</ele>
        <time>2026-03-01T12:34:44Z</time>
      </trkpt>
      <trkpt lat="41.39366561646977" lon="-81.87953808242476">
        <ele>208.4370012936</ele>
        <time>2026-03-01T12:34:48Z</time>
      </trkpt>
      <trkpt lat="41.39354934095446" lon="-81.87947562883024">
        <ele>207.9752582719</ele>
        <time>2026-03-01T12:34:50Z</time>
      </trkpt>
      <trkpt lat="41.39342969408513" lon="-81.87942103946749">
        <ele>207.8143598917</ele>
        <time>2026-03-01T12:34:52Z</time>
      </trkpt>
      <trkpt lat="41.39323006788585" lon="-81.87935953758767">
        <ele>207.7642871798</ele>
        <time>2026-03-01T12:34:56Z</time>
      </trkpt>
      <trkpt lat="41.39315947501056" lon="-81.87932914704139">
        <ele>207.8466526016</ele>
        <time>2026-03-01T12:34:57Z</time>
      </trkpt>
      <trkpt lat="41.39297028779587" lon="-81.87915197950402">
        <ele>207.7465404818</ele>
        <time>2026-03-01T12:35:02Z</time>
      </trkpt>
      <trkpt lat="41.39290825901009" lon="-81.87910154140546">
        <ele>208.0678107720</ele>
        <time>2026-03-01T12:35:04Z</time>
      </trkpt>
      <trkpt lat="41.39283225835391" lon="-81.87904835322706">
        <ele>207.8230219026</ele>
        <time>2026-03-01T12:35:05Z</time>
      </trkpt>
      <trkpt lat="41.39267334250810" lon="-81.87890557743594">
        <ele>208.0490206863</ele>
        <time>2026-03-01T12:35:10Z</time>
      </trkpt>
      <trkpt lat="41.39263622571304" lon="-81.87883823689012">
        <ele>208.1152025093</ele>
        <time>2026-03-01T12:35:11Z</time>
      </trkpt>
      <trkpt lat="41.39256161103563" lon="-81.87860466018243">
        <ele>208.0278721136</ele>
        <time>2026-03-01T12:35:23Z</time>
      </trkpt>
      <trkpt lat="41.39253492700181" lon="-81.87856866442462">
        <ele>208.1404525347</ele>
        <time>2026-03-01T12:35:24Z</time>
      </trkpt>
      <trkpt lat="41.39243604626907" lon="-81.87847308719309">
        <ele>208.5921032438</ele>
        <time>2026-03-01T12:35:27Z</time>
      </trkpt>
      <trkpt lat="41.39217256484834" lon="-81.87816531059433">
        <ele>208.6937863615</ele>
        <time>2026-03-01T12:35:33Z</time>
      </trkpt>
      <trkpt lat="41.39175639408925" lon="-81.87761644259061">
        <ele>208.8555511987</ele>
        <time>2026-03-01T12:35:44Z</time>
      </trkpt>
      <trkpt lat="41.39145385121978" lon="-81.87724944934557">
        <ele>208.4009505232</ele>
        <time>2026-03-01T12:35:51Z</time>
      </trkpt>
      <trkpt lat="41.39138559811677" lon="-81.87717956078768">
        <ele>208.0524985606</ele>
        <time>2026-03-01T12:35:52Z</time>
      </trkpt>
      <trkpt lat="41.39131285422654" lon="-81.87713262795555">
        <ele>208.0049415961</ele>
        <time>2026-03-01T12:35:54Z</time>
      </trkpt>
      <trkpt lat="41.39113010070645" lon="-81.87706024378518">
        <ele>208.0313017312</ele>
        <time>2026-03-01T12:35:57Z</time>
      </trkpt>
      <trkpt lat="41.39107382883141" lon="-81.87704310860703">
        <ele>208.1740856096</ele>
        <time>2026-03-01T12:35:58Z</time>
      </trkpt>
      <trkpt lat="41.39102986020289" lon="-81.87698772688165">
        <ele>207.8606868515</ele>
        <time>2026-03-01T12:35:59Z</time>
      </trkpt>
      <trkpt lat="41.39087242807018" lon="-81.87668102218653">
        <ele>207.8808974696</ele>
        <time>2026-03-01T12:36:05Z</time>
      </trkpt>
      <trkpt lat="41.39079416244972" lon="-81.87657059401182">
        <ele>208.0052359718</ele>
        <time>2026-03-01T12:36:07Z</time>
      </trkpt>
      <trkpt lat="41.39063768863366" lon="-81.87634829845223">
        <ele>208.3754158894</ele>
        <time>2026-03-01T12:36:14Z</time>
      </trkpt>
      <trkpt lat="41.39053271195704" lon="-81.87612399333035">
        <ele>208.7290828522</ele>
        <time>2026-03-01T12:36:17Z</time>
      </trkpt>
      <trkpt lat="41.39047859434916" lon="-81.87607966124064">
        <ele>208.5992381221</ele>
        <time>2026-03-01T12:36:18Z</time>
      </trkpt>
      <trkpt lat="41.39020841753938" lon="-81.87592810573432">
        <ele>208.9143622887</ele>
        <time>2026-03-01T12:36:25Z</time>
      </trkpt>
      <trkpt lat="41.39003242912078" lon="-81.87579946027199">
        <ele>209.3803409025</ele>
        <time>2026-03-01T12:36:29Z</time>
      </trkpt>
      <trkpt lat="41.38983504475149" lon="-81.87557737064475">
        <ele>209.0131148805</ele>
        <time>2026-03-01T12:36:35Z</time>
      </trkpt>
      <trkpt lat="41.38973368669490" lon="-81.87544330263280">
        <ele>209.3039342658</ele>
        <time>2026-03-01T12:36:38Z</time>
      </trkpt>
      <trkpt lat="41.38949519329072" lon="-81.87502262453154">
        <ele>209.7827046045</ele>
        <time>2026-03-01T12:36:48Z</time>
      </trkpt>
      <trkpt lat="41.38941117554525" lon="-81.87483589509604">
        <ele>209.5472565222</ele>
        <time>2026-03-01T12:36:50Z</time>
      </trkpt>
      <trkpt lat="41.38935588160115" lon="-81.87467642392220">
        <ele>209.7133641349</ele>
        <time>2026-03-01T12:37:17Z</time>
      </trkpt>
      <trkpt lat="41.38931936573421" lon="-81.87441749564867">
        <ele>209.8317203964</ele>
        <time>2026-03-01T12:37:22Z</time>
      </trkpt>
      <trkpt lat="41.38932863532087" lon="-81.87430048396253">
        <ele>209.9095980112</ele>
        <time>2026-03-01T12:37:24Z</time>
      </trkpt>
      <trkpt lat="41.38935436270832" lon="-81.87418225488308">
        <ele>210.4320394225</ele>
        <time>2026-03-01T12:37:26Z</time>
      </trkpt>
      <trkpt lat="41.38938945514895" lon="-81.87407790717562">
        <ele>210.0657821390</ele>
        <time>2026-03-01T12:37:28Z</time>
      </trkpt>
      <trkpt lat="41.38944527322228" lon="-81.87397490073586">
        <ele>209.7908242852</ele>
        <time>2026-03-01T12:37:30Z</time>
      </trkpt>
      <trkpt lat="41.38954085424076" lon="-81.87385389311216">
        <ele>209.6507513231</ele>
        <time>2026-03-01T12:37:34Z</time>
      </trkpt>
      <trkpt lat="41.38967104555401" lon="-81.87376557807227">
        <ele>209.9833224274</ele>
        <time>2026-03-01T12:37:37Z</time>
      </trkpt>
      <trkpt lat="41.38979076126519" lon="-81.87370763176128">
        <ele>209.9022237050</ele>
        <time>2026-03-01T12:37:39Z</time>
      </trkpt>
      <trkpt lat="41.38990738992146" lon="-81.87360870108955">
        <ele>209.9457573958</ele>
        <time>2026-03-01T12:37:42Z</time>
      </trkpt>
      <trkpt lat="41.39002331826389" lon="-81.87351032789927">
        <ele>210.2607699712</ele>
        <time>2026-03-01T12:37:45Z</time>
      </trkpt>
      <trkpt lat="41.39013013228805" lon="-81.87348887021186">
        <ele>209.9669910219</ele>
        <time>2026-03-01T12:37:48Z</time>
      </trkpt>
      <trkpt lat="41.39037558384670" lon="-81.87341458623619">
        <ele>210.0640068724</ele>
        <time>2026-03-01T12:37:53Z</time>
      </trkpt>
      <trkpt lat="41.39053206698964" lon="-81.87335059762339">
        <ele>209.8784774539</ele>
        <time>2026-03-01T12:37:56Z</time>
      </trkpt>
      <trkpt lat="41.39063790011907" lon="-81.87327848955454">
        <ele>209.9361408894</ele>
        <time>2026-03-01T12:37:58Z</time>
      </trkpt>
      <trkpt lat="41.39077862907155" lon="-81.87322057984910">
        <ele>209.4192502074</ele>
        <time>2026-03-01T12:38:00Z</time>
      </trkpt>
      <trkpt lat="41.39094712438903" lon="-81.87310655926150">
        <ele>210.2152551563</ele>
        <time>2026-03-01T12:38:04Z</time>
      </trkpt>
      <trkpt lat="41.39101938383952" lon="-81.87302879151515">
        <ele>210.5174459934</ele>
        <time>2026-03-01T12:38:06Z</time>
      </trkpt>
      <trkpt lat="41.39107117463848" lon="-81.87294584031382">
        <ele>210.9441754137</ele>
        <time>2026-03-01T12:38:08Z</time>
      </trkpt>
      <trkpt lat="41.39112241789100" lon="-81.87284862270694">
        <ele>210.7286183975</ele>
        <time>2026-03-01T12:38:10Z</time>
      </trkpt>
      <trkpt lat="41.39120221012983" lon="-81.87263947741360">
        <ele>211.1148115684</ele>
        <time>2026-03-01T12:38:13Z</time>
      </trkpt>
      <trkpt lat="41.39128227278688" lon="-81.87242321469184">
        <ele>211.1507363625</ele>
        <time>2026-03-01T12:38:17Z</time>
      </trkpt>
      <trkpt lat="41.39132489789258" lon="-81.87224223074774">
        <ele>211.5841849291</ele>
        <time>2026-03-01T12:38:21Z</time>
      </trkpt>
      <trkpt lat="41.39135548787723" lon="-81.87210492813068">
        <ele>211.9765827542</ele>
        <time>2026-03-01T12:38:22Z</time>
      </trkpt>
      <trkpt lat="41.39137742735274" lon="-81.87196322242899">
        <ele>212.0637143081</ele>
        <time>2026-03-01T12:38:25Z</time>
      </trkpt>
      <trkpt lat="41.39136916561642" lon="-81.87184787379631">
        <ele>211.4848902886</ele>
        <time>2026-03-01T12:38:27Z</time>
      </trkpt>
      <trkpt lat="41.39135562077065" lon="-81.87169408437342">
        <ele>210.8085996607</ele>
        <time>2026-03-01T12:38:30Z</time>
      </trkpt>
      <trkpt lat="41.39130808177678" lon="-81.87142802630731">
        <ele>211.0170447910</ele>
        <time>2026-03-01T12:38:34Z</time>
      </trkpt>
      <trkpt lat="41.39127403816042" lon="-81.87106021911808">
        <ele>212.1850709617</ele>
        <time>2026-03-01T12:38:41Z</time>
      </trkpt>
      <trkpt lat="41.39125410621411" lon="-81.87094733859522">
        <ele>212.2441039723</ele>
        <time>2026-03-01T12:38:42Z</time>
      </trkpt>
      <trkpt lat="41.39119111153007" lon="-81.87076411872054">
        <ele>211.6509067373</ele>
        <time>2026-03-01T12:38:46Z</time>
      </trkpt>
      <trkpt lat="41.39109764492247" lon="-81.87061202171266">
        <ele>211.8636892417</ele>
        <time>2026-03-01T12:38:50Z</time>
      </trkpt>
      <trkpt lat="41.39095905998338" lon="-81.87046110014346">
        <ele>210.8088653160</ele>
        <time>2026-03-01T12:38:53Z</time>
      </trkpt>
      <trkpt lat="41.39082527400276" lon="-81.87033436676101">
        <ele>211.2370684356</ele>
        <time>2026-03-01T12:38:56Z</time>
      </trkpt>
      <trkpt lat="41.39063967165310" lon="-81.87020544782806">
        <ele>210.7491657860</ele>
        <time>2026-03-01T12:39:02Z</time>
      </trkpt>
      <trkpt lat="41.39056902957375" lon="-81.87012213009262">
        <ele>210.9992894429</ele>
        <time>2026-03-01T12:39:03Z</time>
      </trkpt>
      <trkpt lat="41.39049173894276" lon="-81.86986690970959">
        <ele>211.1236209174</ele>
        <time>2026-03-01T12:39:08Z</time>
      </trkpt>
      <trkpt lat="41.39044666413565" lon="-81.86978453924335">
        <ele>210.7213660888</ele>
        <time>2026-03-01T12:39:10Z</time>
      </trkpt>
      <trkpt lat="41.39029244800840" lon="-81.86972287588225">
        <ele>210.8431767513</ele>
        <time>2026-03-01T12:39:13Z</time>
      </trkpt>
      <trkpt lat="41.39006595059547" lon="-81.86966953383356">
        <ele>210.8916773672</ele>
        <time>2026-03-01T12:39:19Z</time>
      </trkpt>
      <trkpt lat="41.38984414531964" lon="-81.86961024764769">
        <ele>211.1511743992</ele>
        <time>2026-03-01T12:39:24Z</time>
      </trkpt>
      <trkpt lat="41.38968404190059" lon="-81.86959826708019">
        <ele>211.0883148891</ele>
        <time>2026-03-01T12:39:27Z</time>
      </trkpt>
      <trkpt lat="41.38958570219026" lon="-81.86963249224115">
        <ele>211.0053689051</ele>
        <time>2026-03-01T12:39:29Z</time>
      </trkpt>
      <trkpt lat="41.38954378663148" lon="-81.86966618841838">
        <ele>211.0367649135</ele>
        <time>2026-03-01T12:39:30Z</time>
      </trkpt>
      <trkpt lat="41.38946313792096" lon="-81.86978431356259">
        <ele>210.9468037605</ele>
        <time>2026-03-01T12:39:32Z</time>
      </trkpt>
      <trkpt lat="41.38937597127457" lon="-81.86984518760474">
        <ele>211.0749038213</ele>
        <time>2026-03-01T12:39:34Z</time>
      </trkpt>
      <trkpt lat="41.38928010840378" lon="-81.86990572729094">
        <ele>210.9322731233</ele>
        <time>2026-03-01T12:39:36Z</time>
      </trkpt>
      <trkpt lat="41.38913933793822" lon="-81.86993362369400">
        <ele>211.2368568307</ele>
        <time>2026-03-01T12:39:48Z</time>
      </trkpt>
      <trkpt lat="41.38907138894484" lon="-81.86992516450442">
        <ele>211.3003692644</ele>
        <time>2026-03-01T12:39:49Z</time>
      </trkpt>
      <trkpt lat="41.38892212976873" lon="-81.86986791453832">
        <ele>211.2286403068</ele>
        <time>2026-03-01T12:39:53Z</time>
      </trkpt>
      <trkpt lat="41.38885497406043" lon="-81.86988271786285">
        <ele>210.9906906495</ele>
        <time>2026-03-01T12:39:55Z</time>
      </trkpt>
      <trkpt lat="41.38874576365835" lon="-81.86991780445017">
        <ele>211.1567753661</ele>
        <time>2026-03-01T12:39:57Z</time>
      </trkpt>
      <trkpt lat="41.38862750614002" lon="-81.86996983024223">
        <ele>211.1952808316</ele>
        <time>2026-03-01T12:39:59Z</time>
      </trkpt>
      <trkpt lat="41.38853017783580" lon="-81.86998695316267">
        <ele>211.4164084804</ele>
        <time>2026-03-01T12:40:02Z</time>
      </trkpt>
      <trkpt lat="41.38814580531983" lon="-81.86999771988040">
        <ele>211.3041068846</ele>
        <time>2026-03-01T12:40:09Z</time>
      </trkpt>
      <trkpt lat="41.38806718054048" lon="-81.86995918989322">
        <ele>211.3991696950</ele>
        <time>2026-03-01T12:40:11Z</time>
      </trkpt>
      <trkpt lat="41.38800966733883" lon="-81.86997276146167">
        <ele>211.4374454576</ele>
        <time>2026-03-01T12:40:13Z</time>
      </trkpt>
      <trkpt lat="41.38780388708953" lon="-81.87001864358052">
        <ele>211.3506060709</ele>
        <time>2026-03-01T12:40:17Z</time>
      </trkpt>
      <trkpt lat="41.38771038084754" lon="-81.87004399990091">
        <ele>211.3616780717</ele>
        <time>2026-03-01T12:40:19Z</time>
      </trkpt>
      <trkpt lat="41.38730063915645" lon="-81.87007386104089">
        <ele>211.4090472097</ele>
        <time>2026-03-01T12:40:27Z</time>
      </trkpt>
      <trkpt lat="41.38725763776247" lon="-81.87003892626161">
        <ele>211.4185860121</ele>
        <time>2026-03-01T12:40:28Z</time>
      </trkpt>
      <trkpt lat="41.38722715894546" lon="-81.87000079136391">
        <ele>211.4965720060</ele>
        <time>2026-03-01T12:40:29Z</time>
      </trkpt>
      <trkpt lat="41.38713364374872" lon="-81.86978158183786">
        <ele>211.4719650977</ele>
        <time>2026-03-01T12:40:34Z</time>
      </trkpt>
      <trkpt lat="41.38701029743689" lon="-81.86959942117396">
        <ele>211.2017460652</ele>
        <time>2026-03-01T12:40:38Z</time>
      </trkpt>
      <trkpt lat="41.38694502260129" lon="-81.86939925949227">
        <ele>211.5697406365</ele>
        <time>2026-03-01T12:40:41Z</time>
      </trkpt>
      <trkpt lat="41.38680182940156" lon="-81.86906417873386">
        <ele>211.7290521231</ele>
        <time>2026-03-01T12:40:46Z</time>
      </trkpt>
      <trkpt lat="41.38678941664200" lon="-81.86897470693489">
        <ele>211.6671241888</ele>
        <time>2026-03-01T12:40:48Z</time>
      </trkpt>
      <trkpt lat="41.38679057136585" lon="-81.86888742727987">
        <ele>211.6487849210</ele>
        <time>2026-03-01T12:40:49Z</time>
      </trkpt>
      <trkpt lat="41.38677980880140" lon="-81.86882640669482">
        <ele>211.6035678039</ele>
        <time>2026-03-01T12:40:50Z</time>
      </trkpt>
      <trkpt lat="41.38667671914936" lon="-81.86858979122940">
        <ele>211.8600366330</ele>
        <time>2026-03-01T12:40:54Z</time>
      </trkpt>
      <trkpt lat="41.38661690136664" lon="-81.86824897817139">
        <ele>211.7526920867</ele>
        <time>2026-03-01T12:40:58Z</time>
      </trkpt>
      <trkpt lat="41.38659420122154" lon="-81.86810382166969">
        <ele>211.8971670598</ele>
        <time>2026-03-01T12:41:00Z</time>
      </trkpt>
      <trkpt lat="41.38662034836129" lon="-81.86788483172059">
        <ele>212.0127923502</ele>
        <time>2026-03-01T12:41:09Z</time>
      </trkpt>
      <trkpt lat="41.38662930971535" lon="-81.86777589672062">
        <ele>211.9581536314</ele>
        <time>2026-03-01T12:41:11Z</time>
      </trkpt>
      <trkpt lat="41.38660599932886" lon="-81.86765901566135">
        <ele>211.9407774774</ele>
        <time>2026-03-01T12:41:13Z</time>
      </trkpt>
      <trkpt lat="41.38654646650707" lon="-81.86755543646784">
        <ele>212.1116673544</ele>
        <time>2026-03-01T12:41:14Z</time>
      </trkpt>
      <trkpt lat="41.38647133370304" lon="-81.86747020903915">
        <ele>211.9798432805</ele>
        <time>2026-03-01T12:41:16Z</time>
      </trkpt>
      <trkpt lat="41.38638838642439" lon="-81.86742914078972">
        <ele>212.0384845139</ele>
        <time>2026-03-01T12:41:18Z</time>
      </trkpt>
      <trkpt lat="41.38628032501443" lon="-81.86739019080160">
        <ele>212.1115024874</ele>
        <time>2026-03-01T12:41:20Z</time>
      </trkpt>
      <trkpt lat="41.38599270749834" lon="-81.86720602027174">
        <ele>211.1877656977</ele>
        <time>2026-03-01T12:41:27Z</time>
      </trkpt>
      <trkpt lat="41.38583255179245" lon="-81.86710958432708">
        <ele>211.6739482272</ele>
        <time>2026-03-01T12:41:30Z</time>
      </trkpt>
      <trkpt lat="41.38578907582255" lon="-81.86704617059031">
        <ele>212.0767743196</ele>
        <time>2026-03-01T12:41:36Z</time>
      </trkpt>
      <trkpt lat="41.38577099004373" lon="-81.86696770377930">
        <ele>212.6858931501</ele>
        <time>2026-03-01T12:41:37Z</time>
      </trkpt>
      <trkpt lat="41.38571007918930" lon="-81.86676601218511">
        <ele>213.0133953664</ele>
        <time>2026-03-01T12:41:42Z</time>
      </trkpt>
      <trkpt lat="41.38559943582548" lon="-81.86654590884142">
        <ele>214.0697653889</ele>
        <time>2026-03-01T12:41:45Z</time>
      </trkpt>
      <trkpt lat="41.38556076895877" lon="-81.86648789416294">
        <ele>214.1836698627</ele>
        <time>2026-03-01T12:41:47Z</time>
      </trkpt>
      <trkpt lat="41.38552944675236" lon="-81.86640153540641">
        <ele>214.6483530868</ele>
        <time>2026-03-01T12:41:48Z</time>
      </trkpt>
      <trkpt lat="41.38551634531662" lon="-81.86627851016188">
        <ele>214.8195873536</ele>
        <time>2026-03-01T12:41:50Z</time>
      </trkpt>
      <trkpt lat="41.38544176407687" lon="-81.86608291343966">
        <ele>215.4477390155</ele>
        <time>2026-03-01T12:41:53Z</time>
      </trkpt>
      <trkpt lat="41.38541674452937" lon="-81.86598380796195">
        <ele>215.9668637171</ele>
        <time>2026-03-01T12:42:23Z</time>
      </trkpt>
      <trkpt lat="41.38540213889868" lon="-81.86587945217785">
        <ele>216.2541632447</ele>
        <time>2026-03-01T12:42:25Z</time>
      </trkpt>
      <trkpt lat="41.38541140582651" lon="-81.86565168852283">
        <ele>216.6111583934</ele>
        <time>2026-03-01T12:42:28Z</time>
      </trkpt>
      <trkpt lat="41.38540741838375" lon="-81.86555285658385">
        <ele>216.9354357745</ele>
        <time>2026-03-01T12:42:29Z</time>
      </trkpt>
      <trkpt lat="41.38539042523683" lon="-81.86542320301189">
        <ele>217.3770742801</ele>
        <time>2026-03-01T12:42:31Z</time>
      </trkpt>
      <trkpt lat="41.38535678658192" lon="-81.86533018269394">
        <ele>217.4646044054</ele>
        <time>2026-03-01T12:42:33Z</time>
      </trkpt>
      <trkpt lat="41.38531558543432" lon="-81.86526872901456">
        <ele>217.8010597407</ele>
        <time>2026-03-01T12:42:34Z</time>
      </trkpt>
      <trkpt lat="41.38524265030966" lon="-81.86521458643833">
        <ele>217.9380896564</ele>
        <time>2026-03-01T12:42:36Z</time>
      </trkpt>
      <trkpt lat="41.38510498691620" lon="-81.86514401592554">
        <ele>218.3599198064</ele>
        <time>2026-03-01T12:42:39Z</time>
      </trkpt>
      <trkpt lat="41.38498612213200" lon="-81.86509411380669">
        <ele>218.4341531472</ele>
        <time>2026-03-01T12:42:42Z</time>
      </trkpt>
      <trkpt lat="41.38476811707198" lon="-81.86504923952643">
        <ele>219.2984656714</ele>
        <time>2026-03-01T12:42:46Z</time>
      </trkpt>
      <trkpt lat="41.38467752569640" lon="-81.86499669097016">
        <ele>219.5003172941</ele>
        <time>2026-03-01T12:42:48Z</time>
      </trkpt>
      <trkpt lat="41.38459398850641" lon="-81.86495348757519">
        <ele>219.8714218241</ele>
        <time>2026-03-01T12:42:50Z</time>
      </trkpt>
      <trkpt lat="41.38452889579148" lon="-81.86491920209139">
        <ele>219.8704921268</ele>
        <time>2026-03-01T12:42:51Z</time>
      </trkpt>
      <trkpt lat="41.38442438701506" lon="-81.86489566743171">
        <ele>220.0949230672</ele>
        <time>2026-03-01T12:42:54Z</time>
      </trkpt>
      <trkpt lat="41.38423656934279" lon="-81.86484849833137">
        <ele>220.7009964254</ele>
        <time>2026-03-01T12:42:57Z</time>
      </trkpt>
      <trkpt lat="41.38419012470747" lon="-81.86483074605898">
        <ele>220.9437892906</ele>
        <time>2026-03-01T12:42:58Z</time>
      </trkpt>
      <trkpt lat="41.38412810339214" lon="-81.86484345517965">
        <ele>221.0941028362</ele>
        <time>2026-03-01T12:43:00Z</time>
      </trkpt>
      <trkpt lat="41.38403739043046" lon="-81.86488500262560">
        <ele>221.2552696680</ele>
        <time>2026-03-01T12:43:02Z</time>
      </trkpt>
      <trkpt lat="41.38394150974201" lon="-81.86496347675637">
        <ele>221.6791155066</ele>
        <time>2026-03-01T12:43:04Z</time>
      </trkpt>
      <trkpt lat="41.38381929863765" lon="-81.86504145319876">
        <ele>222.1091135660</ele>
        <time>2026-03-01T12:43:06Z</time>
      </trkpt>
      <trkpt lat="41.38352583986391" lon="-81.86513298215478">
        <ele>222.8988900229</ele>
        <time>2026-03-01T12:43:11Z</time>
      </trkpt>
      <trkpt lat="41.38338986583540" lon="-81.86516199345313">
        <ele>223.4242287036</ele>
        <time>2026-03-01T12:43:14Z</time>
      </trkpt>
      <trkpt lat="41.38328689939450" lon="-81.86520005301445">
        <ele>223.6912911938</ele>
        <time>2026-03-01T12:43:16Z</time>
      </trkpt>
      <trkpt lat="41.38316900368746" lon="-81.86525259221330">
        <ele>224.3149975647</ele>
        <time>2026-03-01T12:43:19Z</time>
      </trkpt>
      <trkpt lat="41.38272618508999" lon="-81.86540606128762">
        <ele>226.2050616080</ele>
        <time>2026-03-01T12:43:29Z</time>
      </trkpt>
      <trkpt lat="41.38249996289274" lon="-81.86548825988497">
        <ele>226.8932646062</ele>
        <time>2026-03-01T12:43:33Z</time>
      </trkpt>
      <trkpt lat="41.38233564828213" lon="-81.86553377725753">
        <ele>226.6230681551</ele>
        <time>2026-03-01T12:43:37Z</time>
      </trkpt>
      <trkpt lat="41.38216054070957" lon="-81.86561336676790">
        <ele>227.5663052864</ele>
        <time>2026-03-01T12:43:43Z</time>
      </trkpt>
      <trkpt lat="41.38208642633557" lon="-81.86564238135966">
        <ele>228.1432155350</ele>
        <time>2026-03-01T12:43:45Z</time>
      </trkpt>
      <trkpt lat="41.38196206627853" lon="-81.86566731680531">
        <ele>227.6181636086</ele>
        <time>2026-03-01T12:43:47Z</time>
      </trkpt>
      <trkpt lat="41.38185553771274" lon="-81.86569871459314">
        <ele>227.7917350317</ele>
        <time>2026-03-01T12:43:49Z</time>
      </trkpt>
      <trkpt lat="41.38165533399494" lon="-81.86572763674893">
        <ele>227.9680811912</ele>
        <time>2026-03-01T12:43:53Z</time>
      </trkpt>
      <trkpt lat="41.38142873573055" lon="-81.86573345699195">
        <ele>227.8512481353</ele>
        <time>2026-03-01T12:43:58Z</time>
      </trkpt>
      <trkpt lat="41.38128916960719" lon="-81.86569966551114">
        <ele>227.7958474597</ele>
        <time>2026-03-01T12:44:02Z</time>
      </trkpt>
      <trkpt lat="41.38113644401493" lon="-81.86572076538553">
        <ele>227.9467860215</ele>
        <time>2026-03-01T12:44:07Z</time>
      </trkpt>
      <trkpt lat="41.38103803015998" lon="-81.86575825298566">
        <ele>227.8921616958</ele>
        <time>2026-03-01T12:44:10Z</time>
      </trkpt>
      <trkpt lat="41.38080889775006" lon="-81.86583112418060">
        <ele>229.2039301766</ele>
        <time>2026-03-01T12:44:17Z</time>
      </trkpt>
      <trkpt lat="41.38068767163085" lon="-81.86584563912345">
        <ele>228.9993841074</ele>
        <time>2026-03-01T12:44:21Z</time>
      </trkpt>
      <trkpt lat="41.38053814877716" lon="-81.86584573934459">
        <ele>228.8599265254</ele>
        <time>2026-03-01T12:44:24Z</time>
      </trkpt>
      <trkpt lat="41.38038991830958" lon="-81.86584612103323">
        <ele>229.0451817001</ele>
        <time>2026-03-01T12:44:27Z</time>
      </trkpt>
      <trkpt lat="41.38002227726015" lon="-81.86590540230679">
        <ele>229.8699897988</ele>
        <time>2026-03-01T12:44:34Z</time>
      </trkpt>
      <trkpt lat="41.37987399446246" lon="-81.86597029685554">
        <ele>230.0197726551</ele>
        <time>2026-03-01T12:44:37Z</time>
      </trkpt>
      <trkpt lat="41.37966784191487" lon="-81.86606861709171">
        <ele>230.0053407898</ele>
        <time>2026-03-01T12:44:42Z</time>
      </trkpt>
      <trkpt lat="41.37952728455284" lon="-81.86611691493486">
        <ele>229.9331732527</ele>
        <time>2026-03-01T12:44:44Z</time>
      </trkpt>
      <trkpt lat="41.37943876655535" lon="-81.86612741713348">
        <ele>230.0267244215</ele>
        <time>2026-03-01T12:44:46Z</time>
      </trkpt>
      <trkpt lat="41.37889492245990" lon="-81.86612015574987">
        <ele>234.9801201462</ele>
        <time>2026-03-01T12:44:58Z</time>
      </trkpt>
      <trkpt lat="41.37869793424645" lon="-81.86610720961863">
        <ele>235.2261559369</ele>
        <time>2026-03-01T12:45:03Z</time>
      </trkpt>
      <trkpt lat="41.37865826132082" lon="-81.86611190745928">
        <ele>235.1823175747</ele>
        <time>2026-03-01T12:45:04Z</time>
      </trkpt>
      <trkpt lat="41.37862288433062" lon="-81.86609447125781">
        <ele>234.9415870678</ele>
        <time>2026-03-01T12:45:05Z</time>
      </trkpt>
      <trkpt lat="41.37859871197400" lon="-81.86604949534869">
        <ele>234.9503780118</ele>
        <time>2026-03-01T12:45:29Z</time>
      </trkpt>
      <trkpt lat="41.37854161094334" lon="-81.86587599065749">
        <ele>234.2574968118</ele>
        <time>2026-03-01T12:45:31Z</time>
      </trkpt>
      <trkpt lat="41.37851586529943" lon="-81.86582856964782">
        <ele>234.1949290328</ele>
        <time>2026-03-01T12:45:32Z</time>
      </trkpt>
      <trkpt lat="41.37847341771574" lon="-81.86579489665777">
        <ele>233.7013513624</ele>
        <time>2026-03-01T12:45:33Z</time>
      </trkpt>
      <trkpt lat="41.37842310214289" lon="-81.86578554649641">
        <ele>233.6402625932</ele>
        <time>2026-03-01T12:45:34Z</time>
      </trkpt>
      <trkpt lat="41.37835202392359" lon="-81.86578439284337">
        <ele>233.8068524787</ele>
        <time>2026-03-01T12:45:36Z</time>
      </trkpt>
      <trkpt lat="41.37816750233605" lon="-81.86583724467974">
        <ele>234.0777854141</ele>
        <time>2026-03-01T12:45:40Z</time>
      </trkpt>
      <trkpt lat="41.37795819922432" lon="-81.86595371376120">
        <ele>234.9567084856</ele>
        <time>2026-03-01T12:45:45Z</time>
      </trkpt>
      <trkpt lat="41.37790752453635" lon="-81.86598023016501">
        <ele>234.6960846998</ele>
        <time>2026-03-01T12:45:46Z</time>
      </trkpt>
      <trkpt lat="41.37784597645764" lon="-81.86609255381248">
        <ele>236.2247172096</ele>
        <time>2026-03-01T12:45:48Z</time>
      </trkpt>
      <trkpt lat="41.37778212563214" lon="-81.86619060680252">
        <ele>236.6234638201</ele>
        <time>2026-03-01T12:45:51Z</time>
      </trkpt>
      <trkpt lat="41.37765861911227" lon="-81.86629959488711">
        <ele>237.1354635156</ele>
        <time>2026-03-01T12:45:54Z</time>
      </trkpt>
      <trkpt lat="41.37758788203045" lon="-81.86636343899467">
        <ele>237.2082401536</ele>
        <time>2026-03-01T12:46:21Z</time>
      </trkpt>
      <trkpt lat="41.37752112763209" lon="-81.86645249438772">
        <ele>237.0652156147</ele>
        <time>2026-03-01T12:46:23Z</time>
      </trkpt>
      <trkpt lat="41.37739185213672" lon="-81.86633544281059">
        <ele>236.1517638071</ele>
        <time>2026-03-01T12:46:57Z</time>
      </trkpt>
      <trkpt lat="41.37722341616087" lon="-81.86623496157472">
        <ele>235.4052414891</ele>
        <time>2026-03-01T12:47:00Z</time>
      </trkpt>
      <trkpt lat="41.37713145162678" lon="-81.86619153547394">
        <ele>234.3185984885</ele>
        <time>2026-03-01T12:47:02Z</time>
      </trkpt>
      <trkpt lat="41.37698716854514" lon="-81.86617496798289">
        <ele>234.2657488596</ele>
        <time>2026-03-01T12:47:05Z</time>
      </trkpt>
      <trkpt lat="41.37689364202683" lon="-81.86615441563090">
        <ele>233.8480670207</ele>
        <time>2026-03-01T12:47:07Z</time>
      </trkpt>
      <trkpt lat="41.37683746044129" lon="-81.86611474088473">
        <ele>233.6403206938</ele>
        <time>2026-03-01T12:47:08Z</time>
      </trkpt>
      <trkpt lat="41.37671906513466" lon="-81.86599916409772">
        <ele>233.1039618111</ele>
        <time>2026-03-01T12:47:11Z</time>
      </trkpt>
      <trkpt lat="41.37665965001496" lon="-81.86587765218994">
        <ele>232.7139514421</ele>
        <time>2026-03-01T12:47:13Z</time>
      </trkpt>
      <trkpt lat="41.37649824912118" lon="-81.86557454746607">
        <ele>231.1664917371</ele>
        <time>2026-03-01T12:47:20Z</time>
      </trkpt>
      <trkpt lat="41.37640498207023" lon="-81.86543351654889">
        <ele>229.8716342271</ele>
        <time>2026-03-01T12:47:24Z</time>
      </trkpt>
      <trkpt lat="41.37630812478103" lon="-81.86532369672140">
        <ele>229.2572624078</ele>
        <time>2026-03-01T12:47:27Z</time>
      </trkpt>
      <trkpt lat="41.37611175394971" lon="-81.86515064122450">
        <ele>229.3273784205</ele>
        <time>2026-03-01T12:47:31Z</time>
      </trkpt>
      <trkpt lat="41.37583480317892" lon="-81.86497860595161">
        <ele>229.9234710781</ele>
        <time>2026-03-01T12:47:37Z</time>
      </trkpt>
      <trkpt lat="41.37578148558627" lon="-81.86493680555029">
        <ele>230.0990381984</ele>
        <time>2026-03-01T12:47:39Z</time>
      </trkpt>
      <trkpt lat="41.37567754985492" lon="-81.86477099323263">
        <ele>230.3827969218</ele>
        <time>2026-03-01T12:47:42Z</time>
      </trkpt>
      <trkpt lat="41.37563134379081" lon="-81.86473181711112">
        <ele>230.9826645843</ele>
        <time>2026-03-01T12:47:43Z</time>
      </trkpt>
      <trkpt lat="41.37551184943770" lon="-81.86460254342927">
        <ele>230.2692807797</ele>
        <time>2026-03-01T12:47:46Z</time>
      </trkpt>
      <trkpt lat="41.37524388060527" lon="-81.86435088007936">
        <ele>230.9406706866</ele>
        <time>2026-03-01T12:47:53Z</time>
      </trkpt>
      <trkpt lat="41.37516098546721" lon="-81.86425997113828">
        <ele>230.3730590712</ele>
        <time>2026-03-01T12:47:55Z</time>
      </trkpt>
      <trkpt lat="41.37493909658041" lon="-81.86394705605794">
        <ele>230.9147632450</ele>
        <time>2026-03-01T12:48:02Z</time>
      </trkpt>
      <trkpt lat="41.37482298484242" lon="-81.86377221933334">
        <ele>230.9543489374</ele>
        <time>2026-03-01T12:48:05Z</time>
      </trkpt>
      <trkpt lat="41.37469913456481" lon="-81.86363331127755">
        <ele>231.0919617371</ele>
        <time>2026-03-01T12:48:09Z</time>
      </trkpt>
      <trkpt lat="41.37456624062409" lon="-81.86350505956574">
        <ele>231.0661285110</ele>
        <time>2026-03-01T12:48:13Z</time>
      </trkpt>
      <trkpt lat="41.37429316134621" lon="-81.86326579196115">
        <ele>230.7261951826</ele>
        <time>2026-03-01T12:48:18Z</time>
      </trkpt>
      <trkpt lat="41.37409044314016" lon="-81.86311793290473">
        <ele>230.3827677471</ele>
        <time>2026-03-01T12:48:22Z</time>
      </trkpt>
      <trkpt lat="41.37373719604218" lon="-81.86291884714738">
        <ele>231.6641692003</ele>
        <time>2026-03-01T12:48:29Z</time>
      </trkpt>
      <trkpt lat="41.37344656720244" lon="-81.86281093408336">
        <ele>233.9050200009</ele>
        <time>2026-03-01T12:48:35Z</time>
      </trkpt>
      <trkpt lat="41.37329601722327" lon="-81.86275738520411">
        <ele>233.5710459008</ele>
        <time>2026-03-01T12:48:39Z</time>
      </trkpt>
      <trkpt lat="41.37296102687439" lon="-81.86267691267453">
        <ele>235.9979253399</ele>
        <time>2026-03-01T12:48:49Z</time>
      </trkpt>
      <trkpt lat="41.37272642511807" lon="-81.86262080123856">
        <ele>235.9106785899</ele>
        <time>2026-03-01T12:48:55Z</time>
      </trkpt>
      <trkpt lat="41.37269938364555" lon="-81.86262617365800">
        <ele>235.9454562414</ele>
        <time>2026-03-01T12:49:05Z</time>
      </trkpt>
      <trkpt lat="41.37268170726611" lon="-81.86262996480859">
        <ele>235.7513389150</ele>
        <time>2026-03-01T12:49:06Z</time>
      </trkpt>
      <trkpt lat="41.37251143076507" lon="-81.86249384181112">
        <ele>235.0587060728</ele>
        <time>2026-03-01T12:49:10Z</time>
      </trkpt>
      <trkpt lat="41.37233166914223" lon="-81.86238277026209">
        <ele>234.8636246369</ele>
        <time>2026-03-01T12:49:12Z</time>
      </trkpt>
      <trkpt lat="41.37227692473523" lon="-81.86233543438524">
        <ele>234.3769616450</ele>
        <time>2026-03-01T12:49:13Z</time>
      </trkpt>
      <trkpt lat="41.37222436590483" lon="-81.86227758216330">
        <ele>233.8750764441</ele>
        <time>2026-03-01T12:49:15Z</time>
      </trkpt>
      <trkpt lat="41.37208142134028" lon="-81.86205116850975">
        <ele>233.3082820413</ele>
        <time>2026-03-01T12:49:19Z</time>
      </trkpt>
      <trkpt lat="41.37201699633390" lon="-81.86198702844375">
        <ele>233.5012155823</ele>
        <time>2026-03-01T12:49:21Z</time>
      </trkpt>
      <trkpt lat="41.37177802989043" lon="-81.86184353672820">
        <ele>234.8666857356</ele>
        <time>2026-03-01T12:49:28Z</time>
      </trkpt>
      <trkpt lat="41.37173137749895" lon="-81.86178677750910">
        <ele>234.6681868235</ele>
        <time>2026-03-01T12:49:30Z</time>
      </trkpt>
      <trkpt lat="41.37172612176809" lon="-81.86176390687291">
        <ele>234.6597713512</ele>
        <time>2026-03-01T12:49:31Z</time>
      </trkpt>
      <trkpt lat="41.37170330889315" lon="-81.86174181551526">
        <ele>234.4055060670</ele>
        <time>2026-03-01T12:49:32Z</time>
      </trkpt>
      <trkpt lat="41.37166560759995" lon="-81.86156696511233">
        <ele>232.9283136233</ele>
        <time>2026-03-01T12:49:36Z</time>
      </trkpt>
      <trkpt lat="41.37162930957005" lon="-81.86146312030840">
        <ele>232.2573561343</ele>
        <time>2026-03-01T12:49:38Z</time>
      </trkpt>
      <trkpt lat="41.37159396226428" lon="-81.86139364976162">
        <ele>232.3586896554</ele>
        <time>2026-03-01T12:49:39Z</time>
      </trkpt>
      <trkpt lat="41.37142009601711" lon="-81.86122537566597">
        <ele>232.4378042375</ele>
        <time>2026-03-01T12:49:42Z</time>
      </trkpt>
      <trkpt lat="41.37132400484186" lon="-81.86107713016040">
        <ele>232.9675144407</ele>
        <time>2026-03-01T12:49:46Z</time>
      </trkpt>
      <trkpt lat="41.37123800174779" lon="-81.86098062719618">
        <ele>233.3413153064</ele>
        <time>2026-03-01T12:49:47Z</time>
      </trkpt>
      <trkpt lat="41.37085150279100" lon="-81.86057134313633">
        <ele>232.3224134807</ele>
        <time>2026-03-01T12:49:57Z</time>
      </trkpt>
      <trkpt lat="41.37052105547730" lon="-81.86020866999132">
        <ele>234.3664827062</ele>
        <time>2026-03-01T12:50:06Z</time>
      </trkpt>
      <trkpt lat="41.37041932875629" lon="-81.86009198157832">
        <ele>233.2897427983</ele>
        <time>2026-03-01T12:50:10Z</time>
      </trkpt>
      <trkpt lat="41.37032922709864" lon="-81.85995741929686">
        <ele>232.2704450225</ele>
        <time>2026-03-01T12:50:28Z</time>
      </trkpt>
      <trkpt lat="41.37027018797242" lon="-81.85981953202024">
        <ele>231.8251041384</ele>
        <time>2026-03-01T12:50:30Z</time>
      </trkpt>
      <trkpt lat="41.37023842039838" lon="-81.85972403114400">
        <ele>231.0954936403</ele>
        <time>2026-03-01T12:50:32Z</time>
      </trkpt>
      <trkpt lat="41.37017711707679" lon="-81.85955972920732">
        <ele>231.0892547656</ele>
        <time>2026-03-01T12:50:34Z</time>
      </trkpt>
      <trkpt lat="41.37014886506351" lon="-81.85934462437146">
        <ele>231.0368764906</ele>
        <time>2026-03-01T12:50:37Z</time>
      </trkpt>
      <trkpt lat="41.37013207689191" lon="-81.85913460504273">
        <ele>230.9883988057</ele>
        <time>2026-03-01T12:50:42Z</time>
      </trkpt>
      <trkpt lat="41.37014191956661" lon="-81.85897495871254">
        <ele>230.9253607564</ele>
        <time>2026-03-01T12:50:45Z</time>
      </trkpt>
      <trkpt lat="41.37018025007580" lon="-81.85878492722586">
        <ele>230.8261333927</ele>
        <time>2026-03-01T12:51:15Z</time>
      </trkpt>
      <trkpt lat="41.37025153971569" lon="-81.85849957047253">
        <ele>230.6930180730</ele>
        <time>2026-03-01T12:51:19Z</time>
      </trkpt>
      <trkpt lat="41.37027321907757" lon="-81.85836031152523">
        <ele>230.5842841497</ele>
        <time>2026-03-01T12:51:22Z</time>
      </trkpt>
      <trkpt lat="41.37027328750369" lon="-81.85820919907751">
        <ele>231.0090343173</ele>
        <time>2026-03-01T12:51:24Z</time>
      </trkpt>
      <trkpt lat="41.37027540055047" lon="-81.85807702422416">
        <ele>230.8840340023</ele>
        <time>2026-03-01T12:51:26Z</time>
      </trkpt>
      <trkpt lat="41.37025036931626" lon="-81.85796107672918">
        <ele>230.9980892687</ele>
        <time>2026-03-01T12:51:28Z</time>
      </trkpt>
      <trkpt lat="41.37020181354083" lon="-81.85785267454877">
        <ele>230.7024597421</ele>
        <time>2026-03-01T12:51:30Z</time>
      </trkpt>
      <trkpt lat="41.37012891488116" lon="-81.85776450315032">
        <ele>230.2198959379</ele>
        <time>2026-03-01T12:51:32Z</time>
      </trkpt>
      <trkpt lat="41.37009293203769" lon="-81.85765064639263">
        <ele>229.9797600123</ele>
        <time>2026-03-01T12:51:34Z</time>
      </trkpt>
      <trkpt lat="41.37008267698324" lon="-81.85754780025529">
        <ele>229.9140428251</ele>
        <time>2026-03-01T12:51:36Z</time>
      </trkpt>
      <trkpt lat="41.37009152195858" lon="-81.85744089509410">
        <ele>229.8884798551</ele>
        <time>2026-03-01T12:51:38Z</time>
      </trkpt>
      <trkpt lat="41.37014865575744" lon="-81.85725349382072">
        <ele>230.2852753986</ele>
        <time>2026-03-01T12:51:41Z</time>
      </trkpt>
      <trkpt lat="41.37015222227316" lon="-81.85717498775993">
        <ele>230.3898946343</ele>
        <time>2026-03-01T12:51:43Z</time>
      </trkpt>
      <trkpt lat="41.37016330731851" lon="-81.85707666062882">
        <ele>230.7098911194</ele>
        <time>2026-03-01T12:51:45Z</time>
      </trkpt>
      <trkpt lat="41.37012051448770" lon="-81.85695606618786">
        <ele>231.9276074358</ele>
        <time>2026-03-01T12:51:52Z</time>
      </trkpt>
      <trkpt lat="41.37006824630048" lon="-81.85679619407408">
        <ele>231.9811727689</ele>
        <time>2026-03-01T12:51:56Z</time>
      </trkpt>
      <trkpt lat="41.36998580388641" lon="-81.85656425214664">
        <ele>232.1642546387</ele>
        <time>2026-03-01T12:51:59Z</time>
      </trkpt>
      <trkpt lat="41.36992603689075" lon="-81.85641317938838">
        <ele>232.3678671748</ele>
        <time>2026-03-01T12:52:02Z</time>
      </trkpt>
      <trkpt lat="41.36986560908606" lon="-81.85632072592168">
        <ele>232.2142127912</ele>
        <time>2026-03-01T12:52:03Z</time>
      </trkpt>
      <trkpt lat="41.36979323246909" lon="-81.85623067579668">
        <ele>231.9669901410</ele>
        <time>2026-03-01T12:52:05Z</time>
      </trkpt>
      <trkpt lat="41.36971075126373" lon="-81.85616701418729">
        <ele>232.5367411614</ele>
        <time>2026-03-01T12:52:07Z</time>
      </trkpt>
      <trkpt lat="41.36956532206369" lon="-81.85606674810714">
        <ele>233.9029673223</ele>
        <time>2026-03-01T12:52:10Z</time>
      </trkpt>
      <trkpt lat="41.36921300573000" lon="-81.85574800865520">
        <ele>234.2112190613</ele>
        <time>2026-03-01T12:52:19Z</time>
      </trkpt>
      <trkpt lat="41.36913788162468" lon="-81.85582616009788">
        <ele>233.0612142242</ele>
        <time>2026-03-01T12:52:21Z</time>
      </trkpt>
      <trkpt lat="41.36905779006250" lon="-81.85588548544895">
        <ele>232.8585268947</ele>
        <time>2026-03-01T12:52:22Z</time>
      </trkpt>
      <trkpt lat="41.36899747836962" lon="-81.85592165656531">
        <ele>233.0306112665</ele>
        <time>2026-03-01T12:52:24Z</time>
      </trkpt>
      <trkpt lat="41.36880270838242" lon="-81.85592964687855">
        <ele>232.9598784198</ele>
        <time>2026-03-01T12:52:27Z</time>
      </trkpt>
      <trkpt lat="41.36874289642895" lon="-81.85596123582695">
        <ele>233.4712205485</ele>
        <time>2026-03-01T12:52:29Z</time>
      </trkpt>
      <trkpt lat="41.36857700522424" lon="-81.85608704672443">
        <ele>233.5775969137</ele>
        <time>2026-03-01T12:52:32Z</time>
      </trkpt>
      <trkpt lat="41.36829017852631" lon="-81.85626270804875">
        <ele>233.9592868419</ele>
        <time>2026-03-01T12:52:39Z</time>
      </trkpt>
      <trkpt lat="41.36813555341705" lon="-81.85635278764074">
        <ele>234.7560503195</ele>
        <time>2026-03-01T12:52:43Z</time>
      </trkpt>
      <trkpt lat="41.36807882494067" lon="-81.85637746289902">
        <ele>235.1157076390</ele>
        <time>2026-03-01T12:52:44Z</time>
      </trkpt>
      <trkpt lat="41.36794062019423" lon="-81.85640189419185">
        <ele>235.0347429389</ele>
        <time>2026-03-01T12:52:48Z</time>
      </trkpt>
      <trkpt lat="41.36775348918736" lon="-81.85643424920617">
        <ele>235.3364832592</ele>
        <time>2026-03-01T12:52:55Z</time>
      </trkpt>
      <trkpt lat="41.36754794501145" lon="-81.85641720875215">
        <ele>235.2086225094</ele>
        <time>2026-03-01T12:52:59Z</time>
      </trkpt>
      <trkpt lat="41.36713487298783" lon="-81.85642123493491">
        <ele>235.3743217040</ele>
        <time>2026-03-01T12:53:09Z</time>
      </trkpt>
      <trkpt lat="41.36701103216822" lon="-81.85643765584133">
        <ele>235.2401265943</ele>
        <time>2026-03-01T12:53:12Z</time>
      </trkpt>
      <trkpt lat="41.36686054073010" lon="-81.85645809489426">
        <ele>236.3340480631</ele>
        <time>2026-03-01T12:53:15Z</time>
      </trkpt>
      <trkpt lat="41.36672898933048" lon="-81.85650690772526">
        <ele>236.7795555150</ele>
        <time>2026-03-01T12:53:19Z</time>
      </trkpt>
      <trkpt lat="41.36628363562315" lon="-81.85687525288124">
        <ele>234.5921990578</ele>
        <time>2026-03-01T12:53:29Z</time>
      </trkpt>
      <trkpt lat="41.36618842596751" lon="-81.85692643744494">
        <ele>234.4292419992</ele>
        <time>2026-03-01T12:53:31Z</time>
      </trkpt>
      <trkpt lat="41.36610373395266" lon="-81.85696284134309">
        <ele>234.8612022187</ele>
        <time>2026-03-01T12:53:33Z</time>
      </trkpt>
      <trkpt lat="41.36601744580680" lon="-81.85698115524414">
        <ele>235.0458341727</ele>
        <time>2026-03-01T12:53:34Z</time>
      </trkpt>
      <trkpt lat="41.36589842198308" lon="-81.85698299562354">
        <ele>235.1797478891</ele>
        <time>2026-03-01T12:53:38Z</time>
      </trkpt>
      <trkpt lat="41.36551852476878" lon="-81.85701042600270">
        <ele>234.5250483203</ele>
        <time>2026-03-01T12:53:47Z</time>
      </trkpt>
      <trkpt lat="41.36548304353531" lon="-81.85700482819841">
        <ele>234.8335254874</ele>
        <time>2026-03-01T12:53:48Z</time>
      </trkpt>
      <trkpt lat="41.36548154179589" lon="-81.85701811954971">
        <ele>234.7687214748</ele>
        <time>2026-03-01T12:53:49Z</time>
      </trkpt>
      <trkpt lat="41.36551028139316" lon="-81.85706794704841">
        <ele>234.9562370672</ele>
        <time>2026-03-01T12:53:50Z</time>
      </trkpt>
      <trkpt lat="41.36537312316528" lon="-81.85706238804606">
        <ele>235.0337404594</ele>
        <time>2026-03-01T12:53:52Z</time>
      </trkpt>
      <trkpt lat="41.36514877839608" lon="-81.85704144993932">
        <ele>234.6741631188</ele>
        <time>2026-03-01T12:53:57Z</time>
      </trkpt>
      <trkpt lat="41.36498474200262" lon="-81.85699283462476">
        <ele>234.8315158937</ele>
        <time>2026-03-01T12:54:01Z</time>
      </trkpt>
      <trkpt lat="41.36480561891091" lon="-81.85691164278835">
        <ele>235.1044196533</ele>
        <time>2026-03-01T12:54:04Z</time>
      </trkpt>
      <trkpt lat="41.36466397505917" lon="-81.85683705981045">
        <ele>235.0289645562</ele>
        <time>2026-03-01T12:54:07Z</time>
      </trkpt>
      <trkpt lat="41.36444076796636" lon="-81.85667156062084">
        <ele>234.8565740226</ele>
        <time>2026-03-01T12:54:10Z</time>
      </trkpt>
      <trkpt lat="41.36432742815217" lon="-81.85694265674586">
        <ele>235.2932307046</ele>
        <time>2026-03-01T12:54:14Z</time>
      </trkpt>
      <trkpt lat="41.36428954606782" lon="-81.85709340438089">
        <ele>234.9614640262</ele>
        <time>2026-03-01T12:54:16Z</time>
      </trkpt>
      <trkpt lat="41.36425664887912" lon="-81.85730438517545">
        <ele>234.2175837525</ele>
        <time>2026-03-01T12:54:19Z</time>
      </trkpt>
    </trkseg>
  </trk>
</gpx>