<?xml version='1.0' encoding='UTF-8'?>
<gpx xmlns="http://www.topografix.com/GPX/1/1" creator="https://gpx.studio" version="1.1">
  <metadata>
    <name>Bike - 2026-04-23</name>
  </metadata>
  <trk>
    <name>Bike - 2026-04-23</name>
    <type>cycling</type>
    <trkseg>
      <trkpt lat="41.37262470527046" lon="-81.61366680734587">
        <ele>186.8849624976</ele>
        <time>2026-04-23T14:54:41Z</time>
      </trkpt>
      <trkpt lat="41.37262838480083" lon="-81.61355280980649">
        <ele>186.9316170174</ele>
        <time>2026-04-23T14:54:42Z</time>
      </trkpt>
      <trkpt lat="41.37284939297506" lon="-81.61347119337712">
        <ele>188.1545649081</ele>
        <time>2026-04-23T14:54:46Z</time>
      </trkpt>
      <trkpt lat="41.37297155033429" lon="-81.61342333011905">
        <ele>188.6346470323</ele>
        <time>2026-04-23T14:54:49Z</time>
      </trkpt>
      <trkpt lat="41.37297160426047" lon="-81.61290399424331">
        <ele>188.8795791197</ele>
        <time>2026-04-23T14:54:56Z</time>
      </trkpt>
      <trkpt lat="41.37303468871229" lon="-81.61287515755811">
        <ele>188.6833659151</ele>
        <time>2026-04-23T14:54:58Z</time>
      </trkpt>
      <trkpt lat="41.37314562794477" lon="-81.61275931824575">
        <ele>186.6448787731</ele>
        <time>2026-04-23T14:55:00Z</time>
      </trkpt>
      <trkpt lat="41.37327049336429" lon="-81.61267676498444">
        <ele>186.4450693672</ele>
        <time>2026-04-23T14:55:03Z</time>
      </trkpt>
      <trkpt lat="41.37395187447478" lon="-81.61239527822561">
        <ele>184.8015699989</ele>
        <time>2026-04-23T14:55:28Z</time>
      </trkpt>
      <trkpt lat="41.37636191017349" lon="-81.61140030352134">
        <ele>185.0028509006</ele>
        <time>2026-04-23T14:56:22Z</time>
      </trkpt>
      <trkpt lat="41.37696234736860" lon="-81.61118222918192">
        <ele>185.8410926934</ele>
        <time>2026-04-23T14:56:32Z</time>
      </trkpt>
      <trkpt lat="41.37734417550079" lon="-81.61105243824161">
        <ele>185.1524577903</ele>
        <time>2026-04-23T14:56:39Z</time>
      </trkpt>
      <trkpt lat="41.37756167677703" lon="-81.61100620738684">
        <ele>185.1272131218</ele>
        <time>2026-04-23T14:56:45Z</time>
      </trkpt>
      <trkpt lat="41.37773938612950" lon="-81.61101288008176">
        <ele>184.8954539912</ele>
        <time>2026-04-23T14:56:50Z</time>
      </trkpt>
      <trkpt lat="41.37792788556928" lon="-81.61110519207099">
        <ele>184.7839172152</ele>
        <time>2026-04-23T14:56:55Z</time>
      </trkpt>
      <trkpt lat="41.37972935419572" lon="-81.61236491108677">
        <ele>185.3603966266</ele>
        <time>2026-04-23T14:57:34Z</time>
      </trkpt>
      <trkpt lat="41.38002345595359" lon="-81.61262176174883">
        <ele>184.7863649521</ele>
        <time>2026-04-23T14:57:41Z</time>
      </trkpt>
      <trkpt lat="41.38029701307119" lon="-81.61296482332691">
        <ele>184.7990281371</ele>
        <time>2026-04-23T14:57:49Z</time>
      </trkpt>
      <trkpt lat="41.38073773021221" lon="-81.61359280560177">
        <ele>184.8408783236</ele>
        <time>2026-04-23T14:58:00Z</time>
      </trkpt>
      <trkpt lat="41.38354619623794" lon="-81.61769343619598">
        <ele>184.6368811689</ele>
        <time>2026-04-23T14:59:12Z</time>
      </trkpt>
      <trkpt lat="41.38453116660858" lon="-81.61908668452897">
        <ele>184.2528846360</ele>
        <time>2026-04-23T14:59:39Z</time>
      </trkpt>
      <trkpt lat="41.38516995787403" lon="-81.61989670650571">
        <ele>185.4600087545</ele>
        <time>2026-04-23T14:59:54Z</time>
      </trkpt>
      <trkpt lat="41.38529139234075" lon="-81.62009289560233">
        <ele>185.9600522367</ele>
        <time>2026-04-23T14:59:58Z</time>
      </trkpt>
      <trkpt lat="41.38534137054987" lon="-81.62014159010302">
        <ele>185.9476317600</ele>
        <time>2026-04-23T15:00:00Z</time>
      </trkpt>
      <trkpt lat="41.38538720252713" lon="-81.62017223025690">
        <ele>185.2859513690</ele>
        <time>2026-04-23T15:00:01Z</time>
      </trkpt>
      <trkpt lat="41.38561874842360" lon="-81.62024866007654">
        <ele>185.2521413866</ele>
        <time>2026-04-23T15:00:36Z</time>
      </trkpt>
      <trkpt lat="41.38576453864604" lon="-81.62037477708149">
        <ele>184.4591182918</ele>
        <time>2026-04-23T15:00:40Z</time>
      </trkpt>
      <trkpt lat="41.38622843855981" lon="-81.62080784343664">
        <ele>184.0817372377</ele>
        <time>2026-04-23T15:00:52Z</time>
      </trkpt>
      <trkpt lat="41.38641341080034" lon="-81.62102103629940">
        <ele>183.9987588152</ele>
        <time>2026-04-23T15:01:06Z</time>
      </trkpt>
      <trkpt lat="41.38690032720628" lon="-81.62164887787443">
        <ele>184.7189868247</ele>
        <time>2026-04-23T15:01:19Z</time>
      </trkpt>
      <trkpt lat="41.38710726774067" lon="-81.62195019186217">
        <ele>184.0455250963</ele>
        <time>2026-04-23T15:01:41Z</time>
      </trkpt>
      <trkpt lat="41.38738686927410" lon="-81.62230169146559">
        <ele>184.7245467129</ele>
        <time>2026-04-23T15:01:48Z</time>
      </trkpt>
      <trkpt lat="41.38751232220081" lon="-81.62241406886625">
        <ele>184.3689213460</ele>
        <time>2026-04-23T15:01:51Z</time>
      </trkpt>
      <trkpt lat="41.38817223812883" lon="-81.62292133122408">
        <ele>184.0861224061</ele>
        <time>2026-04-23T15:02:10Z</time>
      </trkpt>
      <trkpt lat="41.38829211954130" lon="-81.62302487022113">
        <ele>184.9095063336</ele>
        <time>2026-04-23T15:02:13Z</time>
      </trkpt>
      <trkpt lat="41.38869863075968" lon="-81.62344302712697">
        <ele>184.9325192153</ele>
        <time>2026-04-23T15:02:21Z</time>
      </trkpt>
      <trkpt lat="41.38883549921110" lon="-81.62363002847927">
        <ele>184.3637445526</ele>
        <time>2026-04-23T15:02:24Z</time>
      </trkpt>
      <trkpt lat="41.38899023214043" lon="-81.62379652924658">
        <ele>184.7639798782</ele>
        <time>2026-04-23T15:02:29Z</time>
      </trkpt>
      <trkpt lat="41.38932362838133" lon="-81.62411999361410">
        <ele>184.2297075047</ele>
        <time>2026-04-23T15:02:39Z</time>
      </trkpt>
      <trkpt lat="41.38985087672182" lon="-81.62463441968536">
        <ele>184.2264242004</ele>
        <time>2026-04-23T15:02:49Z</time>
      </trkpt>
      <trkpt lat="41.39008939696506" lon="-81.62489995738571">
        <ele>184.1665859520</ele>
        <time>2026-04-23T15:02:56Z</time>
      </trkpt>
      <trkpt lat="41.39097813639686" lon="-81.62599508945814">
        <ele>182.5245916918</ele>
        <time>2026-04-23T15:03:16Z</time>
      </trkpt>
      <trkpt lat="41.39114521819476" lon="-81.62624971574444">
        <ele>182.8048148384</ele>
        <time>2026-04-23T15:03:21Z</time>
      </trkpt>
      <trkpt lat="41.39123037281829" lon="-81.62638350901661">
        <ele>181.9878737536</ele>
        <time>2026-04-23T15:03:23Z</time>
      </trkpt>
      <trkpt lat="41.39164448947437" lon="-81.62722903318354">
        <ele>182.8983004269</ele>
        <time>2026-04-23T15:03:39Z</time>
      </trkpt>
      <trkpt lat="41.39184903838770" lon="-81.62756723527994">
        <ele>182.0580827399</ele>
        <time>2026-04-23T15:03:47Z</time>
      </trkpt>
      <trkpt lat="41.39192021345512" lon="-81.62767806807486">
        <ele>182.6877121402</ele>
        <time>2026-04-23T15:03:49Z</time>
      </trkpt>
      <trkpt lat="41.39203785473241" lon="-81.62780913547448">
        <ele>182.0894481652</ele>
        <time>2026-04-23T15:03:52Z</time>
      </trkpt>
      <trkpt lat="41.39229865487808" lon="-81.62799504619458">
        <ele>182.6582134749</ele>
        <time>2026-04-23T15:03:59Z</time>
      </trkpt>
      <trkpt lat="41.39250826228514" lon="-81.62809869439621">
        <ele>182.7727222759</ele>
        <time>2026-04-23T15:04:03Z</time>
      </trkpt>
      <trkpt lat="41.39269958490194" lon="-81.62814789385929">
        <ele>183.4910271981</ele>
        <time>2026-04-23T15:04:06Z</time>
      </trkpt>
      <trkpt lat="41.39286571577685" lon="-81.62814779351673">
        <ele>183.3087563782</ele>
        <time>2026-04-23T15:04:10Z</time>
      </trkpt>
      <trkpt lat="41.39312828657678" lon="-81.62811601155663">
        <ele>183.6125602035</ele>
        <time>2026-04-23T15:04:15Z</time>
      </trkpt>
      <trkpt lat="41.39330485706616" lon="-81.62810102917830">
        <ele>183.8430754247</ele>
        <time>2026-04-23T15:04:24Z</time>
      </trkpt>
      <trkpt lat="41.39334252715434" lon="-81.62807197245853">
        <ele>184.0790840851</ele>
        <time>2026-04-23T15:04:25Z</time>
      </trkpt>
      <trkpt lat="41.39346226075780" lon="-81.62792037697385">
        <ele>183.5364010207</ele>
        <time>2026-04-23T15:04:30Z</time>
      </trkpt>
      <trkpt lat="41.39353000578785" lon="-81.62786221441827">
        <ele>183.4013452480</ele>
        <time>2026-04-23T15:04:31Z</time>
      </trkpt>
      <trkpt lat="41.39378069134008" lon="-81.62779301855326">
        <ele>183.4538929511</ele>
        <time>2026-04-23T15:04:37Z</time>
      </trkpt>
      <trkpt lat="41.39389700347793" lon="-81.62780276921637">
        <ele>183.3649641655</ele>
        <time>2026-04-23T15:04:40Z</time>
      </trkpt>
      <trkpt lat="41.39402127937550" lon="-81.62786626363568">
        <ele>183.0604923916</ele>
        <time>2026-04-23T15:04:43Z</time>
      </trkpt>
      <trkpt lat="41.39405551138047" lon="-81.62787102072873">
        <ele>183.3750364845</ele>
        <time>2026-04-23T15:04:44Z</time>
      </trkpt>
      <trkpt lat="41.39475677599792" lon="-81.62773164198406">
        <ele>183.1476496309</ele>
        <time>2026-04-23T15:05:01Z</time>
      </trkpt>
      <trkpt lat="41.39539127884892" lon="-81.62768817346193">
        <ele>183.8838114086</ele>
        <time>2026-04-23T15:05:15Z</time>
      </trkpt>
      <trkpt lat="41.40153051594599" lon="-81.62678886287503">
        <ele>183.5369806148</ele>
        <time>2026-04-23T15:07:51Z</time>
      </trkpt>
      <trkpt lat="41.40166396340498" lon="-81.62674633530983">
        <ele>183.1285068011</ele>
        <time>2026-04-23T15:07:53Z</time>
      </trkpt>
      <trkpt lat="41.40232945907337" lon="-81.62673052886642">
        <ele>183.4786065218</ele>
        <time>2026-04-23T15:08:08Z</time>
      </trkpt>
      <trkpt lat="41.40289717945015" lon="-81.62675542295599">
        <ele>182.9561170545</ele>
        <time>2026-04-23T15:08:22Z</time>
      </trkpt>
      <trkpt lat="41.40314647352115" lon="-81.62685676150411">
        <ele>183.1261048948</ele>
        <time>2026-04-23T15:08:28Z</time>
      </trkpt>
      <trkpt lat="41.40345536884082" lon="-81.62696105941082">
        <ele>183.6227819875</ele>
        <time>2026-04-23T15:08:34Z</time>
      </trkpt>
      <trkpt lat="41.40401579689345" lon="-81.62713735741329">
        <ele>184.0053379124</ele>
        <time>2026-04-23T15:08:44Z</time>
      </trkpt>
      <trkpt lat="41.40431036591119" lon="-81.62719371846661">
        <ele>184.1074936913</ele>
        <time>2026-04-23T15:08:51Z</time>
      </trkpt>
      <trkpt lat="41.40445279898317" lon="-81.62719235099624">
        <ele>182.9498828603</ele>
        <time>2026-04-23T15:08:54Z</time>
      </trkpt>
      <trkpt lat="41.40522111766864" lon="-81.62738749254071">
        <ele>182.6012664986</ele>
        <time>2026-04-23T15:09:11Z</time>
      </trkpt>
      <trkpt lat="41.40600566684260" lon="-81.62757827173539">
        <ele>182.8443675413</ele>
        <time>2026-04-23T15:09:27Z</time>
      </trkpt>
      <trkpt lat="41.40622725326784" lon="-81.62766233570602">
        <ele>182.7990638944</ele>
        <time>2026-04-23T15:09:35Z</time>
      </trkpt>
      <trkpt lat="41.40726419324998" lon="-81.62790620549643">
        <ele>182.4314085588</ele>
        <time>2026-04-23T15:10:00Z</time>
      </trkpt>
      <trkpt lat="41.40835054655757" lon="-81.62819214706690">
        <ele>182.6459789763</ele>
        <time>2026-04-23T15:10:25Z</time>
      </trkpt>
      <trkpt lat="41.40840733988406" lon="-81.62822044690913">
        <ele>182.1098490375</ele>
        <time>2026-04-23T15:10:27Z</time>
      </trkpt>
      <trkpt lat="41.40846359147354" lon="-81.62825578338499">
        <ele>182.9389773659</ele>
        <time>2026-04-23T15:10:28Z</time>
      </trkpt>
      <trkpt lat="41.40865057774030" lon="-81.62830785295156">
        <ele>183.7787377522</ele>
        <time>2026-04-23T15:10:33Z</time>
      </trkpt>
      <trkpt lat="41.40884852493102" lon="-81.62835991243585">
        <ele>183.4824311854</ele>
        <time>2026-04-23T15:10:37Z</time>
      </trkpt>
      <trkpt lat="41.40914342429461" lon="-81.62849076780238">
        <ele>182.6693133061</ele>
        <time>2026-04-23T15:10:44Z</time>
      </trkpt>
      <trkpt lat="41.40935417780438" lon="-81.62859063702845">
        <ele>182.1189269893</ele>
        <time>2026-04-23T15:10:49Z</time>
      </trkpt>
      <trkpt lat="41.40975776431164" lon="-81.62887400789052">
        <ele>183.0848336118</ele>
        <time>2026-04-23T15:10:58Z</time>
      </trkpt>
      <trkpt lat="41.40994629406181" lon="-81.62902814106430">
        <ele>182.9420262822</ele>
        <time>2026-04-23T15:11:02Z</time>
      </trkpt>
      <trkpt lat="41.41030750772433" lon="-81.62938120014881">
        <ele>182.9806047683</ele>
        <time>2026-04-23T15:11:38Z</time>
      </trkpt>
      <trkpt lat="41.41124487255581" lon="-81.63018835800301">
        <ele>182.9417106134</ele>
        <time>2026-04-23T15:11:59Z</time>
      </trkpt>
      <trkpt lat="41.41161351399421" lon="-81.63048072217057">
        <ele>182.7676625285</ele>
        <time>2026-04-23T15:12:07Z</time>
      </trkpt>
      <trkpt lat="41.41200883933655" lon="-81.63076841825220">
        <ele>182.9828541345</ele>
        <time>2026-04-23T15:12:18Z</time>
      </trkpt>
      <trkpt lat="41.41301203971569" lon="-81.63165296991370">
        <ele>182.3511832767</ele>
        <time>2026-04-23T15:12:39Z</time>
      </trkpt>
      <trkpt lat="41.41310347235981" lon="-81.63172485656065">
        <ele>182.0922973786</ele>
        <time>2026-04-23T15:12:41Z</time>
      </trkpt>
      <trkpt lat="41.41321963969138" lon="-81.63180130643070">
        <ele>182.8359598167</ele>
        <time>2026-04-23T15:12:44Z</time>
      </trkpt>
      <trkpt lat="41.41429053832445" lon="-81.63272805845482">
        <ele>182.4470223110</ele>
        <time>2026-04-23T15:13:19Z</time>
      </trkpt>
      <trkpt lat="41.41501361696966" lon="-81.63338175509038">
        <ele>182.6172176263</ele>
        <time>2026-04-23T15:13:34Z</time>
      </trkpt>
      <trkpt lat="41.41514440052028" lon="-81.63349516403018">
        <ele>182.2991967896</ele>
        <time>2026-04-23T15:13:36Z</time>
      </trkpt>
      <trkpt lat="41.41550194415589" lon="-81.63380043020149">
        <ele>182.6559519003</ele>
        <time>2026-04-23T15:13:44Z</time>
      </trkpt>
      <trkpt lat="41.41582382470301" lon="-81.63408679066104">
        <ele>182.6416828724</ele>
        <time>2026-04-23T15:13:51Z</time>
      </trkpt>
      <trkpt lat="41.41591549957593" lon="-81.63416894996216">
        <ele>182.7408818123</ele>
        <time>2026-04-23T15:13:54Z</time>
      </trkpt>
      <trkpt lat="41.41598940939531" lon="-81.63425835758234">
        <ele>182.5903662700</ele>
        <time>2026-04-23T15:13:56Z</time>
      </trkpt>
      <trkpt lat="41.41614127207936" lon="-81.63450261553116">
        <ele>182.6278823770</ele>
        <time>2026-04-23T15:13:59Z</time>
      </trkpt>
      <trkpt lat="41.41628560013455" lon="-81.63479318566704">
        <ele>182.9945837669</ele>
        <time>2026-04-23T15:14:04Z</time>
      </trkpt>
      <trkpt lat="41.41640429082977" lon="-81.63516962021713">
        <ele>182.9789588644</ele>
        <time>2026-04-23T15:14:10Z</time>
      </trkpt>
      <trkpt lat="41.41646388994192" lon="-81.63538761058884">
        <ele>182.7912623063</ele>
        <time>2026-04-23T15:14:13Z</time>
      </trkpt>
      <trkpt lat="41.41707778331716" lon="-81.63772689237186">
        <ele>182.5002721671</ele>
        <time>2026-04-23T15:14:41Z</time>
      </trkpt>
      <trkpt lat="41.41721316416254" lon="-81.63820684934736">
        <ele>182.6340030732</ele>
        <time>2026-04-23T15:14:50Z</time>
      </trkpt>
      <trkpt lat="41.41732735482590" lon="-81.63855853766609">
        <ele>182.7185696572</ele>
        <time>2026-04-23T15:14:54Z</time>
      </trkpt>
      <trkpt lat="41.41739294167155" lon="-81.63880629374167">
        <ele>182.4945843039</ele>
        <time>2026-04-23T15:14:58Z</time>
      </trkpt>
      <trkpt lat="41.41758179294173" lon="-81.63956983925534">
        <ele>182.7407473816</ele>
        <time>2026-04-23T15:15:12Z</time>
      </trkpt>
      <trkpt lat="41.41794240784792" lon="-81.64089586742999">
        <ele>183.0243662174</ele>
        <time>2026-04-23T15:15:32Z</time>
      </trkpt>
      <trkpt lat="41.41803402215691" lon="-81.64123848214479">
        <ele>182.9930705577</ele>
        <time>2026-04-23T15:15:38Z</time>
      </trkpt>
      <trkpt lat="41.41807212476612" lon="-81.64145589679738">
        <ele>183.0456007353</ele>
        <time>2026-04-23T15:15:41Z</time>
      </trkpt>
      <trkpt lat="41.41808687626067" lon="-81.64177284410836">
        <ele>183.0589075920</ele>
        <time>2026-04-23T15:15:46Z</time>
      </trkpt>
      <trkpt lat="41.41820639866062" lon="-81.64284119473675">
        <ele>183.0871959242</ele>
        <time>2026-04-23T15:16:02Z</time>
      </trkpt>
      <trkpt lat="41.41826932232100" lon="-81.64315882377068">
        <ele>183.1449142051</ele>
        <time>2026-04-23T15:16:08Z</time>
      </trkpt>
      <trkpt lat="41.41837479597737" lon="-81.64343136531500">
        <ele>182.8496425782</ele>
        <time>2026-04-23T15:16:13Z</time>
      </trkpt>
      <trkpt lat="41.41851367460623" lon="-81.64369519366427">
        <ele>183.2046902149</ele>
        <time>2026-04-23T15:16:18Z</time>
      </trkpt>
      <trkpt lat="41.41875928115689" lon="-81.64390273430277">
        <ele>183.2671113015</ele>
        <time>2026-04-23T15:16:25Z</time>
      </trkpt>
      <trkpt lat="41.42055462907028" lon="-81.64569052839795">
        <ele>183.3083300552</ele>
        <time>2026-04-23T15:17:08Z</time>
      </trkpt>
      <trkpt lat="41.42142048083887" lon="-81.64646068832369">
        <ele>183.2515517564</ele>
        <time>2026-04-23T15:17:35Z</time>
      </trkpt>
      <trkpt lat="41.42164476114891" lon="-81.64674131387289">
        <ele>183.4177693641</ele>
        <time>2026-04-23T15:17:42Z</time>
      </trkpt>
      <trkpt lat="41.42180969757410" lon="-81.64703868635598">
        <ele>183.6242127807</ele>
        <time>2026-04-23T15:17:47Z</time>
      </trkpt>
      <trkpt lat="41.42185485061304" lon="-81.64714891261714">
        <ele>183.3496047422</ele>
        <time>2026-04-23T15:17:49Z</time>
      </trkpt>
      <trkpt lat="41.42186107994101" lon="-81.64746676664893">
        <ele>183.3715006042</ele>
        <time>2026-04-23T15:17:52Z</time>
      </trkpt>
      <trkpt lat="41.42200263170370" lon="-81.64771252590934">
        <ele>183.2854741488</ele>
        <time>2026-04-23T15:17:56Z</time>
      </trkpt>
      <trkpt lat="41.42205226295852" lon="-81.64776336442787">
        <ele>183.2788905758</ele>
        <time>2026-04-23T15:17:57Z</time>
      </trkpt>
      <trkpt lat="41.42208987220639" lon="-81.64786525612898">
        <ele>183.4171022440</ele>
        <time>2026-04-23T15:17:58Z</time>
      </trkpt>
      <trkpt lat="41.42214168021393" lon="-81.64810421258113">
        <ele>183.2514120847</ele>
        <time>2026-04-23T15:18:04Z</time>
      </trkpt>
      <trkpt lat="41.42218201161344" lon="-81.64837053561963">
        <ele>182.8237547014</ele>
        <time>2026-04-23T15:18:09Z</time>
      </trkpt>
      <trkpt lat="41.42218113154529" lon="-81.64864208017600">
        <ele>183.1249305519</ele>
        <time>2026-04-23T15:18:33Z</time>
      </trkpt>
      <trkpt lat="41.42204349862673" lon="-81.65000655685581">
        <ele>182.3252242083</ele>
        <time>2026-04-23T15:18:51Z</time>
      </trkpt>
      <trkpt lat="41.42187193127952" lon="-81.65064978430040">
        <ele>181.9057323120</ele>
        <time>2026-04-23T15:19:02Z</time>
      </trkpt>
      <trkpt lat="41.42185436862824" lon="-81.65080991106917">
        <ele>182.1056784418</ele>
        <time>2026-04-23T15:19:04Z</time>
      </trkpt>
      <trkpt lat="41.42186602471684" lon="-81.65102149874598">
        <ele>181.8661128537</ele>
        <time>2026-04-23T15:19:07Z</time>
      </trkpt>
      <trkpt lat="41.42186594289938" lon="-81.65140037903838">
        <ele>181.8407531414</ele>
        <time>2026-04-23T15:19:13Z</time>
      </trkpt>
      <trkpt lat="41.42169826061294" lon="-81.65266747274724">
        <ele>181.3352690298</ele>
        <time>2026-04-23T15:19:34Z</time>
      </trkpt>
      <trkpt lat="41.42161669278772" lon="-81.65308213793953">
        <ele>180.7657530987</ele>
        <time>2026-04-23T15:19:39Z</time>
      </trkpt>
      <trkpt lat="41.42156264251494" lon="-81.65347249883861">
        <ele>180.8994230765</ele>
        <time>2026-04-23T15:19:45Z</time>
      </trkpt>
      <trkpt lat="41.42118668271938" lon="-81.65582258100568">
        <ele>182.6154659273</ele>
        <time>2026-04-23T15:20:18Z</time>
      </trkpt>
      <trkpt lat="41.42101268058006" lon="-81.65725285340046">
        <ele>182.8545612614</ele>
        <time>2026-04-23T15:21:12Z</time>
      </trkpt>
      <trkpt lat="41.42100272410433" lon="-81.65742572605286">
        <ele>182.3436645522</ele>
        <time>2026-04-23T15:21:15Z</time>
      </trkpt>
      <trkpt lat="41.42100147376443" lon="-81.65756590257533">
        <ele>181.6847448205</ele>
        <time>2026-04-23T15:21:18Z</time>
      </trkpt>
      <trkpt lat="41.42107216361654" lon="-81.65789140095808">
        <ele>181.8863522513</ele>
        <time>2026-04-23T15:21:22Z</time>
      </trkpt>
      <trkpt lat="41.42111016634506" lon="-81.65802135204019">
        <ele>181.2895751745</ele>
        <time>2026-04-23T15:21:24Z</time>
      </trkpt>
      <trkpt lat="41.42165666208204" lon="-81.65917500114175">
        <ele>181.0473403047</ele>
        <time>2026-04-23T15:22:11Z</time>
      </trkpt>
      <trkpt lat="41.42201612144061" lon="-81.65989067583844">
        <ele>180.1800988924</ele>
        <time>2026-04-23T15:22:26Z</time>
      </trkpt>
      <trkpt lat="41.42228726417690" lon="-81.66053527316340">
        <ele>181.4743548818</ele>
        <time>2026-04-23T15:22:38Z</time>
      </trkpt>
      <trkpt lat="41.42251674347272" lon="-81.66097949819724">
        <ele>182.3824699813</ele>
        <time>2026-04-23T15:22:46Z</time>
      </trkpt>
      <trkpt lat="41.42285908091118" lon="-81.66141847592868">
        <ele>183.3942871946</ele>
        <time>2026-04-23T15:22:56Z</time>
      </trkpt>
      <trkpt lat="41.42366423369927" lon="-81.66194113165156">
        <ele>183.1633190860</ele>
        <time>2026-04-23T15:23:09Z</time>
      </trkpt>
      <trkpt lat="41.42428821921175" lon="-81.66232493738836">
        <ele>183.9149785362</ele>
        <time>2026-04-23T15:23:21Z</time>
      </trkpt>
      <trkpt lat="41.42471972451926" lon="-81.66262927468775">
        <ele>183.8329448689</ele>
        <time>2026-04-23T15:23:31Z</time>
      </trkpt>
      <trkpt lat="41.42500227314059" lon="-81.66289673546324">
        <ele>184.0104845355</ele>
        <time>2026-04-23T15:23:37Z</time>
      </trkpt>
      <trkpt lat="41.42556927929089" lon="-81.66347948029211">
        <ele>179.4476109895</ele>
        <time>2026-04-23T15:23:53Z</time>
      </trkpt>
      <trkpt lat="41.42568236920356" lon="-81.66364086004967">
        <ele>179.4402896093</ele>
        <time>2026-04-23T15:23:56Z</time>
      </trkpt>
      <trkpt lat="41.42615977224728" lon="-81.66418198884301">
        <ele>178.9580690661</ele>
        <time>2026-04-23T15:24:11Z</time>
      </trkpt>
      <trkpt lat="41.42646298164405" lon="-81.66444232878281">
        <ele>178.9269077208</ele>
        <time>2026-04-23T15:24:18Z</time>
      </trkpt>
      <trkpt lat="41.42674316681384" lon="-81.66463956515166">
        <ele>181.0305815402</ele>
        <time>2026-04-23T15:24:24Z</time>
      </trkpt>
      <trkpt lat="41.42693934050700" lon="-81.66480245919868">
        <ele>181.0843929259</ele>
        <time>2026-04-23T15:24:30Z</time>
      </trkpt>
      <trkpt lat="41.42709947682552" lon="-81.66499216768878">
        <ele>181.0187059169</ele>
        <time>2026-04-23T15:24:34Z</time>
      </trkpt>
      <trkpt lat="41.42714400361222" lon="-81.66505769266161">
        <ele>180.8386589764</ele>
        <time>2026-04-23T15:24:35Z</time>
      </trkpt>
      <trkpt lat="41.42735012129419" lon="-81.66520531066681">
        <ele>181.0746121098</ele>
        <time>2026-04-23T15:24:40Z</time>
      </trkpt>
      <trkpt lat="41.42742474810832" lon="-81.66522986480689">
        <ele>180.8461196239</ele>
        <time>2026-04-23T15:24:41Z</time>
      </trkpt>
      <trkpt lat="41.42748934226343" lon="-81.66523190519085">
        <ele>181.0590959408</ele>
        <time>2026-04-23T15:24:42Z</time>
      </trkpt>
      <trkpt lat="41.42798321260369" lon="-81.66545584726659">
        <ele>180.7455017103</ele>
        <time>2026-04-23T15:24:54Z</time>
      </trkpt>
      <trkpt lat="41.42800126942301" lon="-81.66539386273838">
        <ele>180.9601908128</ele>
        <time>2026-04-23T15:24:55Z</time>
      </trkpt>
      <trkpt lat="41.42805550781431" lon="-81.66512075614122">
        <ele>180.7966242415</ele>
        <time>2026-04-23T15:24:59Z</time>
      </trkpt>
      <trkpt lat="41.42808353895710" lon="-81.66492030013306">
        <ele>181.7450826044</ele>
        <time>2026-04-23T15:25:03Z</time>
      </trkpt>
      <trkpt lat="41.42816024984011" lon="-81.66475158784989">
        <ele>181.8978223147</ele>
        <time>2026-04-23T15:25:05Z</time>
      </trkpt>
      <trkpt lat="41.42844128972930" lon="-81.66435301292950">
        <ele>183.6665768135</ele>
        <time>2026-04-23T15:25:13Z</time>
      </trkpt>
      <trkpt lat="41.42861894665364" lon="-81.66415270123369">
        <ele>184.3756545698</ele>
        <time>2026-04-23T15:25:20Z</time>
      </trkpt>
      <trkpt lat="41.42882490065505" lon="-81.66410819241889">
        <ele>184.6742388122</ele>
        <time>2026-04-23T15:25:24Z</time>
      </trkpt>
      <trkpt lat="41.42894937944371" lon="-81.66408723677736">
        <ele>184.1707522473</ele>
        <time>2026-04-23T15:25:27Z</time>
      </trkpt>
      <trkpt lat="41.42908570244290" lon="-81.66402235330241">
        <ele>185.0806540851</ele>
        <time>2026-04-23T15:25:30Z</time>
      </trkpt>
      <trkpt lat="41.42926076783375" lon="-81.66392825711634">
        <ele>185.2611576657</ele>
        <time>2026-04-23T15:25:35Z</time>
      </trkpt>
      <trkpt lat="41.42935805754670" lon="-81.66376528782573">
        <ele>186.0734044353</ele>
        <time>2026-04-23T15:25:37Z</time>
      </trkpt>
      <trkpt lat="41.42942774981216" lon="-81.66372041716664">
        <ele>185.6506300978</ele>
        <time>2026-04-23T15:25:39Z</time>
      </trkpt>
      <trkpt lat="41.42952292587379" lon="-81.66371280191025">
        <ele>185.5550295919</ele>
        <time>2026-04-23T15:25:40Z</time>
      </trkpt>
      <trkpt lat="41.42959865229501" lon="-81.66373719789766">
        <ele>185.2199971604</ele>
        <time>2026-04-23T15:25:57Z</time>
      </trkpt>
      <trkpt lat="41.42978983179988" lon="-81.66376060928926">
        <ele>185.2918382801</ele>
        <time>2026-04-23T15:26:02Z</time>
      </trkpt>
      <trkpt lat="41.42993073114899" lon="-81.66373098930649">
        <ele>186.4910222429</ele>
        <time>2026-04-23T15:26:05Z</time>
      </trkpt>
      <trkpt lat="41.42998502803913" lon="-81.66362964134424">
        <ele>188.1844054353</ele>
        <time>2026-04-23T15:26:07Z</time>
      </trkpt>
      <trkpt lat="41.43002996193611" lon="-81.66346253923116">
        <ele>190.0580682952</ele>
        <time>2026-04-23T15:26:09Z</time>
      </trkpt>
      <trkpt lat="41.42996342581373" lon="-81.66332684825058">
        <ele>191.6147948953</ele>
        <time>2026-04-23T15:26:11Z</time>
      </trkpt>
      <trkpt lat="41.42991741771800" lon="-81.66306876978902">
        <ele>191.1026449156</ele>
        <time>2026-04-23T15:26:16Z</time>
      </trkpt>
      <trkpt lat="41.42989255987166" lon="-81.66275986228072">
        <ele>191.4691872115</ele>
        <time>2026-04-23T15:26:19Z</time>
      </trkpt>
      <trkpt lat="41.42994976890975" lon="-81.66242813619405">
        <ele>193.5779335833</ele>
        <time>2026-04-23T15:26:25Z</time>
      </trkpt>
      <trkpt lat="41.43008716241712" lon="-81.66239142601398">
        <ele>194.2219832667</ele>
        <time>2026-04-23T15:26:27Z</time>
      </trkpt>
      <trkpt lat="41.43027923978467" lon="-81.66216204233093">
        <ele>196.8208460468</ele>
        <time>2026-04-23T15:26:35Z</time>
      </trkpt>
      <trkpt lat="41.43025635392071" lon="-81.66209610049665">
        <ele>196.7774326135</ele>
        <time>2026-04-23T15:26:36Z</time>
      </trkpt>
    </trkseg>
  </trk>
</gpx>