<?xml version='1.0' encoding='UTF-8'?>
<gpx xmlns="http://www.topografix.com/GPX/1/1" creator="https://gpx.studio" version="1.1">
  <metadata>
    <name>Bike - 2026-03-16</name>
  </metadata>
  <trk>
    <name>Bike - 2026-03-16</name>
    <type>cycling</type>
    <trkseg>
      <trkpt lat="41.31788665076917" lon="-81.58721530393474">
        <ele>194.8673161543</ele>
        <time>2026-03-16T15:41:24Z</time>
        <hr>81</hr>
      </trkpt>
      <trkpt lat="41.31802837534561" lon="-81.58721292276691">
        <ele>194.6572457637</ele>
        <time>2026-03-16T15:41:28Z</time>
        <hr>81</hr>
      </trkpt>
      <trkpt lat="41.31822754645918" lon="-81.58719504218617">
        <ele>194.0641095102</ele>
        <time>2026-03-16T15:41:31Z</time>
        <hr>82</hr>
      </trkpt>
      <trkpt lat="41.31834672559997" lon="-81.58721732294111">
        <ele>194.0219615540</ele>
        <time>2026-03-16T15:41:33Z</time>
        <hr>84</hr>
      </trkpt>
      <trkpt lat="41.31837769091038" lon="-81.58722986594928">
        <ele>193.9467211784</ele>
        <time>2026-03-16T15:41:34Z</time>
        <hr>86</hr>
      </trkpt>
      <trkpt lat="41.31842783417786" lon="-81.58730301952758">
        <ele>193.8866220066</ele>
        <time>2026-03-16T15:41:36Z</time>
        <hr>89</hr>
      </trkpt>
      <trkpt lat="41.31850251759945" lon="-81.58730896478080">
        <ele>193.9825654937</ele>
        <time>2026-03-16T15:41:38Z</time>
        <hr>86</hr>
      </trkpt>
      <trkpt lat="41.31860866424044" lon="-81.58740569984140">
        <ele>194.0456733996</ele>
        <time>2026-03-16T15:41:41Z</time>
        <hr>88</hr>
      </trkpt>
      <trkpt lat="41.31869198961537" lon="-81.58741789781142">
        <ele>193.7057439977</ele>
        <time>2026-03-16T15:41:43Z</time>
        <hr>87</hr>
      </trkpt>
      <trkpt lat="41.31882221846395" lon="-81.58747260590926">
        <ele>193.2645133762</ele>
        <time>2026-03-16T15:41:46Z</time>
        <hr>89</hr>
      </trkpt>
      <trkpt lat="41.31892688044654" lon="-81.58755168731885">
        <ele>193.0693707152</ele>
        <time>2026-03-16T15:41:48Z</time>
        <hr>88</hr>
      </trkpt>
      <trkpt lat="41.31907946514943" lon="-81.58774836082566">
        <ele>194.6105501728</ele>
        <time>2026-03-16T15:41:52Z</time>
        <hr>89</hr>
      </trkpt>
      <trkpt lat="41.31919526151351" lon="-81.58786273265497">
        <ele>194.4483697468</ele>
        <time>2026-03-16T15:41:56Z</time>
        <hr>90</hr>
      </trkpt>
      <trkpt lat="41.31924023899266" lon="-81.58785570104179">
        <ele>194.4409388188</ele>
        <time>2026-03-16T15:41:57Z</time>
        <hr>92</hr>
      </trkpt>
      <trkpt lat="41.31924948504093" lon="-81.58784665715645">
        <ele>194.5284218040</ele>
        <time>2026-03-16T15:41:58Z</time>
        <hr>92</hr>
      </trkpt>
      <trkpt lat="41.31927474365241" lon="-81.58778141540105">
        <ele>194.6522781211</ele>
        <time>2026-03-16T15:41:59Z</time>
        <hr>93</hr>
      </trkpt>
      <trkpt lat="41.31937265474813" lon="-81.58730616331162">
        <ele>193.6552307237</ele>
        <time>2026-03-16T15:42:08Z</time>
        <hr>95</hr>
      </trkpt>
      <trkpt lat="41.31978898546129" lon="-81.58643392647136">
        <ele>194.1275075062</ele>
        <time>2026-03-16T15:42:26Z</time>
        <hr>94</hr>
      </trkpt>
      <trkpt lat="41.31985131203532" lon="-81.58629123092041">
        <ele>194.4974618542</ele>
        <time>2026-03-16T15:42:28Z</time>
        <hr>94</hr>
      </trkpt>
      <trkpt lat="41.31994452905998" lon="-81.58604680046022">
        <ele>194.4498038563</ele>
        <time>2026-03-16T15:42:33Z</time>
        <hr>95</hr>
      </trkpt>
      <trkpt lat="41.32032843378445" lon="-81.58602781355958">
        <ele>192.8356545149</ele>
        <time>2026-03-16T15:42:39Z</time>
        <hr>95</hr>
      </trkpt>
      <trkpt lat="41.32041273519943" lon="-81.58604586786529">
        <ele>193.0227767096</ele>
        <time>2026-03-16T15:42:41Z</time>
        <hr>97</hr>
      </trkpt>
      <trkpt lat="41.32046211608343" lon="-81.58606764920938">
        <ele>193.0452110458</ele>
        <time>2026-03-16T15:42:42Z</time>
        <hr>101</hr>
      </trkpt>
      <trkpt lat="41.32050745973020" lon="-81.58609290202430">
        <ele>193.0650885197</ele>
        <time>2026-03-16T15:42:43Z</time>
        <hr>100</hr>
      </trkpt>
      <trkpt lat="41.32060576014995" lon="-81.58618865485150">
        <ele>193.3327974475</ele>
        <time>2026-03-16T15:42:45Z</time>
        <hr>102</hr>
      </trkpt>
      <trkpt lat="41.32063097900034" lon="-81.58629886989034">
        <ele>193.7599635808</ele>
        <time>2026-03-16T15:42:47Z</time>
        <hr>104</hr>
      </trkpt>
      <trkpt lat="41.32068602499856" lon="-81.58631498262807">
        <ele>193.8409082056</ele>
        <time>2026-03-16T15:42:49Z</time>
        <hr>105</hr>
      </trkpt>
      <trkpt lat="41.32079627964958" lon="-81.58637023145225">
        <ele>193.7100680691</ele>
        <time>2026-03-16T15:42:51Z</time>
        <hr>101</hr>
      </trkpt>
      <trkpt lat="41.32081293001801" lon="-81.58637070641744">
        <ele>193.9809763790</ele>
        <time>2026-03-16T15:42:52Z</time>
        <hr>103</hr>
      </trkpt>
      <trkpt lat="41.32139472985735" lon="-81.58631520640286">
        <ele>193.1775037358</ele>
        <time>2026-03-16T15:43:04Z</time>
        <hr>106</hr>
      </trkpt>
      <trkpt lat="41.32197855051474" lon="-81.58622214430416">
        <ele>192.7383962557</ele>
        <time>2026-03-16T15:43:21Z</time>
        <hr>109</hr>
      </trkpt>
      <trkpt lat="41.32229637950190" lon="-81.58621251956097">
        <ele>192.5862751243</ele>
        <time>2026-03-16T15:43:27Z</time>
        <hr>107</hr>
      </trkpt>
      <trkpt lat="41.32257853233382" lon="-81.58621291042780">
        <ele>192.3588127527</ele>
        <time>2026-03-16T15:43:33Z</time>
        <hr>110</hr>
      </trkpt>
      <trkpt lat="41.32282571598250" lon="-81.58627467964273">
        <ele>191.9895112932</ele>
        <time>2026-03-16T15:43:39Z</time>
        <hr>112</hr>
      </trkpt>
      <trkpt lat="41.32282912819198" lon="-81.58629973370199">
        <ele>191.8616302608</ele>
        <time>2026-03-16T15:43:40Z</time>
        <hr>113</hr>
      </trkpt>
      <trkpt lat="41.32301470946144" lon="-81.58656894206263">
        <ele>192.0656235145</ele>
        <time>2026-03-16T15:43:47Z</time>
        <hr>115</hr>
      </trkpt>
      <trkpt lat="41.32304739625629" lon="-81.58661546375482">
        <ele>192.0989622962</ele>
        <time>2026-03-16T15:43:48Z</time>
        <hr>116</hr>
      </trkpt>
      <trkpt lat="41.32329084767577" lon="-81.58669238515402">
        <ele>190.8019068894</ele>
        <time>2026-03-16T15:43:53Z</time>
        <hr>118</hr>
      </trkpt>
      <trkpt lat="41.32342988000160" lon="-81.58676132090829">
        <ele>191.5871260207</ele>
        <time>2026-03-16T15:43:56Z</time>
        <hr>119</hr>
      </trkpt>
      <trkpt lat="41.32348481013022" lon="-81.58678854689327">
        <ele>191.2057778354</ele>
        <time>2026-03-16T15:43:57Z</time>
        <hr>117</hr>
      </trkpt>
      <trkpt lat="41.32359368590628" lon="-81.58686792010930">
        <ele>190.5243586394</ele>
        <time>2026-03-16T15:44:08Z</time>
        <hr>117</hr>
      </trkpt>
      <trkpt lat="41.32413854379894" lon="-81.58734896641204">
        <ele>191.2329474856</ele>
        <time>2026-03-16T15:44:24Z</time>
        <hr>120</hr>
      </trkpt>
      <trkpt lat="41.32430316085917" lon="-81.58749795772354">
        <ele>191.0865999598</ele>
        <time>2026-03-16T15:44:28Z</time>
        <hr>125</hr>
      </trkpt>
      <trkpt lat="41.32444384444349" lon="-81.58768649472758">
        <ele>190.9330053112</ele>
        <time>2026-03-16T15:44:32Z</time>
        <hr>125</hr>
      </trkpt>
      <trkpt lat="41.32460426210690" lon="-81.58791146690217">
        <ele>191.2116822960</ele>
        <time>2026-03-16T15:44:37Z</time>
        <hr>126</hr>
      </trkpt>
      <trkpt lat="41.32574873730854" lon="-81.58944432334278">
        <ele>190.7250839082</ele>
        <time>2026-03-16T15:45:10Z</time>
        <hr>124</hr>
      </trkpt>
      <trkpt lat="41.32580805415309" lon="-81.58951935971761">
        <ele>191.8012549293</ele>
        <time>2026-03-16T15:45:12Z</time>
        <hr>126</hr>
      </trkpt>
      <trkpt lat="41.32594732557106" lon="-81.58963857296311">
        <ele>191.6535235094</ele>
        <time>2026-03-16T15:45:16Z</time>
        <hr>124</hr>
      </trkpt>
      <trkpt lat="41.32601229969010" lon="-81.58969302853190">
        <ele>191.9025533513</ele>
        <time>2026-03-16T15:45:17Z</time>
        <hr>124</hr>
      </trkpt>
      <trkpt lat="41.32616376601719" lon="-81.58978223370730">
        <ele>192.1242370651</ele>
        <time>2026-03-16T15:45:21Z</time>
        <hr>125</hr>
      </trkpt>
      <trkpt lat="41.32636045083130" lon="-81.58987557380132">
        <ele>192.6164510410</ele>
        <time>2026-03-16T15:45:24Z</time>
        <hr>126</hr>
      </trkpt>
      <trkpt lat="41.32652791350863" lon="-81.58993162053756">
        <ele>192.5716887496</ele>
        <time>2026-03-16T15:45:29Z</time>
        <hr>125</hr>
      </trkpt>
      <trkpt lat="41.32688176872836" lon="-81.58998117943183">
        <ele>191.7969103774</ele>
        <time>2026-03-16T15:45:35Z</time>
        <hr>126</hr>
      </trkpt>
      <trkpt lat="41.32761011198259" lon="-81.59004297957570">
        <ele>191.8450184006</ele>
        <time>2026-03-16T15:45:48Z</time>
        <hr>126</hr>
      </trkpt>
      <trkpt lat="41.32913772983168" lon="-81.59020755827599">
        <ele>190.9810268854</ele>
        <time>2026-03-16T15:46:15Z</time>
        <hr>129</hr>
      </trkpt>
      <trkpt lat="41.32983050611707" lon="-81.59027341469816">
        <ele>191.6097500654</ele>
        <time>2026-03-16T15:46:30Z</time>
        <hr>132</hr>
      </trkpt>
      <trkpt lat="41.33011400444853" lon="-81.59028031363914">
        <ele>191.4423872456</ele>
        <time>2026-03-16T15:46:36Z</time>
        <hr>129</hr>
      </trkpt>
      <trkpt lat="41.33048366666873" lon="-81.59021967226364">
        <ele>191.4473256257</ele>
        <time>2026-03-16T15:46:42Z</time>
        <hr>131</hr>
      </trkpt>
      <trkpt lat="41.33070711186008" lon="-81.59014773458242">
        <ele>191.7305243766</ele>
        <time>2026-03-16T15:46:47Z</time>
        <hr>130</hr>
      </trkpt>
      <trkpt lat="41.33097456300418" lon="-81.59004225662619">
        <ele>191.9644519176</ele>
        <time>2026-03-16T15:47:06Z</time>
        <hr>129</hr>
      </trkpt>
      <trkpt lat="41.33140762815307" lon="-81.58983962305547">
        <ele>191.9707757878</ele>
        <time>2026-03-16T15:47:14Z</time>
        <hr>129</hr>
      </trkpt>
      <trkpt lat="41.33239780203815" lon="-81.58928518921776">
        <ele>191.2078842374</ele>
        <time>2026-03-16T15:47:41Z</time>
        <hr>129</hr>
      </trkpt>
      <trkpt lat="41.33322770749859" lon="-81.58879330813072">
        <ele>192.0366225464</ele>
        <time>2026-03-16T15:47:58Z</time>
        <hr>130</hr>
      </trkpt>
      <trkpt lat="41.33402305241724" lon="-81.58844110349258">
        <ele>190.7746235145</ele>
        <time>2026-03-16T15:48:10Z</time>
        <hr>130</hr>
      </trkpt>
      <trkpt lat="41.33521154443012" lon="-81.58797243405164">
        <ele>191.0351488351</ele>
        <time>2026-03-16T15:48:35Z</time>
        <hr>129</hr>
      </trkpt>
      <trkpt lat="41.33561366110667" lon="-81.58780800170169">
        <ele>188.7773210571</ele>
        <time>2026-03-16T15:48:45Z</time>
        <hr>128</hr>
      </trkpt>
      <trkpt lat="41.33677833152726" lon="-81.58740123238040">
        <ele>190.0573368896</ele>
        <time>2026-03-16T15:49:07Z</time>
        <hr>129</hr>
      </trkpt>
      <trkpt lat="41.33731496935818" lon="-81.58719047827303">
        <ele>190.7039644515</ele>
        <time>2026-03-16T15:49:20Z</time>
        <hr>128</hr>
      </trkpt>
      <trkpt lat="41.33824878176945" lon="-81.58689535764252">
        <ele>191.1509111636</ele>
        <time>2026-03-16T15:49:38Z</time>
        <hr>129</hr>
      </trkpt>
      <trkpt lat="41.33839087389482" lon="-81.58686872849103">
        <ele>190.6547969673</ele>
        <time>2026-03-16T15:49:42Z</time>
        <hr>131</hr>
      </trkpt>
      <trkpt lat="41.33876603806284" lon="-81.58680065971681">
        <ele>190.6214713561</ele>
        <time>2026-03-16T15:49:51Z</time>
        <hr>134</hr>
      </trkpt>
      <trkpt lat="41.33905533002796" lon="-81.58675811433689">
        <ele>191.8029019222</ele>
        <time>2026-03-16T15:49:57Z</time>
        <hr>133</hr>
      </trkpt>
      <trkpt lat="41.33969050335077" lon="-81.58671049257161">
        <ele>190.7937597449</ele>
        <time>2026-03-16T15:50:11Z</time>
        <hr>130</hr>
      </trkpt>
      <trkpt lat="41.33998182472202" lon="-81.58671595529277">
        <ele>190.8061094985</ele>
        <time>2026-03-16T15:50:21Z</time>
        <hr>128</hr>
      </trkpt>
      <trkpt lat="41.34024194033510" lon="-81.58672257794109">
        <ele>189.9424703687</ele>
        <time>2026-03-16T15:50:27Z</time>
        <hr>129</hr>
      </trkpt>
      <trkpt lat="41.34054607720851" lon="-81.58676458789280">
        <ele>190.0065265370</ele>
        <time>2026-03-16T15:50:34Z</time>
        <hr>129</hr>
      </trkpt>
      <trkpt lat="41.34084234569225" lon="-81.58682839123797">
        <ele>190.0521538300</ele>
        <time>2026-03-16T15:50:41Z</time>
        <hr>128</hr>
      </trkpt>
      <trkpt lat="41.34100159676576" lon="-81.58688281096161">
        <ele>189.8314818238</ele>
        <time>2026-03-16T15:50:45Z</time>
        <hr>129</hr>
      </trkpt>
      <trkpt lat="41.34126435808209" lon="-81.58699271252227">
        <ele>189.9861043408</ele>
        <time>2026-03-16T15:50:52Z</time>
        <hr>131</hr>
      </trkpt>
      <trkpt lat="41.34149539896145" lon="-81.58711487784133">
        <ele>189.8505691208</ele>
        <time>2026-03-16T15:50:58Z</time>
        <hr>130</hr>
      </trkpt>
      <trkpt lat="41.34173642388565" lon="-81.58727704286815">
        <ele>189.8881232592</ele>
        <time>2026-03-16T15:51:02Z</time>
        <hr>131</hr>
      </trkpt>
      <trkpt lat="41.34196890753079" lon="-81.58744486635300">
        <ele>190.6108811270</ele>
        <time>2026-03-16T15:51:08Z</time>
        <hr>130</hr>
      </trkpt>
      <trkpt lat="41.34231608865526" lon="-81.58770023541364">
        <ele>188.2633041803</ele>
        <time>2026-03-16T15:51:15Z</time>
        <hr>129</hr>
      </trkpt>
      <trkpt lat="41.34318400425261" lon="-81.58838767763785">
        <ele>188.5544944243</ele>
        <time>2026-03-16T15:51:32Z</time>
        <hr>129</hr>
      </trkpt>
      <trkpt lat="41.34336483379894" lon="-81.58850474790519">
        <ele>189.1974290609</ele>
        <time>2026-03-16T15:51:36Z</time>
        <hr>126</hr>
      </trkpt>
      <trkpt lat="41.34364415470019" lon="-81.58870962427008">
        <ele>189.1123425777</ele>
        <time>2026-03-16T15:51:43Z</time>
        <hr>126</hr>
      </trkpt>
      <trkpt lat="41.34368804396970" lon="-81.58876075926857">
        <ele>188.7899194607</ele>
        <time>2026-03-16T15:51:44Z</time>
        <hr>131</hr>
      </trkpt>
      <trkpt lat="41.34374310962729" lon="-81.58882630687086">
        <ele>189.3274058524</ele>
        <time>2026-03-16T15:51:46Z</time>
        <hr>130</hr>
      </trkpt>
      <trkpt lat="41.34379073002032" lon="-81.58891804147278">
        <ele>189.0952206639</ele>
        <time>2026-03-16T15:51:48Z</time>
        <hr>129</hr>
      </trkpt>
      <trkpt lat="41.34384449617521" lon="-81.58900584684018">
        <ele>189.0827075068</ele>
        <time>2026-03-16T15:51:50Z</time>
        <hr>131</hr>
      </trkpt>
      <trkpt lat="41.34390432922883" lon="-81.58919378445616">
        <ele>189.6823745411</ele>
        <time>2026-03-16T15:51:55Z</time>
        <hr>132</hr>
      </trkpt>
      <trkpt lat="41.34392224588816" lon="-81.58930044584208">
        <ele>189.0905581029</ele>
        <time>2026-03-16T15:51:56Z</time>
        <hr>134</hr>
      </trkpt>
      <trkpt lat="41.34394618853868" lon="-81.58957693077042">
        <ele>188.7466739568</ele>
        <time>2026-03-16T15:52:00Z</time>
        <hr>130</hr>
      </trkpt>
      <trkpt lat="41.34395035115764" lon="-81.58970775115327">
        <ele>189.0475384356</ele>
        <time>2026-03-16T15:52:03Z</time>
        <hr>134</hr>
      </trkpt>
      <trkpt lat="41.34394427290685" lon="-81.59068090259487">
        <ele>188.7741044031</ele>
        <time>2026-03-16T15:52:21Z</time>
        <hr>134</hr>
      </trkpt>
      <trkpt lat="41.34391632301350" lon="-81.59157739571317">
        <ele>189.2288192688</ele>
        <time>2026-03-16T15:52:35Z</time>
        <hr>132</hr>
      </trkpt>
      <trkpt lat="41.34390799222899" lon="-81.59227913857488">
        <ele>189.1547410054</ele>
        <time>2026-03-16T15:52:49Z</time>
        <hr>126</hr>
      </trkpt>
      <trkpt lat="41.34391017594663" lon="-81.59245951145527">
        <ele>189.1438178276</ele>
        <time>2026-03-16T15:52:51Z</time>
        <hr>129</hr>
      </trkpt>
      <trkpt lat="41.34393783203034" lon="-81.59282917677955">
        <ele>189.5667481611</ele>
        <time>2026-03-16T15:52:57Z</time>
        <hr>130</hr>
      </trkpt>
      <trkpt lat="41.34398828221655" lon="-81.59315224351764">
        <ele>189.9580838178</ele>
        <time>2026-03-16T15:53:01Z</time>
        <hr>128</hr>
      </trkpt>
      <trkpt lat="41.34400382020481" lon="-81.59329741037592">
        <ele>189.8490857399</ele>
        <time>2026-03-16T15:53:03Z</time>
        <hr>129</hr>
      </trkpt>
      <trkpt lat="41.34412552626713" lon="-81.59377098258797">
        <ele>189.8988129761</ele>
        <time>2026-03-16T15:53:13Z</time>
        <hr>129</hr>
      </trkpt>
      <trkpt lat="41.34422615733287" lon="-81.59405760768345">
        <ele>189.8716293467</ele>
        <time>2026-03-16T15:53:17Z</time>
        <hr>129</hr>
      </trkpt>
      <trkpt lat="41.34435658327450" lon="-81.59439832810223">
        <ele>190.2350282864</ele>
        <time>2026-03-16T15:53:25Z</time>
        <hr>128</hr>
      </trkpt>
      <trkpt lat="41.34449687928340" lon="-81.59466946680870">
        <ele>190.1261172801</ele>
        <time>2026-03-16T15:53:53Z</time>
        <hr>129</hr>
      </trkpt>
      <trkpt lat="41.34464114849749" lon="-81.59495529227706">
        <ele>189.8718851481</ele>
        <time>2026-03-16T15:53:58Z</time>
        <hr>127</hr>
      </trkpt>
      <trkpt lat="41.34469517400915" lon="-81.59502028088973">
        <ele>189.9057710930</ele>
        <time>2026-03-16T15:53:59Z</time>
        <hr>126</hr>
      </trkpt>
      <trkpt lat="41.34480544025111" lon="-81.59513597431612">
        <ele>190.0524830935</ele>
        <time>2026-03-16T15:54:03Z</time>
        <hr>127</hr>
      </trkpt>
      <trkpt lat="41.34492417116012" lon="-81.59522042325753">
        <ele>189.7972975717</ele>
        <time>2026-03-16T15:54:05Z</time>
        <hr>126</hr>
      </trkpt>
      <trkpt lat="41.34503806935108" lon="-81.59525021356201">
        <ele>189.9918082826</ele>
        <time>2026-03-16T15:54:08Z</time>
        <hr>128</hr>
      </trkpt>
      <trkpt lat="41.34509717344532" lon="-81.59526057078136">
        <ele>189.8982630702</ele>
        <time>2026-03-16T15:54:09Z</time>
        <hr>128</hr>
      </trkpt>
      <trkpt lat="41.34523595058116" lon="-81.59524570684297">
        <ele>190.0226508445</ele>
        <time>2026-03-16T15:54:11Z</time>
        <hr>128</hr>
      </trkpt>
      <trkpt lat="41.34532831521548" lon="-81.59519806210041">
        <ele>189.9585479662</ele>
        <time>2026-03-16T15:54:13Z</time>
        <hr>127</hr>
      </trkpt>
      <trkpt lat="41.34539659078763" lon="-81.59514653987958">
        <ele>189.8892604870</ele>
        <time>2026-03-16T15:54:15Z</time>
        <hr>126</hr>
      </trkpt>
      <trkpt lat="41.34552519648869" lon="-81.59501768632416">
        <ele>190.0445224709</ele>
        <time>2026-03-16T15:54:18Z</time>
        <hr>125</hr>
      </trkpt>
      <trkpt lat="41.34595141584226" lon="-81.59447762709227">
        <ele>189.6634386247</ele>
        <time>2026-03-16T15:54:27Z</time>
        <hr>126</hr>
      </trkpt>
      <trkpt lat="41.34603106357935" lon="-81.59438428847459">
        <ele>189.8745139174</ele>
        <time>2026-03-16T15:54:29Z</time>
        <hr>126</hr>
      </trkpt>
      <trkpt lat="41.34628621894880" lon="-81.59418307788923">
        <ele>189.6809666925</ele>
        <time>2026-03-16T15:54:34Z</time>
        <hr>128</hr>
      </trkpt>
      <trkpt lat="41.34690971375057" lon="-81.59381743094845">
        <ele>189.9487392247</ele>
        <time>2026-03-16T15:54:45Z</time>
        <hr>129</hr>
      </trkpt>
      <trkpt lat="41.34700190433119" lon="-81.59375263979140">
        <ele>189.9234956100</ele>
        <time>2026-03-16T15:54:47Z</time>
        <hr>129</hr>
      </trkpt>
      <trkpt lat="41.34712724075028" lon="-81.59366344682314">
        <ele>189.8828254566</ele>
        <time>2026-03-16T15:54:50Z</time>
        <hr>130</hr>
      </trkpt>
      <trkpt lat="41.34771664423999" lon="-81.59306630505016">
        <ele>188.9642085767</ele>
        <time>2026-03-16T15:55:03Z</time>
        <hr>129</hr>
      </trkpt>
      <trkpt lat="41.34827665014921" lon="-81.59246927835100">
        <ele>190.0942769391</ele>
        <time>2026-03-16T15:55:17Z</time>
        <hr>132</hr>
      </trkpt>
      <trkpt lat="41.34864600462102" lon="-81.59212212798317">
        <ele>190.0862584354</ele>
        <time>2026-03-16T15:55:30Z</time>
        <hr>131</hr>
      </trkpt>
      <trkpt lat="41.34892795683150" lon="-81.59190843138096">
        <ele>189.7623735310</ele>
        <time>2026-03-16T15:55:36Z</time>
        <hr>133</hr>
      </trkpt>
      <trkpt lat="41.34904680092035" lon="-81.59185328398459">
        <ele>190.6375749858</ele>
        <time>2026-03-16T15:55:38Z</time>
        <hr>130</hr>
      </trkpt>
      <trkpt lat="41.34917851927013" lon="-81.59183228368826">
        <ele>190.6847201251</ele>
        <time>2026-03-16T15:55:41Z</time>
        <hr>131</hr>
      </trkpt>
      <trkpt lat="41.34935301322475" lon="-81.59181971128137">
        <ele>190.4370992718</ele>
        <time>2026-03-16T15:55:45Z</time>
        <hr>131</hr>
      </trkpt>
      <trkpt lat="41.34958754602200" lon="-81.59183994106755">
        <ele>190.8501969733</ele>
        <time>2026-03-16T15:55:49Z</time>
        <hr>129</hr>
      </trkpt>
      <trkpt lat="41.34974631793187" lon="-81.59190558162463">
        <ele>190.9246391577</ele>
        <time>2026-03-16T15:55:52Z</time>
        <hr>129</hr>
      </trkpt>
      <trkpt lat="41.35022434786200" lon="-81.59213282153688">
        <ele>190.7528090254</ele>
        <time>2026-03-16T15:56:00Z</time>
        <hr>131</hr>
      </trkpt>
      <trkpt lat="41.35049527365645" lon="-81.59223794687168">
        <ele>189.1325641269</ele>
        <time>2026-03-16T15:56:04Z</time>
        <hr>129</hr>
      </trkpt>
      <trkpt lat="41.35110168424693" lon="-81.59253639418330">
        <ele>188.8289730829</ele>
        <time>2026-03-16T15:56:18Z</time>
        <hr>130</hr>
      </trkpt>
      <trkpt lat="41.35164257285734" lon="-81.59281144085151">
        <ele>190.2444305371</ele>
        <time>2026-03-16T15:56:28Z</time>
        <hr>132</hr>
      </trkpt>
      <trkpt lat="41.35193341742676" lon="-81.59297954727980">
        <ele>190.8065579689</ele>
        <time>2026-03-16T15:56:34Z</time>
        <hr>130</hr>
      </trkpt>
      <trkpt lat="41.35220364066103" lon="-81.59319593123674">
        <ele>190.3420085347</ele>
        <time>2026-03-16T15:56:41Z</time>
        <hr>130</hr>
      </trkpt>
      <trkpt lat="41.35253827460551" lon="-81.59353836818511">
        <ele>189.9892677958</ele>
        <time>2026-03-16T15:56:50Z</time>
        <hr>130</hr>
      </trkpt>
      <trkpt lat="41.35401787474333" lon="-81.59511548891656">
        <ele>189.2269480332</ele>
        <time>2026-03-16T15:57:55Z</time>
        <hr>131</hr>
      </trkpt>
      <trkpt lat="41.35421256902966" lon="-81.59531008276842">
        <ele>188.9259354891</ele>
        <time>2026-03-16T15:57:59Z</time>
        <hr>134</hr>
      </trkpt>
      <trkpt lat="41.35445511921151" lon="-81.59548115330455">
        <ele>188.6701137232</ele>
        <time>2026-03-16T15:58:03Z</time>
        <hr>134</hr>
      </trkpt>
      <trkpt lat="41.35483985723265" lon="-81.59572945329677">
        <ele>189.5773022469</ele>
        <time>2026-03-16T15:58:22Z</time>
        <hr>135</hr>
      </trkpt>
      <trkpt lat="41.35514425304670" lon="-81.59593196437758">
        <ele>189.2877673158</ele>
        <time>2026-03-16T15:58:29Z</time>
        <hr>134</hr>
      </trkpt>
      <trkpt lat="41.35595436817764" lon="-81.59659660861735">
        <ele>188.5943255882</ele>
        <time>2026-03-16T15:58:49Z</time>
        <hr>133</hr>
      </trkpt>
      <trkpt lat="41.35619127418028" lon="-81.59675809309424">
        <ele>188.6717051858</ele>
        <time>2026-03-16T15:58:54Z</time>
        <hr>131</hr>
      </trkpt>
      <trkpt lat="41.35646861663010" lon="-81.59689679983225">
        <ele>188.8998096900</ele>
        <time>2026-03-16T15:58:58Z</time>
        <hr>130</hr>
      </trkpt>
      <trkpt lat="41.35667001976002" lon="-81.59701957851040">
        <ele>189.1387337618</ele>
        <time>2026-03-16T15:59:02Z</time>
        <hr>132</hr>
      </trkpt>
      <trkpt lat="41.35679124456827" lon="-81.59711737609165">
        <ele>189.4082119398</ele>
        <time>2026-03-16T15:59:05Z</time>
        <hr>131</hr>
      </trkpt>
      <trkpt lat="41.35686030834799" lon="-81.59718538911559">
        <ele>189.5666300232</ele>
        <time>2026-03-16T15:59:07Z</time>
        <hr>132</hr>
      </trkpt>
      <trkpt lat="41.35692021290842" lon="-81.59727014226839">
        <ele>190.6469540373</ele>
        <time>2026-03-16T15:59:09Z</time>
        <hr>130</hr>
      </trkpt>
      <trkpt lat="41.35696975660077" lon="-81.59733350600042">
        <ele>189.5954341268</ele>
        <time>2026-03-16T15:59:11Z</time>
        <hr>126</hr>
      </trkpt>
      <trkpt lat="41.35713345803374" lon="-81.59748012375923">
        <ele>188.1259675683</ele>
        <time>2026-03-16T15:59:14Z</time>
        <hr>129</hr>
      </trkpt>
      <trkpt lat="41.35760312252240" lon="-81.59776751178595">
        <ele>187.5615776148</ele>
        <time>2026-03-16T15:59:25Z</time>
        <hr>127</hr>
      </trkpt>
      <trkpt lat="41.35784644699866" lon="-81.59796147675657">
        <ele>186.6545378255</ele>
        <time>2026-03-16T15:59:30Z</time>
        <hr>130</hr>
      </trkpt>
      <trkpt lat="41.35855006686243" lon="-81.59846129497177">
        <ele>187.9558737912</ele>
        <time>2026-03-16T15:59:45Z</time>
        <hr>127</hr>
      </trkpt>
      <trkpt lat="41.36089953237865" lon="-81.60009471052498">
        <ele>187.1387529492</ele>
        <time>2026-03-16T16:00:30Z</time>
        <hr>126</hr>
      </trkpt>
      <trkpt lat="41.36109254376836" lon="-81.60025182990043">
        <ele>186.3550554936</ele>
        <time>2026-03-16T16:00:36Z</time>
        <hr>126</hr>
      </trkpt>
      <trkpt lat="41.36121253671709" lon="-81.60038170529347">
        <ele>186.6105858356</ele>
        <time>2026-03-16T16:00:39Z</time>
        <hr>126</hr>
      </trkpt>
      <trkpt lat="41.36135730010237" lon="-81.60055313540312">
        <ele>186.4574204542</ele>
        <time>2026-03-16T16:00:42Z</time>
        <hr>123</hr>
      </trkpt>
      <trkpt lat="41.36143780920498" lon="-81.60066832798256">
        <ele>186.7449601845</ele>
        <time>2026-03-16T16:00:44Z</time>
        <hr>122</hr>
      </trkpt>
      <trkpt lat="41.36156081615934" lon="-81.60089550814178">
        <ele>186.9567997403</ele>
        <time>2026-03-16T16:00:50Z</time>
        <hr>120</hr>
      </trkpt>
      <trkpt lat="41.36166747106016" lon="-81.60110692436625">
        <ele>186.2129681800</ele>
        <time>2026-03-16T16:00:55Z</time>
        <hr>122</hr>
      </trkpt>
      <trkpt lat="41.36191235509640" lon="-81.60171616839071">
        <ele>186.4282334847</ele>
        <time>2026-03-16T16:01:04Z</time>
        <hr>122</hr>
      </trkpt>
      <trkpt lat="41.36227604618454" lon="-81.60249508565774">
        <ele>187.3690901265</ele>
        <time>2026-03-16T16:01:17Z</time>
        <hr>119</hr>
      </trkpt>
      <trkpt lat="41.36235218323998" lon="-81.60273100040750">
        <ele>187.7596742339</ele>
        <time>2026-03-16T16:01:21Z</time>
        <hr>119</hr>
      </trkpt>
      <trkpt lat="41.36239094281810" lon="-81.60284904187196">
        <ele>187.7419620354</ele>
        <time>2026-03-16T16:01:23Z</time>
        <hr>123</hr>
      </trkpt>
      <trkpt lat="41.36244123176626" lon="-81.60311317882601">
        <ele>187.7161432980</ele>
        <time>2026-03-16T16:01:27Z</time>
        <hr>126</hr>
      </trkpt>
      <trkpt lat="41.36247539084326" lon="-81.60326004865581">
        <ele>187.9471699867</ele>
        <time>2026-03-16T16:01:30Z</time>
        <hr>123</hr>
      </trkpt>
      <trkpt lat="41.36252077148878" lon="-81.60364894368364">
        <ele>187.7867862338</ele>
        <time>2026-03-16T16:01:35Z</time>
        <hr>123</hr>
      </trkpt>
      <trkpt lat="41.36261405935203" lon="-81.60410374786976">
        <ele>187.9953605201</ele>
        <time>2026-03-16T16:01:43Z</time>
        <hr>124</hr>
      </trkpt>
      <trkpt lat="41.36276907543606" lon="-81.60473613613226">
        <ele>186.7929883570</ele>
        <time>2026-03-16T16:01:51Z</time>
        <hr>126</hr>
      </trkpt>
      <trkpt lat="41.36299957562907" lon="-81.60554120936516">
        <ele>187.0312075164</ele>
        <time>2026-03-16T16:02:04Z</time>
        <hr>125</hr>
      </trkpt>
      <trkpt lat="41.36323585152925" lon="-81.60649433416857">
        <ele>186.8243668611</ele>
        <time>2026-03-16T16:02:21Z</time>
        <hr>125</hr>
      </trkpt>
      <trkpt lat="41.36332811437458" lon="-81.60682251919837">
        <ele>186.6350087722</ele>
        <time>2026-03-16T16:02:27Z</time>
        <hr>127</hr>
      </trkpt>
      <trkpt lat="41.36336329213562" lon="-81.60689409882980">
        <ele>186.6990015384</ele>
        <time>2026-03-16T16:02:28Z</time>
        <hr>126</hr>
      </trkpt>
      <trkpt lat="41.36343994411592" lon="-81.60709052108787">
        <ele>186.4026794343</ele>
        <time>2026-03-16T16:02:32Z</time>
        <hr>124</hr>
      </trkpt>
      <trkpt lat="41.36377005714532" lon="-81.60766588804664">
        <ele>186.8990794293</ele>
        <time>2026-03-16T16:02:44Z</time>
        <hr>124</hr>
      </trkpt>
      <trkpt lat="41.36395233131385" lon="-81.60799661624620">
        <ele>187.0600884614</ele>
        <time>2026-03-16T16:02:54Z</time>
        <hr>125</hr>
      </trkpt>
      <trkpt lat="41.36412435424989" lon="-81.60823530925167">
        <ele>187.0687284853</ele>
        <time>2026-03-16T16:02:57Z</time>
        <hr>126</hr>
      </trkpt>
      <trkpt lat="41.36439454436867" lon="-81.60854529688653">
        <ele>186.8868771290</ele>
        <time>2026-03-16T16:03:06Z</time>
        <hr>126</hr>
      </trkpt>
      <trkpt lat="41.36451681058618" lon="-81.60865176064070">
        <ele>186.9402525956</ele>
        <time>2026-03-16T16:03:10Z</time>
        <hr>127</hr>
      </trkpt>
      <trkpt lat="41.36471086500228" lon="-81.60875853484947">
        <ele>186.8720219652</ele>
        <time>2026-03-16T16:03:15Z</time>
        <hr>128</hr>
      </trkpt>
      <trkpt lat="41.36491210995259" lon="-81.60895170913449">
        <ele>187.3581133806</ele>
        <time>2026-03-16T16:03:20Z</time>
        <hr>128</hr>
      </trkpt>
      <trkpt lat="41.36496732096273" lon="-81.60907410088691">
        <ele>187.5622151343</ele>
        <time>2026-03-16T16:03:22Z</time>
        <hr>128</hr>
      </trkpt>
      <trkpt lat="41.36500910716477" lon="-81.60911471623518">
        <ele>187.4180915505</ele>
        <time>2026-03-16T16:03:23Z</time>
        <hr>127</hr>
      </trkpt>
      <trkpt lat="41.36528197096285" lon="-81.60941465483310">
        <ele>187.4685331882</ele>
        <time>2026-03-16T16:03:47Z</time>
        <hr>128</hr>
      </trkpt>
      <trkpt lat="41.36597760238399" lon="-81.61013168491074">
        <ele>187.4125698459</ele>
        <time>2026-03-16T16:04:10Z</time>
        <hr>129</hr>
      </trkpt>
      <trkpt lat="41.36666161955714" lon="-81.61081766500689">
        <ele>187.8530543038</ele>
        <time>2026-03-16T16:04:30Z</time>
        <hr>127</hr>
      </trkpt>
      <trkpt lat="41.36734883695055" lon="-81.61152214819730">
        <ele>186.9854136796</ele>
        <time>2026-03-16T16:04:46Z</time>
        <hr>126</hr>
      </trkpt>
      <trkpt lat="41.36758806439205" lon="-81.61174999405431">
        <ele>186.7872728942</ele>
        <time>2026-03-16T16:04:51Z</time>
        <hr>125</hr>
      </trkpt>
      <trkpt lat="41.36784394198852" lon="-81.61199557218450">
        <ele>187.1656488258</ele>
        <time>2026-03-16T16:04:57Z</time>
        <hr>128</hr>
      </trkpt>
      <trkpt lat="41.36801443723155" lon="-81.61211164063168">
        <ele>187.4475656573</ele>
        <time>2026-03-16T16:05:01Z</time>
        <hr>124</hr>
      </trkpt>
      <trkpt lat="41.36817220399742" lon="-81.61220697585335">
        <ele>188.0081237835</ele>
        <time>2026-03-16T16:05:05Z</time>
        <hr>124</hr>
      </trkpt>
      <trkpt lat="41.36845896066437" lon="-81.61232415261215">
        <ele>187.1342779275</ele>
        <time>2026-03-16T16:05:11Z</time>
        <hr>124</hr>
      </trkpt>
      <trkpt lat="41.36865996031266" lon="-81.61240135840882">
        <ele>186.7937999736</ele>
        <time>2026-03-16T16:05:17Z</time>
        <hr>122</hr>
      </trkpt>
      <trkpt lat="41.36936866543062" lon="-81.61258102042117">
        <ele>187.1875487022</ele>
        <time>2026-03-16T16:05:30Z</time>
        <hr>122</hr>
      </trkpt>
      <trkpt lat="41.37118690959723" lon="-81.61307394417648">
        <ele>186.8351962456</ele>
        <time>2026-03-16T16:05:59Z</time>
        <hr>122</hr>
      </trkpt>
      <trkpt lat="41.37141743133487" lon="-81.61312019127494">
        <ele>186.9004677083</ele>
        <time>2026-03-16T16:06:04Z</time>
        <hr>123</hr>
      </trkpt>
      <trkpt lat="41.37178263998613" lon="-81.61316131509169">
        <ele>186.2931349866</ele>
        <time>2026-03-16T16:06:12Z</time>
        <hr>124</hr>
      </trkpt>
      <trkpt lat="41.37192660134075" lon="-81.61314129961720">
        <ele>186.4178101286</ele>
        <time>2026-03-16T16:06:15Z</time>
        <hr>121</hr>
      </trkpt>
      <trkpt lat="41.37203647950153" lon="-81.61311064639384">
        <ele>186.3671065517</ele>
        <time>2026-03-16T16:06:17Z</time>
        <hr>120</hr>
      </trkpt>
      <trkpt lat="41.37236451234435" lon="-81.61297735172192">
        <ele>186.8315573417</ele>
        <time>2026-03-16T16:06:24Z</time>
        <hr>118</hr>
      </trkpt>
      <trkpt lat="41.37232303585584" lon="-81.61311223515331">
        <ele>186.9236568275</ele>
        <time>2026-03-16T16:06:27Z</time>
        <hr>116</hr>
      </trkpt>
      <trkpt lat="41.37233303299595" lon="-81.61319388012552">
        <ele>186.5563364948</ele>
        <time>2026-03-16T16:06:28Z</time>
        <hr>114</hr>
      </trkpt>
      <trkpt lat="41.37235706095218" lon="-81.61324394620104">
        <ele>186.6098689487</ele>
        <time>2026-03-16T16:06:29Z</time>
        <hr>112</hr>
      </trkpt>
      <trkpt lat="41.37237477019715" lon="-81.61328400979947">
        <ele>186.7516687396</ele>
        <time>2026-03-16T16:06:30Z</time>
        <hr>114</hr>
      </trkpt>
      <trkpt lat="41.37242052184176" lon="-81.61331168018998">
        <ele>187.1816890994</ele>
        <time>2026-03-16T16:06:31Z</time>
        <hr>110</hr>
      </trkpt>
      <trkpt lat="41.37254860610301" lon="-81.61335079914465">
        <ele>187.1752271672</ele>
        <time>2026-03-16T16:06:34Z</time>
        <hr>113</hr>
      </trkpt>
      <trkpt lat="41.37258535458477" lon="-81.61337205516264">
        <ele>187.0235691345</ele>
        <time>2026-03-16T16:06:35Z</time>
        <hr>114</hr>
      </trkpt>
      <trkpt lat="41.37260532321591" lon="-81.61344721887572">
        <ele>187.0865646566</ele>
        <time>2026-03-16T16:06:36Z</time>
        <hr>115</hr>
      </trkpt>
      <trkpt lat="41.37265851875454" lon="-81.61353574207740">
        <ele>186.9172447393</ele>
        <time>2026-03-16T16:06:38Z</time>
        <hr>112</hr>
      </trkpt>
      <trkpt lat="41.37250358303674" lon="-81.61358209457620">
        <ele>186.5160237496</ele>
        <time>2026-03-16T16:06:42Z</time>
        <hr>114</hr>
      </trkpt>
    </trkseg>
  </trk>
</gpx>