<?xml version='1.0' encoding='UTF-8'?>
<gpx xmlns="http://www.topografix.com/GPX/1/1" creator="https://gpx.studio" version="1.1">
  <metadata>
    <name>Bike - 2026-09-11</name>
  </metadata>
  <trk>
    <name>Bike - 2026-09-11</name>
    <type>cycling</type>
    <trkseg>
      <trkpt lat="41.32365242701120" lon="-81.81734732222665">
        <ele>243.9761855011</ele>
        <time>2026-09-11T15:32:48Z</time>
      </trkpt>
      <trkpt lat="41.32376363093859" lon="-81.81692829326316">
        <ele>243.9824870263</ele>
        <time>2026-09-11T15:32:55Z</time>
      </trkpt>
      <trkpt lat="41.32404131664454" lon="-81.81671101391528">
        <ele>243.9527643188</ele>
        <time>2026-09-11T15:33:04Z</time>
      </trkpt>
      <trkpt lat="41.32430803236321" lon="-81.81655459071891">
        <ele>244.0239862506</ele>
        <time>2026-09-11T15:33:10Z</time>
      </trkpt>
      <trkpt lat="41.32446002189966" lon="-81.81652523260234">
        <ele>244.0080997532</ele>
        <time>2026-09-11T15:33:14Z</time>
      </trkpt>
      <trkpt lat="41.32423856464383" lon="-81.81563193044006">
        <ele>244.2546918741</ele>
        <time>2026-09-11T15:33:30Z</time>
      </trkpt>
      <trkpt lat="41.32420737503794" lon="-81.81528094153336">
        <ele>246.4794439433</ele>
        <time>2026-09-11T15:33:36Z</time>
      </trkpt>
      <trkpt lat="41.32416167493525" lon="-81.81494721311776">
        <ele>245.7484698504</ele>
        <time>2026-09-11T15:33:40Z</time>
      </trkpt>
      <trkpt lat="41.32414154129452" lon="-81.81463783536248">
        <ele>245.1655301476</ele>
        <time>2026-09-11T15:33:45Z</time>
      </trkpt>
      <trkpt lat="41.32413415061450" lon="-81.81387412393772">
        <ele>244.9226310379</ele>
        <time>2026-09-11T15:34:03Z</time>
      </trkpt>
      <trkpt lat="41.32418439398903" lon="-81.81327151532221">
        <ele>244.5578572720</ele>
        <time>2026-09-11T15:34:13Z</time>
      </trkpt>
      <trkpt lat="41.32417981688359" lon="-81.81275099713528">
        <ele>244.7168095054</ele>
        <time>2026-09-11T15:34:20Z</time>
      </trkpt>
      <trkpt lat="41.32411641151027" lon="-81.81216100923851">
        <ele>244.8721390915</ele>
        <time>2026-09-11T15:34:28Z</time>
      </trkpt>
      <trkpt lat="41.32404921716810" lon="-81.81172799206371">
        <ele>244.4925251758</ele>
        <time>2026-09-11T15:34:35Z</time>
      </trkpt>
      <trkpt lat="41.32395277308191" lon="-81.81122963002429">
        <ele>244.9154910404</ele>
        <time>2026-09-11T15:34:43Z</time>
      </trkpt>
      <trkpt lat="41.32400208875166" lon="-81.81121888189939">
        <ele>244.8201483988</ele>
        <time>2026-09-11T15:34:44Z</time>
      </trkpt>
      <trkpt lat="41.32396525182926" lon="-81.81108599985464">
        <ele>244.5897078515</ele>
        <time>2026-09-11T15:34:47Z</time>
      </trkpt>
      <trkpt lat="41.32397883548928" lon="-81.81096200984760">
        <ele>244.3114468348</ele>
        <time>2026-09-11T15:34:48Z</time>
      </trkpt>
      <trkpt lat="41.32401108560992" lon="-81.81075547264008">
        <ele>243.9527340064</ele>
        <time>2026-09-11T15:34:51Z</time>
      </trkpt>
      <trkpt lat="41.32403144904418" lon="-81.81063181861849">
        <ele>244.4569096925</ele>
        <time>2026-09-11T15:34:53Z</time>
      </trkpt>
      <trkpt lat="41.32403184928231" lon="-81.81054733749561">
        <ele>245.0390049321</ele>
        <time>2026-09-11T15:34:54Z</time>
      </trkpt>
      <trkpt lat="41.32401678332243" lon="-81.81039446781141">
        <ele>245.2316414282</ele>
        <time>2026-09-11T15:34:57Z</time>
      </trkpt>
      <trkpt lat="41.32389133748338" lon="-81.81013274121754">
        <ele>244.7939973768</ele>
        <time>2026-09-11T15:35:02Z</time>
      </trkpt>
      <trkpt lat="41.32385432050577" lon="-81.81007926500733">
        <ele>244.5501008281</ele>
        <time>2026-09-11T15:35:03Z</time>
      </trkpt>
      <trkpt lat="41.32380278088913" lon="-81.81002652853563">
        <ele>243.7643806039</ele>
        <time>2026-09-11T15:35:04Z</time>
      </trkpt>
      <trkpt lat="41.32374178398510" lon="-81.80998476214467">
        <ele>244.1321881906</ele>
        <time>2026-09-11T15:35:06Z</time>
      </trkpt>
      <trkpt lat="41.32371425293623" lon="-81.80994390556266">
        <ele>244.2906323289</ele>
        <time>2026-09-11T15:35:07Z</time>
      </trkpt>
      <trkpt lat="41.32369039059988" lon="-81.80988486999686">
        <ele>244.3312572733</ele>
        <time>2026-09-11T15:35:08Z</time>
      </trkpt>
      <trkpt lat="41.32366797551101" lon="-81.80983530239918">
        <ele>244.7132347624</ele>
        <time>2026-09-11T15:35:32Z</time>
      </trkpt>
      <trkpt lat="41.32364642995805" lon="-81.80954897806700">
        <ele>244.9149473463</ele>
        <time>2026-09-11T15:35:37Z</time>
      </trkpt>
      <trkpt lat="41.32358888874447" lon="-81.80933363078552">
        <ele>244.7553732378</ele>
        <time>2026-09-11T15:35:41Z</time>
      </trkpt>
      <trkpt lat="41.32354784371737" lon="-81.80922121066546">
        <ele>245.2004807134</ele>
        <time>2026-09-11T15:35:43Z</time>
      </trkpt>
      <trkpt lat="41.32346091628644" lon="-81.80899535991453">
        <ele>244.6183689035</ele>
        <time>2026-09-11T15:35:47Z</time>
      </trkpt>
      <trkpt lat="41.32320472654975" lon="-81.80855550051622">
        <ele>244.9161510673</ele>
        <time>2026-09-11T15:35:59Z</time>
      </trkpt>
      <trkpt lat="41.32310660032564" lon="-81.80839697881588">
        <ele>245.1490058629</ele>
        <time>2026-09-11T15:36:01Z</time>
      </trkpt>
      <trkpt lat="41.32302022325577" lon="-81.80828215083370">
        <ele>244.9596371619</ele>
        <time>2026-09-11T15:36:03Z</time>
      </trkpt>
      <trkpt lat="41.32286187758773" lon="-81.80813085258953">
        <ele>244.8601104189</ele>
        <time>2026-09-11T15:36:28Z</time>
      </trkpt>
      <trkpt lat="41.32243610284354" lon="-81.80773900604241">
        <ele>245.1785122011</ele>
        <time>2026-09-11T15:36:44Z</time>
      </trkpt>
      <trkpt lat="41.32224228132803" lon="-81.80749077890700">
        <ele>244.3363431781</ele>
        <time>2026-09-11T15:36:49Z</time>
      </trkpt>
      <trkpt lat="41.32217097074364" lon="-81.80744932884312">
        <ele>244.9444523015</ele>
        <time>2026-09-11T15:36:50Z</time>
      </trkpt>
      <trkpt lat="41.32191372151817" lon="-81.80728874846255">
        <ele>245.0307941712</ele>
        <time>2026-09-11T15:36:58Z</time>
      </trkpt>
      <trkpt lat="41.32180547165331" lon="-81.80725290192835">
        <ele>245.0492551093</ele>
        <time>2026-09-11T15:37:00Z</time>
      </trkpt>
      <trkpt lat="41.32175893386528" lon="-81.80726122293164">
        <ele>244.6938791660</ele>
        <time>2026-09-11T15:37:01Z</time>
      </trkpt>
      <trkpt lat="41.32170140229614" lon="-81.80728312123991">
        <ele>244.9942021009</ele>
        <time>2026-09-11T15:37:02Z</time>
      </trkpt>
      <trkpt lat="41.32156286189954" lon="-81.80740896274499">
        <ele>244.9775747081</ele>
        <time>2026-09-11T15:37:05Z</time>
      </trkpt>
      <trkpt lat="41.32146205193467" lon="-81.80744365069091">
        <ele>245.1464082522</ele>
        <time>2026-09-11T15:37:07Z</time>
      </trkpt>
      <trkpt lat="41.32135966473930" lon="-81.80745083625301">
        <ele>244.6148001319</ele>
        <time>2026-09-11T15:37:09Z</time>
      </trkpt>
      <trkpt lat="41.32081696690998" lon="-81.80739604383599">
        <ele>245.1296422385</ele>
        <time>2026-09-11T15:37:20Z</time>
      </trkpt>
      <trkpt lat="41.32077160834285" lon="-81.80737732175531">
        <ele>245.1529537809</ele>
        <time>2026-09-11T15:37:21Z</time>
      </trkpt>
      <trkpt lat="41.32073707029583" lon="-81.80731818979835">
        <ele>245.0086428096</ele>
        <time>2026-09-11T15:37:23Z</time>
      </trkpt>
      <trkpt lat="41.32066783948015" lon="-81.80719836586124">
        <ele>245.0049730673</ele>
        <time>2026-09-11T15:37:48Z</time>
      </trkpt>
      <trkpt lat="41.32057902105339" lon="-81.80705270722781">
        <ele>244.8479154889</ele>
        <time>2026-09-11T15:37:51Z</time>
      </trkpt>
      <trkpt lat="41.32053279769173" lon="-81.80701067954274">
        <ele>244.6361896164</ele>
        <time>2026-09-11T15:37:52Z</time>
      </trkpt>
      <trkpt lat="41.32043549114801" lon="-81.80699678040689">
        <ele>244.9268256913</ele>
        <time>2026-09-11T15:37:54Z</time>
      </trkpt>
      <trkpt lat="41.32024120183007" lon="-81.80696985818834">
        <ele>244.8283001487</ele>
        <time>2026-09-11T15:37:57Z</time>
      </trkpt>
      <trkpt lat="41.31993375832826" lon="-81.80678831610321">
        <ele>245.0882123137</ele>
        <time>2026-09-11T15:38:09Z</time>
      </trkpt>
      <trkpt lat="41.31988159267671" lon="-81.80677004011497">
        <ele>244.9828619739</ele>
        <time>2026-09-11T15:38:10Z</time>
      </trkpt>
      <trkpt lat="41.31970240257967" lon="-81.80673243590667">
        <ele>245.1088107534</ele>
        <time>2026-09-11T15:38:15Z</time>
      </trkpt>
      <trkpt lat="41.31965844042877" lon="-81.80672648007014">
        <ele>245.0827942963</ele>
        <time>2026-09-11T15:38:41Z</time>
      </trkpt>
      <trkpt lat="41.31963258833561" lon="-81.80674533854638">
        <ele>244.9106775570</ele>
        <time>2026-09-11T15:38:42Z</time>
      </trkpt>
      <trkpt lat="41.31941341991421" lon="-81.80692393029385">
        <ele>245.0112372540</ele>
        <time>2026-09-11T15:38:47Z</time>
      </trkpt>
      <trkpt lat="41.31923608518781" lon="-81.80708917456263">
        <ele>244.9361003886</ele>
        <time>2026-09-11T15:38:52Z</time>
      </trkpt>
      <trkpt lat="41.31910795251017" lon="-81.80718101056205">
        <ele>245.0978867813</ele>
        <time>2026-09-11T15:38:55Z</time>
      </trkpt>
      <trkpt lat="41.31893191886380" lon="-81.80733106986784">
        <ele>245.6075775148</ele>
        <time>2026-09-11T15:39:01Z</time>
      </trkpt>
      <trkpt lat="41.31889501332999" lon="-81.80733282652417">
        <ele>245.4705398522</ele>
        <time>2026-09-11T15:39:02Z</time>
      </trkpt>
      <trkpt lat="41.31888023271374" lon="-81.80734299034131">
        <ele>245.3849475684</ele>
        <time>2026-09-11T15:39:03Z</time>
      </trkpt>
      <trkpt lat="41.31861078829167" lon="-81.80722558349905">
        <ele>244.8106128052</ele>
        <time>2026-09-11T15:39:09Z</time>
      </trkpt>
      <trkpt lat="41.31853805994217" lon="-81.80719060008813">
        <ele>244.9877874958</ele>
        <time>2026-09-11T15:39:11Z</time>
      </trkpt>
      <trkpt lat="41.31841507172866" lon="-81.80704936415266">
        <ele>244.9553470960</ele>
        <time>2026-09-11T15:39:14Z</time>
      </trkpt>
      <trkpt lat="41.31837071816327" lon="-81.80700208560600">
        <ele>245.1888293336</ele>
        <time>2026-09-11T15:39:15Z</time>
      </trkpt>
      <trkpt lat="41.31832453374206" lon="-81.80699222775316">
        <ele>245.0797503094</ele>
        <time>2026-09-11T15:39:16Z</time>
      </trkpt>
      <trkpt lat="41.31829248434985" lon="-81.80698953021373">
        <ele>245.0927817420</ele>
        <time>2026-09-11T15:39:17Z</time>
      </trkpt>
      <trkpt lat="41.31813238534986" lon="-81.80706083834767">
        <ele>244.7063336581</ele>
        <time>2026-09-11T15:39:20Z</time>
      </trkpt>
      <trkpt lat="41.31803820971633" lon="-81.80709061928448">
        <ele>245.2061760321</ele>
        <time>2026-09-11T15:39:22Z</time>
      </trkpt>
      <trkpt lat="41.31792615636234" lon="-81.80711548702531">
        <ele>245.2520184392</ele>
        <time>2026-09-11T15:39:25Z</time>
      </trkpt>
      <trkpt lat="41.31786615826534" lon="-81.80710578078303">
        <ele>245.1636854912</ele>
        <time>2026-09-11T15:39:26Z</time>
      </trkpt>
      <trkpt lat="41.31783108231480" lon="-81.80707224556048">
        <ele>245.0471273993</ele>
        <time>2026-09-11T15:39:28Z</time>
      </trkpt>
      <trkpt lat="41.31764515643705" lon="-81.80687647945574">
        <ele>245.9132455011</ele>
        <time>2026-09-11T15:39:33Z</time>
      </trkpt>
      <trkpt lat="41.31760163388118" lon="-81.80681410395638">
        <ele>245.7108861388</ele>
        <time>2026-09-11T15:39:34Z</time>
      </trkpt>
      <trkpt lat="41.31755940101492" lon="-81.80674611755389">
        <ele>245.7652944061</ele>
        <time>2026-09-11T15:39:35Z</time>
      </trkpt>
      <trkpt lat="41.31751285586765" lon="-81.80660539992978">
        <ele>245.5062788654</ele>
        <time>2026-09-11T15:39:38Z</time>
      </trkpt>
      <trkpt lat="41.31750184613426" lon="-81.80646932627799">
        <ele>245.9237428232</ele>
        <time>2026-09-11T15:39:39Z</time>
      </trkpt>
      <trkpt lat="41.31747220316303" lon="-81.80633127531749">
        <ele>246.0094468378</ele>
        <time>2026-09-11T15:39:41Z</time>
      </trkpt>
      <trkpt lat="41.31746873365569" lon="-81.80617785487482">
        <ele>245.9942705233</ele>
        <time>2026-09-11T15:39:44Z</time>
      </trkpt>
      <trkpt lat="41.31749730268128" lon="-81.80606403420393">
        <ele>246.3590751376</ele>
        <time>2026-09-11T15:39:47Z</time>
      </trkpt>
      <trkpt lat="41.31753523051513" lon="-81.80590523277071">
        <ele>246.0885315785</ele>
        <time>2026-09-11T15:39:49Z</time>
      </trkpt>
      <trkpt lat="41.31757385011610" lon="-81.80577133363494">
        <ele>246.7090317528</ele>
        <time>2026-09-11T15:39:51Z</time>
      </trkpt>
      <trkpt lat="41.31762336468900" lon="-81.80568000840464">
        <ele>246.9935023353</ele>
        <time>2026-09-11T15:39:53Z</time>
      </trkpt>
      <trkpt lat="41.31766227404907" lon="-81.80562636544954">
        <ele>247.0866452084</ele>
        <time>2026-09-11T15:39:54Z</time>
      </trkpt>
      <trkpt lat="41.31770948419550" lon="-81.80559442937992">
        <ele>247.4843092892</ele>
        <time>2026-09-11T15:39:55Z</time>
      </trkpt>
      <trkpt lat="41.31788672667999" lon="-81.80549553380752">
        <ele>247.8939310749</ele>
        <time>2026-09-11T15:39:59Z</time>
      </trkpt>
      <trkpt lat="41.31810329894640" lon="-81.80541003121644">
        <ele>248.0005034111</ele>
        <time>2026-09-11T15:40:03Z</time>
      </trkpt>
      <trkpt lat="41.31823890286112" lon="-81.80527624549188">
        <ele>247.8327375248</ele>
        <time>2026-09-11T15:40:07Z</time>
      </trkpt>
      <trkpt lat="41.31836424079289" lon="-81.80521171148872">
        <ele>248.0830760878</ele>
        <time>2026-09-11T15:40:10Z</time>
      </trkpt>
      <trkpt lat="41.31852608919154" lon="-81.80510615682972">
        <ele>248.0777106333</ele>
        <time>2026-09-11T15:40:13Z</time>
      </trkpt>
      <trkpt lat="41.31875933280265" lon="-81.80500009776719">
        <ele>248.3738426135</ele>
        <time>2026-09-11T15:40:18Z</time>
      </trkpt>
      <trkpt lat="41.31878069724218" lon="-81.80497743842218">
        <ele>248.6616536904</ele>
        <time>2026-09-11T15:40:19Z</time>
      </trkpt>
      <trkpt lat="41.31880649455680" lon="-81.80494208000638">
        <ele>248.3629121054</ele>
        <time>2026-09-11T15:40:20Z</time>
      </trkpt>
      <trkpt lat="41.31888481189272" lon="-81.80475034318039">
        <ele>248.1440136301</ele>
        <time>2026-09-11T15:40:23Z</time>
      </trkpt>
      <trkpt lat="41.31892644163526" lon="-81.80471257533966">
        <ele>248.1544728324</ele>
        <time>2026-09-11T15:40:24Z</time>
      </trkpt>
      <trkpt lat="41.31927973815986" lon="-81.80450306043261">
        <ele>248.9169888689</ele>
        <time>2026-09-11T15:40:31Z</time>
      </trkpt>
      <trkpt lat="41.31938242667272" lon="-81.80442044761406">
        <ele>249.2977093435</ele>
        <time>2026-09-11T15:40:34Z</time>
      </trkpt>
      <trkpt lat="41.31956032585476" lon="-81.80425719223882">
        <ele>248.8862861706</ele>
        <time>2026-09-11T15:40:39Z</time>
      </trkpt>
      <trkpt lat="41.31965317523106" lon="-81.80413162981836">
        <ele>248.7199812629</ele>
        <time>2026-09-11T15:40:42Z</time>
      </trkpt>
      <trkpt lat="41.31976828150331" lon="-81.80390080867087">
        <ele>248.9917745675</ele>
        <time>2026-09-11T15:40:48Z</time>
      </trkpt>
      <trkpt lat="41.31983339231731" lon="-81.80373397798849">
        <ele>248.9532112848</ele>
        <time>2026-09-11T15:40:50Z</time>
      </trkpt>
      <trkpt lat="41.31986972388427" lon="-81.80357386987271">
        <ele>249.3419756989</ele>
        <time>2026-09-11T15:40:53Z</time>
      </trkpt>
      <trkpt lat="41.31991299148719" lon="-81.80339669010363">
        <ele>250.3909446923</ele>
        <time>2026-09-11T15:40:55Z</time>
      </trkpt>
      <trkpt lat="41.31992303973095" lon="-81.80322250687874">
        <ele>250.5771264775</ele>
        <time>2026-09-11T15:40:57Z</time>
      </trkpt>
      <trkpt lat="41.31993239232042" lon="-81.80305359800732">
        <ele>250.9244932344</ele>
        <time>2026-09-11T15:41:00Z</time>
      </trkpt>
      <trkpt lat="41.31991909182804" lon="-81.80286463441119">
        <ele>251.0638490777</ele>
        <time>2026-09-11T15:41:03Z</time>
      </trkpt>
      <trkpt lat="41.31989447785929" lon="-81.80270609593130">
        <ele>250.5604619220</ele>
        <time>2026-09-11T15:41:05Z</time>
      </trkpt>
      <trkpt lat="41.31978464996857" lon="-81.80228053127867">
        <ele>250.8492683315</ele>
        <time>2026-09-11T15:41:11Z</time>
      </trkpt>
      <trkpt lat="41.31969550362551" lon="-81.80201189470313">
        <ele>251.2510809211</ele>
        <time>2026-09-11T15:41:15Z</time>
      </trkpt>
      <trkpt lat="41.31959940417860" lon="-81.80173995753302">
        <ele>251.9774609018</ele>
        <time>2026-09-11T15:41:20Z</time>
      </trkpt>
      <trkpt lat="41.31945334476375" lon="-81.80140680781889">
        <ele>249.8719440300</ele>
        <time>2026-09-11T15:41:27Z</time>
      </trkpt>
      <trkpt lat="41.31929798507144" lon="-81.80118714624383">
        <ele>249.6895510740</ele>
        <time>2026-09-11T15:41:32Z</time>
      </trkpt>
      <trkpt lat="41.31922278383827" lon="-81.80107448928004">
        <ele>249.9385116620</ele>
        <time>2026-09-11T15:41:34Z</time>
      </trkpt>
      <trkpt lat="41.31913879225549" lon="-81.80097888979556">
        <ele>250.1402605699</ele>
        <time>2026-09-11T15:41:36Z</time>
      </trkpt>
      <trkpt lat="41.31904859105022" lon="-81.80091517843029">
        <ele>249.9184469182</ele>
        <time>2026-09-11T15:41:39Z</time>
      </trkpt>
      <trkpt lat="41.31897144010281" lon="-81.80084855573374">
        <ele>250.1814290040</ele>
        <time>2026-09-11T15:41:41Z</time>
      </trkpt>
      <trkpt lat="41.31878429320086" lon="-81.80075087872829">
        <ele>249.9643908157</ele>
        <time>2026-09-11T15:41:45Z</time>
      </trkpt>
      <trkpt lat="41.31858887174816" lon="-81.80069987350528">
        <ele>249.7349843888</ele>
        <time>2026-09-11T15:41:49Z</time>
      </trkpt>
      <trkpt lat="41.31846705254080" lon="-81.80067449929898">
        <ele>249.7027778327</ele>
        <time>2026-09-11T15:41:53Z</time>
      </trkpt>
      <trkpt lat="41.31836632109960" lon="-81.80068267685660">
        <ele>249.3311550773</ele>
        <time>2026-09-11T15:41:54Z</time>
      </trkpt>
      <trkpt lat="41.31800367534446" lon="-81.80072444710594">
        <ele>248.9516304258</ele>
        <time>2026-09-11T15:42:01Z</time>
      </trkpt>
      <trkpt lat="41.31791961990009" lon="-81.80072308626247">
        <ele>248.9911209358</ele>
        <time>2026-09-11T15:42:03Z</time>
      </trkpt>
      <trkpt lat="41.31771900142041" lon="-81.80067626575502">
        <ele>249.6672547550</ele>
        <time>2026-09-11T15:42:08Z</time>
      </trkpt>
      <trkpt lat="41.31758998972905" lon="-81.80062516361080">
        <ele>249.6532988497</ele>
        <time>2026-09-11T15:42:11Z</time>
      </trkpt>
      <trkpt lat="41.31751151217711" lon="-81.80057179750035">
        <ele>249.0943711005</ele>
        <time>2026-09-11T15:42:12Z</time>
      </trkpt>
      <trkpt lat="41.31737452500556" lon="-81.80049734320413">
        <ele>249.2272779669</ele>
        <time>2026-09-11T15:42:15Z</time>
      </trkpt>
      <trkpt lat="41.31727227863428" lon="-81.80041674986732">
        <ele>248.9171652986</ele>
        <time>2026-09-11T15:42:17Z</time>
      </trkpt>
      <trkpt lat="41.31700985438661" lon="-81.80017205177370">
        <ele>249.2652913863</ele>
        <time>2026-09-11T15:42:24Z</time>
      </trkpt>
      <trkpt lat="41.31677908933683" lon="-81.79988543692997">
        <ele>248.9734681576</ele>
        <time>2026-09-11T15:42:30Z</time>
      </trkpt>
      <trkpt lat="41.31659600515614" lon="-81.79958513590590">
        <ele>249.9146639544</ele>
        <time>2026-09-11T15:42:36Z</time>
      </trkpt>
      <trkpt lat="41.31652436617775" lon="-81.79945364363536">
        <ele>250.0450898750</ele>
        <time>2026-09-11T15:42:38Z</time>
      </trkpt>
      <trkpt lat="41.31646697522852" lon="-81.79930857388824">
        <ele>250.5852852545</ele>
        <time>2026-09-11T15:42:41Z</time>
      </trkpt>
      <trkpt lat="41.31640204955934" lon="-81.79913846218270">
        <ele>250.1854020966</ele>
        <time>2026-09-11T15:42:44Z</time>
      </trkpt>
      <trkpt lat="41.31630367412290" lon="-81.79876381660459">
        <ele>249.9256612009</ele>
        <time>2026-09-11T15:42:51Z</time>
      </trkpt>
      <trkpt lat="41.31623440428933" lon="-81.79848127644259">
        <ele>248.8663681079</ele>
        <time>2026-09-11T15:42:56Z</time>
      </trkpt>
      <trkpt lat="41.31622518175246" lon="-81.79840370845228">
        <ele>248.7452421658</ele>
        <time>2026-09-11T15:42:57Z</time>
      </trkpt>
      <trkpt lat="41.31621461077510" lon="-81.79794104169602">
        <ele>248.7182512518</ele>
        <time>2026-09-11T15:43:03Z</time>
      </trkpt>
      <trkpt lat="41.31618557846314" lon="-81.79764290535847">
        <ele>248.9930706578</ele>
        <time>2026-09-11T15:43:06Z</time>
      </trkpt>
      <trkpt lat="41.31620422118667" lon="-81.79747750436368">
        <ele>248.8796310121</ele>
        <time>2026-09-11T15:43:09Z</time>
      </trkpt>
      <trkpt lat="41.31620785265324" lon="-81.79741473043607">
        <ele>249.1973160572</ele>
        <time>2026-09-11T15:43:10Z</time>
      </trkpt>
      <trkpt lat="41.31620148949970" lon="-81.79738439639908">
        <ele>248.9613482209</ele>
        <time>2026-09-11T15:43:11Z</time>
      </trkpt>
      <trkpt lat="41.31618601098867" lon="-81.79732644808379">
        <ele>248.8976104884</ele>
        <time>2026-09-11T15:43:12Z</time>
      </trkpt>
      <trkpt lat="41.31602151134865" lon="-81.79705458591275">
        <ele>249.1423735986</ele>
        <time>2026-09-11T15:43:17Z</time>
      </trkpt>
      <trkpt lat="41.31592363230518" lon="-81.79694292405598">
        <ele>248.9190318921</ele>
        <time>2026-09-11T15:43:20Z</time>
      </trkpt>
      <trkpt lat="41.31577618100462" lon="-81.79691102767258">
        <ele>249.0429428498</ele>
        <time>2026-09-11T15:43:23Z</time>
      </trkpt>
      <trkpt lat="41.31573101111567" lon="-81.79687860668753">
        <ele>248.8511334241</ele>
        <time>2026-09-11T15:43:25Z</time>
      </trkpt>
      <trkpt lat="41.31557499349425" lon="-81.79678366086866">
        <ele>248.0245701270</ele>
        <time>2026-09-11T15:43:29Z</time>
      </trkpt>
      <trkpt lat="41.31542444809573" lon="-81.79670993227450">
        <ele>247.9694148281</ele>
        <time>2026-09-11T15:43:33Z</time>
      </trkpt>
      <trkpt lat="41.31519604508248" lon="-81.79653955920537">
        <ele>246.9821683042</ele>
        <time>2026-09-11T15:43:39Z</time>
      </trkpt>
      <trkpt lat="41.31504764984945" lon="-81.79646365774876">
        <ele>247.2750401824</ele>
        <time>2026-09-11T15:43:43Z</time>
      </trkpt>
      <trkpt lat="41.31498129072778" lon="-81.79641319002083">
        <ele>247.0868826626</ele>
        <time>2026-09-11T15:43:52Z</time>
      </trkpt>
      <trkpt lat="41.31486982587181" lon="-81.79637244048781">
        <ele>246.9492852227</ele>
        <time>2026-09-11T15:43:55Z</time>
      </trkpt>
      <trkpt lat="41.31466073856526" lon="-81.79632360964072">
        <ele>247.4640344351</ele>
        <time>2026-09-11T15:43:59Z</time>
      </trkpt>
      <trkpt lat="41.31438913646434" lon="-81.79632845515235">
        <ele>247.6243652622</ele>
        <time>2026-09-11T15:44:06Z</time>
      </trkpt>
      <trkpt lat="41.31416267353724" lon="-81.79628766252807">
        <ele>247.2755585249</ele>
        <time>2026-09-11T15:44:09Z</time>
      </trkpt>
      <trkpt lat="41.31408088917881" lon="-81.79628220050405">
        <ele>247.2619544108</ele>
        <time>2026-09-11T15:44:11Z</time>
      </trkpt>
      <trkpt lat="41.31340302503828" lon="-81.79627419757281">
        <ele>248.0221153693</ele>
        <time>2026-09-11T15:44:30Z</time>
      </trkpt>
      <trkpt lat="41.31318281794365" lon="-81.79627640043645">
        <ele>249.0798993151</ele>
        <time>2026-09-11T15:44:35Z</time>
      </trkpt>
      <trkpt lat="41.31296410222729" lon="-81.79626027852923">
        <ele>248.6626172865</ele>
        <time>2026-09-11T15:44:39Z</time>
      </trkpt>
      <trkpt lat="41.31290472562455" lon="-81.79624874293106">
        <ele>248.7794295871</ele>
        <time>2026-09-11T15:44:40Z</time>
      </trkpt>
      <trkpt lat="41.31285142817771" lon="-81.79623392002387">
        <ele>248.9982794021</ele>
        <time>2026-09-11T15:44:41Z</time>
      </trkpt>
      <trkpt lat="41.31282408296264" lon="-81.79620144653438">
        <ele>249.1081535802</ele>
        <time>2026-09-11T15:44:42Z</time>
      </trkpt>
      <trkpt lat="41.31271060269225" lon="-81.79599798681519">
        <ele>249.3203489815</ele>
        <time>2026-09-11T15:44:45Z</time>
      </trkpt>
      <trkpt lat="41.31263306431054" lon="-81.79586826084515">
        <ele>250.0672797600</ele>
        <time>2026-09-11T15:44:49Z</time>
      </trkpt>
      <trkpt lat="41.31219769769815" lon="-81.79554130065374">
        <ele>250.0556150811</ele>
        <time>2026-09-11T15:44:58Z</time>
      </trkpt>
      <trkpt lat="41.31210093367132" lon="-81.79546729916429">
        <ele>250.4347760911</ele>
        <time>2026-09-11T15:45:00Z</time>
      </trkpt>
      <trkpt lat="41.31198017744460" lon="-81.79534195812802">
        <ele>250.9995679284</ele>
        <time>2026-09-11T15:45:03Z</time>
      </trkpt>
      <trkpt lat="41.31188762958433" lon="-81.79522228858887">
        <ele>250.5726486566</ele>
        <time>2026-09-11T15:45:05Z</time>
      </trkpt>
      <trkpt lat="41.31173584937729" lon="-81.79499102125536">
        <ele>249.3339831734</ele>
        <time>2026-09-11T15:45:11Z</time>
      </trkpt>
      <trkpt lat="41.31172577014200" lon="-81.79491246253080">
        <ele>248.6799623766</ele>
        <time>2026-09-11T15:45:12Z</time>
      </trkpt>
      <trkpt lat="41.31169936265059" lon="-81.79475239500545">
        <ele>248.4668326118</ele>
        <time>2026-09-11T15:45:14Z</time>
      </trkpt>
      <trkpt lat="41.31165579427830" lon="-81.79449308684687">
        <ele>249.0698643834</ele>
        <time>2026-09-11T15:45:18Z</time>
      </trkpt>
      <trkpt lat="41.31163548184317" lon="-81.79410816389688">
        <ele>249.4951127826</ele>
        <time>2026-09-11T15:45:24Z</time>
      </trkpt>
      <trkpt lat="41.31164937901605" lon="-81.79405188642805">
        <ele>249.4103629010</ele>
        <time>2026-09-11T15:45:25Z</time>
      </trkpt>
      <trkpt lat="41.31169566521031" lon="-81.79389038068933">
        <ele>249.2730541682</ele>
        <time>2026-09-11T15:45:27Z</time>
      </trkpt>
      <trkpt lat="41.31169585819299" lon="-81.79370385134715">
        <ele>249.7346280518</ele>
        <time>2026-09-11T15:45:30Z</time>
      </trkpt>
      <trkpt lat="41.31167351026804" lon="-81.79289784439311">
        <ele>249.7110208457</ele>
        <time>2026-09-11T15:45:51Z</time>
      </trkpt>
      <trkpt lat="41.31163280808033" lon="-81.79262759534397">
        <ele>249.8056823720</ele>
        <time>2026-09-11T15:45:56Z</time>
      </trkpt>
      <trkpt lat="41.31162451124980" lon="-81.79240935716290">
        <ele>250.0029959506</ele>
        <time>2026-09-11T15:45:59Z</time>
      </trkpt>
      <trkpt lat="41.31161535503787" lon="-81.79228533595298">
        <ele>249.9426963580</ele>
        <time>2026-09-11T15:46:01Z</time>
      </trkpt>
      <trkpt lat="41.31158433048039" lon="-81.79214769049811">
        <ele>250.1731192145</ele>
        <time>2026-09-11T15:46:03Z</time>
      </trkpt>
      <trkpt lat="41.31153937348699" lon="-81.79200803498064">
        <ele>249.7966527712</ele>
        <time>2026-09-11T15:46:05Z</time>
      </trkpt>
      <trkpt lat="41.31143131869707" lon="-81.79179214799994">
        <ele>249.2941172823</ele>
        <time>2026-09-11T15:46:33Z</time>
      </trkpt>
      <trkpt lat="41.31141002274997" lon="-81.79166101524068">
        <ele>249.4374524929</ele>
        <time>2026-09-11T15:46:34Z</time>
      </trkpt>
      <trkpt lat="41.31121561176133" lon="-81.79034941189984">
        <ele>250.3874778149</ele>
        <time>2026-09-11T15:46:50Z</time>
      </trkpt>
      <trkpt lat="41.31115707931760" lon="-81.78983638361845">
        <ele>251.0312546759</ele>
        <time>2026-09-11T15:46:59Z</time>
      </trkpt>
      <trkpt lat="41.31115818542718" lon="-81.78974498100416">
        <ele>250.8876836883</ele>
        <time>2026-09-11T15:47:00Z</time>
      </trkpt>
      <trkpt lat="41.31117011537193" lon="-81.78967623890728">
        <ele>250.8542822682</ele>
        <time>2026-09-11T15:47:01Z</time>
      </trkpt>
      <trkpt lat="41.31123624405169" lon="-81.78941564464657">
        <ele>251.6096624540</ele>
        <time>2026-09-11T15:47:06Z</time>
      </trkpt>
      <trkpt lat="41.31124243429343" lon="-81.78934727109515">
        <ele>251.6768821040</ele>
        <time>2026-09-11T15:47:07Z</time>
      </trkpt>
      <trkpt lat="41.31125436864809" lon="-81.78924723870837">
        <ele>250.6226487741</ele>
        <time>2026-09-11T15:47:09Z</time>
      </trkpt>
      <trkpt lat="41.31124316461815" lon="-81.78913839645085">
        <ele>250.0746097110</ele>
        <time>2026-09-11T15:47:10Z</time>
      </trkpt>
      <trkpt lat="41.31117578795944" lon="-81.78881615852326">
        <ele>250.1013789077</ele>
        <time>2026-09-11T15:47:14Z</time>
      </trkpt>
      <trkpt lat="41.31117773269541" lon="-81.78848258519568">
        <ele>249.9458126379</ele>
        <time>2026-09-11T15:47:19Z</time>
      </trkpt>
      <trkpt lat="41.31115663397916" lon="-81.78803453223991">
        <ele>250.1182506216</ele>
        <time>2026-09-11T15:47:28Z</time>
      </trkpt>
      <trkpt lat="41.31116355931296" lon="-81.78746734379617">
        <ele>249.8462763816</ele>
        <time>2026-09-11T15:47:36Z</time>
      </trkpt>
      <trkpt lat="41.31115072161255" lon="-81.78692244907705">
        <ele>249.9869404586</ele>
        <time>2026-09-11T15:47:45Z</time>
      </trkpt>
      <trkpt lat="41.31113274777694" lon="-81.78684137881413">
        <ele>250.0873057095</ele>
        <time>2026-09-11T15:47:46Z</time>
      </trkpt>
      <trkpt lat="41.31106477247558" lon="-81.78661122112413">
        <ele>249.2786123622</ele>
        <time>2026-09-11T15:47:50Z</time>
      </trkpt>
      <trkpt lat="41.31105348869624" lon="-81.78652969467758">
        <ele>249.8686272197</ele>
        <time>2026-09-11T15:47:52Z</time>
      </trkpt>
      <trkpt lat="41.31102612436904" lon="-81.78627885933842">
        <ele>250.3759096227</ele>
        <time>2026-09-11T15:47:55Z</time>
      </trkpt>
      <trkpt lat="41.31095880383407" lon="-81.78594175068008">
        <ele>250.0004116302</ele>
        <time>2026-09-11T15:48:01Z</time>
      </trkpt>
      <trkpt lat="41.31087051494593" lon="-81.78559724737188">
        <ele>250.7092181922</ele>
        <time>2026-09-11T15:48:08Z</time>
      </trkpt>
      <trkpt lat="41.31081997650485" lon="-81.78548210925176">
        <ele>251.1741000911</ele>
        <time>2026-09-11T15:48:10Z</time>
      </trkpt>
      <trkpt lat="41.31072489366299" lon="-81.78531514299569">
        <ele>250.9701770674</ele>
        <time>2026-09-11T15:48:14Z</time>
      </trkpt>
      <trkpt lat="41.31067355433403" lon="-81.78515341131353">
        <ele>250.8272395164</ele>
        <time>2026-09-11T15:48:23Z</time>
      </trkpt>
      <trkpt lat="41.31053233083870" lon="-81.78492324132579">
        <ele>250.9608428583</ele>
        <time>2026-09-11T15:48:27Z</time>
      </trkpt>
      <trkpt lat="41.31047372804463" lon="-81.78481966678285">
        <ele>251.1424794047</ele>
        <time>2026-09-11T15:48:29Z</time>
      </trkpt>
      <trkpt lat="41.31039394554700" lon="-81.78459465403158">
        <ele>251.0259784471</ele>
        <time>2026-09-11T15:48:34Z</time>
      </trkpt>
      <trkpt lat="41.31036440038719" lon="-81.78452378720900">
        <ele>250.9545093067</ele>
        <time>2026-09-11T15:48:35Z</time>
      </trkpt>
      <trkpt lat="41.31031618066242" lon="-81.78445464212506">
        <ele>250.7883883717</ele>
        <time>2026-09-11T15:48:36Z</time>
      </trkpt>
      <trkpt lat="41.31026135039347" lon="-81.78439520853003">
        <ele>251.1337902186</ele>
        <time>2026-09-11T15:48:38Z</time>
      </trkpt>
      <trkpt lat="41.30994428285923" lon="-81.78416928902251">
        <ele>250.8259390261</ele>
        <time>2026-09-11T15:48:43Z</time>
      </trkpt>
      <trkpt lat="41.30990347359793" lon="-81.78410907364500">
        <ele>251.0269954553</ele>
        <time>2026-09-11T15:48:44Z</time>
      </trkpt>
      <trkpt lat="41.30983028582548" lon="-81.78397552849654">
        <ele>250.8025577066</ele>
        <time>2026-09-11T15:48:46Z</time>
      </trkpt>
      <trkpt lat="41.30981315649942" lon="-81.78392206597363">
        <ele>251.0945463652</ele>
        <time>2026-09-11T15:48:47Z</time>
      </trkpt>
      <trkpt lat="41.30976064564718" lon="-81.78387361172783">
        <ele>251.0621210243</ele>
        <time>2026-09-11T15:48:49Z</time>
      </trkpt>
      <trkpt lat="41.30957081161890" lon="-81.78380525694470">
        <ele>250.7024387917</ele>
        <time>2026-09-11T15:48:52Z</time>
      </trkpt>
      <trkpt lat="41.30927515114602" lon="-81.78355296765335">
        <ele>251.0387498787</ele>
        <time>2026-09-11T15:49:01Z</time>
      </trkpt>
      <trkpt lat="41.30909158280455" lon="-81.78337856982282">
        <ele>250.7357313280</ele>
        <time>2026-09-11T15:49:07Z</time>
      </trkpt>
      <trkpt lat="41.30899482800018" lon="-81.78330543007229">
        <ele>250.9289153733</ele>
        <time>2026-09-11T15:49:10Z</time>
      </trkpt>
      <trkpt lat="41.30886924861026" lon="-81.78325535351989">
        <ele>250.9899796657</ele>
        <time>2026-09-11T15:49:12Z</time>
      </trkpt>
      <trkpt lat="41.30866664628095" lon="-81.78314734198833">
        <ele>250.7414924143</ele>
        <time>2026-09-11T15:49:45Z</time>
      </trkpt>
      <trkpt lat="41.30828114954606" lon="-81.78292745524533">
        <ele>251.7605481156</ele>
        <time>2026-09-11T15:49:51Z</time>
      </trkpt>
      <trkpt lat="41.30799024472227" lon="-81.78280221974022">
        <ele>251.8071209816</ele>
        <time>2026-09-11T15:49:57Z</time>
      </trkpt>
      <trkpt lat="41.30779054683016" lon="-81.78268063474749">
        <ele>251.5084694578</ele>
        <time>2026-09-11T15:50:02Z</time>
      </trkpt>
      <trkpt lat="41.30732487790271" lon="-81.78247907237854">
        <ele>251.1375256623</ele>
        <time>2026-09-11T15:50:11Z</time>
      </trkpt>
      <trkpt lat="41.30719561014254" lon="-81.78242631419266">
        <ele>251.6120547569</ele>
        <time>2026-09-11T15:50:13Z</time>
      </trkpt>
      <trkpt lat="41.30678803192720" lon="-81.78230684725730">
        <ele>251.2174623506</ele>
        <time>2026-09-11T15:50:22Z</time>
      </trkpt>
      <trkpt lat="41.30652407372516" lon="-81.78221600190670">
        <ele>251.5578157303</ele>
        <time>2026-09-11T15:50:44Z</time>
      </trkpt>
      <trkpt lat="41.30622198250055" lon="-81.78201527526321">
        <ele>251.9788897339</ele>
        <time>2026-09-11T15:50:58Z</time>
      </trkpt>
      <trkpt lat="41.30610637194138" lon="-81.78192699392265">
        <ele>251.7836216026</ele>
        <time>2026-09-11T15:51:01Z</time>
      </trkpt>
      <trkpt lat="41.30599692913628" lon="-81.78182555090991">
        <ele>252.1299470961</ele>
        <time>2026-09-11T15:51:04Z</time>
      </trkpt>
      <trkpt lat="41.30571377444387" lon="-81.78151881070097">
        <ele>251.8601638519</ele>
        <time>2026-09-11T15:51:14Z</time>
      </trkpt>
      <trkpt lat="41.30562907890646" lon="-81.78139868421827">
        <ele>252.0320498886</ele>
        <time>2026-09-11T15:51:17Z</time>
      </trkpt>
      <trkpt lat="41.30556164852450" lon="-81.78128113074986">
        <ele>252.0009248125</ele>
        <time>2026-09-11T15:51:19Z</time>
      </trkpt>
      <trkpt lat="41.30520633284839" lon="-81.78067721031690">
        <ele>252.1360567936</ele>
        <time>2026-09-11T15:51:31Z</time>
      </trkpt>
      <trkpt lat="41.30509209506607" lon="-81.78049420229561">
        <ele>251.9501904024</ele>
        <time>2026-09-11T15:51:34Z</time>
      </trkpt>
      <trkpt lat="41.30503321106663" lon="-81.78037123771023">
        <ele>251.9414570324</ele>
        <time>2026-09-11T15:51:36Z</time>
      </trkpt>
      <trkpt lat="41.30499378905530" lon="-81.78025256052150">
        <ele>251.8148865342</ele>
        <time>2026-09-11T15:51:38Z</time>
      </trkpt>
      <trkpt lat="41.30489678025124" lon="-81.77999224619683">
        <ele>251.7573030322</ele>
        <time>2026-09-11T15:51:42Z</time>
      </trkpt>
      <trkpt lat="41.30471598202378" lon="-81.77931098825810">
        <ele>252.0822928789</ele>
        <time>2026-09-11T15:51:54Z</time>
      </trkpt>
      <trkpt lat="41.30466070127159" lon="-81.77905777252536">
        <ele>251.9276776319</ele>
        <time>2026-09-11T15:51:58Z</time>
      </trkpt>
      <trkpt lat="41.30468786386676" lon="-81.77862619521255">
        <ele>251.7261698937</ele>
        <time>2026-09-11T15:52:07Z</time>
      </trkpt>
      <trkpt lat="41.30467139467680" lon="-81.77839507916948">
        <ele>251.9711127760</ele>
        <time>2026-09-11T15:52:11Z</time>
      </trkpt>
      <trkpt lat="41.30464312360390" lon="-81.77830764738320">
        <ele>251.9927545814</ele>
        <time>2026-09-11T15:52:13Z</time>
      </trkpt>
      <trkpt lat="41.30453717153266" lon="-81.77796914395081">
        <ele>251.9634791899</ele>
        <time>2026-09-11T15:52:17Z</time>
      </trkpt>
      <trkpt lat="41.30437988420528" lon="-81.77720378758399">
        <ele>252.3305312885</ele>
        <time>2026-09-11T15:52:30Z</time>
      </trkpt>
      <trkpt lat="41.30426315578582" lon="-81.77683092742191">
        <ele>252.8107751463</ele>
        <time>2026-09-11T15:52:36Z</time>
      </trkpt>
      <trkpt lat="41.30421270035476" lon="-81.77657788483849">
        <ele>253.0220521483</ele>
        <time>2026-09-11T15:52:40Z</time>
      </trkpt>
      <trkpt lat="41.30417070682195" lon="-81.77622652639050">
        <ele>252.8985573795</ele>
        <time>2026-09-11T15:52:47Z</time>
      </trkpt>
      <trkpt lat="41.30414013428604" lon="-81.77602620094540">
        <ele>252.8130879725</ele>
        <time>2026-09-11T15:52:49Z</time>
      </trkpt>
      <trkpt lat="41.30408130763771" lon="-81.77581673962581">
        <ele>253.1852329863</ele>
        <time>2026-09-11T15:53:03Z</time>
      </trkpt>
      <trkpt lat="41.30397924560389" lon="-81.77551038075109">
        <ele>253.0791456322</ele>
        <time>2026-09-11T15:53:08Z</time>
      </trkpt>
      <trkpt lat="41.30393195466694" lon="-81.77527628618073">
        <ele>252.9509567236</ele>
        <time>2026-09-11T15:53:11Z</time>
      </trkpt>
      <trkpt lat="41.30378083567218" lon="-81.77467287513203">
        <ele>253.2335917181</ele>
        <time>2026-09-11T15:53:21Z</time>
      </trkpt>
      <trkpt lat="41.30377397784770" lon="-81.77455008461982">
        <ele>252.8793699870</ele>
        <time>2026-09-11T15:53:23Z</time>
      </trkpt>
      <trkpt lat="41.30377335331302" lon="-81.77438700410664">
        <ele>253.1123221927</ele>
        <time>2026-09-11T15:53:25Z</time>
      </trkpt>
      <trkpt lat="41.30375657887878" lon="-81.77433255191828">
        <ele>253.0655197348</ele>
        <time>2026-09-11T15:53:26Z</time>
      </trkpt>
      <trkpt lat="41.30360269699599" lon="-81.77384323911889">
        <ele>253.0292311077</ele>
        <time>2026-09-11T15:53:34Z</time>
      </trkpt>
      <trkpt lat="41.30350050144038" lon="-81.77355143511559">
        <ele>253.6009687260</ele>
        <time>2026-09-11T15:53:39Z</time>
      </trkpt>
      <trkpt lat="41.30332041534409" lon="-81.77312018653508">
        <ele>253.7665894630</ele>
        <time>2026-09-11T15:53:45Z</time>
      </trkpt>
      <trkpt lat="41.30327189324855" lon="-81.77298833974548">
        <ele>253.7958077048</ele>
        <time>2026-09-11T15:53:48Z</time>
      </trkpt>
      <trkpt lat="41.30309497691717" lon="-81.77268998107981">
        <ele>253.8088628560</ele>
        <time>2026-09-11T15:53:54Z</time>
      </trkpt>
      <trkpt lat="41.30298282452323" lon="-81.77251321610848">
        <ele>254.0125147602</ele>
        <time>2026-09-11T15:53:59Z</time>
      </trkpt>
      <trkpt lat="41.30277175253522" lon="-81.77223051424467">
        <ele>253.9897259324</ele>
        <time>2026-09-11T15:54:04Z</time>
      </trkpt>
      <trkpt lat="41.30267628063576" lon="-81.77208216006284">
        <ele>253.9701156438</ele>
        <time>2026-09-11T15:54:07Z</time>
      </trkpt>
      <trkpt lat="41.30259854544650" lon="-81.77196486797577">
        <ele>253.9750949846</ele>
        <time>2026-09-11T15:54:09Z</time>
      </trkpt>
      <trkpt lat="41.30255666435412" lon="-81.77189564655802">
        <ele>254.0636431100</ele>
        <time>2026-09-11T15:54:10Z</time>
      </trkpt>
      <trkpt lat="41.30247931989457" lon="-81.77153312893057">
        <ele>253.9036809696</ele>
        <time>2026-09-11T15:54:15Z</time>
      </trkpt>
      <trkpt lat="41.30240905384728" lon="-81.77126615362425">
        <ele>254.1597498070</ele>
        <time>2026-09-11T15:54:21Z</time>
      </trkpt>
      <trkpt lat="41.30236268338417" lon="-81.77111807091390">
        <ele>253.9144221589</ele>
        <time>2026-09-11T15:54:24Z</time>
      </trkpt>
      <trkpt lat="41.30235396837718" lon="-81.77103611152904">
        <ele>253.8024460188</ele>
        <time>2026-09-11T15:54:26Z</time>
      </trkpt>
      <trkpt lat="41.30236328193365" lon="-81.77079617244226">
        <ele>253.9304483755</ele>
        <time>2026-09-11T15:54:29Z</time>
      </trkpt>
      <trkpt lat="41.30234778423173" lon="-81.77074562809021">
        <ele>254.0818337246</ele>
        <time>2026-09-11T15:54:30Z</time>
      </trkpt>
      <trkpt lat="41.30227372254045" lon="-81.77048631340401">
        <ele>254.1233534250</ele>
        <time>2026-09-11T15:54:34Z</time>
      </trkpt>
      <trkpt lat="41.30226829051509" lon="-81.77026596403292">
        <ele>254.2945561986</ele>
        <time>2026-09-11T15:54:37Z</time>
      </trkpt>
      <trkpt lat="41.30227012142537" lon="-81.77016883194892">
        <ele>254.5587627126</ele>
        <time>2026-09-11T15:54:38Z</time>
      </trkpt>
      <trkpt lat="41.30227764277982" lon="-81.77005714122174">
        <ele>255.0146490307</ele>
        <time>2026-09-11T15:54:41Z</time>
      </trkpt>
      <trkpt lat="41.30229609250074" lon="-81.76995463378387">
        <ele>255.1061724419</ele>
        <time>2026-09-11T15:54:42Z</time>
      </trkpt>
      <trkpt lat="41.30237265472393" lon="-81.76973625786030">
        <ele>254.7760772746</ele>
        <time>2026-09-11T15:54:45Z</time>
      </trkpt>
      <trkpt lat="41.30244295478020" lon="-81.76956894763944">
        <ele>254.8982190941</ele>
        <time>2026-09-11T15:54:48Z</time>
      </trkpt>
      <trkpt lat="41.30251447066151" lon="-81.76936171545309">
        <ele>254.7729044554</ele>
        <time>2026-09-11T15:54:51Z</time>
      </trkpt>
      <trkpt lat="41.30255875640882" lon="-81.76914250165837">
        <ele>255.0275646537</ele>
        <time>2026-09-11T15:54:58Z</time>
      </trkpt>
      <trkpt lat="41.30256901575093" lon="-81.76905913852279">
        <ele>254.9256053540</ele>
        <time>2026-09-11T15:54:59Z</time>
      </trkpt>
      <trkpt lat="41.30257342993112" lon="-81.76869464479590">
        <ele>255.3393549502</ele>
        <time>2026-09-11T15:55:05Z</time>
      </trkpt>
      <trkpt lat="41.30258942066557" lon="-81.76826314617497">
        <ele>256.1157579955</ele>
        <time>2026-09-11T15:55:12Z</time>
      </trkpt>
      <trkpt lat="41.30259165705371" lon="-81.76786951006761">
        <ele>256.2123567712</ele>
        <time>2026-09-11T15:55:20Z</time>
      </trkpt>
      <trkpt lat="41.30260172282702" lon="-81.76763470890661">
        <ele>255.7965402427</ele>
        <time>2026-09-11T15:55:24Z</time>
      </trkpt>
      <trkpt lat="41.30262920502398" lon="-81.76722547882655">
        <ele>255.9725545363</ele>
        <time>2026-09-11T15:55:32Z</time>
      </trkpt>
      <trkpt lat="41.30264085410341" lon="-81.76707124837318">
        <ele>256.3265238136</ele>
        <time>2026-09-11T15:55:37Z</time>
      </trkpt>
      <trkpt lat="41.30260474649637" lon="-81.76673224406964">
        <ele>256.5009101563</ele>
        <time>2026-09-11T15:55:43Z</time>
      </trkpt>
      <trkpt lat="41.30260025199273" lon="-81.76659478215689">
        <ele>256.9411270260</ele>
        <time>2026-09-11T15:55:45Z</time>
      </trkpt>
      <trkpt lat="41.30252871004908" lon="-81.76556165719322">
        <ele>256.8530204640</ele>
        <time>2026-09-11T15:56:03Z</time>
      </trkpt>
      <trkpt lat="41.30255549671950" lon="-81.76505646661235">
        <ele>256.8722241045</ele>
        <time>2026-09-11T15:56:09Z</time>
      </trkpt>
      <trkpt lat="41.30249332831715" lon="-81.76469726652074">
        <ele>257.9768053855</ele>
        <time>2026-09-11T15:56:14Z</time>
      </trkpt>
      <trkpt lat="41.30242813116291" lon="-81.76429007629410">
        <ele>258.0466927195</ele>
        <time>2026-09-11T15:56:20Z</time>
      </trkpt>
      <trkpt lat="41.30240415733098" lon="-81.76403611542517">
        <ele>258.1119209299</ele>
        <time>2026-09-11T15:56:24Z</time>
      </trkpt>
      <trkpt lat="41.30241225441267" lon="-81.76389557914692">
        <ele>258.0158229095</ele>
        <time>2026-09-11T15:56:26Z</time>
      </trkpt>
      <trkpt lat="41.30244361532593" lon="-81.76355562233063">
        <ele>257.9102756609</ele>
        <time>2026-09-11T15:56:31Z</time>
      </trkpt>
      <trkpt lat="41.30246851205057" lon="-81.76341406886650">
        <ele>258.4240421363</ele>
        <time>2026-09-11T15:56:33Z</time>
      </trkpt>
      <trkpt lat="41.30251750869317" lon="-81.76331469723196">
        <ele>258.4876584655</ele>
        <time>2026-09-11T15:56:35Z</time>
      </trkpt>
      <trkpt lat="41.30257346902581" lon="-81.76314644278166">
        <ele>258.7138048800</ele>
        <time>2026-09-11T15:56:38Z</time>
      </trkpt>
      <trkpt lat="41.30270045667941" lon="-81.76278154107672">
        <ele>259.0183488564</ele>
        <time>2026-09-11T15:56:44Z</time>
      </trkpt>
      <trkpt lat="41.30273740652005" lon="-81.76268884088103">
        <ele>259.0861964120</ele>
        <time>2026-09-11T15:56:46Z</time>
      </trkpt>
      <trkpt lat="41.30283144844226" lon="-81.76251557774125">
        <ele>260.0713132151</ele>
        <time>2026-09-11T15:56:48Z</time>
      </trkpt>
      <trkpt lat="41.30304039931603" lon="-81.76217817314634">
        <ele>260.0828658847</ele>
        <time>2026-09-11T15:56:57Z</time>
      </trkpt>
      <trkpt lat="41.30321686664243" lon="-81.76195426731850">
        <ele>260.1425318322</ele>
        <time>2026-09-11T15:57:03Z</time>
      </trkpt>
      <trkpt lat="41.30323751418700" lon="-81.76190095919901">
        <ele>259.7992232994</ele>
        <time>2026-09-11T15:57:04Z</time>
      </trkpt>
      <trkpt lat="41.30324070520373" lon="-81.76180360080377">
        <ele>260.0927283548</ele>
        <time>2026-09-11T15:57:05Z</time>
      </trkpt>
      <trkpt lat="41.30323184769214" lon="-81.76143475908604">
        <ele>260.9620007821</ele>
        <time>2026-09-11T15:57:10Z</time>
      </trkpt>
      <trkpt lat="41.30323372120862" lon="-81.76132480854044">
        <ele>261.1110599095</ele>
        <time>2026-09-11T15:57:12Z</time>
      </trkpt>
      <trkpt lat="41.30327475107840" lon="-81.76065192316514">
        <ele>261.0794650053</ele>
        <time>2026-09-11T15:57:21Z</time>
      </trkpt>
      <trkpt lat="41.30327267616746" lon="-81.76024895086552">
        <ele>261.7201326186</ele>
        <time>2026-09-11T15:57:27Z</time>
      </trkpt>
      <trkpt lat="41.30323239515492" lon="-81.75983671046868">
        <ele>262.6492006532</ele>
        <time>2026-09-11T15:57:35Z</time>
      </trkpt>
      <trkpt lat="41.30321791243662" lon="-81.75953986258875">
        <ele>263.7651726730</ele>
        <time>2026-09-11T15:57:39Z</time>
      </trkpt>
      <trkpt lat="41.30322037515420" lon="-81.75923287674046">
        <ele>264.7374623689</ele>
        <time>2026-09-11T15:57:45Z</time>
      </trkpt>
      <trkpt lat="41.30319696740800" lon="-81.75858648757256">
        <ele>267.8060995361</ele>
        <time>2026-09-11T15:57:52Z</time>
      </trkpt>
      <trkpt lat="41.30319104545811" lon="-81.75824171976899">
        <ele>267.9223435274</ele>
        <time>2026-09-11T15:57:57Z</time>
      </trkpt>
      <trkpt lat="41.30319051389098" lon="-81.75755239419317">
        <ele>270.0084636441</ele>
        <time>2026-09-11T15:58:08Z</time>
      </trkpt>
      <trkpt lat="41.30320684168473" lon="-81.75726813191284">
        <ele>269.9492935623</ele>
        <time>2026-09-11T15:58:11Z</time>
      </trkpt>
      <trkpt lat="41.30325636241066" lon="-81.75668990240253">
        <ele>269.9304014810</ele>
        <time>2026-09-11T15:58:18Z</time>
      </trkpt>
      <trkpt lat="41.30326112328400" lon="-81.75635578910311">
        <ele>270.9968898871</ele>
        <time>2026-09-11T15:58:30Z</time>
      </trkpt>
      <trkpt lat="41.30328700141651" lon="-81.75587363526792">
        <ele>271.0149036122</ele>
        <time>2026-09-11T15:58:38Z</time>
      </trkpt>
      <trkpt lat="41.30326744118778" lon="-81.75505421072020">
        <ele>271.0758147597</ele>
        <time>2026-09-11T15:58:50Z</time>
      </trkpt>
      <trkpt lat="41.30329365877758" lon="-81.75468221078724">
        <ele>271.2163202445</ele>
        <time>2026-09-11T15:58:58Z</time>
      </trkpt>
      <trkpt lat="41.30327506785591" lon="-81.75443529379055">
        <ele>271.9133848288</ele>
        <time>2026-09-11T15:59:01Z</time>
      </trkpt>
      <trkpt lat="41.30327450237759" lon="-81.75417908951368">
        <ele>271.8014153495</ele>
        <time>2026-09-11T15:59:04Z</time>
      </trkpt>
      <trkpt lat="41.30325720243975" lon="-81.75409054502228">
        <ele>271.9770467691</ele>
        <time>2026-09-11T15:59:05Z</time>
      </trkpt>
      <trkpt lat="41.30325663282484" lon="-81.75397064711113">
        <ele>271.8509182083</ele>
        <time>2026-09-11T15:59:07Z</time>
      </trkpt>
      <trkpt lat="41.30337566063863" lon="-81.75396460086451">
        <ele>271.8084836048</ele>
        <time>2026-09-11T15:59:09Z</time>
      </trkpt>
      <trkpt lat="41.30348141157097" lon="-81.75392716074384">
        <ele>272.1804742331</ele>
        <time>2026-09-11T15:59:11Z</time>
      </trkpt>
      <trkpt lat="41.30356492949083" lon="-81.75387871790365">
        <ele>272.2536658873</ele>
        <time>2026-09-11T15:59:13Z</time>
      </trkpt>
      <trkpt lat="41.30361461751633" lon="-81.75379681359159">
        <ele>272.8325228465</ele>
        <time>2026-09-11T15:59:14Z</time>
      </trkpt>
      <trkpt lat="41.30365870354387" lon="-81.75366878016219">
        <ele>272.9712834577</ele>
        <time>2026-09-11T15:59:17Z</time>
      </trkpt>
      <trkpt lat="41.30370603298940" lon="-81.75359448031092">
        <ele>272.8522494339</ele>
        <time>2026-09-11T15:59:18Z</time>
      </trkpt>
      <trkpt lat="41.30378608920854" lon="-81.75351263588470">
        <ele>273.0664792882</ele>
        <time>2026-09-11T15:59:20Z</time>
      </trkpt>
      <trkpt lat="41.30383281534861" lon="-81.75342196052726">
        <ele>273.8388526850</ele>
        <time>2026-09-11T15:59:22Z</time>
      </trkpt>
      <trkpt lat="41.30386377143050" lon="-81.75340868832986">
        <ele>274.0938061761</ele>
        <time>2026-09-11T15:59:23Z</time>
      </trkpt>
      <trkpt lat="41.30390809849060" lon="-81.75340280474548">
        <ele>274.0909989318</ele>
        <time>2026-09-11T15:59:24Z</time>
      </trkpt>
      <trkpt lat="41.30394466994326" lon="-81.75342717677169">
        <ele>273.5379650512</ele>
        <time>2026-09-11T15:59:25Z</time>
      </trkpt>
      <trkpt lat="41.30394673367343" lon="-81.75348577069670">
        <ele>273.6241190061</ele>
        <time>2026-09-11T15:59:26Z</time>
      </trkpt>
      <trkpt lat="41.30393118642380" lon="-81.75370166333273">
        <ele>272.8342457016</ele>
        <time>2026-09-11T15:59:30Z</time>
      </trkpt>
      <trkpt lat="41.30402299133706" lon="-81.75371199084934">
        <ele>273.0991378998</ele>
        <time>2026-09-11T15:59:31Z</time>
      </trkpt>
    </trkseg>
  </trk>
</gpx>