<?xml version='1.0' encoding='UTF-8'?>
<gpx xmlns="http://www.topografix.com/GPX/1/1" creator="https://gpx.studio" version="1.1">
  <metadata>
    <name>Bike - 2026-02-20</name>
  </metadata>
  <trk>
    <name>Bike - 2026-02-20</name>
    <type>cycling</type>
    <trkseg>
      <trkpt lat="41.47973946688244" lon="-81.83157590610381">
        <ele>177.5852051327</ele>
        <time>2026-02-20T11:12:53Z</time>
        <hr>83</hr>
      </trkpt>
      <trkpt lat="41.47981836135991" lon="-81.83165954829030">
        <ele>177.1487818833</ele>
        <time>2026-02-20T11:12:54Z</time>
        <hr>84</hr>
      </trkpt>
      <trkpt lat="41.47989680024627" lon="-81.83168472516464">
        <ele>176.9427119512</ele>
        <time>2026-02-20T11:12:56Z</time>
        <hr>84</hr>
      </trkpt>
      <trkpt lat="41.48006528838545" lon="-81.83167532027798">
        <ele>176.9864097881</ele>
        <time>2026-02-20T11:13:00Z</time>
        <hr>85</hr>
      </trkpt>
      <trkpt lat="41.48012716076047" lon="-81.83167544169289">
        <ele>177.1592138705</ele>
        <time>2026-02-20T11:13:01Z</time>
        <hr>88</hr>
      </trkpt>
      <trkpt lat="41.48020188605126" lon="-81.83170768399320">
        <ele>176.6334904376</ele>
        <time>2026-02-20T11:13:03Z</time>
        <hr>89</hr>
      </trkpt>
      <trkpt lat="41.48027801638234" lon="-81.83179948937963">
        <ele>176.7546591269</ele>
        <time>2026-02-20T11:13:05Z</time>
        <hr>91</hr>
      </trkpt>
      <trkpt lat="41.48033594111046" lon="-81.83170439158978">
        <ele>176.9141729998</ele>
        <time>2026-02-20T11:13:07Z</time>
        <hr>90</hr>
      </trkpt>
      <trkpt lat="41.48023308354199" lon="-81.83156662637725">
        <ele>177.0086746079</ele>
        <time>2026-02-20T11:13:09Z</time>
        <hr>90</hr>
      </trkpt>
      <trkpt lat="41.48018477672446" lon="-81.83142961192706">
        <ele>177.0584638377</ele>
        <time>2026-02-20T11:13:11Z</time>
        <hr>91</hr>
      </trkpt>
      <trkpt lat="41.48015495529989" lon="-81.83116399628290">
        <ele>177.9981423975</ele>
        <time>2026-02-20T11:13:15Z</time>
        <hr>94</hr>
      </trkpt>
      <trkpt lat="41.48016116523497" lon="-81.83096127797795">
        <ele>178.1195132361</ele>
        <time>2026-02-20T11:13:18Z</time>
        <hr>96</hr>
      </trkpt>
      <trkpt lat="41.48013153783693" lon="-81.83084391974070">
        <ele>178.9296008107</ele>
        <time>2026-02-20T11:13:19Z</time>
        <hr>96</hr>
      </trkpt>
      <trkpt lat="41.48011945307695" lon="-81.83078299621197">
        <ele>178.7341218364</ele>
        <time>2026-02-20T11:13:20Z</time>
        <hr>101</hr>
      </trkpt>
      <trkpt lat="41.48007775610487" lon="-81.83073328894251">
        <ele>178.9479657292</ele>
        <time>2026-02-20T11:13:21Z</time>
        <hr>101</hr>
      </trkpt>
      <trkpt lat="41.47997678604253" lon="-81.83068013816779">
        <ele>178.9974918059</ele>
        <time>2026-02-20T11:13:24Z</time>
        <hr>104</hr>
      </trkpt>
      <trkpt lat="41.47987251015513" lon="-81.83064509560846">
        <ele>179.0663735832</ele>
        <time>2026-02-20T11:13:25Z</time>
        <hr>102</hr>
      </trkpt>
      <trkpt lat="41.47979671338713" lon="-81.83061062100492">
        <ele>178.7918420629</ele>
        <time>2026-02-20T11:13:27Z</time>
        <hr>102</hr>
      </trkpt>
      <trkpt lat="41.47966526713873" lon="-81.83050064675980">
        <ele>178.7496349312</ele>
        <time>2026-02-20T11:13:31Z</time>
        <hr>104</hr>
      </trkpt>
      <trkpt lat="41.47952699738509" lon="-81.83036036581149">
        <ele>179.1389490574</ele>
        <time>2026-02-20T11:13:34Z</time>
        <hr>106</hr>
      </trkpt>
      <trkpt lat="41.47939100468403" lon="-81.83021675251248">
        <ele>179.3442709763</ele>
        <time>2026-02-20T11:13:37Z</time>
        <hr>109</hr>
      </trkpt>
      <trkpt lat="41.47930772000075" lon="-81.83009159123765">
        <ele>180.2877995310</ele>
        <time>2026-02-20T11:13:41Z</time>
        <hr>108</hr>
      </trkpt>
      <trkpt lat="41.47925789968417" lon="-81.83001882853881">
        <ele>180.2979610006</ele>
        <time>2026-02-20T11:13:44Z</time>
        <hr>111</hr>
      </trkpt>
      <trkpt lat="41.47914408172697" lon="-81.82997764292081">
        <ele>179.9989756938</ele>
        <time>2026-02-20T11:13:45Z</time>
        <hr>112</hr>
      </trkpt>
      <trkpt lat="41.47904372320315" lon="-81.82983197625533">
        <ele>180.0502902596</ele>
        <time>2026-02-20T11:13:49Z</time>
        <hr>112</hr>
      </trkpt>
      <trkpt lat="41.47901979937165" lon="-81.82980708042849">
        <ele>180.0188266652</ele>
        <time>2026-02-20T11:13:50Z</time>
        <hr>112</hr>
      </trkpt>
      <trkpt lat="41.47897316865551" lon="-81.82981813954382">
        <ele>180.0743372334</ele>
        <time>2026-02-20T11:13:51Z</time>
        <hr>114</hr>
      </trkpt>
      <trkpt lat="41.47889320355515" lon="-81.82988494891799">
        <ele>179.9586470693</ele>
        <time>2026-02-20T11:13:53Z</time>
        <hr>116</hr>
      </trkpt>
      <trkpt lat="41.47884730675177" lon="-81.82988053479058">
        <ele>179.9857905932</ele>
        <time>2026-02-20T11:13:54Z</time>
        <hr>116</hr>
      </trkpt>
      <trkpt lat="41.47879526217891" lon="-81.82987665491022">
        <ele>179.8320087201</ele>
        <time>2026-02-20T11:13:56Z</time>
        <hr>116</hr>
      </trkpt>
      <trkpt lat="41.47866976945792" lon="-81.82977594207182">
        <ele>179.8904888390</ele>
        <time>2026-02-20T11:13:58Z</time>
        <hr>119</hr>
      </trkpt>
      <trkpt lat="41.47863945343489" lon="-81.82973596880777">
        <ele>179.8956477937</ele>
        <time>2026-02-20T11:13:59Z</time>
        <hr>118</hr>
      </trkpt>
      <trkpt lat="41.47863051356823" lon="-81.82969676524887">
        <ele>180.1998743007</ele>
        <time>2026-02-20T11:14:00Z</time>
        <hr>120</hr>
      </trkpt>
      <trkpt lat="41.47863846645792" lon="-81.82959013662466">
        <ele>180.5183131915</ele>
        <time>2026-02-20T11:14:02Z</time>
        <hr>121</hr>
      </trkpt>
      <trkpt lat="41.47864180760991" lon="-81.82953129505350">
        <ele>180.9770803632</ele>
        <time>2026-02-20T11:14:03Z</time>
        <hr>121</hr>
      </trkpt>
      <trkpt lat="41.47866156481965" lon="-81.82948548063439">
        <ele>181.4855806608</ele>
        <time>2026-02-20T11:14:04Z</time>
        <hr>123</hr>
      </trkpt>
      <trkpt lat="41.47869781068751" lon="-81.82943140440027">
        <ele>182.0116701148</ele>
        <time>2026-02-20T11:14:05Z</time>
        <hr>126</hr>
      </trkpt>
      <trkpt lat="41.47876969936436" lon="-81.82936704711446">
        <ele>183.0599400992</ele>
        <time>2026-02-20T11:14:06Z</time>
        <hr>127</hr>
      </trkpt>
      <trkpt lat="41.47894908515993" lon="-81.82927788473381">
        <ele>184.7087161007</ele>
        <time>2026-02-20T11:14:11Z</time>
        <hr>130</hr>
      </trkpt>
      <trkpt lat="41.47881897786534" lon="-81.82914475923302">
        <ele>184.0313797083</ele>
        <time>2026-02-20T11:14:15Z</time>
        <hr>133</hr>
      </trkpt>
      <trkpt lat="41.47857399483705" lon="-81.82878859435901">
        <ele>184.1293861277</ele>
        <time>2026-02-20T11:14:24Z</time>
        <hr>134</hr>
      </trkpt>
      <trkpt lat="41.47780767878855" lon="-81.82784194023097">
        <ele>181.9630687882</ele>
        <time>2026-02-20T11:14:55Z</time>
        <hr>140</hr>
      </trkpt>
      <trkpt lat="41.47780979450710" lon="-81.82769864979888">
        <ele>183.2046805910</ele>
        <time>2026-02-20T11:14:59Z</time>
        <hr>143</hr>
      </trkpt>
      <trkpt lat="41.47764745952328" lon="-81.82749032645177">
        <ele>182.5846421404</ele>
        <time>2026-02-20T11:15:03Z</time>
        <hr>145</hr>
      </trkpt>
      <trkpt lat="41.47749244252974" lon="-81.82722624826260">
        <ele>181.6421247932</ele>
        <time>2026-02-20T11:15:10Z</time>
        <hr>143</hr>
      </trkpt>
      <trkpt lat="41.47737518296297" lon="-81.82695409523237">
        <ele>181.2856027502</ele>
        <time>2026-02-20T11:15:14Z</time>
        <hr>144</hr>
      </trkpt>
      <trkpt lat="41.47732103609566" lon="-81.82682039929486">
        <ele>180.6578251059</ele>
        <time>2026-02-20T11:15:17Z</time>
        <hr>142</hr>
      </trkpt>
      <trkpt lat="41.47726494045253" lon="-81.82649708382729">
        <ele>181.0349417279</ele>
        <time>2026-02-20T11:15:22Z</time>
        <hr>145</hr>
      </trkpt>
      <trkpt lat="41.47723128478719" lon="-81.82630896581288">
        <ele>180.6215457267</ele>
        <time>2026-02-20T11:15:24Z</time>
        <hr>147</hr>
      </trkpt>
      <trkpt lat="41.47721313866394" lon="-81.82590546330383">
        <ele>180.5591166573</ele>
        <time>2026-02-20T11:15:30Z</time>
        <hr>146</hr>
      </trkpt>
      <trkpt lat="41.47714123687970" lon="-81.82499475412357">
        <ele>180.9845200881</ele>
        <time>2026-02-20T11:15:44Z</time>
        <hr>149</hr>
      </trkpt>
      <trkpt lat="41.47710754528075" lon="-81.82475345070996">
        <ele>180.1389314586</ele>
        <time>2026-02-20T11:15:48Z</time>
        <hr>149</hr>
      </trkpt>
      <trkpt lat="41.47707337974971" lon="-81.82453370073478">
        <ele>180.4087250986</ele>
        <time>2026-02-20T11:15:51Z</time>
        <hr>145</hr>
      </trkpt>
      <trkpt lat="41.47699223966237" lon="-81.82429777431915">
        <ele>180.2167489552</ele>
        <time>2026-02-20T11:15:55Z</time>
        <hr>146</hr>
      </trkpt>
      <trkpt lat="41.47693069539686" lon="-81.82416394103954">
        <ele>180.7999788698</ele>
        <time>2026-02-20T11:15:58Z</time>
        <hr>148</hr>
      </trkpt>
      <trkpt lat="41.47675341079074" lon="-81.82393106899842">
        <ele>180.9187611541</ele>
        <time>2026-02-20T11:16:03Z</time>
        <hr>146</hr>
      </trkpt>
      <trkpt lat="41.47664487662603" lon="-81.82382453678163">
        <ele>180.9592061519</ele>
        <time>2026-02-20T11:16:05Z</time>
        <hr>146</hr>
      </trkpt>
      <trkpt lat="41.47656452643891" lon="-81.82374738994726">
        <ele>180.9124170868</ele>
        <time>2026-02-20T11:16:07Z</time>
        <hr>145</hr>
      </trkpt>
      <trkpt lat="41.47647767296170" lon="-81.82372522481043">
        <ele>180.6367542218</ele>
        <time>2026-02-20T11:16:08Z</time>
        <hr>144</hr>
      </trkpt>
      <trkpt lat="41.47632499440219" lon="-81.82368125234241">
        <ele>179.6523206895</ele>
        <time>2026-02-20T11:16:11Z</time>
        <hr>146</hr>
      </trkpt>
      <trkpt lat="41.47616726482357" lon="-81.82367600144234">
        <ele>179.0764634980</ele>
        <time>2026-02-20T11:16:14Z</time>
        <hr>147</hr>
      </trkpt>
      <trkpt lat="41.47608917274692" lon="-81.82366000199572">
        <ele>178.6574058981</ele>
        <time>2026-02-20T11:16:16Z</time>
        <hr>149</hr>
      </trkpt>
      <trkpt lat="41.47594725104599" lon="-81.82372116719661">
        <ele>179.1078991951</ele>
        <time>2026-02-20T11:16:19Z</time>
        <hr>147</hr>
      </trkpt>
      <trkpt lat="41.47557372351246" lon="-81.82390579244718">
        <ele>179.4467973052</ele>
        <time>2026-02-20T11:16:26Z</time>
        <hr>150</hr>
      </trkpt>
      <trkpt lat="41.47525526936291" lon="-81.82401312253238">
        <ele>178.7000522527</ele>
        <time>2026-02-20T11:16:32Z</time>
        <hr>149</hr>
      </trkpt>
      <trkpt lat="41.47500324664836" lon="-81.82414023267319">
        <ele>179.9280641009</ele>
        <time>2026-02-20T11:16:38Z</time>
        <hr>147</hr>
      </trkpt>
      <trkpt lat="41.47490728438719" lon="-81.82419830063493">
        <ele>179.3121764361</ele>
        <time>2026-02-20T11:16:40Z</time>
        <hr>147</hr>
      </trkpt>
      <trkpt lat="41.47463917317453" lon="-81.82424626966551">
        <ele>179.7622260143</ele>
        <time>2026-02-20T11:16:46Z</time>
        <hr>147</hr>
      </trkpt>
      <trkpt lat="41.47453258937146" lon="-81.82425418874951">
        <ele>179.2459162082</ele>
        <time>2026-02-20T11:16:48Z</time>
        <hr>149</hr>
      </trkpt>
      <trkpt lat="41.47447106091862" lon="-81.82425426937581">
        <ele>178.8456169924</ele>
        <time>2026-02-20T11:16:50Z</time>
        <hr>150</hr>
      </trkpt>
      <trkpt lat="41.47438624659726" lon="-81.82425475975641">
        <ele>178.6858439820</ele>
        <time>2026-02-20T11:16:52Z</time>
        <hr>148</hr>
      </trkpt>
      <trkpt lat="41.47427680736231" lon="-81.82428826290587">
        <ele>178.9219945575</ele>
        <time>2026-02-20T11:16:54Z</time>
        <hr>149</hr>
      </trkpt>
      <trkpt lat="41.47416275878101" lon="-81.82429420477760">
        <ele>178.9608631098</ele>
        <time>2026-02-20T11:16:56Z</time>
        <hr>151</hr>
      </trkpt>
      <trkpt lat="41.47403118693808" lon="-81.82432942161860">
        <ele>178.5667583816</ele>
        <time>2026-02-20T11:17:04Z</time>
        <hr>151</hr>
      </trkpt>
      <trkpt lat="41.47388661572811" lon="-81.82445196848970">
        <ele>179.7483187961</ele>
        <time>2026-02-20T11:17:07Z</time>
        <hr>151</hr>
      </trkpt>
      <trkpt lat="41.47384228356534" lon="-81.82445669360571">
        <ele>179.7490228304</ele>
        <time>2026-02-20T11:17:08Z</time>
        <hr>150</hr>
      </trkpt>
      <trkpt lat="41.47374165295841" lon="-81.82443222850277">
        <ele>179.7719866054</ele>
        <time>2026-02-20T11:17:30Z</time>
        <hr>150</hr>
      </trkpt>
      <trkpt lat="41.47371149676859" lon="-81.82444322599825">
        <ele>180.1485078623</ele>
        <time>2026-02-20T11:17:49Z</time>
        <hr>153</hr>
      </trkpt>
      <trkpt lat="41.47364846825857" lon="-81.82448105321275">
        <ele>179.7660048570</ele>
        <time>2026-02-20T11:17:50Z</time>
        <hr>153</hr>
      </trkpt>
      <trkpt lat="41.47356174074068" lon="-81.82450302987409">
        <ele>179.3418159968</ele>
        <time>2026-02-20T11:17:52Z</time>
        <hr>152</hr>
      </trkpt>
      <trkpt lat="41.47335113981269" lon="-81.82454944138834">
        <ele>179.2120050107</ele>
        <time>2026-02-20T11:17:56Z</time>
        <hr>154</hr>
      </trkpt>
      <trkpt lat="41.47325144788076" lon="-81.82459264757773">
        <ele>179.6492474044</ele>
        <time>2026-02-20T11:17:58Z</time>
        <hr>155</hr>
      </trkpt>
      <trkpt lat="41.47313186387104" lon="-81.82460340351173">
        <ele>179.6828321697</ele>
        <time>2026-02-20T11:18:00Z</time>
        <hr>154</hr>
      </trkpt>
      <trkpt lat="41.47268606118370" lon="-81.82463150593156">
        <ele>179.1397098433</ele>
        <time>2026-02-20T11:18:09Z</time>
        <hr>154</hr>
      </trkpt>
      <trkpt lat="41.47249193073957" lon="-81.82462693285882">
        <ele>179.1268251489</ele>
        <time>2026-02-20T11:18:13Z</time>
        <hr>150</hr>
      </trkpt>
      <trkpt lat="41.47220429398426" lon="-81.82463899834552">
        <ele>178.5025214084</ele>
        <time>2026-02-20T11:18:20Z</time>
        <hr>151</hr>
      </trkpt>
      <trkpt lat="41.47205237459239" lon="-81.82465720451248">
        <ele>178.5229637557</ele>
        <time>2026-02-20T11:18:24Z</time>
        <hr>150</hr>
      </trkpt>
      <trkpt lat="41.47190289883153" lon="-81.82466496172617">
        <ele>179.2641734357</ele>
        <time>2026-02-20T11:18:27Z</time>
        <hr>150</hr>
      </trkpt>
      <trkpt lat="41.47183174779403" lon="-81.82470669486300">
        <ele>180.0882486685</ele>
        <time>2026-02-20T11:18:29Z</time>
        <hr>151</hr>
      </trkpt>
      <trkpt lat="41.47178466491501" lon="-81.82474419862670">
        <ele>180.4073707031</ele>
        <time>2026-02-20T11:18:30Z</time>
        <hr>148</hr>
      </trkpt>
      <trkpt lat="41.47175226732211" lon="-81.82481569389803">
        <ele>180.9569434604</ele>
        <time>2026-02-20T11:18:31Z</time>
        <hr>149</hr>
      </trkpt>
      <trkpt lat="41.47172252830428" lon="-81.82492717333561">
        <ele>180.9996291735</ele>
        <time>2026-02-20T11:18:33Z</time>
        <hr>150</hr>
      </trkpt>
      <trkpt lat="41.47168514491592" lon="-81.82500977794270">
        <ele>180.9911609026</ele>
        <time>2026-02-20T11:18:35Z</time>
        <hr>148</hr>
      </trkpt>
      <trkpt lat="41.47163870194947" lon="-81.82506398923559">
        <ele>181.0243151697</ele>
        <time>2026-02-20T11:18:36Z</time>
        <hr>150</hr>
      </trkpt>
      <trkpt lat="41.47158415053987" lon="-81.82512063079966">
        <ele>180.8541804417</ele>
        <time>2026-02-20T11:18:38Z</time>
        <hr>152</hr>
      </trkpt>
      <trkpt lat="41.47152586095694" lon="-81.82513442557104">
        <ele>181.0986451921</ele>
        <time>2026-02-20T11:18:39Z</time>
        <hr>154</hr>
      </trkpt>
      <trkpt lat="41.47144144897211" lon="-81.82514185916040">
        <ele>180.9755078199</ele>
        <time>2026-02-20T11:18:41Z</time>
        <hr>154</hr>
      </trkpt>
      <trkpt lat="41.47133081986729" lon="-81.82511367411237">
        <ele>180.8973088285</ele>
        <time>2026-02-20T11:18:44Z</time>
        <hr>152</hr>
      </trkpt>
      <trkpt lat="41.47128183952275" lon="-81.82508182650564">
        <ele>181.0768953238</ele>
        <time>2026-02-20T11:18:45Z</time>
        <hr>154</hr>
      </trkpt>
      <trkpt lat="41.47124293744255" lon="-81.82503142635893">
        <ele>181.0827345981</ele>
        <time>2026-02-20T11:18:46Z</time>
        <hr>152</hr>
      </trkpt>
      <trkpt lat="41.47115141280214" lon="-81.82486863485406">
        <ele>180.9147641396</ele>
        <time>2026-02-20T11:18:48Z</time>
        <hr>152</hr>
      </trkpt>
      <trkpt lat="41.47109991302784" lon="-81.82482811681587">
        <ele>180.8329527361</ele>
        <time>2026-02-20T11:18:49Z</time>
        <hr>149</hr>
      </trkpt>
      <trkpt lat="41.47102785288916" lon="-81.82479258458793">
        <ele>180.5443248070</ele>
        <time>2026-02-20T11:18:51Z</time>
        <hr>150</hr>
      </trkpt>
      <trkpt lat="41.47087881679248" lon="-81.82482365878131">
        <ele>180.2694570965</ele>
        <time>2026-02-20T11:18:55Z</time>
        <hr>148</hr>
      </trkpt>
      <trkpt lat="41.47069282618623" lon="-81.82482724771444">
        <ele>180.2443963581</ele>
        <time>2026-02-20T11:18:59Z</time>
        <hr>149</hr>
      </trkpt>
      <trkpt lat="41.47046032824274" lon="-81.82486118080737">
        <ele>180.2472717200</ele>
        <time>2026-02-20T11:19:04Z</time>
        <hr>151</hr>
      </trkpt>
      <trkpt lat="41.47025336078060" lon="-81.82490940795249">
        <ele>179.7946094382</ele>
        <time>2026-02-20T11:19:09Z</time>
        <hr>150</hr>
      </trkpt>
      <trkpt lat="41.47005484980128" lon="-81.82498084519609">
        <ele>179.9413257696</ele>
        <time>2026-02-20T11:19:13Z</time>
        <hr>148</hr>
      </trkpt>
      <trkpt lat="41.46994585960832" lon="-81.82502544936777">
        <ele>179.9908413764</ele>
        <time>2026-02-20T11:19:14Z</time>
        <hr>147</hr>
      </trkpt>
      <trkpt lat="41.46989387179821" lon="-81.82509512163853">
        <ele>180.2195791073</ele>
        <time>2026-02-20T11:19:16Z</time>
        <hr>147</hr>
      </trkpt>
      <trkpt lat="41.46982686594542" lon="-81.82517679657080">
        <ele>180.2291649234</ele>
        <time>2026-02-20T11:19:17Z</time>
        <hr>150</hr>
      </trkpt>
      <trkpt lat="41.46966326882969" lon="-81.82554477787279">
        <ele>180.2812880561</ele>
        <time>2026-02-20T11:19:23Z</time>
        <hr>148</hr>
      </trkpt>
      <trkpt lat="41.46959145178221" lon="-81.82567047148160">
        <ele>181.0596293367</ele>
        <time>2026-02-20T11:19:25Z</time>
        <hr>149</hr>
      </trkpt>
      <trkpt lat="41.46947237408516" lon="-81.82582725031573">
        <ele>180.8636728650</ele>
        <time>2026-02-20T11:19:29Z</time>
        <hr>149</hr>
      </trkpt>
      <trkpt lat="41.46941800714808" lon="-81.82590390573003">
        <ele>180.9018759856</ele>
        <time>2026-02-20T11:19:30Z</time>
        <hr>149</hr>
      </trkpt>
      <trkpt lat="41.46935052452104" lon="-81.82596536046221">
        <ele>180.5826196030</ele>
        <time>2026-02-20T11:19:32Z</time>
        <hr>147</hr>
      </trkpt>
      <trkpt lat="41.46923675025533" lon="-81.82608327067798">
        <ele>180.3311693396</ele>
        <time>2026-02-20T11:19:35Z</time>
        <hr>145</hr>
      </trkpt>
      <trkpt lat="41.46916387387278" lon="-81.82618416800713">
        <ele>179.9775965361</ele>
        <time>2026-02-20T11:19:37Z</time>
        <hr>146</hr>
      </trkpt>
      <trkpt lat="41.46910928901551" lon="-81.82628458846534">
        <ele>180.1126173076</ele>
        <time>2026-02-20T11:19:39Z</time>
        <hr>145</hr>
      </trkpt>
      <trkpt lat="41.46908796125661" lon="-81.82637932686430">
        <ele>180.5776526433</ele>
        <time>2026-02-20T11:19:40Z</time>
        <hr>144</hr>
      </trkpt>
      <trkpt lat="41.46905376475588" lon="-81.82654551704505">
        <ele>180.6323456286</ele>
        <time>2026-02-20T11:19:42Z</time>
        <hr>144</hr>
      </trkpt>
      <trkpt lat="41.46902773262060" lon="-81.82694307652812">
        <ele>181.1155871541</ele>
        <time>2026-02-20T11:19:48Z</time>
        <hr>146</hr>
      </trkpt>
      <trkpt lat="41.46900665757283" lon="-81.82761853811293">
        <ele>181.0823198147</ele>
        <time>2026-02-20T11:20:01Z</time>
        <hr>146</hr>
      </trkpt>
      <trkpt lat="41.46907309232064" lon="-81.82821578454741">
        <ele>180.9622923578</ele>
        <time>2026-02-20T11:20:12Z</time>
        <hr>145</hr>
      </trkpt>
      <trkpt lat="41.46911366692305" lon="-81.82844155277000">
        <ele>181.1758624446</ele>
        <time>2026-02-20T11:20:15Z</time>
        <hr>145</hr>
      </trkpt>
      <trkpt lat="41.46915294261699" lon="-81.82866787982226">
        <ele>181.5181202905</ele>
        <time>2026-02-20T11:20:19Z</time>
        <hr>145</hr>
      </trkpt>
      <trkpt lat="41.46922688472503" lon="-81.82896793765548">
        <ele>181.0774226730</ele>
        <time>2026-02-20T11:20:22Z</time>
        <hr>146</hr>
      </trkpt>
      <trkpt lat="41.46929895886727" lon="-81.82927458497110">
        <ele>181.0322123027</ele>
        <time>2026-02-20T11:20:27Z</time>
        <hr>146</hr>
      </trkpt>
      <trkpt lat="41.46941211288139" lon="-81.82961817754303">
        <ele>182.0244461914</ele>
        <time>2026-02-20T11:20:33Z</time>
        <hr>146</hr>
      </trkpt>
      <trkpt lat="41.46954728736817" lon="-81.82999718843712">
        <ele>181.8120389150</ele>
        <time>2026-02-20T11:20:39Z</time>
        <hr>148</hr>
      </trkpt>
      <trkpt lat="41.46968136590436" lon="-81.83034624730838">
        <ele>182.0426296724</ele>
        <time>2026-02-20T11:20:44Z</time>
        <hr>149</hr>
      </trkpt>
      <trkpt lat="41.46971749953388" lon="-81.83040832571157">
        <ele>181.9478423350</ele>
        <time>2026-02-20T11:20:45Z</time>
        <hr>148</hr>
      </trkpt>
      <trkpt lat="41.46974800462912" lon="-81.83043292607880">
        <ele>182.1619136069</ele>
        <time>2026-02-20T11:20:46Z</time>
        <hr>150</hr>
      </trkpt>
      <trkpt lat="41.46988735664510" lon="-81.83042848723167">
        <ele>181.9512785562</ele>
        <time>2026-02-20T11:20:48Z</time>
        <hr>149</hr>
      </trkpt>
      <trkpt lat="41.46996515284616" lon="-81.83044674795188">
        <ele>181.8470879301</ele>
        <time>2026-02-20T11:20:50Z</time>
        <hr>150</hr>
      </trkpt>
      <trkpt lat="41.47005560072530" lon="-81.83046729167005">
        <ele>182.0340261509</ele>
        <time>2026-02-20T11:20:51Z</time>
        <hr>149</hr>
      </trkpt>
      <trkpt lat="41.47021507071234" lon="-81.83047606196402">
        <ele>183.3658202797</ele>
        <time>2026-02-20T11:20:55Z</time>
        <hr>149</hr>
      </trkpt>
      <trkpt lat="41.47039717166103" lon="-81.83055922406767">
        <ele>184.1933719618</ele>
        <time>2026-02-20T11:20:59Z</time>
        <hr>147</hr>
      </trkpt>
      <trkpt lat="41.47033465154971" lon="-81.83081521362308">
        <ele>184.2870431736</ele>
        <time>2026-02-20T11:21:24Z</time>
        <hr>147</hr>
      </trkpt>
      <trkpt lat="41.47024654385195" lon="-81.83102543123434">
        <ele>184.7391342997</ele>
        <time>2026-02-20T11:21:28Z</time>
        <hr>149</hr>
      </trkpt>
      <trkpt lat="41.47018070868144" lon="-81.83117432131009">
        <ele>184.1250995222</ele>
        <time>2026-02-20T11:21:31Z</time>
        <hr>148</hr>
      </trkpt>
      <trkpt lat="41.47007981197935" lon="-81.83133393658184">
        <ele>184.0514264613</ele>
        <time>2026-02-20T11:21:34Z</time>
        <hr>150</hr>
      </trkpt>
      <trkpt lat="41.46992071845268" lon="-81.83150173389653">
        <ele>182.9219120908</ele>
        <time>2026-02-20T11:21:37Z</time>
        <hr>149</hr>
      </trkpt>
      <trkpt lat="41.46918887500554" lon="-81.83241970026434">
        <ele>183.4484581349</ele>
        <time>2026-02-20T11:22:11Z</time>
        <hr>149</hr>
      </trkpt>
      <trkpt lat="41.46915163144262" lon="-81.83250322123777">
        <ele>183.2056033616</ele>
        <time>2026-02-20T11:22:12Z</time>
        <hr>149</hr>
      </trkpt>
      <trkpt lat="41.46908191176074" lon="-81.83270597337150">
        <ele>183.2297123083</ele>
        <time>2026-02-20T11:22:16Z</time>
        <hr>150</hr>
      </trkpt>
      <trkpt lat="41.46866781414023" lon="-81.83310642756985">
        <ele>183.3326142954</ele>
        <time>2026-02-20T11:22:24Z</time>
        <hr>151</hr>
      </trkpt>
      <trkpt lat="41.46844701772152" lon="-81.83323432504632">
        <ele>183.0294995729</ele>
        <time>2026-02-20T11:22:29Z</time>
        <hr>153</hr>
      </trkpt>
      <trkpt lat="41.46830811985221" lon="-81.83329810439713">
        <ele>182.8327638982</ele>
        <time>2026-02-20T11:22:33Z</time>
        <hr>150</hr>
      </trkpt>
      <trkpt lat="41.46806966292014" lon="-81.83338203224884">
        <ele>183.0052362677</ele>
        <time>2026-02-20T11:22:37Z</time>
        <hr>152</hr>
      </trkpt>
      <trkpt lat="41.46791878520668" lon="-81.83341882404503">
        <ele>183.0764556338</ele>
        <time>2026-02-20T11:22:39Z</time>
        <hr>151</hr>
      </trkpt>
      <trkpt lat="41.46773564050412" lon="-81.83344599159948">
        <ele>182.8882432592</ele>
        <time>2026-02-20T11:22:42Z</time>
        <hr>150</hr>
      </trkpt>
      <trkpt lat="41.46759717941767" lon="-81.83343299541900">
        <ele>183.0049565743</ele>
        <time>2026-02-20T11:22:44Z</time>
        <hr>148</hr>
      </trkpt>
      <trkpt lat="41.46741553701006" lon="-81.83343114191477">
        <ele>184.0042818396</ele>
        <time>2026-02-20T11:22:48Z</time>
        <hr>147</hr>
      </trkpt>
      <trkpt lat="41.46703678166659" lon="-81.83337533281798">
        <ele>182.9786541642</ele>
        <time>2026-02-20T11:22:56Z</time>
        <hr>149</hr>
      </trkpt>
      <trkpt lat="41.46688325630389" lon="-81.83347668782079">
        <ele>183.0346674287</ele>
        <time>2026-02-20T11:22:58Z</time>
        <hr>150</hr>
      </trkpt>
      <trkpt lat="41.46679258907484" lon="-81.83349425128831">
        <ele>183.1222399121</ele>
        <time>2026-02-20T11:23:00Z</time>
        <hr>148</hr>
      </trkpt>
      <trkpt lat="41.46670197712413" lon="-81.83350860045630">
        <ele>184.1786025953</ele>
        <time>2026-02-20T11:23:03Z</time>
        <hr>146</hr>
      </trkpt>
      <trkpt lat="41.46664281447246" lon="-81.83348110541988">
        <ele>184.0204489139</ele>
        <time>2026-02-20T11:23:05Z</time>
        <hr>148</hr>
      </trkpt>
      <trkpt lat="41.46656871434239" lon="-81.83344090388164">
        <ele>184.0948358836</ele>
        <time>2026-02-20T11:23:07Z</time>
        <hr>146</hr>
      </trkpt>
      <trkpt lat="41.46652544156079" lon="-81.83339445993980">
        <ele>183.8919918311</ele>
        <time>2026-02-20T11:23:08Z</time>
        <hr>146</hr>
      </trkpt>
      <trkpt lat="41.46637679503551" lon="-81.83316534023471">
        <ele>183.4894562533</ele>
        <time>2026-02-20T11:23:13Z</time>
        <hr>146</hr>
      </trkpt>
      <trkpt lat="41.46625848292638" lon="-81.83294487442654">
        <ele>183.9101048596</ele>
        <time>2026-02-20T11:23:17Z</time>
        <hr>147</hr>
      </trkpt>
      <trkpt lat="41.46611441734944" lon="-81.83272282312161">
        <ele>184.6626085943</ele>
        <time>2026-02-20T11:23:21Z</time>
        <hr>150</hr>
      </trkpt>
      <trkpt lat="41.46602689843644" lon="-81.83264287146888">
        <ele>184.7179005041</ele>
        <time>2026-02-20T11:23:24Z</time>
        <hr>151</hr>
      </trkpt>
      <trkpt lat="41.46572765877233" lon="-81.83236291017180">
        <ele>185.6963347934</ele>
        <time>2026-02-20T11:23:30Z</time>
        <hr>150</hr>
      </trkpt>
      <trkpt lat="41.46566367299635" lon="-81.83231121456978">
        <ele>185.7449956699</ele>
        <time>2026-02-20T11:23:32Z</time>
        <hr>150</hr>
      </trkpt>
      <trkpt lat="41.46561563847834" lon="-81.83220228147175">
        <ele>185.3267100139</ele>
        <time>2026-02-20T11:23:34Z</time>
        <hr>149</hr>
      </trkpt>
      <trkpt lat="41.46536824873333" lon="-81.83166601196564">
        <ele>184.5997379798</ele>
        <time>2026-02-20T11:24:09Z</time>
        <hr>149</hr>
      </trkpt>
      <trkpt lat="41.46529321637708" lon="-81.83153300345522">
        <ele>184.0004518433</ele>
        <time>2026-02-20T11:24:11Z</time>
        <hr>153</hr>
      </trkpt>
      <trkpt lat="41.46527081435019" lon="-81.83129314424184">
        <ele>183.7313263190</ele>
        <time>2026-02-20T11:24:15Z</time>
        <hr>153</hr>
      </trkpt>
      <trkpt lat="41.46527091611102" lon="-81.83111431162007">
        <ele>183.7871237625</ele>
        <time>2026-02-20T11:24:17Z</time>
        <hr>154</hr>
      </trkpt>
      <trkpt lat="41.46532077392789" lon="-81.83033511898559">
        <ele>184.2166304797</ele>
        <time>2026-02-20T11:24:27Z</time>
        <hr>153</hr>
      </trkpt>
      <trkpt lat="41.46535920016565" lon="-81.83008814985038">
        <ele>184.5216648484</ele>
        <time>2026-02-20T11:24:31Z</time>
        <hr>153</hr>
      </trkpt>
      <trkpt lat="41.46554049241113" lon="-81.82905591106118">
        <ele>185.1555559002</ele>
        <time>2026-02-20T11:24:55Z</time>
        <hr>155</hr>
      </trkpt>
      <trkpt lat="41.46555301729361" lon="-81.82888830642550">
        <ele>184.9173100903</ele>
        <time>2026-02-20T11:24:57Z</time>
        <hr>153</hr>
      </trkpt>
      <trkpt lat="41.46559402400580" lon="-81.82836041173185">
        <ele>184.8543450379</ele>
        <time>2026-02-20T11:25:05Z</time>
        <hr>153</hr>
      </trkpt>
      <trkpt lat="41.46559762477443" lon="-81.82795767871356">
        <ele>184.5302216204</ele>
        <time>2026-02-20T11:25:12Z</time>
        <hr>151</hr>
      </trkpt>
      <trkpt lat="41.46567529076040" lon="-81.82737683357466">
        <ele>184.0376214291</ele>
        <time>2026-02-20T11:25:20Z</time>
        <hr>150</hr>
      </trkpt>
      <trkpt lat="41.46575394711688" lon="-81.82711355079442">
        <ele>184.6573080383</ele>
        <time>2026-02-20T11:25:24Z</time>
        <hr>152</hr>
      </trkpt>
      <trkpt lat="41.46577149573257" lon="-81.82698245759768">
        <ele>184.8727556456</ele>
        <time>2026-02-20T11:25:25Z</time>
        <hr>151</hr>
      </trkpt>
      <trkpt lat="41.46578337444411" lon="-81.82669519383730">
        <ele>184.9380184096</ele>
        <time>2026-02-20T11:25:33Z</time>
        <hr>153</hr>
      </trkpt>
      <trkpt lat="41.46585793639478" lon="-81.82628538684286">
        <ele>185.2629962663</ele>
        <time>2026-02-20T11:25:38Z</time>
        <hr>152</hr>
      </trkpt>
      <trkpt lat="41.46587365370651" lon="-81.82616483686883">
        <ele>185.1873162483</ele>
        <time>2026-02-20T11:25:40Z</time>
        <hr>149</hr>
      </trkpt>
      <trkpt lat="41.46588253031813" lon="-81.82597707209959">
        <ele>184.4967766281</ele>
        <time>2026-02-20T11:25:43Z</time>
        <hr>150</hr>
      </trkpt>
      <trkpt lat="41.46587309842108" lon="-81.82519465224912">
        <ele>185.3361854310</ele>
        <time>2026-02-20T11:25:54Z</time>
        <hr>152</hr>
      </trkpt>
      <trkpt lat="41.46589415558365" lon="-81.82488154468237">
        <ele>184.6201760133</ele>
        <time>2026-02-20T11:25:57Z</time>
        <hr>152</hr>
      </trkpt>
      <trkpt lat="41.46590221905826" lon="-81.82449855436626">
        <ele>184.6777894264</ele>
        <time>2026-02-20T11:26:04Z</time>
        <hr>153</hr>
      </trkpt>
      <trkpt lat="41.46594853114625" lon="-81.82403503740605">
        <ele>184.9092658650</ele>
        <time>2026-02-20T11:26:13Z</time>
        <hr>154</hr>
      </trkpt>
      <trkpt lat="41.46597827037813" lon="-81.82379402809812">
        <ele>185.1178557358</ele>
        <time>2026-02-20T11:26:16Z</time>
        <hr>154</hr>
      </trkpt>
      <trkpt lat="41.46601107541643" lon="-81.82358630480294">
        <ele>184.6747217018</ele>
        <time>2026-02-20T11:26:20Z</time>
        <hr>154</hr>
      </trkpt>
      <trkpt lat="41.46614567540236" lon="-81.82316280179494">
        <ele>184.6314435036</ele>
        <time>2026-02-20T11:26:27Z</time>
        <hr>155</hr>
      </trkpt>
      <trkpt lat="41.46624541459843" lon="-81.82287730863237">
        <ele>185.0103094469</ele>
        <time>2026-02-20T11:26:31Z</time>
        <hr>155</hr>
      </trkpt>
      <trkpt lat="41.46648383597790" lon="-81.82222513134514">
        <ele>184.9293484488</ele>
        <time>2026-02-20T11:26:43Z</time>
        <hr>154</hr>
      </trkpt>
      <trkpt lat="41.46687338279296" lon="-81.82109026343190">
        <ele>184.9630194245</ele>
        <time>2026-02-20T11:27:02Z</time>
        <hr>155</hr>
      </trkpt>
      <trkpt lat="41.46697813530768" lon="-81.82079298577519">
        <ele>184.9256051950</ele>
        <time>2026-02-20T11:27:09Z</time>
        <hr>153</hr>
      </trkpt>
      <trkpt lat="41.46716357468816" lon="-81.82028534610964">
        <ele>185.0473005200</ele>
        <time>2026-02-20T11:27:16Z</time>
        <hr>152</hr>
      </trkpt>
      <trkpt lat="41.46735219961996" lon="-81.81964676444164">
        <ele>186.2652267028</ele>
        <time>2026-02-20T11:27:24Z</time>
        <hr>154</hr>
      </trkpt>
      <trkpt lat="41.46740377023365" lon="-81.81941776973693">
        <ele>185.3220030029</ele>
        <time>2026-02-20T11:27:29Z</time>
        <hr>152</hr>
      </trkpt>
      <trkpt lat="41.46745929848827" lon="-81.81913244122858">
        <ele>185.4240263847</ele>
        <time>2026-02-20T11:27:33Z</time>
        <hr>152</hr>
      </trkpt>
      <trkpt lat="41.46749118662336" lon="-81.81887979004306">
        <ele>185.8918232018</ele>
        <time>2026-02-20T11:27:37Z</time>
        <hr>151</hr>
      </trkpt>
      <trkpt lat="41.46750608842262" lon="-81.81865415605604">
        <ele>185.5014948770</ele>
        <time>2026-02-20T11:27:41Z</time>
        <hr>152</hr>
      </trkpt>
      <trkpt lat="41.46750754962022" lon="-81.81844870945505">
        <ele>186.0329257507</ele>
        <time>2026-02-20T11:27:44Z</time>
        <hr>152</hr>
      </trkpt>
      <trkpt lat="41.46749768520952" lon="-81.81816102686467">
        <ele>186.0356672556</ele>
        <time>2026-02-20T11:27:47Z</time>
        <hr>151</hr>
      </trkpt>
      <trkpt lat="41.46748126955625" lon="-81.81797746831712">
        <ele>185.9791995687</ele>
        <time>2026-02-20T11:27:50Z</time>
        <hr>151</hr>
      </trkpt>
      <trkpt lat="41.46744306088223" lon="-81.81768733363610">
        <ele>186.6006080281</ele>
        <time>2026-02-20T11:27:55Z</time>
        <hr>151</hr>
      </trkpt>
      <trkpt lat="41.46739160087154" lon="-81.81741428761518">
        <ele>186.6388790933</ele>
        <time>2026-02-20T11:27:59Z</time>
        <hr>152</hr>
      </trkpt>
      <trkpt lat="41.46731512672956" lon="-81.81709446402724">
        <ele>186.9901675449</ele>
        <time>2026-02-20T11:28:03Z</time>
        <hr>150</hr>
      </trkpt>
      <trkpt lat="41.46722319262766" lon="-81.81679721458960">
        <ele>187.6199745751</ele>
        <time>2026-02-20T11:28:10Z</time>
        <hr>150</hr>
      </trkpt>
      <trkpt lat="41.46712014620892" lon="-81.81653049662997">
        <ele>187.6032595403</ele>
        <time>2026-02-20T11:28:15Z</time>
        <hr>151</hr>
      </trkpt>
      <trkpt lat="41.46700558302491" lon="-81.81628191879601">
        <ele>187.2006213467</ele>
        <time>2026-02-20T11:28:21Z</time>
        <hr>152</hr>
      </trkpt>
      <trkpt lat="41.46691043563969" lon="-81.81610469438688">
        <ele>187.2460523836</ele>
        <time>2026-02-20T11:28:24Z</time>
        <hr>151</hr>
      </trkpt>
      <trkpt lat="41.46666246292624" lon="-81.81573229968897">
        <ele>187.1369262875</ele>
        <time>2026-02-20T11:28:33Z</time>
        <hr>150</hr>
      </trkpt>
      <trkpt lat="41.46650438033152" lon="-81.81555957250369">
        <ele>186.7757129155</ele>
        <time>2026-02-20T11:28:37Z</time>
        <hr>150</hr>
      </trkpt>
      <trkpt lat="41.46637794878949" lon="-81.81544835809109">
        <ele>186.6005198107</ele>
        <time>2026-02-20T11:28:40Z</time>
        <hr>152</hr>
      </trkpt>
      <trkpt lat="41.46630445062519" lon="-81.81540714679528">
        <ele>186.6944610928</ele>
        <time>2026-02-20T11:28:42Z</time>
        <hr>151</hr>
      </trkpt>
      <trkpt lat="41.46609885013511" lon="-81.81536935934506">
        <ele>185.9191623700</ele>
        <time>2026-02-20T11:28:47Z</time>
        <hr>151</hr>
      </trkpt>
      <trkpt lat="41.46602405970052" lon="-81.81533607209143">
        <ele>185.6514754909</ele>
        <time>2026-02-20T11:28:49Z</time>
        <hr>152</hr>
      </trkpt>
      <trkpt lat="41.46591470840534" lon="-81.81525730477168">
        <ele>185.4868997627</ele>
        <time>2026-02-20T11:28:53Z</time>
        <hr>150</hr>
      </trkpt>
      <trkpt lat="41.46576961969103" lon="-81.81513012749075">
        <ele>185.2703087974</ele>
        <time>2026-02-20T11:28:56Z</time>
        <hr>152</hr>
      </trkpt>
      <trkpt lat="41.46568713305645" lon="-81.81509960225057">
        <ele>185.3514837182</ele>
        <time>2026-02-20T11:29:19Z</time>
        <hr>151</hr>
      </trkpt>
      <trkpt lat="41.46548804802110" lon="-81.81507476254144">
        <ele>185.5505937927</ele>
        <time>2026-02-20T11:29:23Z</time>
        <hr>150</hr>
      </trkpt>
      <trkpt lat="41.46529733636839" lon="-81.81514122652166">
        <ele>185.0101846764</ele>
        <time>2026-02-20T11:29:26Z</time>
        <hr>154</hr>
      </trkpt>
      <trkpt lat="41.46520184814047" lon="-81.81519791321792">
        <ele>185.1511768640</ele>
        <time>2026-02-20T11:29:29Z</time>
        <hr>152</hr>
      </trkpt>
      <trkpt lat="41.46510027103053" lon="-81.81529647521467">
        <ele>185.0469353617</ele>
        <time>2026-02-20T11:29:32Z</time>
        <hr>152</hr>
      </trkpt>
      <trkpt lat="41.46495710659300" lon="-81.81544424715912">
        <ele>184.9628788922</ele>
        <time>2026-02-20T11:29:36Z</time>
        <hr>153</hr>
      </trkpt>
      <trkpt lat="41.46478314939990" lon="-81.81567294489167">
        <ele>186.0401286956</ele>
        <time>2026-02-20T11:29:49Z</time>
        <hr>150</hr>
      </trkpt>
      <trkpt lat="41.46452353225354" lon="-81.81606028977193">
        <ele>185.9936762717</ele>
        <time>2026-02-20T11:29:56Z</time>
        <hr>149</hr>
      </trkpt>
      <trkpt lat="41.46430201480103" lon="-81.81642241723993">
        <ele>185.7117506650</ele>
        <time>2026-02-20T11:30:03Z</time>
        <hr>149</hr>
      </trkpt>
      <trkpt lat="41.46420586194543" lon="-81.81660694554890">
        <ele>185.7930504145</ele>
        <time>2026-02-20T11:30:07Z</time>
        <hr>150</hr>
      </trkpt>
      <trkpt lat="41.46407260103214" lon="-81.81683127454401">
        <ele>185.2011917434</ele>
        <time>2026-02-20T11:30:12Z</time>
        <hr>149</hr>
      </trkpt>
      <trkpt lat="41.46401094810076" lon="-81.81690679553124">
        <ele>184.9210428395</ele>
        <time>2026-02-20T11:30:14Z</time>
        <hr>151</hr>
      </trkpt>
      <trkpt lat="41.46391291500201" lon="-81.81702617375814">
        <ele>185.1751715460</ele>
        <time>2026-02-20T11:30:16Z</time>
        <hr>153</hr>
      </trkpt>
      <trkpt lat="41.46383504100642" lon="-81.81708040021702">
        <ele>185.1266475517</ele>
        <time>2026-02-20T11:30:18Z</time>
        <hr>154</hr>
      </trkpt>
      <trkpt lat="41.46368777527910" lon="-81.81716699455127">
        <ele>185.6731998265</ele>
        <time>2026-02-20T11:30:43Z</time>
        <hr>151</hr>
      </trkpt>
      <trkpt lat="41.46363291016338" lon="-81.81722694993836">
        <ele>186.1039126739</ele>
        <time>2026-02-20T11:30:45Z</time>
        <hr>149</hr>
      </trkpt>
      <trkpt lat="41.46358140053936" lon="-81.81728722643678">
        <ele>185.7161085464</ele>
        <time>2026-02-20T11:30:47Z</time>
        <hr>149</hr>
      </trkpt>
      <trkpt lat="41.46353550799058" lon="-81.81741086268957">
        <ele>185.9697647783</ele>
        <time>2026-02-20T11:30:49Z</time>
        <hr>149</hr>
      </trkpt>
      <trkpt lat="41.46349033392247" lon="-81.81759333691647">
        <ele>185.8602218668</ele>
        <time>2026-02-20T11:30:52Z</time>
        <hr>148</hr>
      </trkpt>
      <trkpt lat="41.46345330390502" lon="-81.81778352510474">
        <ele>185.2706111686</ele>
        <time>2026-02-20T11:30:55Z</time>
        <hr>149</hr>
      </trkpt>
      <trkpt lat="41.46345812889614" lon="-81.81786579131553">
        <ele>185.9374732453</ele>
        <time>2026-02-20T11:30:56Z</time>
        <hr>150</hr>
      </trkpt>
      <trkpt lat="41.46345765121197" lon="-81.81796136976511">
        <ele>185.7057566316</ele>
        <time>2026-02-20T11:30:58Z</time>
        <hr>151</hr>
      </trkpt>
      <trkpt lat="41.46350333490428" lon="-81.81800031538728">
        <ele>185.3501030046</ele>
        <time>2026-02-20T11:30:59Z</time>
        <hr>150</hr>
      </trkpt>
      <trkpt lat="41.46354352130250" lon="-81.81802279180229">
        <ele>184.9573456186</ele>
        <time>2026-02-20T11:31:00Z</time>
        <hr>148</hr>
      </trkpt>
      <trkpt lat="41.46379912981560" lon="-81.81811444297864">
        <ele>184.9598363104</ele>
        <time>2026-02-20T11:31:05Z</time>
        <hr>151</hr>
      </trkpt>
      <trkpt lat="41.46386759060132" lon="-81.81811805235263">
        <ele>185.0992194266</ele>
        <time>2026-02-20T11:31:07Z</time>
        <hr>148</hr>
      </trkpt>
      <trkpt lat="41.46391231065483" lon="-81.81816114408922">
        <ele>184.8084718291</ele>
        <time>2026-02-20T11:31:08Z</time>
        <hr>146</hr>
      </trkpt>
      <trkpt lat="41.46406691064355" lon="-81.81828230072789">
        <ele>184.8728860955</ele>
        <time>2026-02-20T11:31:12Z</time>
        <hr>148</hr>
      </trkpt>
      <trkpt lat="41.46415847942633" lon="-81.81838399248609">
        <ele>184.7090979821</ele>
        <time>2026-02-20T11:31:14Z</time>
        <hr>148</hr>
      </trkpt>
      <trkpt lat="41.46421689630687" lon="-81.81843610627486">
        <ele>184.2898838981</ele>
        <time>2026-02-20T11:31:15Z</time>
        <hr>149</hr>
      </trkpt>
      <trkpt lat="41.46424664283470" lon="-81.81851965042262">
        <ele>184.2974815959</ele>
        <time>2026-02-20T11:31:17Z</time>
        <hr>148</hr>
      </trkpt>
      <trkpt lat="41.46426266204002" lon="-81.81856656524991">
        <ele>184.0116428904</ele>
        <time>2026-02-20T11:31:18Z</time>
        <hr>147</hr>
      </trkpt>
      <trkpt lat="41.46426110630852" lon="-81.81863903568411">
        <ele>183.8842278502</ele>
        <time>2026-02-20T11:31:19Z</time>
        <hr>144</hr>
      </trkpt>
      <trkpt lat="41.46418360954330" lon="-81.81925758823351">
        <ele>184.1031492228</ele>
        <time>2026-02-20T11:31:29Z</time>
        <hr>146</hr>
      </trkpt>
      <trkpt lat="41.46414968451496" lon="-81.82023585304729">
        <ele>185.5758137377</ele>
        <time>2026-02-20T11:31:43Z</time>
        <hr>148</hr>
      </trkpt>
      <trkpt lat="41.46407958874941" lon="-81.82125173577597">
        <ele>185.0914376168</ele>
        <time>2026-02-20T11:31:55Z</time>
        <hr>149</hr>
      </trkpt>
      <trkpt lat="41.46395607600576" lon="-81.82206647494615">
        <ele>186.0783541066</ele>
        <time>2026-02-20T11:32:05Z</time>
        <hr>149</hr>
      </trkpt>
      <trkpt lat="41.46391427432643" lon="-81.82225239387238">
        <ele>185.6793306374</ele>
        <time>2026-02-20T11:32:08Z</time>
        <hr>150</hr>
      </trkpt>
      <trkpt lat="41.46386210800430" lon="-81.82237361735409">
        <ele>186.0497104075</ele>
        <time>2026-02-20T11:32:11Z</time>
        <hr>151</hr>
      </trkpt>
      <trkpt lat="41.46377842926643" lon="-81.82254753185676">
        <ele>186.0305345833</ele>
        <time>2026-02-20T11:32:14Z</time>
        <hr>149</hr>
      </trkpt>
      <trkpt lat="41.46366434407231" lon="-81.82283691220114">
        <ele>185.9492510941</ele>
        <time>2026-02-20T11:32:18Z</time>
        <hr>150</hr>
      </trkpt>
      <trkpt lat="41.46352418623339" lon="-81.82303991480939">
        <ele>186.0680801052</ele>
        <time>2026-02-20T11:32:22Z</time>
        <hr>149</hr>
      </trkpt>
      <trkpt lat="41.46342683037282" lon="-81.82314453277114">
        <ele>186.0798753011</ele>
        <time>2026-02-20T11:32:25Z</time>
        <hr>153</hr>
      </trkpt>
      <trkpt lat="41.46328364607584" lon="-81.82325126852716">
        <ele>186.1678793595</ele>
        <time>2026-02-20T11:32:28Z</time>
        <hr>153</hr>
      </trkpt>
      <trkpt lat="41.46320874437875" lon="-81.82329246382128">
        <ele>185.9328930744</ele>
        <time>2026-02-20T11:32:31Z</time>
        <hr>152</hr>
      </trkpt>
      <trkpt lat="41.46275177145293" lon="-81.82333874079089">
        <ele>185.7546210609</ele>
        <time>2026-02-20T11:32:42Z</time>
        <hr>149</hr>
      </trkpt>
      <trkpt lat="41.46269407851601" lon="-81.82332803146997">
        <ele>186.2176760660</ele>
        <time>2026-02-20T11:32:43Z</time>
        <hr>149</hr>
      </trkpt>
      <trkpt lat="41.46262384838140" lon="-81.82329253894217">
        <ele>185.9658958983</ele>
        <time>2026-02-20T11:32:45Z</time>
        <hr>147</hr>
      </trkpt>
      <trkpt lat="41.46234054597242" lon="-81.82322112804641">
        <ele>185.9358545964</ele>
        <time>2026-02-20T11:32:54Z</time>
        <hr>150</hr>
      </trkpt>
      <trkpt lat="41.46228351337535" lon="-81.82319052812909">
        <ele>185.9161521783</ele>
        <time>2026-02-20T11:32:55Z</time>
        <hr>149</hr>
      </trkpt>
      <trkpt lat="41.46221957802132" lon="-81.82313979508660">
        <ele>186.2877039820</ele>
        <time>2026-02-20T11:32:56Z</time>
        <hr>150</hr>
      </trkpt>
      <trkpt lat="41.46216884669576" lon="-81.82306419846411">
        <ele>186.2666145200</ele>
        <time>2026-02-20T11:32:58Z</time>
        <hr>150</hr>
      </trkpt>
      <trkpt lat="41.46214403047894" lon="-81.82298024761829">
        <ele>186.0327074080</ele>
        <time>2026-02-20T11:32:59Z</time>
        <hr>149</hr>
      </trkpt>
      <trkpt lat="41.46210736628787" lon="-81.82292278002808">
        <ele>186.0124663739</ele>
        <time>2026-02-20T11:33:00Z</time>
        <hr>150</hr>
      </trkpt>
      <trkpt lat="41.46205948947537" lon="-81.82286604850886">
        <ele>185.8107003099</ele>
        <time>2026-02-20T11:33:18Z</time>
        <hr>152</hr>
      </trkpt>
      <trkpt lat="41.46159086002492" lon="-81.82257568407157">
        <ele>186.3341081938</ele>
        <time>2026-02-20T11:33:28Z</time>
        <hr>151</hr>
      </trkpt>
      <trkpt lat="41.46147622862716" lon="-81.82248964920829">
        <ele>186.0458066660</ele>
        <time>2026-02-20T11:33:32Z</time>
        <hr>150</hr>
      </trkpt>
      <trkpt lat="41.46133989341870" lon="-81.82234787965839">
        <ele>186.1609060524</ele>
        <time>2026-02-20T11:33:35Z</time>
        <hr>150</hr>
      </trkpt>
      <trkpt lat="41.46130045538985" lon="-81.82230636958928">
        <ele>186.5951655382</ele>
        <time>2026-02-20T11:33:36Z</time>
        <hr>153</hr>
      </trkpt>
      <trkpt lat="41.46119648217770" lon="-81.82211689599578">
        <ele>186.9623704100</ele>
        <time>2026-02-20T11:33:40Z</time>
        <hr>151</hr>
      </trkpt>
      <trkpt lat="41.46088920189023" lon="-81.82164964519957">
        <ele>186.8853546405</ele>
        <time>2026-02-20T11:33:48Z</time>
        <hr>152</hr>
      </trkpt>
      <trkpt lat="41.46077490641896" lon="-81.82151479439685">
        <ele>187.0425442472</ele>
        <time>2026-02-20T11:33:51Z</time>
        <hr>150</hr>
      </trkpt>
      <trkpt lat="41.46073955207854" lon="-81.82149990016791">
        <ele>187.3357555264</ele>
        <time>2026-02-20T11:33:52Z</time>
        <hr>149</hr>
      </trkpt>
      <trkpt lat="41.46065345381114" lon="-81.82149109024185">
        <ele>187.9691672511</ele>
        <time>2026-02-20T11:33:53Z</time>
        <hr>148</hr>
      </trkpt>
      <trkpt lat="41.46062457159094" lon="-81.82152263856504">
        <ele>187.9393111679</ele>
        <time>2026-02-20T11:33:54Z</time>
        <hr>151</hr>
      </trkpt>
      <trkpt lat="41.46046741668394" lon="-81.82170367978475">
        <ele>187.8735215596</ele>
        <time>2026-02-20T11:33:58Z</time>
        <hr>153</hr>
      </trkpt>
      <trkpt lat="41.46000878054640" lon="-81.82235487991633">
        <ele>187.8494416512</ele>
        <time>2026-02-20T11:34:08Z</time>
        <hr>155</hr>
      </trkpt>
      <trkpt lat="41.45984848292188" lon="-81.82255898346232">
        <ele>187.6953614856</ele>
        <time>2026-02-20T11:34:13Z</time>
        <hr>153</hr>
      </trkpt>
      <trkpt lat="41.45977375015747" lon="-81.82264796100829">
        <ele>187.7436088341</ele>
        <time>2026-02-20T11:34:16Z</time>
        <hr>154</hr>
      </trkpt>
      <trkpt lat="41.45972414838735" lon="-81.82279149773925">
        <ele>187.7640254573</ele>
        <time>2026-02-20T11:34:19Z</time>
        <hr>154</hr>
      </trkpt>
      <trkpt lat="41.45964781507624" lon="-81.82294844457061">
        <ele>187.6883891438</ele>
        <time>2026-02-20T11:34:22Z</time>
        <hr>151</hr>
      </trkpt>
      <trkpt lat="41.45957012650245" lon="-81.82305403390635">
        <ele>187.7869615536</ele>
        <time>2026-02-20T11:34:25Z</time>
        <hr>151</hr>
      </trkpt>
      <trkpt lat="41.45949678324207" lon="-81.82313404120451">
        <ele>187.9579762800</ele>
        <time>2026-02-20T11:34:28Z</time>
        <hr>151</hr>
      </trkpt>
      <trkpt lat="41.45938840962548" lon="-81.82321427831023">
        <ele>188.1905452045</ele>
        <time>2026-02-20T11:34:31Z</time>
        <hr>149</hr>
      </trkpt>
      <trkpt lat="41.45929104523459" lon="-81.82326538536402">
        <ele>187.8223774814</ele>
        <time>2026-02-20T11:34:33Z</time>
        <hr>147</hr>
      </trkpt>
      <trkpt lat="41.45913315267719" lon="-81.82330076826953">
        <ele>187.9222124012</ele>
        <time>2026-02-20T11:34:37Z</time>
        <hr>148</hr>
      </trkpt>
      <trkpt lat="41.45896047139719" lon="-81.82338020053280">
        <ele>188.1292515302</ele>
        <time>2026-02-20T11:34:40Z</time>
        <hr>150</hr>
      </trkpt>
      <trkpt lat="41.45887172251829" lon="-81.82339587772277">
        <ele>188.1041301855</ele>
        <time>2026-02-20T11:34:42Z</time>
        <hr>151</hr>
      </trkpt>
      <trkpt lat="41.45874774655663" lon="-81.82338231221502">
        <ele>188.0622217719</ele>
        <time>2026-02-20T11:34:44Z</time>
        <hr>150</hr>
      </trkpt>
      <trkpt lat="41.45854183586076" lon="-81.82339570417150">
        <ele>188.1960236556</ele>
        <time>2026-02-20T11:34:48Z</time>
        <hr>152</hr>
      </trkpt>
      <trkpt lat="41.45847449734377" lon="-81.82338147340140">
        <ele>188.1618430011</ele>
        <time>2026-02-20T11:34:49Z</time>
        <hr>150</hr>
      </trkpt>
      <trkpt lat="41.45826315241712" lon="-81.82329046809295">
        <ele>188.1642855911</ele>
        <time>2026-02-20T11:34:54Z</time>
        <hr>151</hr>
      </trkpt>
      <trkpt lat="41.45807353735982" lon="-81.82318255413560">
        <ele>188.3333865211</ele>
        <time>2026-02-20T11:34:58Z</time>
        <hr>150</hr>
      </trkpt>
      <trkpt lat="41.45787668837512" lon="-81.82313526226601">
        <ele>188.3122985113</ele>
        <time>2026-02-20T11:35:01Z</time>
        <hr>149</hr>
      </trkpt>
      <trkpt lat="41.45758617429510" lon="-81.82304755656023">
        <ele>188.3050547524</ele>
        <time>2026-02-20T11:35:08Z</time>
        <hr>152</hr>
      </trkpt>
      <trkpt lat="41.45749229239217" lon="-81.82300357596759">
        <ele>188.2158711434</ele>
        <time>2026-02-20T11:35:10Z</time>
        <hr>151</hr>
      </trkpt>
      <trkpt lat="41.45741050733407" lon="-81.82291288154650">
        <ele>188.2217121699</ele>
        <time>2026-02-20T11:35:12Z</time>
        <hr>153</hr>
      </trkpt>
      <trkpt lat="41.45732839985493" lon="-81.82281781732578">
        <ele>188.3217347265</ele>
        <time>2026-02-20T11:35:14Z</time>
        <hr>155</hr>
      </trkpt>
      <trkpt lat="41.45723117564316" lon="-81.82276286686567">
        <ele>188.2160394043</ele>
        <time>2026-02-20T11:35:16Z</time>
        <hr>155</hr>
      </trkpt>
      <trkpt lat="41.45699951587009" lon="-81.82263320301138">
        <ele>188.2512806743</ele>
        <time>2026-02-20T11:35:22Z</time>
        <hr>157</hr>
      </trkpt>
      <trkpt lat="41.45687886403668" lon="-81.82258434483758">
        <ele>188.3271002816</ele>
        <time>2026-02-20T11:35:25Z</time>
        <hr>156</hr>
      </trkpt>
      <trkpt lat="41.45677805541848" lon="-81.82256536675469">
        <ele>188.4895366181</ele>
        <time>2026-02-20T11:35:27Z</time>
        <hr>154</hr>
      </trkpt>
      <trkpt lat="41.45667380776160" lon="-81.82257690192013">
        <ele>188.6886666703</ele>
        <time>2026-02-20T11:35:29Z</time>
        <hr>152</hr>
      </trkpt>
      <trkpt lat="41.45627202418032" lon="-81.82264483953702">
        <ele>188.3487126092</ele>
        <time>2026-02-20T11:35:38Z</time>
        <hr>152</hr>
      </trkpt>
      <trkpt lat="41.45615909658050" lon="-81.82265924483683">
        <ele>188.4846844927</ele>
        <time>2026-02-20T11:35:40Z</time>
        <hr>153</hr>
      </trkpt>
      <trkpt lat="41.45603437847801" lon="-81.82266670419615">
        <ele>188.7485323818</ele>
        <time>2026-02-20T11:35:42Z</time>
        <hr>153</hr>
      </trkpt>
      <trkpt lat="41.45591370469053" lon="-81.82268224651624">
        <ele>188.6975967253</ele>
        <time>2026-02-20T11:35:44Z</time>
        <hr>153</hr>
      </trkpt>
      <trkpt lat="41.45559285496797" lon="-81.82279380387669">
        <ele>188.7547548378</ele>
        <time>2026-02-20T11:35:51Z</time>
        <hr>154</hr>
      </trkpt>
      <trkpt lat="41.45549965664807" lon="-81.82283678588996">
        <ele>188.7084864856</ele>
        <time>2026-02-20T11:35:53Z</time>
        <hr>153</hr>
      </trkpt>
      <trkpt lat="41.45528940988378" lon="-81.82303455765695">
        <ele>188.6058694955</ele>
        <time>2026-02-20T11:35:59Z</time>
        <hr>155</hr>
      </trkpt>
      <trkpt lat="41.45522504454376" lon="-81.82306867181251">
        <ele>188.7287108543</ele>
        <time>2026-02-20T11:36:00Z</time>
        <hr>153</hr>
      </trkpt>
      <trkpt lat="41.45516389564371" lon="-81.82307827829082">
        <ele>188.8063549606</ele>
        <time>2026-02-20T11:36:01Z</time>
        <hr>152</hr>
      </trkpt>
      <trkpt lat="41.45510712752812" lon="-81.82312469618981">
        <ele>188.7776459021</ele>
        <time>2026-02-20T11:36:03Z</time>
        <hr>151</hr>
      </trkpt>
      <trkpt lat="41.45496129351913" lon="-81.82326139273349">
        <ele>188.8111783712</ele>
        <time>2026-02-20T11:36:06Z</time>
        <hr>152</hr>
      </trkpt>
      <trkpt lat="41.45462956134790" lon="-81.82353073904125">
        <ele>188.9021967330</ele>
        <time>2026-02-20T11:36:14Z</time>
        <hr>152</hr>
      </trkpt>
      <trkpt lat="41.45458755181948" lon="-81.82358181210839">
        <ele>188.6999919953</ele>
        <time>2026-02-20T11:36:15Z</time>
        <hr>152</hr>
      </trkpt>
      <trkpt lat="41.45453958251729" lon="-81.82366622849850">
        <ele>189.0569787254</ele>
        <time>2026-02-20T11:36:17Z</time>
        <hr>154</hr>
      </trkpt>
      <trkpt lat="41.45450280546412" lon="-81.82381678459207">
        <ele>189.0303226531</ele>
        <time>2026-02-20T11:36:19Z</time>
        <hr>152</hr>
      </trkpt>
      <trkpt lat="41.45445311889133" lon="-81.82394644927888">
        <ele>188.9798776231</ele>
        <time>2026-02-20T11:36:21Z</time>
        <hr>150</hr>
      </trkpt>
      <trkpt lat="41.45423604729257" lon="-81.82425518130427">
        <ele>189.1053231913</ele>
        <time>2026-02-20T11:36:28Z</time>
        <hr>149</hr>
      </trkpt>
      <trkpt lat="41.45416342050490" lon="-81.82444938358510">
        <ele>189.2198732281</ele>
        <time>2026-02-20T11:36:33Z</time>
        <hr>147</hr>
      </trkpt>
      <trkpt lat="41.45403929234343" lon="-81.82474611041575">
        <ele>189.3599165184</ele>
        <time>2026-02-20T11:36:37Z</time>
        <hr>144</hr>
      </trkpt>
      <trkpt lat="41.45398153387623" lon="-81.82493894041667">
        <ele>189.1360727054</ele>
        <time>2026-02-20T11:36:40Z</time>
        <hr>145</hr>
      </trkpt>
      <trkpt lat="41.45392755454289" lon="-81.82523660830837">
        <ele>189.1396812409</ele>
        <time>2026-02-20T11:36:46Z</time>
        <hr>142</hr>
      </trkpt>
      <trkpt lat="41.45388615413795" lon="-81.82540208355924">
        <ele>189.2622215679</ele>
        <time>2026-02-20T11:36:49Z</time>
        <hr>144</hr>
      </trkpt>
      <trkpt lat="41.45381308811729" lon="-81.82557843617596">
        <ele>189.1215259378</ele>
        <time>2026-02-20T11:36:51Z</time>
        <hr>144</hr>
      </trkpt>
      <trkpt lat="41.45359048055917" lon="-81.82600862701159">
        <ele>189.3867804135</ele>
        <time>2026-02-20T11:36:58Z</time>
        <hr>141</hr>
      </trkpt>
      <trkpt lat="41.45328701664428" lon="-81.82641562137229">
        <ele>189.5318091003</ele>
        <time>2026-02-20T11:37:06Z</time>
        <hr>138</hr>
      </trkpt>
      <trkpt lat="41.45320605026735" lon="-81.82648462919437">
        <ele>189.3738075575</ele>
        <time>2026-02-20T11:37:08Z</time>
        <hr>140</hr>
      </trkpt>
      <trkpt lat="41.45261485971024" lon="-81.82688530012584">
        <ele>189.8314507804</ele>
        <time>2026-02-20T11:37:20Z</time>
        <hr>138</hr>
      </trkpt>
      <trkpt lat="41.45242843579030" lon="-81.82702228850910">
        <ele>189.6955072180</ele>
        <time>2026-02-20T11:37:24Z</time>
        <hr>139</hr>
      </trkpt>
      <trkpt lat="41.45236464397021" lon="-81.82707993145354">
        <ele>189.5635222946</ele>
        <time>2026-02-20T11:37:26Z</time>
        <hr>138</hr>
      </trkpt>
      <trkpt lat="41.45220909981445" lon="-81.82738007513657">
        <ele>189.9111504590</ele>
        <time>2026-02-20T11:37:31Z</time>
        <hr>137</hr>
      </trkpt>
      <trkpt lat="41.45214406889274" lon="-81.82747299359271">
        <ele>189.9922484940</ele>
        <time>2026-02-20T11:37:33Z</time>
        <hr>138</hr>
      </trkpt>
      <trkpt lat="41.45203601939014" lon="-81.82759038078474">
        <ele>189.8990699681</ele>
        <time>2026-02-20T11:37:36Z</time>
        <hr>139</hr>
      </trkpt>
      <trkpt lat="41.45197490910982" lon="-81.82763785873173">
        <ele>189.9478746775</ele>
        <time>2026-02-20T11:37:37Z</time>
        <hr>140</hr>
      </trkpt>
      <trkpt lat="41.45189689427364" lon="-81.82765045368630">
        <ele>189.8742174361</ele>
        <time>2026-02-20T11:37:39Z</time>
        <hr>136</hr>
      </trkpt>
      <trkpt lat="41.45181953484506" lon="-81.82763598050762">
        <ele>189.9554604628</ele>
        <time>2026-02-20T11:37:40Z</time>
        <hr>137</hr>
      </trkpt>
      <trkpt lat="41.45175232930826" lon="-81.82760264280151">
        <ele>189.8813539127</ele>
        <time>2026-02-20T11:37:42Z</time>
        <hr>140</hr>
      </trkpt>
      <trkpt lat="41.45179331593766" lon="-81.82742024816162">
        <ele>189.0273348411</ele>
        <time>2026-02-20T11:37:44Z</time>
        <hr>138</hr>
      </trkpt>
      <trkpt lat="41.45185639920423" lon="-81.82735956262157">
        <ele>189.0014008404</ele>
        <time>2026-02-20T11:37:45Z</time>
        <hr>137</hr>
      </trkpt>
      <trkpt lat="41.45186995248210" lon="-81.82730972898774">
        <ele>188.9332603348</ele>
        <time>2026-02-20T11:37:46Z</time>
        <hr>140</hr>
      </trkpt>
      <trkpt lat="41.45185348939334" lon="-81.82713541060940">
        <ele>189.0326346280</ele>
        <time>2026-02-20T11:37:49Z</time>
        <hr>141</hr>
      </trkpt>
      <trkpt lat="41.45184639782682" lon="-81.82708840760212">
        <ele>189.0010223987</ele>
        <time>2026-02-20T11:37:50Z</time>
        <hr>138</hr>
      </trkpt>
    </trkseg>
  </trk>
</gpx>