<?xml version='1.0' encoding='UTF-8'?>
<gpx xmlns="http://www.topografix.com/GPX/1/1" creator="https://gpx.studio" version="1.1">
  <metadata>
    <name>Car Ride - 2026-08-17</name>
  </metadata>
  <trk>
    <name>Car Ride - 2026-08-17</name>
    <type>driving</type>
    <trkseg>
      <trkpt lat="41.40134211180116" lon="-81.74041059830547">
        <ele>265.6801193939</ele>
        <time>2026-08-17T12:42:28Z</time>
      </trkpt>
      <trkpt lat="41.40134991081162" lon="-81.74241775717059">
        <ele>264.8408501197</ele>
        <time>2026-08-17T12:42:43Z</time>
      </trkpt>
      <trkpt lat="41.40221093361154" lon="-81.74285539765930">
        <ele>262.9748931055</ele>
        <time>2026-08-17T12:42:51Z</time>
      </trkpt>
      <trkpt lat="41.40311075962864" lon="-81.74329397583112">
        <ele>261.7173871144</ele>
        <time>2026-08-17T12:43:02Z</time>
      </trkpt>
      <trkpt lat="41.40348274718701" lon="-81.74348768014218">
        <ele>261.8160947423</ele>
        <time>2026-08-17T12:43:06Z</time>
      </trkpt>
      <trkpt lat="41.40359033646200" lon="-81.74352345159949">
        <ele>261.7415868101</ele>
        <time>2026-08-17T12:43:07Z</time>
      </trkpt>
      <trkpt lat="41.40488201397428" lon="-81.74351525301581">
        <ele>256.5489266030</ele>
        <time>2026-08-17T12:43:20Z</time>
      </trkpt>
      <trkpt lat="41.40487118264860" lon="-81.74419640885108">
        <ele>254.8020375644</ele>
        <time>2026-08-17T12:43:28Z</time>
      </trkpt>
      <trkpt lat="41.40489111756806" lon="-81.74579910146687">
        <ele>253.9362553052</ele>
        <time>2026-08-17T12:43:42Z</time>
      </trkpt>
      <trkpt lat="41.40488184886428" lon="-81.74729107003935">
        <ele>256.7953458539</ele>
        <time>2026-08-17T12:43:51Z</time>
      </trkpt>
      <trkpt lat="41.40489899687913" lon="-81.74849237695469">
        <ele>256.1892539530</ele>
        <time>2026-08-17T12:44:05Z</time>
      </trkpt>
      <trkpt lat="41.40490460508213" lon="-81.74956435006288">
        <ele>255.0968919260</ele>
        <time>2026-08-17T12:44:12Z</time>
      </trkpt>
      <trkpt lat="41.40491550067891" lon="-81.75020571461746">
        <ele>254.9349563221</ele>
        <time>2026-08-17T12:44:48Z</time>
      </trkpt>
      <trkpt lat="41.40492378625586" lon="-81.75451284130602">
        <ele>248.0155145115</ele>
        <time>2026-08-17T12:45:25Z</time>
      </trkpt>
      <trkpt lat="41.40493709352219" lon="-81.75539571847386">
        <ele>245.1367314636</ele>
        <time>2026-08-17T12:45:35Z</time>
      </trkpt>
      <trkpt lat="41.40493812573654" lon="-81.75631160480995">
        <ele>242.9611850774</ele>
        <time>2026-08-17T12:45:48Z</time>
      </trkpt>
      <trkpt lat="41.40493794570298" lon="-81.75696482898654">
        <ele>243.6107537441</ele>
        <time>2026-08-17T12:45:56Z</time>
      </trkpt>
      <trkpt lat="41.40495857679041" lon="-81.75788190249942">
        <ele>245.0139452144</ele>
        <time>2026-08-17T12:46:48Z</time>
      </trkpt>
      <trkpt lat="41.40618542444913" lon="-81.75793273775068">
        <ele>245.8074799131</ele>
        <time>2026-08-17T12:47:15Z</time>
      </trkpt>
      <trkpt lat="41.40778657562744" lon="-81.75793042870058">
        <ele>245.1885682963</ele>
        <time>2026-08-17T12:47:52Z</time>
      </trkpt>
      <trkpt lat="41.40797832853613" lon="-81.75791675650123">
        <ele>244.9351382888</ele>
        <time>2026-08-17T12:47:54Z</time>
      </trkpt>
      <trkpt lat="41.40815176157740" lon="-81.75787500349209">
        <ele>245.0309249565</ele>
        <time>2026-08-17T12:47:55Z</time>
      </trkpt>
      <trkpt lat="41.40837866954178" lon="-81.75778997342466">
        <ele>244.5422329031</ele>
        <time>2026-08-17T12:47:57Z</time>
      </trkpt>
      <trkpt lat="41.40954759063425" lon="-81.75719102692690">
        <ele>243.0942186602</ele>
        <time>2026-08-17T12:48:10Z</time>
      </trkpt>
      <trkpt lat="41.41018319189426" lon="-81.75682708295818">
        <ele>242.8672804942</ele>
        <time>2026-08-17T12:48:33Z</time>
      </trkpt>
      <trkpt lat="41.41075917374011" lon="-81.75659517837975">
        <ele>242.0269834842</ele>
        <time>2026-08-17T12:48:40Z</time>
      </trkpt>
      <trkpt lat="41.41108192887920" lon="-81.75652418750894">
        <ele>241.9667542913</ele>
        <time>2026-08-17T12:48:44Z</time>
      </trkpt>
      <trkpt lat="41.41250028254333" lon="-81.75658032146890">
        <ele>240.3503164929</ele>
        <time>2026-08-17T12:48:56Z</time>
      </trkpt>
      <trkpt lat="41.41381616417110" lon="-81.75663253383729">
        <ele>240.9843607572</ele>
        <time>2026-08-17T12:49:07Z</time>
      </trkpt>
      <trkpt lat="41.41465510680894" lon="-81.75664343039242">
        <ele>240.8995741468</ele>
        <time>2026-08-17T12:49:15Z</time>
      </trkpt>
      <trkpt lat="41.41537502730103" lon="-81.75666614149593">
        <ele>239.9402155849</ele>
        <time>2026-08-17T12:49:20Z</time>
      </trkpt>
      <trkpt lat="41.41624441399028" lon="-81.75687091962529">
        <ele>238.5513959927</ele>
        <time>2026-08-17T12:49:27Z</time>
      </trkpt>
      <trkpt lat="41.41667559465662" lon="-81.75699167544877">
        <ele>237.1808304428</ele>
        <time>2026-08-17T12:49:30Z</time>
      </trkpt>
      <trkpt lat="41.41680839138362" lon="-81.75703132506146">
        <ele>237.0512506050</ele>
        <time>2026-08-17T12:49:33Z</time>
      </trkpt>
      <trkpt lat="41.41800371187231" lon="-81.75756418150468">
        <ele>234.9554419709</ele>
        <time>2026-08-17T12:50:17Z</time>
      </trkpt>
      <trkpt lat="41.41847154402872" lon="-81.75778770286711">
        <ele>233.8665684742</ele>
        <time>2026-08-17T12:50:22Z</time>
      </trkpt>
      <trkpt lat="41.41846477205532" lon="-81.75911885559466">
        <ele>235.1169558523</ele>
        <time>2026-08-17T12:50:31Z</time>
      </trkpt>
      <trkpt lat="41.41847718148433" lon="-81.75988123993577">
        <ele>236.5406367861</ele>
        <time>2026-08-17T12:51:07Z</time>
      </trkpt>
      <trkpt lat="41.41846171385993" lon="-81.76039128797538">
        <ele>237.9777993962</ele>
        <time>2026-08-17T12:51:36Z</time>
      </trkpt>
      <trkpt lat="41.41847034489603" lon="-81.76075489265618">
        <ele>239.1034032522</ele>
        <time>2026-08-17T12:51:39Z</time>
      </trkpt>
      <trkpt lat="41.41845522042873" lon="-81.76097583837614">
        <ele>239.9429911339</ele>
        <time>2026-08-17T12:51:40Z</time>
      </trkpt>
      <trkpt lat="41.41844437559328" lon="-81.76112058963344">
        <ele>240.2027834939</ele>
        <time>2026-08-17T12:51:42Z</time>
      </trkpt>
      <trkpt lat="41.41859521794796" lon="-81.76107769032508">
        <ele>240.0766102992</ele>
        <time>2026-08-17T12:52:25Z</time>
      </trkpt>
      <trkpt lat="41.41917065552826" lon="-81.76111779830239">
        <ele>239.9546079822</ele>
        <time>2026-08-17T12:52:28Z</time>
      </trkpt>
      <trkpt lat="41.41917179291138" lon="-81.76165967629352">
        <ele>240.0267815122</ele>
        <time>2026-08-17T12:52:33Z</time>
      </trkpt>
      <trkpt lat="41.42010681791739" lon="-81.76167399634646">
        <ele>240.0853454243</ele>
        <time>2026-08-17T12:52:44Z</time>
      </trkpt>
      <trkpt lat="41.42009061479445" lon="-81.76174961689500">
        <ele>239.9947943619</ele>
        <time>2026-08-17T12:52:45Z</time>
      </trkpt>
    </trkseg>
  </trk>
</gpx>