<?xml version='1.0' encoding='UTF-8'?>
<gpx xmlns="http://www.topografix.com/GPX/1/1" creator="https://gpx.studio" version="1.1">
  <metadata>
    <name>Car Ride - 2026-06-04</name>
  </metadata>
  <trk>
    <name>Car Ride - 2026-06-04</name>
    <type>driving</type>
    <trkseg>
      <trkpt lat="41.40133929256600" lon="-81.74023426548302">
        <ele>265.9606306772</ele>
        <time>2026-06-04T14:03:29Z</time>
      </trkpt>
      <trkpt lat="41.40135072809935" lon="-81.74241329181856">
        <ele>264.7699860473</ele>
        <time>2026-06-04T14:03:48Z</time>
      </trkpt>
      <trkpt lat="41.40044313934733" lon="-81.74199592802479">
        <ele>265.0026727988</ele>
        <time>2026-06-04T14:04:00Z</time>
      </trkpt>
      <trkpt lat="41.39954089673362" lon="-81.74157331448994">
        <ele>264.9345769461</ele>
        <time>2026-06-04T14:04:07Z</time>
      </trkpt>
      <trkpt lat="41.39954387140446" lon="-81.74469117577463">
        <ele>266.0841012791</ele>
        <time>2026-06-04T14:04:39Z</time>
      </trkpt>
      <trkpt lat="41.39784294204113" lon="-81.74474091644689">
        <ele>265.8566271057</ele>
        <time>2026-06-04T14:04:50Z</time>
      </trkpt>
      <trkpt lat="41.39606152791574" lon="-81.74474103835236">
        <ele>266.7798541317</ele>
        <time>2026-06-04T14:05:32Z</time>
      </trkpt>
      <trkpt lat="41.39590147379766" lon="-81.74473366455828">
        <ele>266.4779757634</ele>
        <time>2026-06-04T14:05:33Z</time>
      </trkpt>
      <trkpt lat="41.39574234954103" lon="-81.74466242662325">
        <ele>266.2190293284</ele>
        <time>2026-06-04T14:05:59Z</time>
      </trkpt>
      <trkpt lat="41.39553266872380" lon="-81.74456408097946">
        <ele>266.0886086102</ele>
        <time>2026-06-04T14:06:01Z</time>
      </trkpt>
      <trkpt lat="41.39535240513890" lon="-81.74446166670711">
        <ele>265.9279921838</ele>
        <time>2026-06-04T14:06:02Z</time>
      </trkpt>
      <trkpt lat="41.39515251345838" lon="-81.74429639273316">
        <ele>265.9755196091</ele>
        <time>2026-06-04T14:06:06Z</time>
      </trkpt>
      <trkpt lat="41.39498919095649" lon="-81.74415617312087">
        <ele>265.8594825205</ele>
        <time>2026-06-04T14:06:08Z</time>
      </trkpt>
      <trkpt lat="41.39476173794813" lon="-81.74400877985593">
        <ele>266.1026765646</ele>
        <time>2026-06-04T14:06:28Z</time>
      </trkpt>
      <trkpt lat="41.39439180230884" lon="-81.74392839459946">
        <ele>266.9107726939</ele>
        <time>2026-06-04T14:06:32Z</time>
      </trkpt>
      <trkpt lat="41.39237657447252" lon="-81.74393720561753">
        <ele>268.9392639761</ele>
        <time>2026-06-04T14:07:14Z</time>
      </trkpt>
      <trkpt lat="41.39141629408703" lon="-81.74392719144170">
        <ele>269.0903443576</ele>
        <time>2026-06-04T14:07:53Z</time>
      </trkpt>
      <trkpt lat="41.38975056160022" lon="-81.74393350955624">
        <ele>270.6963597006</ele>
        <time>2026-06-04T14:08:06Z</time>
      </trkpt>
      <trkpt lat="41.38806398299148" lon="-81.74391193876323">
        <ele>271.7836527514</ele>
        <time>2026-06-04T14:08:25Z</time>
      </trkpt>
      <trkpt lat="41.38453078992339" lon="-81.74390799914052">
        <ele>273.9746611212</ele>
        <time>2026-06-04T14:09:07Z</time>
      </trkpt>
      <trkpt lat="41.38443658003241" lon="-81.74396050409996">
        <ele>274.0701763765</ele>
        <time>2026-06-04T14:09:08Z</time>
      </trkpt>
      <trkpt lat="41.38383021033083" lon="-81.74395737498278">
        <ele>275.6551850713</ele>
        <time>2026-06-04T14:09:13Z</time>
      </trkpt>
      <trkpt lat="41.38382443383909" lon="-81.74467794385633">
        <ele>275.3588193087</ele>
        <time>2026-06-04T14:09:18Z</time>
      </trkpt>
      <trkpt lat="41.38343803100627" lon="-81.74467535057668">
        <ele>276.2829802505</ele>
        <time>2026-06-04T14:10:06Z</time>
      </trkpt>
    </trkseg>
  </trk>
</gpx>