<?xml version='1.0' encoding='UTF-8'?>
<gpx xmlns="http://www.topografix.com/GPX/1/1" creator="https://gpx.studio" version="1.1">
  <metadata>
    <name>Car Ride - 2026-05-29</name>
  </metadata>
  <trk>
    <name>Car Ride - 2026-05-29</name>
    <type>driving</type>
    <trkseg>
      <trkpt lat="41.40133696233084" lon="-81.74031461935947">
        <ele>265.9388283503</ele>
        <time>2026-05-29T18:32:13Z</time>
      </trkpt>
      <trkpt lat="41.40133655426393" lon="-81.73816978274982">
        <ele>267.7041685654</ele>
        <time>2026-05-29T18:32:41Z</time>
      </trkpt>
      <trkpt lat="41.40131367107894" lon="-81.73458821215939">
        <ele>266.9844521619</ele>
        <time>2026-05-29T18:33:09Z</time>
      </trkpt>
      <trkpt lat="41.40139553526939" lon="-81.73459697096945">
        <ele>267.0252248734</ele>
        <time>2026-05-29T18:33:29Z</time>
      </trkpt>
      <trkpt lat="41.40139550800041" lon="-81.73042602315266">
        <ele>264.9873404269</ele>
        <time>2026-05-29T18:34:22Z</time>
      </trkpt>
      <trkpt lat="41.40138389947681" lon="-81.72657625143326">
        <ele>267.1751582908</ele>
        <time>2026-05-29T18:35:40Z</time>
      </trkpt>
      <trkpt lat="41.40136216996827" lon="-81.72277508822010">
        <ele>267.7124517170</ele>
        <time>2026-05-29T18:36:54Z</time>
      </trkpt>
      <trkpt lat="41.40214285247970" lon="-81.72275133875954">
        <ele>266.2188870930</ele>
        <time>2026-05-29T18:37:02Z</time>
      </trkpt>
      <trkpt lat="41.40215376609180" lon="-81.72033217127185">
        <ele>268.0799471507</ele>
        <time>2026-05-29T18:37:16Z</time>
      </trkpt>
      <trkpt lat="41.40222917025205" lon="-81.72031736916212">
        <ele>268.0155471681</ele>
        <time>2026-05-29T18:37:17Z</time>
      </trkpt>
      <trkpt lat="41.40319198484092" lon="-81.72034748737268">
        <ele>266.8184728941</ele>
        <time>2026-05-29T18:37:26Z</time>
      </trkpt>
      <trkpt lat="41.40339527516164" lon="-81.72033056846830">
        <ele>265.9466941612</ele>
        <time>2026-05-29T18:37:28Z</time>
      </trkpt>
    </trkseg>
  </trk>
</gpx>