<?xml version='1.0' encoding='UTF-8'?>
<gpx xmlns="http://www.topografix.com/GPX/1/1" creator="https://gpx.studio" version="1.1">
  <metadata>
    <name>Dog Walk - 2026-07-24 #3</name>
  </metadata>
  <trk>
    <name>Dog Walk - 2026-07-24 #3</name>
    <type>dog walk</type>
    <trkseg>
      <trkpt lat="41.40134152236575" lon="-81.74023134970739">
        <ele>266.4669830179</ele>
        <time>2026-07-24T13:00:49Z</time>
      </trkpt>
      <trkpt lat="41.40134881254235" lon="-81.74084028378586">
        <ele>266.1276017733</ele>
        <time>2026-07-24T13:01:48Z</time>
      </trkpt>
      <trkpt lat="41.40133931505135" lon="-81.74143501139196">
        <ele>265.8077639530</ele>
        <time>2026-07-24T13:02:37Z</time>
      </trkpt>
      <trkpt lat="41.40133961082313" lon="-81.74203649503707">
        <ele>265.5573601701</ele>
        <time>2026-07-24T13:03:14Z</time>
      </trkpt>
      <trkpt lat="41.40135110208792" lon="-81.74243372344041">
        <ele>264.6822734249</ele>
        <time>2026-07-24T13:03:37Z</time>
      </trkpt>
      <trkpt lat="41.40176394567754" lon="-81.74261739927350">
        <ele>264.1572512974</ele>
        <time>2026-07-24T13:04:09Z</time>
      </trkpt>
      <trkpt lat="41.40218980077610" lon="-81.74281658250608">
        <ele>263.6717544857</ele>
        <time>2026-07-24T13:04:57Z</time>
      </trkpt>
      <trkpt lat="41.40261872963450" lon="-81.74301372483855">
        <ele>263.0536972202</ele>
        <time>2026-07-24T13:05:46Z</time>
      </trkpt>
      <trkpt lat="41.40304892459244" lon="-81.74320708593731">
        <ele>262.3722120650</ele>
        <time>2026-07-24T13:06:19Z</time>
      </trkpt>
      <trkpt lat="41.40310861912181" lon="-81.74325326363814">
        <ele>262.5636052790</ele>
        <time>2026-07-24T13:06:25Z</time>
      </trkpt>
      <trkpt lat="41.40311613992241" lon="-81.74265765397561">
        <ele>263.0425428529</ele>
        <time>2026-07-24T13:07:19Z</time>
      </trkpt>
      <trkpt lat="41.40311532992233" lon="-81.74205706907910">
        <ele>263.6597691450</ele>
        <time>2026-07-24T13:08:28Z</time>
      </trkpt>
      <trkpt lat="41.40311383460433" lon="-81.74145795830601">
        <ele>264.1030350859</ele>
        <time>2026-07-24T13:09:21Z</time>
      </trkpt>
      <trkpt lat="41.40311001622339" lon="-81.74085033416297">
        <ele>264.7633246420</ele>
        <time>2026-07-24T13:10:03Z</time>
      </trkpt>
      <trkpt lat="41.40310434419148" lon="-81.74025200021681">
        <ele>265.5508626845</ele>
        <time>2026-07-24T13:10:56Z</time>
      </trkpt>
      <trkpt lat="41.40310472984429" lon="-81.73965550595157">
        <ele>265.7410886728</ele>
        <time>2026-07-24T13:11:49Z</time>
      </trkpt>
      <trkpt lat="41.40310225082555" lon="-81.73905844346754">
        <ele>266.0088667887</ele>
        <time>2026-07-24T13:12:30Z</time>
      </trkpt>
      <trkpt lat="41.40309425577862" lon="-81.73878214252959">
        <ele>266.2519013809</ele>
        <time>2026-07-24T13:12:42Z</time>
      </trkpt>
      <trkpt lat="41.40265991579614" lon="-81.73878527858744">
        <ele>266.7785279588</ele>
        <time>2026-07-24T13:13:30Z</time>
      </trkpt>
      <trkpt lat="41.40223477312313" lon="-81.73877200276786">
        <ele>267.0647698506</ele>
        <time>2026-07-24T13:14:09Z</time>
      </trkpt>
      <trkpt lat="41.40223369847359" lon="-81.73818425633802">
        <ele>267.2530916893</ele>
        <time>2026-07-24T13:14:42Z</time>
      </trkpt>
      <trkpt lat="41.40222770064546" lon="-81.73759315225273">
        <ele>267.1039942769</ele>
        <time>2026-07-24T13:15:24Z</time>
      </trkpt>
      <trkpt lat="41.40222562650467" lon="-81.73698628678740">
        <ele>267.0256222938</ele>
        <time>2026-07-24T13:16:05Z</time>
      </trkpt>
      <trkpt lat="41.40223086290696" lon="-81.73637712561201">
        <ele>267.1801072876</ele>
        <time>2026-07-24T13:16:45Z</time>
      </trkpt>
      <trkpt lat="41.40222071363711" lon="-81.73578799219385">
        <ele>267.2755238916</ele>
        <time>2026-07-24T13:17:20Z</time>
      </trkpt>
      <trkpt lat="41.40222514096502" lon="-81.73517217918885">
        <ele>267.2410776717</ele>
        <time>2026-07-24T13:17:58Z</time>
      </trkpt>
      <trkpt lat="41.40222475968411" lon="-81.73465164599111">
        <ele>267.0878596468</ele>
        <time>2026-07-24T13:18:56Z</time>
      </trkpt>
      <trkpt lat="41.40178403951988" lon="-81.73465106635710">
        <ele>267.3254064785</ele>
        <time>2026-07-24T13:19:51Z</time>
      </trkpt>
      <trkpt lat="41.40132352675750" lon="-81.73463494293895">
        <ele>267.4135878516</ele>
        <time>2026-07-24T13:20:39Z</time>
      </trkpt>
      <trkpt lat="41.40132024215136" lon="-81.73463710442179">
        <ele>267.3323226743</ele>
        <time>2026-07-24T13:20:40Z</time>
      </trkpt>
      <trkpt lat="41.40132168228433" lon="-81.73523122414784">
        <ele>268.0330216141</ele>
        <time>2026-07-24T13:21:24Z</time>
      </trkpt>
      <trkpt lat="41.40132718156335" lon="-81.73584388867761">
        <ele>267.9156250941</ele>
        <time>2026-07-24T13:22:04Z</time>
      </trkpt>
      <trkpt lat="41.40133217919044" lon="-81.73643845689281">
        <ele>268.2378094632</ele>
        <time>2026-07-24T13:22:52Z</time>
      </trkpt>
      <trkpt lat="41.40132925810705" lon="-81.73702468760111">
        <ele>267.9525463296</ele>
        <time>2026-07-24T13:23:29Z</time>
      </trkpt>
      <trkpt lat="41.40134021237117" lon="-81.73763638872784">
        <ele>268.0449963959</ele>
        <time>2026-07-24T13:24:19Z</time>
      </trkpt>
      <trkpt lat="41.40133927559221" lon="-81.73823157331681">
        <ele>267.6084731363</ele>
        <time>2026-07-24T13:25:10Z</time>
      </trkpt>
      <trkpt lat="41.40134194797370" lon="-81.73883570695963">
        <ele>267.1992382459</ele>
        <time>2026-07-24T13:25:42Z</time>
      </trkpt>
      <trkpt lat="41.40133492157264" lon="-81.73943303712605">
        <ele>267.3260170513</ele>
        <time>2026-07-24T13:26:15Z</time>
      </trkpt>
      <trkpt lat="41.40135011571211" lon="-81.74003174009920">
        <ele>266.5088838132</ele>
        <time>2026-07-24T13:27:18Z</time>
      </trkpt>
      <trkpt lat="41.40134975091742" lon="-81.74017289050609">
        <ele>266.6183502760</ele>
        <time>2026-07-24T13:27:27Z</time>
      </trkpt>
    </trkseg>
  </trk>
</gpx>