<?xml version='1.0' encoding='UTF-8'?>
<gpx xmlns="http://www.topografix.com/GPX/1/1" creator="https://gpx.studio" version="1.1">
  <metadata>
    <name>Dog Walk - 2026-03-11 #1</name>
  </metadata>
  <trk>
    <name>Dog Walk - 2026-03-11 #1</name>
    <type>dog walk</type>
    <trkseg>
      <trkpt lat="41.40132898855737" lon="-81.74022745399959">
        <ele>266.5677246971</ele>
        <time>2026-03-11T08:27:41Z</time>
      </trkpt>
      <trkpt lat="41.40133827493824" lon="-81.74083734677804">
        <ele>266.2495172262</ele>
        <time>2026-03-11T08:28:23Z</time>
      </trkpt>
      <trkpt lat="41.40134684635594" lon="-81.74142867503492">
        <ele>265.6792102098</ele>
        <time>2026-03-11T08:29:05Z</time>
      </trkpt>
      <trkpt lat="41.40134705603540" lon="-81.74202882582949">
        <ele>265.4712739962</ele>
        <time>2026-03-11T08:29:54Z</time>
      </trkpt>
      <trkpt lat="41.40134619369861" lon="-81.74240907016831">
        <ele>264.8416858911</ele>
        <time>2026-03-11T08:30:15Z</time>
      </trkpt>
      <trkpt lat="41.40176949472495" lon="-81.74262867751783">
        <ele>264.1111517527</ele>
        <time>2026-03-11T08:31:03Z</time>
      </trkpt>
      <trkpt lat="41.40219076835137" lon="-81.74284005997761">
        <ele>263.4349645345</ele>
        <time>2026-03-11T08:31:49Z</time>
      </trkpt>
      <trkpt lat="41.40259865618173" lon="-81.74305240257947">
        <ele>262.9102351305</ele>
        <time>2026-03-11T08:32:27Z</time>
      </trkpt>
      <trkpt lat="41.40302639711700" lon="-81.74327017344602">
        <ele>262.3381799971</ele>
        <time>2026-03-11T08:33:12Z</time>
      </trkpt>
      <trkpt lat="41.40344377718461" lon="-81.74347656712942">
        <ele>261.9360872656</ele>
        <time>2026-03-11T08:33:43Z</time>
      </trkpt>
      <trkpt lat="41.40349562429053" lon="-81.74349772548830">
        <ele>261.8894228698</ele>
        <time>2026-03-11T08:33:47Z</time>
      </trkpt>
      <trkpt lat="41.40359059910578" lon="-81.74351174462356">
        <ele>261.7296181486</ele>
        <time>2026-03-11T08:33:54Z</time>
      </trkpt>
      <trkpt lat="41.40399575958077" lon="-81.74350321260492">
        <ele>260.3779437295</ele>
        <time>2026-03-11T08:34:22Z</time>
      </trkpt>
      <trkpt lat="41.40398840913021" lon="-81.74291058633938">
        <ele>261.4860806155</ele>
        <time>2026-03-11T08:35:03Z</time>
      </trkpt>
      <trkpt lat="41.40398979854770" lon="-81.74230372941463">
        <ele>261.9709883789</ele>
        <time>2026-03-11T08:35:46Z</time>
      </trkpt>
      <trkpt lat="41.40400000581018" lon="-81.74170797593850">
        <ele>262.2275425541</ele>
        <time>2026-03-11T08:36:21Z</time>
      </trkpt>
      <trkpt lat="41.40398990538356" lon="-81.74111584288049">
        <ele>263.0055498438</ele>
        <time>2026-03-11T08:36:55Z</time>
      </trkpt>
      <trkpt lat="41.40398745095560" lon="-81.74051381360105">
        <ele>263.7066624188</ele>
        <time>2026-03-11T08:37:35Z</time>
      </trkpt>
      <trkpt lat="41.40398139289022" lon="-81.73991648199608">
        <ele>264.3654106182</ele>
        <time>2026-03-11T08:38:11Z</time>
      </trkpt>
      <trkpt lat="41.40399188358921" lon="-81.73931860321095">
        <ele>264.8549012274</ele>
        <time>2026-03-11T08:38:49Z</time>
      </trkpt>
      <trkpt lat="41.40399188015508" lon="-81.73878356960807">
        <ele>265.1752312764</ele>
        <time>2026-03-11T08:39:22Z</time>
      </trkpt>
      <trkpt lat="41.40353546501510" lon="-81.73878950314362">
        <ele>265.7990651154</ele>
        <time>2026-03-11T08:40:04Z</time>
      </trkpt>
      <trkpt lat="41.40309444663193" lon="-81.73877311579854">
        <ele>266.3721145550</ele>
        <time>2026-03-11T08:40:35Z</time>
      </trkpt>
      <trkpt lat="41.40264080288048" lon="-81.73877824613147">
        <ele>266.8870886342</ele>
        <time>2026-03-11T08:41:10Z</time>
      </trkpt>
      <trkpt lat="41.40223440051544" lon="-81.73877430391202">
        <ele>267.1399338028</ele>
        <time>2026-03-11T08:41:51Z</time>
      </trkpt>
      <trkpt lat="41.40221598265173" lon="-81.73826909482123">
        <ele>267.0468227389</ele>
        <time>2026-03-11T08:42:18Z</time>
      </trkpt>
      <trkpt lat="41.40176849108092" lon="-81.73826758090787">
        <ele>267.7933447565</ele>
        <time>2026-03-11T08:43:14Z</time>
      </trkpt>
      <trkpt lat="41.40132971688958" lon="-81.73826492256386">
        <ele>267.5785039858</ele>
        <time>2026-03-11T08:43:51Z</time>
      </trkpt>
      <trkpt lat="41.40133797588522" lon="-81.73886269430702">
        <ele>267.3085721251</ele>
        <time>2026-03-11T08:44:33Z</time>
      </trkpt>
      <trkpt lat="41.40134288512410" lon="-81.73946955277491">
        <ele>267.1481040356</ele>
        <time>2026-03-11T08:45:13Z</time>
      </trkpt>
      <trkpt lat="41.40133747435227" lon="-81.74006583382332">
        <ele>266.5277708478</ele>
        <time>2026-03-11T08:45:42Z</time>
      </trkpt>
      <trkpt lat="41.40133936361937" lon="-81.74020118372074">
        <ele>266.6377558834</ele>
        <time>2026-03-11T08:45:51Z</time>
      </trkpt>
    </trkseg>
  </trk>
</gpx>