<?xml version='1.0' encoding='UTF-8'?>
<gpx xmlns="http://www.topografix.com/GPX/1/1" creator="https://gpx.studio" version="1.1">
  <metadata>
    <name>Dog Walk - 2026-03-07 #3</name>
  </metadata>
  <trk>
    <name>Dog Walk - 2026-03-07 #3</name>
    <type>dog walk</type>
    <trkseg>
      <trkpt lat="41.40133349979742" lon="-81.74024009030168">
        <ele>266.3599571129</ele>
        <time>2026-03-07T13:01:06Z</time>
      </trkpt>
      <trkpt lat="41.40133563939583" lon="-81.74082820137880">
        <ele>265.9809796499</ele>
        <time>2026-03-07T13:01:40Z</time>
      </trkpt>
      <trkpt lat="41.40134949070115" lon="-81.74143535937421">
        <ele>265.6756537585</ele>
        <time>2026-03-07T13:02:16Z</time>
      </trkpt>
      <trkpt lat="41.40134940077780" lon="-81.74202949528181">
        <ele>265.3287000448</ele>
        <time>2026-03-07T13:02:57Z</time>
      </trkpt>
      <trkpt lat="41.40135848815749" lon="-81.74241849093345">
        <ele>264.5867877631</ele>
        <time>2026-03-07T13:03:24Z</time>
      </trkpt>
      <trkpt lat="41.40177284111766" lon="-81.74262161757740">
        <ele>264.2369642699</ele>
        <time>2026-03-07T13:04:13Z</time>
      </trkpt>
      <trkpt lat="41.40219277387617" lon="-81.74281493082049">
        <ele>263.4773868840</ele>
        <time>2026-03-07T13:05:06Z</time>
      </trkpt>
      <trkpt lat="41.40262503599906" lon="-81.74301924040741">
        <ele>263.1425716668</ele>
        <time>2026-03-07T13:06:01Z</time>
      </trkpt>
      <trkpt lat="41.40304608404944" lon="-81.74322914238117">
        <ele>262.5377269375</ele>
        <time>2026-03-07T13:06:43Z</time>
      </trkpt>
      <trkpt lat="41.40311575813138" lon="-81.74325261224821">
        <ele>262.4350531680</ele>
        <time>2026-03-07T13:06:51Z</time>
      </trkpt>
      <trkpt lat="41.40311302632386" lon="-81.74265493672476">
        <ele>263.0595505595</ele>
        <time>2026-03-07T13:07:33Z</time>
      </trkpt>
      <trkpt lat="41.40311173501726" lon="-81.74205567512423">
        <ele>263.7424861034</ele>
        <time>2026-03-07T13:08:27Z</time>
      </trkpt>
      <trkpt lat="41.40311181779394" lon="-81.74144688513934">
        <ele>264.0793862860</ele>
        <time>2026-03-07T13:09:09Z</time>
      </trkpt>
      <trkpt lat="41.40310597103147" lon="-81.74085941004584">
        <ele>264.8308574485</ele>
        <time>2026-03-07T13:09:53Z</time>
      </trkpt>
      <trkpt lat="41.40310167139867" lon="-81.74024528259226">
        <ele>265.3634881710</ele>
        <time>2026-03-07T13:10:38Z</time>
      </trkpt>
      <trkpt lat="41.40310084351616" lon="-81.73965120082177">
        <ele>265.9354596580</ele>
        <time>2026-03-07T13:11:11Z</time>
      </trkpt>
      <trkpt lat="41.40309934266588" lon="-81.73905858340147">
        <ele>266.2438087333</ele>
        <time>2026-03-07T13:11:45Z</time>
      </trkpt>
      <trkpt lat="41.40310208094236" lon="-81.73878608163069">
        <ele>266.4591289654</ele>
        <time>2026-03-07T13:12:01Z</time>
      </trkpt>
      <trkpt lat="41.40265623292763" lon="-81.73878367820942">
        <ele>266.6669158507</ele>
        <time>2026-03-07T13:12:37Z</time>
      </trkpt>
      <trkpt lat="41.40224303258400" lon="-81.73878497708284">
        <ele>267.1071974134</ele>
        <time>2026-03-07T13:13:10Z</time>
      </trkpt>
      <trkpt lat="41.40222384077449" lon="-81.73817605288215">
        <ele>267.2379819539</ele>
        <time>2026-03-07T13:13:51Z</time>
      </trkpt>
      <trkpt lat="41.40223827016185" lon="-81.73757767223115">
        <ele>267.0357829551</ele>
        <time>2026-03-07T13:14:24Z</time>
      </trkpt>
      <trkpt lat="41.40222960291785" lon="-81.73697706034268">
        <ele>267.0169929095</ele>
        <time>2026-03-07T13:15:10Z</time>
      </trkpt>
      <trkpt lat="41.40222549612009" lon="-81.73638858939755">
        <ele>267.2028403231</ele>
        <time>2026-03-07T13:15:45Z</time>
      </trkpt>
      <trkpt lat="41.40222874390660" lon="-81.73578385111207">
        <ele>267.1519276908</ele>
        <time>2026-03-07T13:16:23Z</time>
      </trkpt>
      <trkpt lat="41.40222223668548" lon="-81.73518435400179">
        <ele>267.0082833642</ele>
        <time>2026-03-07T13:16:55Z</time>
      </trkpt>
      <trkpt lat="41.40222465452942" lon="-81.73464894849600">
        <ele>266.9570039903</ele>
        <time>2026-03-07T13:17:35Z</time>
      </trkpt>
      <trkpt lat="41.40177368921280" lon="-81.73464023023361">
        <ele>267.2029033637</ele>
        <time>2026-03-07T13:18:36Z</time>
      </trkpt>
      <trkpt lat="41.40131938182697" lon="-81.73463810368087">
        <ele>267.4929496733</ele>
        <time>2026-03-07T13:19:09Z</time>
      </trkpt>
      <trkpt lat="41.40131543039347" lon="-81.73463158032331">
        <ele>267.3348654771</ele>
        <time>2026-03-07T13:19:10Z</time>
      </trkpt>
      <trkpt lat="41.40131958180132" lon="-81.73523634094002">
        <ele>268.0480775561</ele>
        <time>2026-03-07T13:19:45Z</time>
      </trkpt>
      <trkpt lat="41.40131964077990" lon="-81.73582607637691">
        <ele>268.2852532542</ele>
        <time>2026-03-07T13:20:26Z</time>
      </trkpt>
      <trkpt lat="41.40132736678115" lon="-81.73643567139466">
        <ele>268.0746323484</ele>
        <time>2026-03-07T13:21:05Z</time>
      </trkpt>
      <trkpt lat="41.40133330499115" lon="-81.73703652030041">
        <ele>268.0528791941</ele>
        <time>2026-03-07T13:21:48Z</time>
      </trkpt>
      <trkpt lat="41.40132942988973" lon="-81.73764197702505">
        <ele>267.8423961505</ele>
        <time>2026-03-07T13:22:23Z</time>
      </trkpt>
      <trkpt lat="41.40132959708130" lon="-81.73822518059906">
        <ele>267.4296254523</ele>
        <time>2026-03-07T13:22:57Z</time>
      </trkpt>
      <trkpt lat="41.40133996502126" lon="-81.73883243479419">
        <ele>267.4221624065</ele>
        <time>2026-03-07T13:23:27Z</time>
      </trkpt>
      <trkpt lat="41.40133785884115" lon="-81.73944011010676">
        <ele>267.3588910237</ele>
        <time>2026-03-07T13:24:04Z</time>
      </trkpt>
      <trkpt lat="41.40134600033248" lon="-81.74002810947833">
        <ele>266.5701485105</ele>
        <time>2026-03-07T13:24:43Z</time>
      </trkpt>
      <trkpt lat="41.40134823247865" lon="-81.74015911769999">
        <ele>266.3014904101</ele>
        <time>2026-03-07T13:24:53Z</time>
      </trkpt>
    </trkseg>
  </trk>
</gpx>