<?xml version='1.0' encoding='UTF-8'?>
<gpx xmlns="http://www.topografix.com/GPX/1/1" creator="https://gpx.studio" version="1.1">
  <metadata>
    <name>Dog Walk - 2026-08-01 #1</name>
  </metadata>
  <trk>
    <name>Dog Walk - 2026-08-01 #1</name>
    <type>dog walk</type>
    <trkseg>
      <trkpt lat="41.40134604919266" lon="-81.74023122875016">
        <ele>266.3587739959</ele>
        <time>2026-08-01T09:02:46Z</time>
      </trkpt>
      <trkpt lat="41.40133708109106" lon="-81.74083377356574">
        <ele>266.3545908158</ele>
        <time>2026-08-01T09:03:23Z</time>
      </trkpt>
      <trkpt lat="41.40134843015316" lon="-81.74144043066281">
        <ele>265.5670356713</ele>
        <time>2026-08-01T09:03:58Z</time>
      </trkpt>
      <trkpt lat="41.40134949164597" lon="-81.74203855125438">
        <ele>264.9603468112</ele>
        <time>2026-08-01T09:04:43Z</time>
      </trkpt>
      <trkpt lat="41.40135320776873" lon="-81.74242479451574">
        <ele>264.7518480831</ele>
        <time>2026-08-01T09:05:10Z</time>
      </trkpt>
      <trkpt lat="41.40176757164155" lon="-81.74263690286581">
        <ele>264.2325333473</ele>
        <time>2026-08-01T09:05:39Z</time>
      </trkpt>
      <trkpt lat="41.40218831006096" lon="-81.74285284735269">
        <ele>263.3370900354</ele>
        <time>2026-08-01T09:06:34Z</time>
      </trkpt>
      <trkpt lat="41.40221701755338" lon="-81.74286056033961">
        <ele>263.3149382403</ele>
        <time>2026-08-01T09:06:36Z</time>
      </trkpt>
      <trkpt lat="41.40221558732775" lon="-81.74226957728814">
        <ele>264.0874265385</ele>
        <time>2026-08-01T09:07:26Z</time>
      </trkpt>
      <trkpt lat="41.40222359614630" lon="-81.74166750127124">
        <ele>264.9318914174</ele>
        <time>2026-08-01T09:08:03Z</time>
      </trkpt>
      <trkpt lat="41.40221762499831" lon="-81.74107392284697">
        <ele>265.7994770500</ele>
        <time>2026-08-01T09:08:58Z</time>
      </trkpt>
      <trkpt lat="41.40222276606153" lon="-81.74046632475816">
        <ele>265.9861762864</ele>
        <time>2026-08-01T09:09:40Z</time>
      </trkpt>
      <trkpt lat="41.40221032424670" lon="-81.73986329686589">
        <ele>266.3978872480</ele>
        <time>2026-08-01T09:10:27Z</time>
      </trkpt>
      <trkpt lat="41.40221506770261" lon="-81.73926325277669">
        <ele>267.0104267608</ele>
        <time>2026-08-01T09:10:59Z</time>
      </trkpt>
      <trkpt lat="41.40222195108566" lon="-81.73866460847009">
        <ele>267.1753023936</ele>
        <time>2026-08-01T09:11:42Z</time>
      </trkpt>
      <trkpt lat="41.40222234718406" lon="-81.73827317177745">
        <ele>267.1785998750</ele>
        <time>2026-08-01T09:12:04Z</time>
      </trkpt>
      <trkpt lat="41.40177024612516" lon="-81.73825028921833">
        <ele>267.8187874179</ele>
        <time>2026-08-01T09:12:40Z</time>
      </trkpt>
      <trkpt lat="41.40133822880539" lon="-81.73826011161255">
        <ele>267.4981251604</ele>
        <time>2026-08-01T09:13:17Z</time>
      </trkpt>
      <trkpt lat="41.40134271654904" lon="-81.73886384029316">
        <ele>267.4360456720</ele>
        <time>2026-08-01T09:13:59Z</time>
      </trkpt>
      <trkpt lat="41.40132743774824" lon="-81.73945861685071">
        <ele>267.2575267199</ele>
        <time>2026-08-01T09:14:43Z</time>
      </trkpt>
      <trkpt lat="41.40134443229393" lon="-81.74006315288821">
        <ele>266.4656668908</ele>
        <time>2026-08-01T09:15:19Z</time>
      </trkpt>
      <trkpt lat="41.40134575279491" lon="-81.74018459397139">
        <ele>266.6905633336</ele>
        <time>2026-08-01T09:15:26Z</time>
      </trkpt>
    </trkseg>
  </trk>
</gpx>