<?xml version='1.0' encoding='UTF-8'?>
<gpx xmlns="http://www.topografix.com/GPX/1/1" creator="https://gpx.studio" version="1.1">
  <metadata>
    <name>Dog Walk - 2026-04-24</name>
  </metadata>
  <trk>
    <name>Dog Walk - 2026-04-24</name>
    <type>dog walk</type>
    <trkseg>
      <trkpt lat="41.40132833430431" lon="-81.74023799509246">
        <ele>266.6374743569</ele>
        <time>2026-04-24T10:14:55Z</time>
      </trkpt>
      <trkpt lat="41.40133429308555" lon="-81.74083599968310">
        <ele>266.1327011260</ele>
        <time>2026-04-24T10:15:44Z</time>
      </trkpt>
      <trkpt lat="41.40133183733554" lon="-81.74142808329974">
        <ele>266.0321554249</ele>
        <time>2026-04-24T10:16:20Z</time>
      </trkpt>
      <trkpt lat="41.40133184666398" lon="-81.74203538897014">
        <ele>265.3117213324</ele>
        <time>2026-04-24T10:16:57Z</time>
      </trkpt>
      <trkpt lat="41.40132902163770" lon="-81.74239122666833">
        <ele>264.8759525636</ele>
        <time>2026-04-24T10:17:23Z</time>
      </trkpt>
      <trkpt lat="41.40090127817248" lon="-81.74220317928416">
        <ele>265.1702127043</ele>
        <time>2026-04-24T10:17:54Z</time>
      </trkpt>
      <trkpt lat="41.40048658599962" lon="-81.74199796776438">
        <ele>265.1448397508</ele>
        <time>2026-04-24T10:18:32Z</time>
      </trkpt>
      <trkpt lat="41.40006136472902" lon="-81.74180722171663">
        <ele>265.4216801436</ele>
        <time>2026-04-24T10:19:10Z</time>
      </trkpt>
      <trkpt lat="41.39962756903368" lon="-81.74161837226272">
        <ele>264.6903957931</ele>
        <time>2026-04-24T10:19:55Z</time>
      </trkpt>
      <trkpt lat="41.39954028979150" lon="-81.74157441092147">
        <ele>265.1467701597</ele>
        <time>2026-04-24T10:20:02Z</time>
      </trkpt>
      <trkpt lat="41.39952728777337" lon="-81.74096751461083">
        <ele>265.9380277700</ele>
        <time>2026-04-24T10:20:45Z</time>
      </trkpt>
      <trkpt lat="41.39953125647104" lon="-81.74036639535154">
        <ele>266.1408748722</ele>
        <time>2026-04-24T10:21:22Z</time>
      </trkpt>
      <trkpt lat="41.39953925986789" lon="-81.73977552955799">
        <ele>266.6047103299</ele>
        <time>2026-04-24T10:21:59Z</time>
      </trkpt>
      <trkpt lat="41.39953691456317" lon="-81.73916426406068">
        <ele>266.8043685779</ele>
        <time>2026-04-24T10:22:40Z</time>
      </trkpt>
      <trkpt lat="41.39953359106293" lon="-81.73858312921774">
        <ele>266.9448686450</ele>
        <time>2026-04-24T10:23:18Z</time>
      </trkpt>
      <trkpt lat="41.39953733039344" lon="-81.73797211587724">
        <ele>267.0608060060</ele>
        <time>2026-04-24T10:24:03Z</time>
      </trkpt>
      <trkpt lat="41.39953383081992" lon="-81.73737660773867">
        <ele>267.5395152141</ele>
        <time>2026-04-24T10:24:36Z</time>
      </trkpt>
      <trkpt lat="41.39953084069118" lon="-81.73677337769411">
        <ele>267.4013349735</ele>
        <time>2026-04-24T10:25:17Z</time>
      </trkpt>
      <trkpt lat="41.39952735772005" lon="-81.73617442597508">
        <ele>267.4905884221</ele>
        <time>2026-04-24T10:26:00Z</time>
      </trkpt>
      <trkpt lat="41.39953178917666" lon="-81.73558065814485">
        <ele>267.1527596533</ele>
        <time>2026-04-24T10:26:49Z</time>
      </trkpt>
      <trkpt lat="41.39951844392661" lon="-81.73497731280956">
        <ele>267.1281390814</ele>
        <time>2026-04-24T10:27:44Z</time>
      </trkpt>
      <trkpt lat="41.39952774858298" lon="-81.73462104748940">
        <ele>267.1211189361</ele>
        <time>2026-04-24T10:28:08Z</time>
      </trkpt>
      <trkpt lat="41.39997596219358" lon="-81.73462163333234">
        <ele>267.0136657129</ele>
        <time>2026-04-24T10:28:57Z</time>
      </trkpt>
      <trkpt lat="41.40043071948000" lon="-81.73462907297002">
        <ele>267.3947440313</ele>
        <time>2026-04-24T10:29:55Z</time>
      </trkpt>
      <trkpt lat="41.40087723415216" lon="-81.73465047636469">
        <ele>267.3743241817</ele>
        <time>2026-04-24T10:30:30Z</time>
      </trkpt>
      <trkpt lat="41.40131954712265" lon="-81.73463637878803">
        <ele>267.3280369951</ele>
        <time>2026-04-24T10:31:01Z</time>
      </trkpt>
      <trkpt lat="41.40132070655951" lon="-81.73524373051241">
        <ele>267.8043529082</ele>
        <time>2026-04-24T10:31:43Z</time>
      </trkpt>
      <trkpt lat="41.40132788622119" lon="-81.73583239669262">
        <ele>268.2529709625</ele>
        <time>2026-04-24T10:32:31Z</time>
      </trkpt>
      <trkpt lat="41.40131566127886" lon="-81.73643987053788">
        <ele>268.1524407949</ele>
        <time>2026-04-24T10:33:06Z</time>
      </trkpt>
      <trkpt lat="41.40132706584302" lon="-81.73703763175521">
        <ele>268.1507011849</ele>
        <time>2026-04-24T10:33:51Z</time>
      </trkpt>
      <trkpt lat="41.40132577007327" lon="-81.73763094436737">
        <ele>267.8126995142</ele>
        <time>2026-04-24T10:34:30Z</time>
      </trkpt>
      <trkpt lat="41.40132357187210" lon="-81.73824720612296">
        <ele>267.7006802005</ele>
        <time>2026-04-24T10:35:09Z</time>
      </trkpt>
      <trkpt lat="41.40132726372873" lon="-81.73884240493780">
        <ele>267.4033344647</ele>
        <time>2026-04-24T10:35:53Z</time>
      </trkpt>
      <trkpt lat="41.40133163947544" lon="-81.73943009414712">
        <ele>267.1301282720</ele>
        <time>2026-04-24T10:36:55Z</time>
      </trkpt>
      <trkpt lat="41.40134044355928" lon="-81.74004348184877">
        <ele>266.6136571406</ele>
        <time>2026-04-24T10:37:36Z</time>
      </trkpt>
      <trkpt lat="41.40132688993450" lon="-81.74020851950974">
        <ele>266.7240687841</ele>
        <time>2026-04-24T10:37:48Z</time>
      </trkpt>
    </trkseg>
  </trk>
</gpx>