<?xml version='1.0' encoding='UTF-8'?>
<gpx xmlns="http://www.topografix.com/GPX/1/1" creator="https://gpx.studio" version="1.1">
  <metadata>
    <name>Dog Walk - 2026-06-07 #2</name>
  </metadata>
  <trk>
    <name>Dog Walk - 2026-06-07 #2</name>
    <type>dog walk</type>
    <trkseg>
      <trkpt lat="41.40134216069838" lon="-81.74023573513560">
        <ele>266.6539937243</ele>
        <time>2026-06-07T14:27:02Z</time>
      </trkpt>
      <trkpt lat="41.40134011021092" lon="-81.74083841637443">
        <ele>266.2223291269</ele>
        <time>2026-06-07T14:27:34Z</time>
      </trkpt>
      <trkpt lat="41.40134462432263" lon="-81.74143113669514">
        <ele>265.9384073162</ele>
        <time>2026-06-07T14:28:34Z</time>
      </trkpt>
      <trkpt lat="41.40135483516461" lon="-81.74203294805650">
        <ele>265.3884072716</ele>
        <time>2026-06-07T14:29:16Z</time>
      </trkpt>
      <trkpt lat="41.40136022410005" lon="-81.74241996190278">
        <ele>265.0006593316</ele>
        <time>2026-06-07T14:29:49Z</time>
      </trkpt>
      <trkpt lat="41.40177228364383" lon="-81.74262298337075">
        <ele>264.2685919618</ele>
        <time>2026-06-07T14:30:29Z</time>
      </trkpt>
      <trkpt lat="41.40219862711316" lon="-81.74281896999828">
        <ele>263.6931973298</ele>
        <time>2026-06-07T14:31:05Z</time>
      </trkpt>
      <trkpt lat="41.40261957472487" lon="-81.74302839895964">
        <ele>263.1105153004</ele>
        <time>2026-06-07T14:31:49Z</time>
      </trkpt>
      <trkpt lat="41.40304688181224" lon="-81.74321530208533">
        <ele>262.4545368441</ele>
        <time>2026-06-07T14:32:38Z</time>
      </trkpt>
      <trkpt lat="41.40311885504157" lon="-81.74326111802704">
        <ele>262.2749164902</ele>
        <time>2026-06-07T14:32:48Z</time>
      </trkpt>
      <trkpt lat="41.40311847119644" lon="-81.74265416690793">
        <ele>263.2246888972</ele>
        <time>2026-06-07T14:33:29Z</time>
      </trkpt>
      <trkpt lat="41.40310875437665" lon="-81.74205830500838">
        <ele>263.7197843800</ele>
        <time>2026-06-07T14:34:11Z</time>
      </trkpt>
      <trkpt lat="41.40311402366080" lon="-81.74146141950800">
        <ele>264.0170311140</ele>
        <time>2026-06-07T14:35:04Z</time>
      </trkpt>
      <trkpt lat="41.40310426047345" lon="-81.74085477006120">
        <ele>264.8178064817</ele>
        <time>2026-06-07T14:35:44Z</time>
      </trkpt>
      <trkpt lat="41.40310668500211" lon="-81.74025237942408">
        <ele>265.4278775339</ele>
        <time>2026-06-07T14:36:21Z</time>
      </trkpt>
      <trkpt lat="41.40309902192972" lon="-81.73965840254891">
        <ele>265.6921663802</ele>
        <time>2026-06-07T14:37:10Z</time>
      </trkpt>
      <trkpt lat="41.40310281291240" lon="-81.73905547026661">
        <ele>266.0040126385</ele>
        <time>2026-06-07T14:37:41Z</time>
      </trkpt>
      <trkpt lat="41.40309773525330" lon="-81.73879114152697">
        <ele>266.1595168222</ele>
        <time>2026-06-07T14:37:56Z</time>
      </trkpt>
      <trkpt lat="41.40264751353450" lon="-81.73878700804417">
        <ele>266.8437498897</ele>
        <time>2026-06-07T14:38:43Z</time>
      </trkpt>
      <trkpt lat="41.40222918479458" lon="-81.73878450783843">
        <ele>267.1493332573</ele>
        <time>2026-06-07T14:39:23Z</time>
      </trkpt>
      <trkpt lat="41.40223087052026" lon="-81.73818211587194">
        <ele>267.1784777016</ele>
        <time>2026-06-07T14:40:03Z</time>
      </trkpt>
      <trkpt lat="41.40222580803202" lon="-81.73758580255966">
        <ele>267.1212536546</ele>
        <time>2026-06-07T14:40:38Z</time>
      </trkpt>
      <trkpt lat="41.40223690034441" lon="-81.73698538164770">
        <ele>267.2630748198</ele>
        <time>2026-06-07T14:41:19Z</time>
      </trkpt>
      <trkpt lat="41.40223139326793" lon="-81.73638552533536">
        <ele>267.3310711949</ele>
        <time>2026-06-07T14:42:00Z</time>
      </trkpt>
      <trkpt lat="41.40222906394072" lon="-81.73578478968567">
        <ele>267.2482880036</ele>
        <time>2026-06-07T14:42:39Z</time>
      </trkpt>
      <trkpt lat="41.40222724808666" lon="-81.73518449757867">
        <ele>267.1421820705</ele>
        <time>2026-06-07T14:43:11Z</time>
      </trkpt>
      <trkpt lat="41.40222016867436" lon="-81.73464823691104">
        <ele>266.9163912006</ele>
        <time>2026-06-07T14:43:54Z</time>
      </trkpt>
      <trkpt lat="41.40176702313067" lon="-81.73464563205064">
        <ele>267.3479709655</ele>
        <time>2026-06-07T14:44:25Z</time>
      </trkpt>
      <trkpt lat="41.40132025054999" lon="-81.73464028766432">
        <ele>267.4458613413</ele>
        <time>2026-06-07T14:44:54Z</time>
      </trkpt>
      <trkpt lat="41.40131070021334" lon="-81.73463474606301">
        <ele>267.3496966609</ele>
        <time>2026-06-07T14:44:55Z</time>
      </trkpt>
      <trkpt lat="41.40131705184386" lon="-81.73523946543801">
        <ele>267.9766969835</ele>
        <time>2026-06-07T14:45:45Z</time>
      </trkpt>
      <trkpt lat="41.40132066153996" lon="-81.73582790096116">
        <ele>268.1137626257</ele>
        <time>2026-06-07T14:46:31Z</time>
      </trkpt>
      <trkpt lat="41.40132726326998" lon="-81.73644391924091">
        <ele>268.2388509398</ele>
        <time>2026-06-07T14:47:20Z</time>
      </trkpt>
      <trkpt lat="41.40133209139206" lon="-81.73702374228768">
        <ele>267.8484871555</ele>
        <time>2026-06-07T14:48:02Z</time>
      </trkpt>
      <trkpt lat="41.40132611263062" lon="-81.73762825703891">
        <ele>268.2013027680</ele>
        <time>2026-06-07T14:48:44Z</time>
      </trkpt>
      <trkpt lat="41.40133694469498" lon="-81.73823179667805">
        <ele>267.5839816499</ele>
        <time>2026-06-07T14:49:31Z</time>
      </trkpt>
      <trkpt lat="41.40133867172991" lon="-81.73883657741784">
        <ele>267.3890903001</ele>
        <time>2026-06-07T14:50:16Z</time>
      </trkpt>
      <trkpt lat="41.40133767307712" lon="-81.73943581816609">
        <ele>267.2691640918</ele>
        <time>2026-06-07T14:50:54Z</time>
      </trkpt>
      <trkpt lat="41.40135113331821" lon="-81.74003170753319">
        <ele>266.7163228745</ele>
        <time>2026-06-07T14:51:36Z</time>
      </trkpt>
      <trkpt lat="41.40134648600250" lon="-81.74015586578362">
        <ele>266.7773995919</ele>
        <time>2026-06-07T14:51:44Z</time>
      </trkpt>
    </trkseg>
  </trk>
</gpx>