<?xml version='1.0' encoding='UTF-8'?>
<gpx xmlns="http://www.topografix.com/GPX/1/1" creator="https://gpx.studio" version="1.1">
  <metadata>
    <name>Dog Walk - 2026-09-06</name>
  </metadata>
  <trk>
    <name>Dog Walk - 2026-09-06</name>
    <type>dog walk</type>
    <trkseg>
      <trkpt lat="41.40132444644728" lon="-81.74026487614574">
        <ele>266.5709914367</ele>
        <time>2026-09-06T13:30:17Z</time>
      </trkpt>
      <trkpt lat="41.40133597993939" lon="-81.74026245550998">
        <ele>266.2110019597</ele>
        <time>2026-09-06T13:30:18Z</time>
      </trkpt>
      <trkpt lat="41.40133203388706" lon="-81.74086229996044">
        <ele>266.2185920749</ele>
        <time>2026-09-06T13:31:02Z</time>
      </trkpt>
      <trkpt lat="41.40133415319667" lon="-81.74146103706285">
        <ele>266.0033349716</ele>
        <time>2026-09-06T13:31:47Z</time>
      </trkpt>
      <trkpt lat="41.40131856206173" lon="-81.74205200685553">
        <ele>265.5819414503</ele>
        <time>2026-09-06T13:32:26Z</time>
      </trkpt>
      <trkpt lat="41.40132460806593" lon="-81.74237725235234">
        <ele>264.6558663084</ele>
        <time>2026-09-06T13:32:48Z</time>
      </trkpt>
      <trkpt lat="41.40132727145487" lon="-81.74238183002974">
        <ele>264.7651287475</ele>
        <time>2026-09-06T13:32:49Z</time>
      </trkpt>
      <trkpt lat="41.40089973286192" lon="-81.74218607999548">
        <ele>265.4067996894</ele>
        <time>2026-09-06T13:33:27Z</time>
      </trkpt>
      <trkpt lat="41.40047395455579" lon="-81.74198966562003">
        <ele>265.2243898585</ele>
        <time>2026-09-06T13:34:01Z</time>
      </trkpt>
      <trkpt lat="41.40004408858459" lon="-81.74180243880494">
        <ele>265.4970433751</ele>
        <time>2026-09-06T13:34:52Z</time>
      </trkpt>
      <trkpt lat="41.39962640964119" lon="-81.74160556110932">
        <ele>264.8711179490</ele>
        <time>2026-09-06T13:35:35Z</time>
      </trkpt>
      <trkpt lat="41.39954714335723" lon="-81.74156992530965">
        <ele>264.8271317134</ele>
        <time>2026-09-06T13:35:43Z</time>
      </trkpt>
      <trkpt lat="41.39953632191779" lon="-81.74096363566241">
        <ele>265.7332820721</ele>
        <time>2026-09-06T13:36:45Z</time>
      </trkpt>
      <trkpt lat="41.39953798560467" lon="-81.74036499657369">
        <ele>266.2596540050</ele>
        <time>2026-09-06T13:37:21Z</time>
      </trkpt>
      <trkpt lat="41.39953955248642" lon="-81.73978195037884">
        <ele>266.6956947148</ele>
        <time>2026-09-06T13:38:02Z</time>
      </trkpt>
      <trkpt lat="41.39953298457329" lon="-81.73917936875527">
        <ele>266.7963102556</ele>
        <time>2026-09-06T13:38:50Z</time>
      </trkpt>
      <trkpt lat="41.39953536125108" lon="-81.73857228221276">
        <ele>266.6832808302</ele>
        <time>2026-09-06T13:39:49Z</time>
      </trkpt>
      <trkpt lat="41.39952735610448" lon="-81.73829559075722">
        <ele>266.9668747013</ele>
        <time>2026-09-06T13:40:06Z</time>
      </trkpt>
      <trkpt lat="41.39953494105371" lon="-81.73828521501130">
        <ele>266.7248379704</ele>
        <time>2026-09-06T13:40:07Z</time>
      </trkpt>
      <trkpt lat="41.39998114924093" lon="-81.73830161750993">
        <ele>267.2045206298</ele>
        <time>2026-09-06T13:41:06Z</time>
      </trkpt>
      <trkpt lat="41.40044131519091" lon="-81.73830179206584">
        <ele>267.0431454274</ele>
        <time>2026-09-06T13:41:42Z</time>
      </trkpt>
      <trkpt lat="41.40088958371170" lon="-81.73830189024213">
        <ele>267.5701517047</ele>
        <time>2026-09-06T13:42:39Z</time>
      </trkpt>
      <trkpt lat="41.40131752533707" lon="-81.73831565947793">
        <ele>267.5442335268</ele>
        <time>2026-09-06T13:43:15Z</time>
      </trkpt>
      <trkpt lat="41.40132879844019" lon="-81.73889772246815">
        <ele>267.4297970451</ele>
        <time>2026-09-06T13:43:51Z</time>
      </trkpt>
      <trkpt lat="41.40134363687871" lon="-81.73949638571564">
        <ele>267.1846601300</ele>
        <time>2026-09-06T13:44:29Z</time>
      </trkpt>
      <trkpt lat="41.40134349909737" lon="-81.74010867745400">
        <ele>266.7348902158</ele>
        <time>2026-09-06T13:45:09Z</time>
      </trkpt>
      <trkpt lat="41.40134063820868" lon="-81.74016025291246">
        <ele>266.7372028280</ele>
        <time>2026-09-06T13:45:13Z</time>
      </trkpt>
    </trkseg>
  </trk>
</gpx>