<?xml version='1.0' encoding='UTF-8'?>
<gpx xmlns="http://www.topografix.com/GPX/1/1" creator="https://gpx.studio" version="1.1">
  <metadata>
    <name>Dog Walk - 2026-03-06 #2</name>
  </metadata>
  <trk>
    <name>Dog Walk - 2026-03-06 #2</name>
    <type>dog walk</type>
    <trkseg>
      <trkpt lat="41.40133779893709" lon="-81.74024101376590">
        <ele>266.3625582854</ele>
        <time>2026-03-06T15:20:23Z</time>
      </trkpt>
      <trkpt lat="41.40134233133292" lon="-81.74083742063515">
        <ele>266.0751290235</ele>
        <time>2026-03-06T15:21:00Z</time>
      </trkpt>
      <trkpt lat="41.40133762709909" lon="-81.74143260815516">
        <ele>265.8405568453</ele>
        <time>2026-03-06T15:21:43Z</time>
      </trkpt>
      <trkpt lat="41.40134306454268" lon="-81.74204695487968">
        <ele>265.3308182550</ele>
        <time>2026-03-06T15:22:26Z</time>
      </trkpt>
      <trkpt lat="41.40135553734643" lon="-81.74241979997554">
        <ele>264.7240799722</ele>
        <time>2026-03-06T15:22:48Z</time>
      </trkpt>
      <trkpt lat="41.40176289281617" lon="-81.74263154976427">
        <ele>264.2582922066</ele>
        <time>2026-03-06T15:23:29Z</time>
      </trkpt>
      <trkpt lat="41.40219138925055" lon="-81.74285828004830">
        <ele>263.5441868693</ele>
        <time>2026-03-06T15:24:10Z</time>
      </trkpt>
      <trkpt lat="41.40222194027805" lon="-81.74285951763552">
        <ele>263.3530854205</ele>
        <time>2026-03-06T15:24:12Z</time>
      </trkpt>
      <trkpt lat="41.40221286209899" lon="-81.74226682142428">
        <ele>264.2460037857</ele>
        <time>2026-03-06T15:24:44Z</time>
      </trkpt>
      <trkpt lat="41.40221213671945" lon="-81.74166677905002">
        <ele>264.5668935036</ele>
        <time>2026-03-06T15:25:29Z</time>
      </trkpt>
      <trkpt lat="41.40222287592154" lon="-81.74106560186104">
        <ele>265.4715791596</ele>
        <time>2026-03-06T15:26:10Z</time>
      </trkpt>
      <trkpt lat="41.40221583246455" lon="-81.74047779044690">
        <ele>266.0901110664</ele>
        <time>2026-03-06T15:26:57Z</time>
      </trkpt>
      <trkpt lat="41.40222541801634" lon="-81.73987732864092">
        <ele>266.3216971452</ele>
        <time>2026-03-06T15:27:31Z</time>
      </trkpt>
      <trkpt lat="41.40221957733306" lon="-81.73926497994577">
        <ele>266.8813208607</ele>
        <time>2026-03-06T15:28:09Z</time>
      </trkpt>
      <trkpt lat="41.40220686347745" lon="-81.73866880659230">
        <ele>267.2600006412</ele>
        <time>2026-03-06T15:28:54Z</time>
      </trkpt>
      <trkpt lat="41.40221987097132" lon="-81.73826944618624">
        <ele>267.0447456732</ele>
        <time>2026-03-06T15:29:23Z</time>
      </trkpt>
      <trkpt lat="41.40177383096614" lon="-81.73826137606581">
        <ele>267.7915448759</ele>
        <time>2026-03-06T15:30:13Z</time>
      </trkpt>
      <trkpt lat="41.40133569602824" lon="-81.73826486420894">
        <ele>267.5688880002</ele>
        <time>2026-03-06T15:30:51Z</time>
      </trkpt>
      <trkpt lat="41.40133668188380" lon="-81.73886394983730">
        <ele>267.3663424646</ele>
        <time>2026-03-06T15:31:31Z</time>
      </trkpt>
      <trkpt lat="41.40134032809467" lon="-81.73946348579041">
        <ele>267.0503083394</ele>
        <time>2026-03-06T15:32:46Z</time>
      </trkpt>
      <trkpt lat="41.40134327208258" lon="-81.74006697734329">
        <ele>266.6214356599</ele>
        <time>2026-03-06T15:33:24Z</time>
      </trkpt>
      <trkpt lat="41.40134450316266" lon="-81.74019171910457">
        <ele>266.7695700339</ele>
        <time>2026-03-06T15:33:33Z</time>
      </trkpt>
    </trkseg>
  </trk>
</gpx>