<?xml version='1.0' encoding='UTF-8'?>
<gpx xmlns="http://www.topografix.com/GPX/1/1" creator="https://gpx.studio" version="1.1">
  <metadata>
    <name>Dog Walk - 2026-08-10</name>
  </metadata>
  <trk>
    <name>Dog Walk - 2026-08-10</name>
    <type>dog walk</type>
    <trkseg>
      <trkpt lat="41.40134209301289" lon="-81.74023473308651">
        <ele>266.6175137041</ele>
        <time>2026-08-10T13:27:44Z</time>
      </trkpt>
      <trkpt lat="41.40134278078685" lon="-81.74082518597888">
        <ele>266.4029193686</ele>
        <time>2026-08-10T13:28:16Z</time>
      </trkpt>
      <trkpt lat="41.40134810813600" lon="-81.74143853871603">
        <ele>265.7405974334</ele>
        <time>2026-08-10T13:29:04Z</time>
      </trkpt>
      <trkpt lat="41.40134437513775" lon="-81.74202389196093">
        <ele>265.2383472860</ele>
        <time>2026-08-10T13:29:42Z</time>
      </trkpt>
      <trkpt lat="41.40133524925204" lon="-81.74241236671625">
        <ele>264.6480413326</ele>
        <time>2026-08-10T13:30:05Z</time>
      </trkpt>
      <trkpt lat="41.40176790639750" lon="-81.74261577009061">
        <ele>264.5688513575</ele>
        <time>2026-08-10T13:30:45Z</time>
      </trkpt>
      <trkpt lat="41.40219819019961" lon="-81.74282375503019">
        <ele>263.4508358997</ele>
        <time>2026-08-10T13:31:34Z</time>
      </trkpt>
      <trkpt lat="41.40261465984331" lon="-81.74301367670222">
        <ele>263.2646106847</ele>
        <time>2026-08-10T13:32:18Z</time>
      </trkpt>
      <trkpt lat="41.40304754697269" lon="-81.74321478818560">
        <ele>262.5799805192</ele>
        <time>2026-08-10T13:32:58Z</time>
      </trkpt>
      <trkpt lat="41.40311504695485" lon="-81.74324934911064">
        <ele>262.1994900725</ele>
        <time>2026-08-10T13:33:03Z</time>
      </trkpt>
      <trkpt lat="41.40311719068778" lon="-81.74264584183149">
        <ele>263.3262169854</ele>
        <time>2026-08-10T13:33:50Z</time>
      </trkpt>
      <trkpt lat="41.40311265347029" lon="-81.74205060357153">
        <ele>263.6732443932</ele>
        <time>2026-08-10T13:34:22Z</time>
      </trkpt>
      <trkpt lat="41.40310889261234" lon="-81.74145777155010">
        <ele>264.2752043324</ele>
        <time>2026-08-10T13:34:55Z</time>
      </trkpt>
      <trkpt lat="41.40310297900820" lon="-81.74085644952154">
        <ele>264.8135677299</ele>
        <time>2026-08-10T13:35:39Z</time>
      </trkpt>
      <trkpt lat="41.40310226687916" lon="-81.74024960714516">
        <ele>265.4046507412</ele>
        <time>2026-08-10T13:36:25Z</time>
      </trkpt>
      <trkpt lat="41.40310740611947" lon="-81.73965005306422">
        <ele>265.8352441643</ele>
        <time>2026-08-10T13:37:10Z</time>
      </trkpt>
      <trkpt lat="41.40309799474520" lon="-81.73904736681467">
        <ele>266.0374183702</ele>
        <time>2026-08-10T13:37:48Z</time>
      </trkpt>
      <trkpt lat="41.40310092454800" lon="-81.73878302180080">
        <ele>266.0927226270</ele>
        <time>2026-08-10T13:38:08Z</time>
      </trkpt>
      <trkpt lat="41.40265841370503" lon="-81.73877850984337">
        <ele>266.7160192950</ele>
        <time>2026-08-10T13:38:59Z</time>
      </trkpt>
      <trkpt lat="41.40223875120893" lon="-81.73878152936035">
        <ele>267.3727139685</ele>
        <time>2026-08-10T13:39:32Z</time>
      </trkpt>
      <trkpt lat="41.40223814446097" lon="-81.73817940191194">
        <ele>267.5261343976</ele>
        <time>2026-08-10T13:40:18Z</time>
      </trkpt>
      <trkpt lat="41.40222555973876" lon="-81.73757724225423">
        <ele>267.1770320744</ele>
        <time>2026-08-10T13:41:06Z</time>
      </trkpt>
      <trkpt lat="41.40222810909680" lon="-81.73698363594643">
        <ele>267.0455004763</ele>
        <time>2026-08-10T13:41:44Z</time>
      </trkpt>
      <trkpt lat="41.40223440392663" lon="-81.73638679004392">
        <ele>267.1858177622</ele>
        <time>2026-08-10T13:42:22Z</time>
      </trkpt>
      <trkpt lat="41.40222678345648" lon="-81.73578292146043">
        <ele>267.3696100530</ele>
        <time>2026-08-10T13:43:19Z</time>
      </trkpt>
      <trkpt lat="41.40221564511592" lon="-81.73518626309816">
        <ele>267.3006143032</ele>
        <time>2026-08-10T13:43:59Z</time>
      </trkpt>
      <trkpt lat="41.40222501176091" lon="-81.73465748780927">
        <ele>266.9116993564</ele>
        <time>2026-08-10T13:44:33Z</time>
      </trkpt>
      <trkpt lat="41.40177940903368" lon="-81.73464435658703">
        <ele>267.0973368302</ele>
        <time>2026-08-10T13:45:13Z</time>
      </trkpt>
      <trkpt lat="41.40132244616835" lon="-81.73463050117432">
        <ele>267.3468706057</ele>
        <time>2026-08-10T13:45:56Z</time>
      </trkpt>
      <trkpt lat="41.40131210290810" lon="-81.73463702945398">
        <ele>267.3980298115</ele>
        <time>2026-08-10T13:45:57Z</time>
      </trkpt>
      <trkpt lat="41.40132023936819" lon="-81.73523390278557">
        <ele>267.9076409883</ele>
        <time>2026-08-10T13:46:30Z</time>
      </trkpt>
      <trkpt lat="41.40132387158701" lon="-81.73582992201341">
        <ele>268.3856782417</ele>
        <time>2026-08-10T13:47:10Z</time>
      </trkpt>
      <trkpt lat="41.40131693531053" lon="-81.73644174104319">
        <ele>268.3149869745</ele>
        <time>2026-08-10T13:47:46Z</time>
      </trkpt>
      <trkpt lat="41.40133278852466" lon="-81.73703142321077">
        <ele>268.0150453143</ele>
        <time>2026-08-10T13:48:25Z</time>
      </trkpt>
      <trkpt lat="41.40133367254037" lon="-81.73763415651837">
        <ele>267.9539891758</ele>
        <time>2026-08-10T13:49:02Z</time>
      </trkpt>
      <trkpt lat="41.40133047356276" lon="-81.73822940590438">
        <ele>267.5873856090</ele>
        <time>2026-08-10T13:49:49Z</time>
      </trkpt>
      <trkpt lat="41.40134428548693" lon="-81.73884187941988">
        <ele>267.3188263150</ele>
        <time>2026-08-10T13:50:39Z</time>
      </trkpt>
      <trkpt lat="41.40133886624363" lon="-81.73943530894792">
        <ele>267.2232511439</ele>
        <time>2026-08-10T13:51:21Z</time>
      </trkpt>
      <trkpt lat="41.40134419336113" lon="-81.74003456195628">
        <ele>266.6043772833</ele>
        <time>2026-08-10T13:51:52Z</time>
      </trkpt>
      <trkpt lat="41.40134255957539" lon="-81.74015783193074">
        <ele>266.4648636962</ele>
        <time>2026-08-10T13:52:01Z</time>
      </trkpt>
    </trkseg>
  </trk>
</gpx>