<?xml version='1.0' encoding='UTF-8'?>
<gpx xmlns="http://www.topografix.com/GPX/1/1" creator="https://gpx.studio" version="1.1">
  <metadata>
    <name>Dog Walk - 2026-02-16 #2</name>
  </metadata>
  <trk>
    <name>Dog Walk - 2026-02-16 #2</name>
    <type>dog walk</type>
    <trkseg>
      <trkpt lat="41.40132718208175" lon="-81.74024199469402">
        <ele>266.5570568453</ele>
        <time>2026-02-16T11:28:12Z</time>
      </trkpt>
      <trkpt lat="41.40133933553464" lon="-81.74083405385035">
        <ele>265.9504430312</ele>
        <time>2026-02-16T11:28:52Z</time>
      </trkpt>
      <trkpt lat="41.40132882003879" lon="-81.74143244880584">
        <ele>266.0271581831</ele>
        <time>2026-02-16T11:29:40Z</time>
      </trkpt>
      <trkpt lat="41.40132075191568" lon="-81.74203774458738">
        <ele>265.3978986680</ele>
        <time>2026-02-16T11:30:28Z</time>
      </trkpt>
      <trkpt lat="41.40132728827546" lon="-81.74239900677655">
        <ele>264.7063902420</ele>
        <time>2026-02-16T11:30:50Z</time>
      </trkpt>
      <trkpt lat="41.40090408124043" lon="-81.74218919068645">
        <ele>265.2135811171</ele>
        <time>2026-02-16T11:31:32Z</time>
      </trkpt>
      <trkpt lat="41.40047915684540" lon="-81.74200072963055">
        <ele>264.8574951245</ele>
        <time>2026-02-16T11:32:08Z</time>
      </trkpt>
      <trkpt lat="41.40005724492381" lon="-81.74180904553418">
        <ele>265.3763534597</ele>
        <time>2026-02-16T11:32:41Z</time>
      </trkpt>
      <trkpt lat="41.39962686621069" lon="-81.74162063561981">
        <ele>264.9041307271</ele>
        <time>2026-02-16T11:33:28Z</time>
      </trkpt>
      <trkpt lat="41.39953689121631" lon="-81.74157135816615">
        <ele>264.7869491892</ele>
        <time>2026-02-16T11:33:39Z</time>
      </trkpt>
      <trkpt lat="41.39953493649667" lon="-81.74097494212519">
        <ele>265.5708872182</ele>
        <time>2026-02-16T11:34:16Z</time>
      </trkpt>
      <trkpt lat="41.39952830392075" lon="-81.74037270672224">
        <ele>266.2054579336</ele>
        <time>2026-02-16T11:35:23Z</time>
      </trkpt>
      <trkpt lat="41.39953258611716" lon="-81.73977619677952">
        <ele>266.7670766187</ele>
        <time>2026-02-16T11:36:09Z</time>
      </trkpt>
      <trkpt lat="41.39952553690553" lon="-81.73917867321622">
        <ele>266.6500452227</ele>
        <time>2026-02-16T11:36:50Z</time>
      </trkpt>
      <trkpt lat="41.39953531670632" lon="-81.73857787312426">
        <ele>266.8730876281</ele>
        <time>2026-02-16T11:37:27Z</time>
      </trkpt>
      <trkpt lat="41.39952430029165" lon="-81.73798003659950">
        <ele>267.1709125371</ele>
        <time>2026-02-16T11:38:09Z</time>
      </trkpt>
      <trkpt lat="41.39952825942947" lon="-81.73736602102079">
        <ele>267.2456722065</ele>
        <time>2026-02-16T11:38:45Z</time>
      </trkpt>
      <trkpt lat="41.39952307829694" lon="-81.73677620507620">
        <ele>267.5105232606</ele>
        <time>2026-02-16T11:39:28Z</time>
      </trkpt>
      <trkpt lat="41.39952976473714" lon="-81.73617123999267">
        <ele>267.3743218150</ele>
        <time>2026-02-16T11:40:09Z</time>
      </trkpt>
      <trkpt lat="41.39952859540189" lon="-81.73557394783771">
        <ele>267.3182611093</ele>
        <time>2026-02-16T11:40:51Z</time>
      </trkpt>
      <trkpt lat="41.39952364409176" lon="-81.73498871966315">
        <ele>267.3207775602</ele>
        <time>2026-02-16T11:41:26Z</time>
      </trkpt>
      <trkpt lat="41.39952880384280" lon="-81.73461728616660">
        <ele>267.1118730744</ele>
        <time>2026-02-16T11:41:52Z</time>
      </trkpt>
      <trkpt lat="41.39997901421212" lon="-81.73462090170190">
        <ele>267.1355346513</ele>
        <time>2026-02-16T11:42:34Z</time>
      </trkpt>
      <trkpt lat="41.40042778376616" lon="-81.73464099839727">
        <ele>267.1956319068</ele>
        <time>2026-02-16T11:43:11Z</time>
      </trkpt>
      <trkpt lat="41.40087642680366" lon="-81.73463514029829">
        <ele>267.5340607743</ele>
        <time>2026-02-16T11:43:47Z</time>
      </trkpt>
      <trkpt lat="41.40131243363739" lon="-81.73464750231592">
        <ele>267.4725620660</ele>
        <time>2026-02-16T11:44:29Z</time>
      </trkpt>
      <trkpt lat="41.40131383320843" lon="-81.73524257992821">
        <ele>267.9116870587</ele>
        <time>2026-02-16T11:45:05Z</time>
      </trkpt>
      <trkpt lat="41.40132268932643" lon="-81.73584008262779">
        <ele>268.3057983930</ele>
        <time>2026-02-16T11:45:50Z</time>
      </trkpt>
      <trkpt lat="41.40132058536454" lon="-81.73644757399711">
        <ele>268.2733611893</ele>
        <time>2026-02-16T11:46:29Z</time>
      </trkpt>
      <trkpt lat="41.40133163975283" lon="-81.73703981584609">
        <ele>267.9358254227</ele>
        <time>2026-02-16T11:47:02Z</time>
      </trkpt>
      <trkpt lat="41.40133070878480" lon="-81.73763458136946">
        <ele>267.9027723839</ele>
        <time>2026-02-16T11:47:36Z</time>
      </trkpt>
      <trkpt lat="41.40133467539797" lon="-81.73823992590121">
        <ele>267.5935625747</ele>
        <time>2026-02-16T11:48:21Z</time>
      </trkpt>
      <trkpt lat="41.40132818929340" lon="-81.73883838432097">
        <ele>267.2483262165</ele>
        <time>2026-02-16T11:49:03Z</time>
      </trkpt>
      <trkpt lat="41.40132939342406" lon="-81.73943722180996">
        <ele>267.1686773490</ele>
        <time>2026-02-16T11:49:40Z</time>
      </trkpt>
      <trkpt lat="41.40132454480294" lon="-81.74003766638448">
        <ele>266.8079940570</ele>
        <time>2026-02-16T11:50:17Z</time>
      </trkpt>
      <trkpt lat="41.40134715379516" lon="-81.74022387544068">
        <ele>266.6784867644</ele>
        <time>2026-02-16T11:50:29Z</time>
      </trkpt>
    </trkseg>
  </trk>
</gpx>