<?xml version='1.0' encoding='UTF-8'?>
<gpx xmlns="http://www.topografix.com/GPX/1/1" creator="https://gpx.studio" version="1.1">
  <metadata>
    <name>Dog Walk - 2026-04-01 #1</name>
  </metadata>
  <trk>
    <name>Dog Walk - 2026-04-01 #1</name>
    <type>dog walk</type>
    <trkseg>
      <trkpt lat="41.40134118676470" lon="-81.74023459139785">
        <ele>266.6546626710</ele>
        <time>2026-04-01T11:40:56Z</time>
      </trkpt>
      <trkpt lat="41.40134235910623" lon="-81.74083408532471">
        <ele>266.2797955251</ele>
        <time>2026-04-01T11:41:26Z</time>
      </trkpt>
      <trkpt lat="41.40134680276236" lon="-81.74143915159867">
        <ele>265.8893527449</ele>
        <time>2026-04-01T11:42:04Z</time>
      </trkpt>
      <trkpt lat="41.40134485193246" lon="-81.74203729158867">
        <ele>265.3973050742</ele>
        <time>2026-04-01T11:42:41Z</time>
      </trkpt>
      <trkpt lat="41.40134578057298" lon="-81.74241727754784">
        <ele>264.6610790211</ele>
        <time>2026-04-01T11:43:05Z</time>
      </trkpt>
      <trkpt lat="41.40177395721030" lon="-81.74261702580095">
        <ele>264.4209883143</ele>
        <time>2026-04-01T11:43:46Z</time>
      </trkpt>
      <trkpt lat="41.40219725417312" lon="-81.74282264661498">
        <ele>263.4524889803</ele>
        <time>2026-04-01T11:45:00Z</time>
      </trkpt>
      <trkpt lat="41.40261719390232" lon="-81.74301847185340">
        <ele>263.1768961014</ele>
        <time>2026-04-01T11:45:36Z</time>
      </trkpt>
      <trkpt lat="41.40303640876210" lon="-81.74322497447723">
        <ele>262.5870688469</ele>
        <time>2026-04-01T11:46:22Z</time>
      </trkpt>
      <trkpt lat="41.40311997518093" lon="-81.74325026353316">
        <ele>262.5180318397</ele>
        <time>2026-04-01T11:46:28Z</time>
      </trkpt>
      <trkpt lat="41.40311379827588" lon="-81.74265239497524">
        <ele>263.3322265095</ele>
        <time>2026-04-01T11:47:14Z</time>
      </trkpt>
      <trkpt lat="41.40311445968268" lon="-81.74205525438532">
        <ele>263.7256706900</ele>
        <time>2026-04-01T11:47:51Z</time>
      </trkpt>
      <trkpt lat="41.40310812302255" lon="-81.74145931536304">
        <ele>264.1014411660</ele>
        <time>2026-04-01T11:48:21Z</time>
      </trkpt>
      <trkpt lat="41.40310238532646" lon="-81.74085292988316">
        <ele>264.8862204634</ele>
        <time>2026-04-01T11:49:19Z</time>
      </trkpt>
      <trkpt lat="41.40311069663853" lon="-81.74025176589400">
        <ele>265.4604600378</ele>
        <time>2026-04-01T11:49:57Z</time>
      </trkpt>
      <trkpt lat="41.40310502813151" lon="-81.73965312270666">
        <ele>265.8466393180</ele>
        <time>2026-04-01T11:50:38Z</time>
      </trkpt>
      <trkpt lat="41.40310332879971" lon="-81.73904820775569">
        <ele>266.2063978768</ele>
        <time>2026-04-01T11:51:26Z</time>
      </trkpt>
      <trkpt lat="41.40310026982340" lon="-81.73878361881015">
        <ele>266.2135677908</ele>
        <time>2026-04-01T11:51:42Z</time>
      </trkpt>
      <trkpt lat="41.40264723983614" lon="-81.73877915230042">
        <ele>266.8158035233</ele>
        <time>2026-04-01T11:52:13Z</time>
      </trkpt>
      <trkpt lat="41.40223218339084" lon="-81.73878423664152">
        <ele>267.1345041279</ele>
        <time>2026-04-01T11:52:46Z</time>
      </trkpt>
      <trkpt lat="41.40222630500967" lon="-81.73818093016234">
        <ele>267.1631512418</ele>
        <time>2026-04-01T11:53:19Z</time>
      </trkpt>
      <trkpt lat="41.40223516497780" lon="-81.73757304365228">
        <ele>267.3432893519</ele>
        <time>2026-04-01T11:54:06Z</time>
      </trkpt>
      <trkpt lat="41.40222988402211" lon="-81.73698428019252">
        <ele>267.2297173743</ele>
        <time>2026-04-01T11:54:41Z</time>
      </trkpt>
      <trkpt lat="41.40222518315883" lon="-81.73638635507292">
        <ele>267.3310001689</ele>
        <time>2026-04-01T11:55:20Z</time>
      </trkpt>
      <trkpt lat="41.40222835181883" lon="-81.73578221976778">
        <ele>267.2299143682</ele>
        <time>2026-04-01T11:55:55Z</time>
      </trkpt>
      <trkpt lat="41.40222177016684" lon="-81.73518385122991">
        <ele>267.2832782171</ele>
        <time>2026-04-01T11:56:34Z</time>
      </trkpt>
      <trkpt lat="41.40222902184757" lon="-81.73465468170791">
        <ele>266.9421556980</ele>
        <time>2026-04-01T11:57:06Z</time>
      </trkpt>
      <trkpt lat="41.40177516448859" lon="-81.73464012935050">
        <ele>267.2810391870</ele>
        <time>2026-04-01T11:57:40Z</time>
      </trkpt>
      <trkpt lat="41.40132236878472" lon="-81.73461933630442">
        <ele>267.3526431140</ele>
        <time>2026-04-01T11:58:15Z</time>
      </trkpt>
      <trkpt lat="41.40131591281871" lon="-81.73463738339244">
        <ele>267.3180678256</ele>
        <time>2026-04-01T11:58:17Z</time>
      </trkpt>
      <trkpt lat="41.40131714799912" lon="-81.73522756273145">
        <ele>267.7744217533</ele>
        <time>2026-04-01T11:59:05Z</time>
      </trkpt>
      <trkpt lat="41.40131598795167" lon="-81.73582897024957">
        <ele>268.2502621207</ele>
        <time>2026-04-01T11:59:46Z</time>
      </trkpt>
      <trkpt lat="41.40132121248467" lon="-81.73643766178884">
        <ele>268.1959246184</ele>
        <time>2026-04-01T12:00:27Z</time>
      </trkpt>
      <trkpt lat="41.40133248373399" lon="-81.73703731997202">
        <ele>267.9585634134</ele>
        <time>2026-04-01T12:01:09Z</time>
      </trkpt>
      <trkpt lat="41.40133734308336" lon="-81.73763015250810">
        <ele>267.6858266047</ele>
        <time>2026-04-01T12:01:45Z</time>
      </trkpt>
      <trkpt lat="41.40133756109463" lon="-81.73823141708766">
        <ele>267.6641505046</ele>
        <time>2026-04-01T12:02:29Z</time>
      </trkpt>
      <trkpt lat="41.40133753611445" lon="-81.73882740978486">
        <ele>267.3686072764</ele>
        <time>2026-04-01T12:03:05Z</time>
      </trkpt>
      <trkpt lat="41.40134267290500" lon="-81.73943264563823">
        <ele>267.3849914339</ele>
        <time>2026-04-01T12:03:41Z</time>
      </trkpt>
      <trkpt lat="41.40134891560044" lon="-81.74002767470436">
        <ele>266.7589614258</ele>
        <time>2026-04-01T12:04:25Z</time>
      </trkpt>
      <trkpt lat="41.40134106931778" lon="-81.74015624749603">
        <ele>266.4745106363</ele>
        <time>2026-04-01T12:04:33Z</time>
      </trkpt>
    </trkseg>
  </trk>
</gpx>