<?xml version='1.0' encoding='UTF-8'?>
<gpx xmlns="http://www.topografix.com/GPX/1/1" creator="https://gpx.studio" version="1.1">
  <metadata>
    <name>Dog Walk - 2026-07-23 #1</name>
  </metadata>
  <trk>
    <name>Dog Walk - 2026-07-23 #1</name>
    <type>dog walk</type>
    <trkseg>
      <trkpt lat="41.40133796722002" lon="-81.74025812658368">
        <ele>266.4888605379</ele>
        <time>2026-07-23T09:44:09Z</time>
      </trkpt>
      <trkpt lat="41.40132832737610" lon="-81.74025799343923">
        <ele>266.5307658292</ele>
        <time>2026-07-23T09:44:10Z</time>
      </trkpt>
      <trkpt lat="41.40133304368995" lon="-81.74085036303923">
        <ele>265.9550645063</ele>
        <time>2026-07-23T09:44:50Z</time>
      </trkpt>
      <trkpt lat="41.40133296450614" lon="-81.74145324701428">
        <ele>265.8753529557</ele>
        <time>2026-07-23T09:45:47Z</time>
      </trkpt>
      <trkpt lat="41.40132555458074" lon="-81.74206386570680">
        <ele>265.1812376864</ele>
        <time>2026-07-23T09:46:23Z</time>
      </trkpt>
      <trkpt lat="41.40132208487188" lon="-81.74237819550201">
        <ele>264.6385315144</ele>
        <time>2026-07-23T09:46:39Z</time>
      </trkpt>
      <trkpt lat="41.40132951064081" lon="-81.74239031145446">
        <ele>264.8525601511</ele>
        <time>2026-07-23T09:46:40Z</time>
      </trkpt>
      <trkpt lat="41.40090621854021" lon="-81.74218869355502">
        <ele>265.2448832728</ele>
        <time>2026-07-23T09:47:25Z</time>
      </trkpt>
      <trkpt lat="41.40048073189742" lon="-81.74199689645435">
        <ele>265.2544895550</ele>
        <time>2026-07-23T09:48:12Z</time>
      </trkpt>
      <trkpt lat="41.40004926767229" lon="-81.74180248668652">
        <ele>265.5882661198</ele>
        <time>2026-07-23T09:49:20Z</time>
      </trkpt>
      <trkpt lat="41.39961652151597" lon="-81.74160194150562">
        <ele>264.9191225464</ele>
        <time>2026-07-23T09:50:22Z</time>
      </trkpt>
      <trkpt lat="41.39953742832609" lon="-81.74157080133926">
        <ele>264.5999102772</ele>
        <time>2026-07-23T09:50:31Z</time>
      </trkpt>
      <trkpt lat="41.39954200671059" lon="-81.74097941400960">
        <ele>265.8595306564</ele>
        <time>2026-07-23T09:51:05Z</time>
      </trkpt>
      <trkpt lat="41.39954239970283" lon="-81.74036802886451">
        <ele>266.4163776076</ele>
        <time>2026-07-23T09:51:37Z</time>
      </trkpt>
      <trkpt lat="41.39953955039015" lon="-81.73976893985909">
        <ele>266.6757900061</ele>
        <time>2026-07-23T09:52:10Z</time>
      </trkpt>
      <trkpt lat="41.39953848288814" lon="-81.73916696394380">
        <ele>266.9577938853</ele>
        <time>2026-07-23T09:52:45Z</time>
      </trkpt>
      <trkpt lat="41.39953477033485" lon="-81.73858560797473">
        <ele>266.8943006253</ele>
        <time>2026-07-23T09:53:42Z</time>
      </trkpt>
      <trkpt lat="41.39953086446518" lon="-81.73829902786851">
        <ele>266.9352774041</ele>
        <time>2026-07-23T09:53:59Z</time>
      </trkpt>
      <trkpt lat="41.39953925364775" lon="-81.73829800900305">
        <ele>266.9603950902</ele>
        <time>2026-07-23T09:54:09Z</time>
      </trkpt>
      <trkpt lat="41.39999145549385" lon="-81.73829622779247">
        <ele>267.2316782935</ele>
        <time>2026-07-23T09:54:48Z</time>
      </trkpt>
      <trkpt lat="41.40042560596262" lon="-81.73829565065172">
        <ele>267.2511419294</ele>
        <time>2026-07-23T09:55:40Z</time>
      </trkpt>
      <trkpt lat="41.40088711053529" lon="-81.73830301474938">
        <ele>267.4639693752</ele>
        <time>2026-07-23T09:56:19Z</time>
      </trkpt>
      <trkpt lat="41.40132823331412" lon="-81.73829293283902">
        <ele>267.4667632648</ele>
        <time>2026-07-23T09:56:56Z</time>
      </trkpt>
      <trkpt lat="41.40133506913691" lon="-81.73890176394308">
        <ele>267.1610896025</ele>
        <time>2026-07-23T09:57:29Z</time>
      </trkpt>
      <trkpt lat="41.40134141894434" lon="-81.73950564874210">
        <ele>267.2095364338</ele>
        <time>2026-07-23T09:58:02Z</time>
      </trkpt>
      <trkpt lat="41.40134263067069" lon="-81.74009447611917">
        <ele>266.5474462305</ele>
        <time>2026-07-23T09:58:59Z</time>
      </trkpt>
      <trkpt lat="41.40134413617564" lon="-81.74015698957822">
        <ele>266.4123434941</ele>
        <time>2026-07-23T09:59:05Z</time>
      </trkpt>
    </trkseg>
  </trk>
</gpx>