<?xml version='1.0' encoding='UTF-8'?>
<gpx xmlns="http://www.topografix.com/GPX/1/1" creator="https://gpx.studio" version="1.1">
  <metadata>
    <name>Dog Walk - 2026-04-30 #4</name>
  </metadata>
  <trk>
    <name>Dog Walk - 2026-04-30 #4</name>
    <type>dog walk</type>
    <trkseg>
      <trkpt lat="41.40134386563813" lon="-81.74023361263598">
        <ele>266.6827879289</ele>
        <time>2026-04-30T19:40:40Z</time>
      </trkpt>
      <trkpt lat="41.40134347400209" lon="-81.74083047848681">
        <ele>266.0357452550</ele>
        <time>2026-04-30T19:41:30Z</time>
      </trkpt>
      <trkpt lat="41.40134325430319" lon="-81.74142807135934">
        <ele>265.9587097294</ele>
        <time>2026-04-30T19:42:08Z</time>
      </trkpt>
      <trkpt lat="41.40133461088719" lon="-81.74202797436868">
        <ele>265.2232062467</ele>
        <time>2026-04-30T19:42:44Z</time>
      </trkpt>
      <trkpt lat="41.40133130375349" lon="-81.74238587349294">
        <ele>264.9172328932</ele>
        <time>2026-04-30T19:43:12Z</time>
      </trkpt>
      <trkpt lat="41.40090383007509" lon="-81.74218451459738">
        <ele>264.9389176083</ele>
        <time>2026-04-30T19:44:01Z</time>
      </trkpt>
      <trkpt lat="41.40049023992174" lon="-81.74195754407899">
        <ele>265.2045674291</ele>
        <time>2026-04-30T19:44:33Z</time>
      </trkpt>
      <trkpt lat="41.40044965404338" lon="-81.74194462750495">
        <ele>265.3921545398</ele>
        <time>2026-04-30T19:44:38Z</time>
      </trkpt>
      <trkpt lat="41.40045079227986" lon="-81.74134828786545">
        <ele>266.0931530291</ele>
        <time>2026-04-30T19:45:17Z</time>
      </trkpt>
      <trkpt lat="41.40043516827335" lon="-81.74074920271291">
        <ele>266.1661850719</ele>
        <time>2026-04-30T19:45:55Z</time>
      </trkpt>
      <trkpt lat="41.40043671295894" lon="-81.74015964472602">
        <ele>266.7280999099</ele>
        <time>2026-04-30T19:46:33Z</time>
      </trkpt>
      <trkpt lat="41.40043356906709" lon="-81.73955470424050">
        <ele>266.9269584096</ele>
        <time>2026-04-30T19:47:14Z</time>
      </trkpt>
      <trkpt lat="41.40042393692947" lon="-81.73894307620496">
        <ele>267.0476006917</ele>
        <time>2026-04-30T19:47:52Z</time>
      </trkpt>
      <trkpt lat="41.40042330519083" lon="-81.73835545225606">
        <ele>267.2439183938</ele>
        <time>2026-04-30T19:48:29Z</time>
      </trkpt>
      <trkpt lat="41.40041906596095" lon="-81.73775183562707">
        <ele>267.7620047191</ele>
        <time>2026-04-30T19:49:36Z</time>
      </trkpt>
      <trkpt lat="41.40041607175738" lon="-81.73716073461782">
        <ele>267.9871940632</ele>
        <time>2026-04-30T19:50:17Z</time>
      </trkpt>
      <trkpt lat="41.40041573051209" lon="-81.73654704214830">
        <ele>268.0692949202</ele>
        <time>2026-04-30T19:50:59Z</time>
      </trkpt>
      <trkpt lat="41.40040909328577" lon="-81.73594597288523">
        <ele>267.8710387646</ele>
        <time>2026-04-30T19:51:55Z</time>
      </trkpt>
      <trkpt lat="41.40040350535497" lon="-81.73535330468084">
        <ele>267.4781628496</ele>
        <time>2026-04-30T19:52:32Z</time>
      </trkpt>
      <trkpt lat="41.40039090303627" lon="-81.73476096204412">
        <ele>267.5104642721</ele>
        <time>2026-04-30T19:53:06Z</time>
      </trkpt>
      <trkpt lat="41.40039290608809" lon="-81.73462309162743">
        <ele>267.4053614035</ele>
        <time>2026-04-30T19:53:16Z</time>
      </trkpt>
      <trkpt lat="41.40084879221747" lon="-81.73461865872562">
        <ele>267.1967036615</ele>
        <time>2026-04-30T19:53:58Z</time>
      </trkpt>
      <trkpt lat="41.40130143560852" lon="-81.73463632649552">
        <ele>267.3929694138</ele>
        <time>2026-04-30T19:54:39Z</time>
      </trkpt>
      <trkpt lat="41.40132173640541" lon="-81.73462779476219">
        <ele>267.2225744686</ele>
        <time>2026-04-30T19:54:42Z</time>
      </trkpt>
      <trkpt lat="41.40132018504088" lon="-81.73522425583707">
        <ele>267.8775691215</ele>
        <time>2026-04-30T19:55:22Z</time>
      </trkpt>
      <trkpt lat="41.40132340446820" lon="-81.73583131427894">
        <ele>268.1412496821</ele>
        <time>2026-04-30T19:56:18Z</time>
      </trkpt>
      <trkpt lat="41.40132613189677" lon="-81.73643414654543">
        <ele>268.1099279619</ele>
        <time>2026-04-30T19:57:03Z</time>
      </trkpt>
      <trkpt lat="41.40132834321459" lon="-81.73703319251561">
        <ele>267.8713552538</ele>
        <time>2026-04-30T19:57:58Z</time>
      </trkpt>
      <trkpt lat="41.40133555221963" lon="-81.73763071106893">
        <ele>268.0331597078</ele>
        <time>2026-04-30T19:58:32Z</time>
      </trkpt>
      <trkpt lat="41.40134085048786" lon="-81.73824016467923">
        <ele>267.7587878195</ele>
        <time>2026-04-30T19:59:20Z</time>
      </trkpt>
      <trkpt lat="41.40134073223204" lon="-81.73883568200620">
        <ele>267.3954576311</ele>
        <time>2026-04-30T20:00:24Z</time>
      </trkpt>
      <trkpt lat="41.40134547573075" lon="-81.73942853212645">
        <ele>267.2406550488</ele>
        <time>2026-04-30T20:00:59Z</time>
      </trkpt>
      <trkpt lat="41.40134346409376" lon="-81.74002469954820">
        <ele>266.6682908295</ele>
        <time>2026-04-30T20:01:32Z</time>
      </trkpt>
      <trkpt lat="41.40134016616891" lon="-81.74019451684515">
        <ele>266.5479540664</ele>
        <time>2026-04-30T20:01:42Z</time>
      </trkpt>
    </trkseg>
  </trk>
</gpx>