<?xml version='1.0' encoding='UTF-8'?>
<gpx xmlns="http://www.topografix.com/GPX/1/1" creator="https://gpx.studio" version="1.1">
  <metadata>
    <name>Dog Walk - 2026-02-21</name>
  </metadata>
  <trk>
    <name>Dog Walk - 2026-02-21</name>
    <type>dog walk</type>
    <trkseg>
      <trkpt lat="41.40132874957869" lon="-81.74025895235187">
        <ele>266.4559865695</ele>
        <time>2026-02-21T10:51:59Z</time>
      </trkpt>
      <trkpt lat="41.40134011473514" lon="-81.74026041176749">
        <ele>266.6130927824</ele>
        <time>2026-02-21T10:52:00Z</time>
      </trkpt>
      <trkpt lat="41.40132678149741" lon="-81.74085495263414">
        <ele>266.1755083556</ele>
        <time>2026-02-21T10:52:35Z</time>
      </trkpt>
      <trkpt lat="41.40132888481975" lon="-81.74145029353507">
        <ele>265.9243439152</ele>
        <time>2026-02-21T10:53:29Z</time>
      </trkpt>
      <trkpt lat="41.40132459403253" lon="-81.74205545162398">
        <ele>265.4558008059</ele>
        <time>2026-02-21T10:54:01Z</time>
      </trkpt>
      <trkpt lat="41.40132712814444" lon="-81.74237395498281">
        <ele>264.7037344960</ele>
        <time>2026-02-21T10:54:23Z</time>
      </trkpt>
      <trkpt lat="41.40132493640790" lon="-81.74237995884860">
        <ele>264.6271501545</ele>
        <time>2026-02-21T10:54:24Z</time>
      </trkpt>
      <trkpt lat="41.40091261149902" lon="-81.74217475879479">
        <ele>265.0699873395</ele>
        <time>2026-02-21T10:55:23Z</time>
      </trkpt>
      <trkpt lat="41.40046814084670" lon="-81.74199259080268">
        <ele>265.2516600381</ele>
        <time>2026-02-21T10:56:42Z</time>
      </trkpt>
      <trkpt lat="41.40004385736734" lon="-81.74180535405694">
        <ele>265.3789272705</ele>
        <time>2026-02-21T10:57:20Z</time>
      </trkpt>
      <trkpt lat="41.39962105821535" lon="-81.74160834889415">
        <ele>264.8337660619</ele>
        <time>2026-02-21T10:58:04Z</time>
      </trkpt>
      <trkpt lat="41.39955036139483" lon="-81.74157911763783">
        <ele>264.7391289245</ele>
        <time>2026-02-21T10:58:24Z</time>
      </trkpt>
      <trkpt lat="41.39954199217071" lon="-81.74097323406821">
        <ele>265.5637886383</ele>
        <time>2026-02-21T10:59:05Z</time>
      </trkpt>
      <trkpt lat="41.39954074387708" lon="-81.74036194413490">
        <ele>266.0662106563</ele>
        <time>2026-02-21T11:00:03Z</time>
      </trkpt>
      <trkpt lat="41.39953777501404" lon="-81.73977810928044">
        <ele>266.8452473973</ele>
        <time>2026-02-21T11:01:05Z</time>
      </trkpt>
      <trkpt lat="41.39954190099208" lon="-81.73916856558279">
        <ele>266.6710979442</ele>
        <time>2026-02-21T11:01:47Z</time>
      </trkpt>
      <trkpt lat="41.39954131184314" lon="-81.73857179554314">
        <ele>266.7294626135</ele>
        <time>2026-02-21T11:02:32Z</time>
      </trkpt>
      <trkpt lat="41.39952645108162" lon="-81.73829629681555">
        <ele>266.8486388498</ele>
        <time>2026-02-21T11:02:52Z</time>
      </trkpt>
      <trkpt lat="41.39953311633443" lon="-81.73829427531055">
        <ele>266.8664637082</ele>
        <time>2026-02-21T11:02:53Z</time>
      </trkpt>
      <trkpt lat="41.39998143372422" lon="-81.73829407565887">
        <ele>267.1705029322</ele>
        <time>2026-02-21T11:03:31Z</time>
      </trkpt>
      <trkpt lat="41.40043316836399" lon="-81.73830178963127">
        <ele>267.2338590032</ele>
        <time>2026-02-21T11:04:11Z</time>
      </trkpt>
      <trkpt lat="41.40088621673612" lon="-81.73829661245910">
        <ele>267.5290316768</ele>
        <time>2026-02-21T11:05:03Z</time>
      </trkpt>
      <trkpt lat="41.40132801761996" lon="-81.73830242306153">
        <ele>267.4555182987</ele>
        <time>2026-02-21T11:05:41Z</time>
      </trkpt>
      <trkpt lat="41.40132474190118" lon="-81.73890637727371">
        <ele>267.2892717832</ele>
        <time>2026-02-21T11:06:23Z</time>
      </trkpt>
      <trkpt lat="41.40133435248282" lon="-81.73949447605065">
        <ele>267.1168963003</ele>
        <time>2026-02-21T11:07:07Z</time>
      </trkpt>
      <trkpt lat="41.40134868381917" lon="-81.74009700301241">
        <ele>266.6267678529</ele>
        <time>2026-02-21T11:07:47Z</time>
      </trkpt>
      <trkpt lat="41.40133694142942" lon="-81.74015578717470">
        <ele>266.7062639157</ele>
        <time>2026-02-21T11:07:50Z</time>
      </trkpt>
    </trkseg>
  </trk>
</gpx>