<?xml version='1.0' encoding='UTF-8'?>
<gpx xmlns="http://www.topografix.com/GPX/1/1" creator="https://gpx.studio" version="1.1">
  <metadata>
    <name>Dog Walk - 2026-08-12 #1</name>
  </metadata>
  <trk>
    <name>Dog Walk - 2026-08-12 #1</name>
    <type>dog walk</type>
    <trkseg>
      <trkpt lat="41.40134607279540" lon="-81.74022981584675">
        <ele>266.4903561922</ele>
        <time>2026-08-12T10:35:41Z</time>
      </trkpt>
      <trkpt lat="41.40134566561581" lon="-81.74083721233079">
        <ele>266.2739999158</ele>
        <time>2026-08-12T10:36:17Z</time>
      </trkpt>
      <trkpt lat="41.40135123007564" lon="-81.74142544746137">
        <ele>265.9747291508</ele>
        <time>2026-08-12T10:36:58Z</time>
      </trkpt>
      <trkpt lat="41.40134203598982" lon="-81.74202731033706">
        <ele>265.5136772553</ele>
        <time>2026-08-12T10:37:32Z</time>
      </trkpt>
      <trkpt lat="41.40134715918361" lon="-81.74242142685014">
        <ele>264.7064392943</ele>
        <time>2026-08-12T10:37:59Z</time>
      </trkpt>
      <trkpt lat="41.40176554629666" lon="-81.74263552008183">
        <ele>264.1724017001</ele>
        <time>2026-08-12T10:38:41Z</time>
      </trkpt>
      <trkpt lat="41.40218366419919" lon="-81.74283515409137">
        <ele>263.6183516095</ele>
        <time>2026-08-12T10:39:16Z</time>
      </trkpt>
      <trkpt lat="41.40260668818328" lon="-81.74304444569377">
        <ele>262.7320091870</ele>
        <time>2026-08-12T10:39:55Z</time>
      </trkpt>
      <trkpt lat="41.40302545714643" lon="-81.74326639827999">
        <ele>262.4797179727</ele>
        <time>2026-08-12T10:40:41Z</time>
      </trkpt>
      <trkpt lat="41.40344697564576" lon="-81.74348193365185">
        <ele>261.7528955088</ele>
        <time>2026-08-12T10:41:35Z</time>
      </trkpt>
      <trkpt lat="41.40348413518327" lon="-81.74349474541707">
        <ele>261.9910927266</ele>
        <time>2026-08-12T10:41:38Z</time>
      </trkpt>
      <trkpt lat="41.40360071741100" lon="-81.74351638957795">
        <ele>261.7666407082</ele>
        <time>2026-08-12T10:41:49Z</time>
      </trkpt>
      <trkpt lat="41.40400019577702" lon="-81.74350124792927">
        <ele>260.7098288720</ele>
        <time>2026-08-12T10:42:23Z</time>
      </trkpt>
      <trkpt lat="41.40399513980383" lon="-81.74290153799116">
        <ele>261.4980104043</ele>
        <time>2026-08-12T10:43:13Z</time>
      </trkpt>
      <trkpt lat="41.40399648536150" lon="-81.74231196433836">
        <ele>261.9630149614</ele>
        <time>2026-08-12T10:43:51Z</time>
      </trkpt>
      <trkpt lat="41.40398734594726" lon="-81.74170108162279">
        <ele>262.3410099224</ele>
        <time>2026-08-12T10:44:40Z</time>
      </trkpt>
      <trkpt lat="41.40399694704072" lon="-81.74111638662524">
        <ele>262.9067106622</ele>
        <time>2026-08-12T10:45:27Z</time>
      </trkpt>
      <trkpt lat="41.40398971717015" lon="-81.74050008053386">
        <ele>263.2459160410</ele>
        <time>2026-08-12T10:45:59Z</time>
      </trkpt>
      <trkpt lat="41.40398955994616" lon="-81.73991445135111">
        <ele>264.3809757454</ele>
        <time>2026-08-12T10:46:36Z</time>
      </trkpt>
      <trkpt lat="41.40398488835672" lon="-81.73930851403006">
        <ele>264.9124738609</ele>
        <time>2026-08-12T10:47:15Z</time>
      </trkpt>
      <trkpt lat="41.40398800203622" lon="-81.73876602685785">
        <ele>265.4010593331</ele>
        <time>2026-08-12T10:47:46Z</time>
      </trkpt>
      <trkpt lat="41.40353793845132" lon="-81.73877388514329">
        <ele>265.8079091018</ele>
        <time>2026-08-12T10:48:20Z</time>
      </trkpt>
      <trkpt lat="41.40309034050505" lon="-81.73877816856569">
        <ele>266.3080305834</ele>
        <time>2026-08-12T10:48:54Z</time>
      </trkpt>
      <trkpt lat="41.40263350605888" lon="-81.73876964387792">
        <ele>266.7202476926</ele>
        <time>2026-08-12T10:49:29Z</time>
      </trkpt>
      <trkpt lat="41.40222538994416" lon="-81.73876896742399">
        <ele>266.9805261254</ele>
        <time>2026-08-12T10:50:03Z</time>
      </trkpt>
      <trkpt lat="41.40221262920682" lon="-81.73828002716567">
        <ele>267.1963647504</ele>
        <time>2026-08-12T10:50:37Z</time>
      </trkpt>
      <trkpt lat="41.40177212831758" lon="-81.73828141630078">
        <ele>267.7676042153</ele>
        <time>2026-08-12T10:51:13Z</time>
      </trkpt>
      <trkpt lat="41.40133368089981" lon="-81.73826497656405">
        <ele>267.5968279206</ele>
        <time>2026-08-12T10:51:48Z</time>
      </trkpt>
      <trkpt lat="41.40133873955816" lon="-81.73886688635176">
        <ele>267.3527373193</ele>
        <time>2026-08-12T10:52:30Z</time>
      </trkpt>
      <trkpt lat="41.40133164248707" lon="-81.73945199023494">
        <ele>267.3424308948</ele>
        <time>2026-08-12T10:53:03Z</time>
      </trkpt>
      <trkpt lat="41.40133664895656" lon="-81.74006555121193">
        <ele>266.4748080517</ele>
        <time>2026-08-12T10:53:37Z</time>
      </trkpt>
      <trkpt lat="41.40134135969713" lon="-81.74020347568289">
        <ele>266.5375385884</ele>
        <time>2026-08-12T10:53:46Z</time>
      </trkpt>
    </trkseg>
  </trk>
</gpx>