<?xml version='1.0' encoding='UTF-8'?>
<gpx xmlns="http://www.topografix.com/GPX/1/1" creator="https://gpx.studio" version="1.1">
  <metadata>
    <name>Dog Walk - 2026-03-19 #2</name>
  </metadata>
  <trk>
    <name>Dog Walk - 2026-03-19 #2</name>
    <type>dog walk</type>
    <trkseg>
      <trkpt lat="41.40133390475284" lon="-81.74022479071917">
        <ele>266.6329779464</ele>
        <time>2026-03-19T10:45:47Z</time>
      </trkpt>
      <trkpt lat="41.40133740272654" lon="-81.74081714651969">
        <ele>266.2482403722</ele>
        <time>2026-03-19T10:46:29Z</time>
      </trkpt>
      <trkpt lat="41.40134351785281" lon="-81.74142869907089">
        <ele>265.9428178487</ele>
        <time>2026-03-19T10:47:04Z</time>
      </trkpt>
      <trkpt lat="41.40134683318614" lon="-81.74203195007951">
        <ele>265.2761088280</ele>
        <time>2026-03-19T10:47:40Z</time>
      </trkpt>
      <trkpt lat="41.40133745995127" lon="-81.74241380821633">
        <ele>264.6815782064</ele>
        <time>2026-03-19T10:48:09Z</time>
      </trkpt>
      <trkpt lat="41.40177206862894" lon="-81.74262676107092">
        <ele>264.1187297800</ele>
        <time>2026-03-19T10:48:51Z</time>
      </trkpt>
      <trkpt lat="41.40218685222522" lon="-81.74283734894607">
        <ele>263.6241283133</ele>
        <time>2026-03-19T10:49:25Z</time>
      </trkpt>
      <trkpt lat="41.40260463765877" lon="-81.74306228627769">
        <ele>262.6626749621</ele>
        <time>2026-03-19T10:50:01Z</time>
      </trkpt>
      <trkpt lat="41.40303077098065" lon="-81.74325772293784">
        <ele>262.3030350233</ele>
        <time>2026-03-19T10:50:30Z</time>
      </trkpt>
      <trkpt lat="41.40345092034557" lon="-81.74347978738486">
        <ele>261.9561848206</ele>
        <time>2026-03-19T10:51:12Z</time>
      </trkpt>
      <trkpt lat="41.40349177575207" lon="-81.74350032728235">
        <ele>261.9651757550</ele>
        <time>2026-03-19T10:51:15Z</time>
      </trkpt>
      <trkpt lat="41.40359515150401" lon="-81.74352277413615">
        <ele>261.7165858330</ele>
        <time>2026-03-19T10:51:25Z</time>
      </trkpt>
      <trkpt lat="41.40400052014441" lon="-81.74350691654341">
        <ele>261.0251320931</ele>
        <time>2026-03-19T10:52:05Z</time>
      </trkpt>
      <trkpt lat="41.40399332672208" lon="-81.74290969288720">
        <ele>261.4831422096</ele>
        <time>2026-03-19T10:52:57Z</time>
      </trkpt>
      <trkpt lat="41.40399010815914" lon="-81.74231063459175">
        <ele>262.1282390163</ele>
        <time>2026-03-19T10:53:35Z</time>
      </trkpt>
      <trkpt lat="41.40399540100440" lon="-81.74171576831444">
        <ele>262.5955858164</ele>
        <time>2026-03-19T10:54:12Z</time>
      </trkpt>
      <trkpt lat="41.40398435270212" lon="-81.74109982086905">
        <ele>262.8624525034</ele>
        <time>2026-03-19T10:54:59Z</time>
      </trkpt>
      <trkpt lat="41.40398434592845" lon="-81.74050993177195">
        <ele>263.6930468689</ele>
        <time>2026-03-19T10:55:55Z</time>
      </trkpt>
      <trkpt lat="41.40399103637738" lon="-81.73991356900801">
        <ele>264.2920977204</ele>
        <time>2026-03-19T10:56:50Z</time>
      </trkpt>
      <trkpt lat="41.40398788608078" lon="-81.73930276546461">
        <ele>264.9320024185</ele>
        <time>2026-03-19T10:57:36Z</time>
      </trkpt>
      <trkpt lat="41.40398281697431" lon="-81.73877810826335">
        <ele>265.3815741430</ele>
        <time>2026-03-19T10:58:13Z</time>
      </trkpt>
      <trkpt lat="41.40353099404509" lon="-81.73877150071169">
        <ele>265.7773662107</ele>
        <time>2026-03-19T10:59:09Z</time>
      </trkpt>
      <trkpt lat="41.40308818343944" lon="-81.73878559865025">
        <ele>266.2854427345</ele>
        <time>2026-03-19T10:59:47Z</time>
      </trkpt>
      <trkpt lat="41.40263867693663" lon="-81.73878555270277">
        <ele>266.7093447989</ele>
        <time>2026-03-19T11:00:20Z</time>
      </trkpt>
      <trkpt lat="41.40222587906303" lon="-81.73877659968390">
        <ele>267.0404379960</ele>
        <time>2026-03-19T11:01:11Z</time>
      </trkpt>
      <trkpt lat="41.40221934976582" lon="-81.73828159106270">
        <ele>267.0357411483</ele>
        <time>2026-03-19T11:01:44Z</time>
      </trkpt>
      <trkpt lat="41.40176594746870" lon="-81.73827741253272">
        <ele>267.9085282073</ele>
        <time>2026-03-19T11:02:19Z</time>
      </trkpt>
      <trkpt lat="41.40133333194525" lon="-81.73826817932900">
        <ele>267.4669489919</ele>
        <time>2026-03-19T11:03:19Z</time>
      </trkpt>
      <trkpt lat="41.40133050597289" lon="-81.73886850537941">
        <ele>267.3831567277</ele>
        <time>2026-03-19T11:04:07Z</time>
      </trkpt>
      <trkpt lat="41.40134241744870" lon="-81.73945614643254">
        <ele>267.1282186694</ele>
        <time>2026-03-19T11:04:46Z</time>
      </trkpt>
      <trkpt lat="41.40134087795919" lon="-81.74007362597827">
        <ele>266.6312429775</ele>
        <time>2026-03-19T11:05:19Z</time>
      </trkpt>
      <trkpt lat="41.40133845994009" lon="-81.74021073777503">
        <ele>266.5331171536</ele>
        <time>2026-03-19T11:05:26Z</time>
      </trkpt>
    </trkseg>
  </trk>
</gpx>