<?xml version='1.0' encoding='UTF-8'?>
<gpx xmlns="http://www.topografix.com/GPX/1/1" creator="https://gpx.studio" version="1.1">
  <metadata>
    <name>Dog Walk - 2026-04-06 #1</name>
  </metadata>
  <trk>
    <name>Dog Walk - 2026-04-06 #1</name>
    <type>dog walk</type>
    <trkseg>
      <trkpt lat="41.40133455208989" lon="-81.74023297102816">
        <ele>266.4920472516</ele>
        <time>2026-04-06T08:00:39Z</time>
      </trkpt>
      <trkpt lat="41.40134353608600" lon="-81.74084259519461">
        <ele>266.0986371249</ele>
        <time>2026-04-06T08:01:22Z</time>
      </trkpt>
      <trkpt lat="41.40134334633126" lon="-81.74143120752157">
        <ele>265.7515307541</ele>
        <time>2026-04-06T08:02:05Z</time>
      </trkpt>
      <trkpt lat="41.40135256925608" lon="-81.74203483216887">
        <ele>265.2594458731</ele>
        <time>2026-04-06T08:02:48Z</time>
      </trkpt>
      <trkpt lat="41.40135444069932" lon="-81.74242349142774">
        <ele>264.6247001161</ele>
        <time>2026-04-06T08:03:14Z</time>
      </trkpt>
      <trkpt lat="41.40177700419950" lon="-81.74262151044640">
        <ele>264.1036134631</ele>
        <time>2026-04-06T08:03:51Z</time>
      </trkpt>
      <trkpt lat="41.40219170062545" lon="-81.74282563098465">
        <ele>263.5611110505</ele>
        <time>2026-04-06T08:04:27Z</time>
      </trkpt>
      <trkpt lat="41.40261155699845" lon="-81.74302760577906">
        <ele>263.1433727926</ele>
        <time>2026-04-06T08:05:05Z</time>
      </trkpt>
      <trkpt lat="41.40304165623581" lon="-81.74321811127821">
        <ele>262.4914277139</ele>
        <time>2026-04-06T08:05:56Z</time>
      </trkpt>
      <trkpt lat="41.40312028267416" lon="-81.74325742249481">
        <ele>262.5330848650</ele>
        <time>2026-04-06T08:06:03Z</time>
      </trkpt>
      <trkpt lat="41.40311832886383" lon="-81.74265729098767">
        <ele>263.0208692868</ele>
        <time>2026-04-06T08:06:46Z</time>
      </trkpt>
      <trkpt lat="41.40310774874033" lon="-81.74205856835505">
        <ele>263.8904126129</ele>
        <time>2026-04-06T08:07:16Z</time>
      </trkpt>
      <trkpt lat="41.40311108887062" lon="-81.74144799805511">
        <ele>264.1926272460</ele>
        <time>2026-04-06T08:07:56Z</time>
      </trkpt>
      <trkpt lat="41.40310290160122" lon="-81.74085095250427">
        <ele>264.7987326836</ele>
        <time>2026-04-06T08:08:50Z</time>
      </trkpt>
      <trkpt lat="41.40310435819220" lon="-81.74025629064325">
        <ele>265.7153388933</ele>
        <time>2026-04-06T08:09:26Z</time>
      </trkpt>
      <trkpt lat="41.40309894749436" lon="-81.73965594288659">
        <ele>265.6832146075</ele>
        <time>2026-04-06T08:09:58Z</time>
      </trkpt>
      <trkpt lat="41.40310398287282" lon="-81.73905440385965">
        <ele>266.2770077304</ele>
        <time>2026-04-06T08:10:39Z</time>
      </trkpt>
      <trkpt lat="41.40309901637233" lon="-81.73878423046807">
        <ele>266.0899451463</ele>
        <time>2026-04-06T08:10:54Z</time>
      </trkpt>
      <trkpt lat="41.40264892819616" lon="-81.73879240371937">
        <ele>266.6669923623</ele>
        <time>2026-04-06T08:11:30Z</time>
      </trkpt>
      <trkpt lat="41.40223044235946" lon="-81.73878420209677">
        <ele>267.0940057878</ele>
        <time>2026-04-06T08:12:06Z</time>
      </trkpt>
      <trkpt lat="41.40222609757181" lon="-81.73817741107989">
        <ele>267.1606190424</ele>
        <time>2026-04-06T08:12:45Z</time>
      </trkpt>
      <trkpt lat="41.40223842147925" lon="-81.73757778437354">
        <ele>267.0197173951</ele>
        <time>2026-04-06T08:13:48Z</time>
      </trkpt>
      <trkpt lat="41.40223626406092" lon="-81.73698236278251">
        <ele>267.3850029322</ele>
        <time>2026-04-06T08:14:22Z</time>
      </trkpt>
      <trkpt lat="41.40223034606048" lon="-81.73638511942490">
        <ele>267.0643186064</ele>
        <time>2026-04-06T08:15:07Z</time>
      </trkpt>
      <trkpt lat="41.40222131573451" lon="-81.73577834530332">
        <ele>267.2253395341</ele>
        <time>2026-04-06T08:15:39Z</time>
      </trkpt>
      <trkpt lat="41.40222493253717" lon="-81.73518396076845">
        <ele>266.9668287416</ele>
        <time>2026-04-06T08:16:15Z</time>
      </trkpt>
      <trkpt lat="41.40221705745483" lon="-81.73466156551430">
        <ele>266.8863221724</ele>
        <time>2026-04-06T08:16:56Z</time>
      </trkpt>
      <trkpt lat="41.40177092330778" lon="-81.73464876479119">
        <ele>267.4094468587</ele>
        <time>2026-04-06T08:17:31Z</time>
      </trkpt>
      <trkpt lat="41.40132568397046" lon="-81.73463795932167">
        <ele>267.3267652542</ele>
        <time>2026-04-06T08:18:14Z</time>
      </trkpt>
      <trkpt lat="41.40131924142350" lon="-81.73463333561047">
        <ele>267.6737063716</ele>
        <time>2026-04-06T08:18:15Z</time>
      </trkpt>
      <trkpt lat="41.40132774750444" lon="-81.73523485399187">
        <ele>267.7954293056</ele>
        <time>2026-04-06T08:18:54Z</time>
      </trkpt>
      <trkpt lat="41.40131672790244" lon="-81.73583881731426">
        <ele>268.1334513535</ele>
        <time>2026-04-06T08:19:59Z</time>
      </trkpt>
      <trkpt lat="41.40132232170134" lon="-81.73642529340422">
        <ele>268.0927148912</ele>
        <time>2026-04-06T08:20:31Z</time>
      </trkpt>
      <trkpt lat="41.40132893860837" lon="-81.73703642580691">
        <ele>268.1533916977</ele>
        <time>2026-04-06T08:21:13Z</time>
      </trkpt>
      <trkpt lat="41.40133237783599" lon="-81.73764369804164">
        <ele>267.9010428934</ele>
        <time>2026-04-06T08:21:42Z</time>
      </trkpt>
      <trkpt lat="41.40133145047324" lon="-81.73823294168021">
        <ele>267.6276062387</ele>
        <time>2026-04-06T08:22:25Z</time>
      </trkpt>
      <trkpt lat="41.40134278457506" lon="-81.73883850974869">
        <ele>267.3754119573</ele>
        <time>2026-04-06T08:23:05Z</time>
      </trkpt>
      <trkpt lat="41.40134538600098" lon="-81.73944191339196">
        <ele>267.2302350592</ele>
        <time>2026-04-06T08:23:48Z</time>
      </trkpt>
      <trkpt lat="41.40135702528681" lon="-81.74003644988004">
        <ele>266.4684409955</ele>
        <time>2026-04-06T08:24:22Z</time>
      </trkpt>
      <trkpt lat="41.40135261476081" lon="-81.74015607724596">
        <ele>266.6296099064</ele>
        <time>2026-04-06T08:24:51Z</time>
      </trkpt>
    </trkseg>
  </trk>
</gpx>