<?xml version='1.0' encoding='UTF-8'?>
<gpx xmlns="http://www.topografix.com/GPX/1/1" creator="https://gpx.studio" version="1.1">
  <metadata>
    <name>Dog Walk - 2026-06-07 #1</name>
  </metadata>
  <trk>
    <name>Dog Walk - 2026-06-07 #1</name>
    <type>dog walk</type>
    <trkseg>
      <trkpt lat="41.40132935162926" lon="-81.74026428570095">
        <ele>266.4950573679</ele>
        <time>2026-06-07T07:53:28Z</time>
      </trkpt>
      <trkpt lat="41.40133548271063" lon="-81.74025983896188">
        <ele>266.6867004241</ele>
        <time>2026-06-07T07:53:29Z</time>
      </trkpt>
      <trkpt lat="41.40134158902852" lon="-81.74085880620936">
        <ele>266.2468599080</ele>
        <time>2026-06-07T07:54:14Z</time>
      </trkpt>
      <trkpt lat="41.40133445406907" lon="-81.74145808764737">
        <ele>265.8375104802</ele>
        <time>2026-06-07T07:54:54Z</time>
      </trkpt>
      <trkpt lat="41.40132474290689" lon="-81.74205472082723">
        <ele>265.3239732825</ele>
        <time>2026-06-07T07:55:27Z</time>
      </trkpt>
      <trkpt lat="41.40131821932136" lon="-81.74238689788922">
        <ele>264.9351011681</ele>
        <time>2026-06-07T07:55:45Z</time>
      </trkpt>
      <trkpt lat="41.40132697235737" lon="-81.74237313069797">
        <ele>264.9821316869</ele>
        <time>2026-06-07T07:55:46Z</time>
      </trkpt>
      <trkpt lat="41.40089859206196" lon="-81.74218206346428">
        <ele>265.1147513904</ele>
        <time>2026-06-07T07:56:36Z</time>
      </trkpt>
      <trkpt lat="41.40046819147183" lon="-81.74199211755619">
        <ele>265.0374547995</ele>
        <time>2026-06-07T07:57:19Z</time>
      </trkpt>
      <trkpt lat="41.40002983773832" lon="-81.74179936315696">
        <ele>265.3586646661</ele>
        <time>2026-06-07T07:58:00Z</time>
      </trkpt>
      <trkpt lat="41.39961543301534" lon="-81.74159883847847">
        <ele>264.4252939763</ele>
        <time>2026-06-07T07:58:37Z</time>
      </trkpt>
      <trkpt lat="41.39954769639156" lon="-81.74157677466910">
        <ele>264.7060682642</ele>
        <time>2026-06-07T07:58:42Z</time>
      </trkpt>
      <trkpt lat="41.39953942853964" lon="-81.74097216868785">
        <ele>265.6719983255</ele>
        <time>2026-06-07T07:59:36Z</time>
      </trkpt>
      <trkpt lat="41.39953677378928" lon="-81.74036379074937">
        <ele>266.1747909266</ele>
        <time>2026-06-07T08:00:22Z</time>
      </trkpt>
      <trkpt lat="41.39954121208445" lon="-81.73977400770721">
        <ele>266.6060864380</ele>
        <time>2026-06-07T08:01:17Z</time>
      </trkpt>
      <trkpt lat="41.39954364991951" lon="-81.73918173044305">
        <ele>266.7059767631</ele>
        <time>2026-06-07T08:01:57Z</time>
      </trkpt>
      <trkpt lat="41.39952710261235" lon="-81.73857886337005">
        <ele>266.9421623953</ele>
        <time>2026-06-07T08:02:36Z</time>
      </trkpt>
      <trkpt lat="41.39952727460965" lon="-81.73828470817305">
        <ele>266.9305492113</ele>
        <time>2026-06-07T08:02:55Z</time>
      </trkpt>
      <trkpt lat="41.39953919037062" lon="-81.73829218791211">
        <ele>266.9288204124</ele>
        <time>2026-06-07T08:03:08Z</time>
      </trkpt>
      <trkpt lat="41.39997403359077" lon="-81.73829777036832">
        <ele>267.3160207994</ele>
        <time>2026-06-07T08:04:04Z</time>
      </trkpt>
      <trkpt lat="41.40043090571796" lon="-81.73829100192445">
        <ele>267.3622736768</ele>
        <time>2026-06-07T08:04:59Z</time>
      </trkpt>
      <trkpt lat="41.40088120532006" lon="-81.73829424506734">
        <ele>267.2860815836</ele>
        <time>2026-06-07T08:05:41Z</time>
      </trkpt>
      <trkpt lat="41.40133129155974" lon="-81.73829445838618">
        <ele>267.3472015029</ele>
        <time>2026-06-07T08:06:43Z</time>
      </trkpt>
      <trkpt lat="41.40133498823054" lon="-81.73889668691628">
        <ele>267.1423247951</ele>
        <time>2026-06-07T08:07:16Z</time>
      </trkpt>
      <trkpt lat="41.40133602612828" lon="-81.73950301720697">
        <ele>267.2986496063</ele>
        <time>2026-06-07T08:07:51Z</time>
      </trkpt>
      <trkpt lat="41.40134136471699" lon="-81.74010439669343">
        <ele>266.5706755021</ele>
        <time>2026-06-07T08:08:30Z</time>
      </trkpt>
      <trkpt lat="41.40134524544546" lon="-81.74015817756583">
        <ele>266.5169170711</ele>
        <time>2026-06-07T08:08:34Z</time>
      </trkpt>
    </trkseg>
  </trk>
</gpx>