<?xml version='1.0' encoding='UTF-8'?>
<gpx xmlns="http://www.topografix.com/GPX/1/1" creator="https://gpx.studio" version="1.1">
  <metadata>
    <name>Dog Walk - 2026-09-08 #3</name>
  </metadata>
  <trk>
    <name>Dog Walk - 2026-09-08 #3</name>
    <type>dog walk</type>
    <trkseg>
      <trkpt lat="41.40133376583266" lon="-81.74023273057617">
        <ele>266.6765499176</ele>
        <time>2026-09-08T17:08:44Z</time>
      </trkpt>
      <trkpt lat="41.40134047795876" lon="-81.74084223858256">
        <ele>266.3924071392</ele>
        <time>2026-09-08T17:09:37Z</time>
      </trkpt>
      <trkpt lat="41.40134607262293" lon="-81.74144406264607">
        <ele>265.8382516248</ele>
        <time>2026-09-08T17:10:20Z</time>
      </trkpt>
      <trkpt lat="41.40134626673813" lon="-81.74203659157408">
        <ele>265.2880150278</ele>
        <time>2026-09-08T17:10:55Z</time>
      </trkpt>
      <trkpt lat="41.40134370427295" lon="-81.74242243185837">
        <ele>264.6045949241</ele>
        <time>2026-09-08T17:11:18Z</time>
      </trkpt>
      <trkpt lat="41.40176605726845" lon="-81.74264192105956">
        <ele>264.3060978658</ele>
        <time>2026-09-08T17:11:55Z</time>
      </trkpt>
      <trkpt lat="41.40218992782035" lon="-81.74285341908141">
        <ele>263.3706629585</ele>
        <time>2026-09-08T17:12:37Z</time>
      </trkpt>
      <trkpt lat="41.40221403042166" lon="-81.74286799290481">
        <ele>263.4388712677</ele>
        <time>2026-09-08T17:12:39Z</time>
      </trkpt>
      <trkpt lat="41.40221692293407" lon="-81.74227502996405">
        <ele>264.1547924357</ele>
        <time>2026-09-08T17:13:19Z</time>
      </trkpt>
      <trkpt lat="41.40221344974820" lon="-81.74167353605600">
        <ele>264.7197959949</ele>
        <time>2026-09-08T17:13:54Z</time>
      </trkpt>
      <trkpt lat="41.40221440531862" lon="-81.74106036842556">
        <ele>265.6022957831</ele>
        <time>2026-09-08T17:14:35Z</time>
      </trkpt>
      <trkpt lat="41.40222042994284" lon="-81.74047203357917">
        <ele>265.8329692093</ele>
        <time>2026-09-08T17:15:10Z</time>
      </trkpt>
      <trkpt lat="41.40221614410400" lon="-81.73986815541008">
        <ele>266.5140989286</ele>
        <time>2026-09-08T17:15:47Z</time>
      </trkpt>
      <trkpt lat="41.40221972770207" lon="-81.73927023785514">
        <ele>266.9412819550</ele>
        <time>2026-09-08T17:16:32Z</time>
      </trkpt>
      <trkpt lat="41.40221743422985" lon="-81.73866297910139">
        <ele>267.2743244796</ele>
        <time>2026-09-08T17:17:24Z</time>
      </trkpt>
      <trkpt lat="41.40221905382970" lon="-81.73826369110613">
        <ele>267.1955720258</ele>
        <time>2026-09-08T17:17:51Z</time>
      </trkpt>
      <trkpt lat="41.40176706703205" lon="-81.73826944153898">
        <ele>267.8840993104</ele>
        <time>2026-09-08T17:18:27Z</time>
      </trkpt>
      <trkpt lat="41.40134405656975" lon="-81.73827141075331">
        <ele>267.3508737272</ele>
        <time>2026-09-08T17:19:03Z</time>
      </trkpt>
      <trkpt lat="41.40133807824587" lon="-81.73885979514864">
        <ele>267.3404246121</ele>
        <time>2026-09-08T17:19:31Z</time>
      </trkpt>
      <trkpt lat="41.40133709528198" lon="-81.73945886060230">
        <ele>267.0149201387</ele>
        <time>2026-09-08T17:20:13Z</time>
      </trkpt>
      <trkpt lat="41.40133737396258" lon="-81.74006426655410">
        <ele>266.5579985781</ele>
        <time>2026-09-08T17:20:44Z</time>
      </trkpt>
      <trkpt lat="41.40133990367162" lon="-81.74019207729958">
        <ele>266.4108197459</ele>
        <time>2026-09-08T17:20:53Z</time>
      </trkpt>
    </trkseg>
  </trk>
</gpx>