<?xml version='1.0' encoding='UTF-8'?>
<gpx xmlns="http://www.topografix.com/GPX/1/1" creator="https://gpx.studio" version="1.1">
  <metadata>
    <name>Dog Walk - 2026-08-03 #4</name>
  </metadata>
  <trk>
    <name>Dog Walk - 2026-08-03 #4</name>
    <type>dog walk</type>
    <trkseg>
      <trkpt lat="41.40134676488399" lon="-81.74023712377164">
        <ele>266.4831196196</ele>
        <time>2026-08-03T16:29:59Z</time>
      </trkpt>
      <trkpt lat="41.40134276203817" lon="-81.74082020735470">
        <ele>266.2565764159</ele>
        <time>2026-08-03T16:30:34Z</time>
      </trkpt>
      <trkpt lat="41.40132686669042" lon="-81.74143461081363">
        <ele>265.9886284909</ele>
        <time>2026-08-03T16:31:09Z</time>
      </trkpt>
      <trkpt lat="41.40132996295245" lon="-81.74202880614234">
        <ele>265.2689269350</ele>
        <time>2026-08-03T16:31:57Z</time>
      </trkpt>
      <trkpt lat="41.40132665397897" lon="-81.74239362808611">
        <ele>264.6677329978</ele>
        <time>2026-08-03T16:32:27Z</time>
      </trkpt>
      <trkpt lat="41.40089847059805" lon="-81.74217058838782">
        <ele>265.2810276568</ele>
        <time>2026-08-03T16:33:12Z</time>
      </trkpt>
      <trkpt lat="41.40048619798437" lon="-81.74197005397951">
        <ele>265.0653710582</ele>
        <time>2026-08-03T16:33:54Z</time>
      </trkpt>
      <trkpt lat="41.40045310065827" lon="-81.74195260829605">
        <ele>265.2285354767</ele>
        <time>2026-08-03T16:34:03Z</time>
      </trkpt>
      <trkpt lat="41.40044700864307" lon="-81.74133792608266">
        <ele>265.9334954809</ele>
        <time>2026-08-03T16:34:45Z</time>
      </trkpt>
      <trkpt lat="41.40043986713090" lon="-81.74075614744720">
        <ele>266.5912987176</ele>
        <time>2026-08-03T16:35:38Z</time>
      </trkpt>
      <trkpt lat="41.40043987121220" lon="-81.74014554887805">
        <ele>266.7356025921</ele>
        <time>2026-08-03T16:36:12Z</time>
      </trkpt>
      <trkpt lat="41.40043168955927" lon="-81.73955576870141">
        <ele>266.8562479356</ele>
        <time>2026-08-03T16:36:48Z</time>
      </trkpt>
      <trkpt lat="41.40042168202586" lon="-81.73895371251399">
        <ele>267.1186405330</ele>
        <time>2026-08-03T16:37:26Z</time>
      </trkpt>
      <trkpt lat="41.40042649381049" lon="-81.73835646243157">
        <ele>267.4553494949</ele>
        <time>2026-08-03T16:38:14Z</time>
      </trkpt>
      <trkpt lat="41.40041944326203" lon="-81.73775874906251">
        <ele>267.5335207586</ele>
        <time>2026-08-03T16:38:55Z</time>
      </trkpt>
      <trkpt lat="41.40041214860892" lon="-81.73715678658652">
        <ele>267.9722896388</ele>
        <time>2026-08-03T16:39:33Z</time>
      </trkpt>
      <trkpt lat="41.40040805995406" lon="-81.73655761230668">
        <ele>267.9632712000</ele>
        <time>2026-08-03T16:40:00Z</time>
      </trkpt>
      <trkpt lat="41.40040108709562" lon="-81.73595503861047">
        <ele>268.0121362438</ele>
        <time>2026-08-03T16:40:36Z</time>
      </trkpt>
      <trkpt lat="41.40040792547378" lon="-81.73535998573585">
        <ele>267.7854920601</ele>
        <time>2026-08-03T16:41:23Z</time>
      </trkpt>
      <trkpt lat="41.40039171462874" lon="-81.73476084669852">
        <ele>267.3421944705</ele>
        <time>2026-08-03T16:42:00Z</time>
      </trkpt>
      <trkpt lat="41.40039236192563" lon="-81.73462027623729">
        <ele>267.3762323112</ele>
        <time>2026-08-03T16:42:12Z</time>
      </trkpt>
      <trkpt lat="41.40083583240316" lon="-81.73463482492053">
        <ele>267.1804308560</ele>
        <time>2026-08-03T16:43:00Z</time>
      </trkpt>
      <trkpt lat="41.40130022303737" lon="-81.73463516845938">
        <ele>267.4672279752</ele>
        <time>2026-08-03T16:43:37Z</time>
      </trkpt>
      <trkpt lat="41.40131929083750" lon="-81.73464800533117">
        <ele>267.4654247318</ele>
        <time>2026-08-03T16:43:39Z</time>
      </trkpt>
      <trkpt lat="41.40132396697953" lon="-81.73524398685994">
        <ele>267.8381022331</ele>
        <time>2026-08-03T16:44:21Z</time>
      </trkpt>
      <trkpt lat="41.40133004308144" lon="-81.73583227774201">
        <ele>268.1393196404</ele>
        <time>2026-08-03T16:45:07Z</time>
      </trkpt>
      <trkpt lat="41.40133295668399" lon="-81.73643155712824">
        <ele>268.0314903813</ele>
        <time>2026-08-03T16:45:45Z</time>
      </trkpt>
      <trkpt lat="41.40132801297796" lon="-81.73703892346686">
        <ele>268.2161620195</ele>
        <time>2026-08-03T16:46:20Z</time>
      </trkpt>
      <trkpt lat="41.40132951156621" lon="-81.73763734986044">
        <ele>268.0033582702</ele>
        <time>2026-08-03T16:47:09Z</time>
      </trkpt>
      <trkpt lat="41.40133477516551" lon="-81.73823750092578">
        <ele>267.5973458390</ele>
        <time>2026-08-03T16:47:42Z</time>
      </trkpt>
      <trkpt lat="41.40134096398609" lon="-81.73883206308224">
        <ele>267.5172492107</ele>
        <time>2026-08-03T16:48:20Z</time>
      </trkpt>
      <trkpt lat="41.40134581846587" lon="-81.73942744691962">
        <ele>267.2442407550</ele>
        <time>2026-08-03T16:48:55Z</time>
      </trkpt>
      <trkpt lat="41.40134930643055" lon="-81.74003165490812">
        <ele>266.5970364180</ele>
        <time>2026-08-03T16:49:38Z</time>
      </trkpt>
      <trkpt lat="41.40134199900221" lon="-81.74019820209995">
        <ele>266.6060585099</ele>
        <time>2026-08-03T16:49:49Z</time>
      </trkpt>
    </trkseg>
  </trk>
</gpx>