<?xml version='1.0' encoding='UTF-8'?>
<gpx xmlns="http://www.topografix.com/GPX/1/1" creator="https://gpx.studio" version="1.1">
  <metadata>
    <name>Dog Walk - 2026-09-17 #2</name>
  </metadata>
  <trk>
    <name>Dog Walk - 2026-09-17 #2</name>
    <type>dog walk</type>
    <trkseg>
      <trkpt lat="41.40133990394020" lon="-81.74022666819467">
        <ele>266.4042583437</ele>
        <time>2026-09-17T12:05:55Z</time>
      </trkpt>
      <trkpt lat="41.40134786549437" lon="-81.74083682827133">
        <ele>266.0583718501</ele>
        <time>2026-09-17T12:06:35Z</time>
      </trkpt>
      <trkpt lat="41.40133966095296" lon="-81.74143375112919">
        <ele>265.7767717671</ele>
        <time>2026-09-17T12:07:15Z</time>
      </trkpt>
      <trkpt lat="41.40134215046719" lon="-81.74203737893275">
        <ele>265.2491422673</ele>
        <time>2026-09-17T12:07:54Z</time>
      </trkpt>
      <trkpt lat="41.40133865078976" lon="-81.74241569811429">
        <ele>264.8947085150</ele>
        <time>2026-09-17T12:08:15Z</time>
      </trkpt>
      <trkpt lat="41.40177047606847" lon="-81.74263741451395">
        <ele>264.2333051656</ele>
        <time>2026-09-17T12:09:04Z</time>
      </trkpt>
      <trkpt lat="41.40218593660366" lon="-81.74285394041647">
        <ele>263.4577941826</ele>
        <time>2026-09-17T12:09:45Z</time>
      </trkpt>
      <trkpt lat="41.40221071954372" lon="-81.74286683580597">
        <ele>263.2380173495</ele>
        <time>2026-09-17T12:09:48Z</time>
      </trkpt>
      <trkpt lat="41.40221917259869" lon="-81.74226182691280">
        <ele>264.0861379514</ele>
        <time>2026-09-17T12:10:25Z</time>
      </trkpt>
      <trkpt lat="41.40221450837635" lon="-81.74166865377929">
        <ele>264.5990963892</ele>
        <time>2026-09-17T12:11:13Z</time>
      </trkpt>
      <trkpt lat="41.40221701191305" lon="-81.74107172433411">
        <ele>265.3840039924</ele>
        <time>2026-09-17T12:12:02Z</time>
      </trkpt>
      <trkpt lat="41.40221981272293" lon="-81.74046983135436">
        <ele>266.0713230869</ele>
        <time>2026-09-17T12:12:40Z</time>
      </trkpt>
      <trkpt lat="41.40221483340878" lon="-81.73986127667317">
        <ele>266.5479674159</ele>
        <time>2026-09-17T12:13:13Z</time>
      </trkpt>
      <trkpt lat="41.40221694632822" lon="-81.73926678856844">
        <ele>267.0011539750</ele>
        <time>2026-09-17T12:13:48Z</time>
      </trkpt>
      <trkpt lat="41.40223155950511" lon="-81.73866028441455">
        <ele>267.1443164592</ele>
        <time>2026-09-17T12:14:24Z</time>
      </trkpt>
      <trkpt lat="41.40221939016011" lon="-81.73826125790097">
        <ele>267.1116266759</ele>
        <time>2026-09-17T12:14:52Z</time>
      </trkpt>
      <trkpt lat="41.40176915075205" lon="-81.73826103777769">
        <ele>267.8624981612</ele>
        <time>2026-09-17T12:15:39Z</time>
      </trkpt>
      <trkpt lat="41.40133605370206" lon="-81.73826982314944">
        <ele>267.5697018126</ele>
        <time>2026-09-17T12:16:30Z</time>
      </trkpt>
      <trkpt lat="41.40133689151977" lon="-81.73885656153196">
        <ele>267.3064418538</ele>
        <time>2026-09-17T12:17:08Z</time>
      </trkpt>
      <trkpt lat="41.40133999742992" lon="-81.73946545548803">
        <ele>267.1411166088</ele>
        <time>2026-09-17T12:17:43Z</time>
      </trkpt>
      <trkpt lat="41.40135549858061" lon="-81.74006080887214">
        <ele>266.7991729356</ele>
        <time>2026-09-17T12:18:29Z</time>
      </trkpt>
      <trkpt lat="41.40133516617394" lon="-81.74019760835418">
        <ele>266.4923314095</ele>
        <time>2026-09-17T12:18:44Z</time>
      </trkpt>
    </trkseg>
  </trk>
</gpx>