<?xml version='1.0' encoding='UTF-8'?>
<gpx xmlns="http://www.topografix.com/GPX/1/1" creator="https://gpx.studio" version="1.1">
  <metadata>
    <name>Dog Walk - 2026-07-28 #1</name>
  </metadata>
  <trk>
    <name>Dog Walk - 2026-07-28 #1</name>
    <type>dog walk</type>
    <trkseg>
      <trkpt lat="41.40134166704893" lon="-81.74024511040643">
        <ele>266.4551353505</ele>
        <time>2026-07-28T08:13:35Z</time>
      </trkpt>
      <trkpt lat="41.40134211126358" lon="-81.74083881899348">
        <ele>266.2263165465</ele>
        <time>2026-07-28T08:14:05Z</time>
      </trkpt>
      <trkpt lat="41.40134407909878" lon="-81.74142758014555">
        <ele>265.7349148278</ele>
        <time>2026-07-28T08:14:48Z</time>
      </trkpt>
      <trkpt lat="41.40134394276857" lon="-81.74204438154595">
        <ele>265.3589323205</ele>
        <time>2026-07-28T08:15:22Z</time>
      </trkpt>
      <trkpt lat="41.40135111939058" lon="-81.74242537087559">
        <ele>264.9071298112</ele>
        <time>2026-07-28T08:15:44Z</time>
      </trkpt>
      <trkpt lat="41.40177162154813" lon="-81.74261464729926">
        <ele>264.4797229179</ele>
        <time>2026-07-28T08:16:23Z</time>
      </trkpt>
      <trkpt lat="41.40220129947496" lon="-81.74282339913616">
        <ele>263.3947351049</ele>
        <time>2026-07-28T08:17:07Z</time>
      </trkpt>
      <trkpt lat="41.40261797931362" lon="-81.74302054642362">
        <ele>263.3615330427</ele>
        <time>2026-07-28T08:18:02Z</time>
      </trkpt>
      <trkpt lat="41.40304425719984" lon="-81.74322718104047">
        <ele>262.5864556488</ele>
        <time>2026-07-28T08:18:49Z</time>
      </trkpt>
      <trkpt lat="41.40311566936182" lon="-81.74325239275483">
        <ele>262.5113528453</ele>
        <time>2026-07-28T08:18:59Z</time>
      </trkpt>
      <trkpt lat="41.40311450579925" lon="-81.74265762544387">
        <ele>263.0849036616</ele>
        <time>2026-07-28T08:19:35Z</time>
      </trkpt>
      <trkpt lat="41.40311667668516" lon="-81.74205475752137">
        <ele>263.5570130844</ele>
        <time>2026-07-28T08:20:25Z</time>
      </trkpt>
      <trkpt lat="41.40311432107772" lon="-81.74145146910921">
        <ele>264.0429740025</ele>
        <time>2026-07-28T08:21:06Z</time>
      </trkpt>
      <trkpt lat="41.40311218136824" lon="-81.74085373937308">
        <ele>264.8181069641</ele>
        <time>2026-07-28T08:21:39Z</time>
      </trkpt>
      <trkpt lat="41.40310280713943" lon="-81.74025781814424">
        <ele>265.2890520575</ele>
        <time>2026-07-28T08:22:12Z</time>
      </trkpt>
      <trkpt lat="41.40310448354506" lon="-81.73964991865898">
        <ele>265.8515098567</ele>
        <time>2026-07-28T08:22:47Z</time>
      </trkpt>
      <trkpt lat="41.40309617212743" lon="-81.73906455641134">
        <ele>266.0357404846</ele>
        <time>2026-07-28T08:23:25Z</time>
      </trkpt>
      <trkpt lat="41.40308997907383" lon="-81.73878866883976">
        <ele>266.2848761352</ele>
        <time>2026-07-28T08:23:42Z</time>
      </trkpt>
      <trkpt lat="41.40265032793297" lon="-81.73879128149373">
        <ele>266.6726010073</ele>
        <time>2026-07-28T08:24:24Z</time>
      </trkpt>
      <trkpt lat="41.40223243307319" lon="-81.73877749520749">
        <ele>267.1925880463</ele>
        <time>2026-07-28T08:25:01Z</time>
      </trkpt>
      <trkpt lat="41.40222650383161" lon="-81.73817453321978">
        <ele>266.8728727967</ele>
        <time>2026-07-28T08:25:49Z</time>
      </trkpt>
      <trkpt lat="41.40223682241886" lon="-81.73758005570922">
        <ele>267.2216178749</ele>
        <time>2026-07-28T08:26:23Z</time>
      </trkpt>
      <trkpt lat="41.40223175525880" lon="-81.73697532678460">
        <ele>267.2149170738</ele>
        <time>2026-07-28T08:26:57Z</time>
      </trkpt>
      <trkpt lat="41.40223871042469" lon="-81.73638680705844">
        <ele>267.3229555983</ele>
        <time>2026-07-28T08:27:45Z</time>
      </trkpt>
      <trkpt lat="41.40222439174379" lon="-81.73578197976596">
        <ele>267.1868548547</ele>
        <time>2026-07-28T08:28:26Z</time>
      </trkpt>
      <trkpt lat="41.40223276250006" lon="-81.73518563960069">
        <ele>267.1254704373</ele>
        <time>2026-07-28T08:28:56Z</time>
      </trkpt>
      <trkpt lat="41.40221912793252" lon="-81.73465286895414">
        <ele>267.1144126878</ele>
        <time>2026-07-28T08:29:26Z</time>
      </trkpt>
      <trkpt lat="41.40177137614817" lon="-81.73464413048283">
        <ele>267.2641492241</ele>
        <time>2026-07-28T08:30:05Z</time>
      </trkpt>
      <trkpt lat="41.40132573439359" lon="-81.73463395351803">
        <ele>267.3824465749</ele>
        <time>2026-07-28T08:30:48Z</time>
      </trkpt>
      <trkpt lat="41.40131829244540" lon="-81.73463968688314">
        <ele>267.4221024313</ele>
        <time>2026-07-28T08:30:49Z</time>
      </trkpt>
      <trkpt lat="41.40131394395382" lon="-81.73524336970021">
        <ele>267.8696550508</ele>
        <time>2026-07-28T08:31:42Z</time>
      </trkpt>
      <trkpt lat="41.40132421661568" lon="-81.73583606033853">
        <ele>268.3786462729</ele>
        <time>2026-07-28T08:32:17Z</time>
      </trkpt>
      <trkpt lat="41.40131755432670" lon="-81.73642949471061">
        <ele>268.1579739155</ele>
        <time>2026-07-28T08:32:56Z</time>
      </trkpt>
      <trkpt lat="41.40132979985031" lon="-81.73704295925175">
        <ele>268.1264154274</ele>
        <time>2026-07-28T08:33:42Z</time>
      </trkpt>
      <trkpt lat="41.40133462950860" lon="-81.73763351896005">
        <ele>267.9736111141</ele>
        <time>2026-07-28T08:34:22Z</time>
      </trkpt>
      <trkpt lat="41.40133786810738" lon="-81.73823444759543">
        <ele>267.6774647368</ele>
        <time>2026-07-28T08:35:01Z</time>
      </trkpt>
      <trkpt lat="41.40133300409482" lon="-81.73882488376132">
        <ele>267.5266443504</ele>
        <time>2026-07-28T08:35:45Z</time>
      </trkpt>
      <trkpt lat="41.40133869536064" lon="-81.73942720972589">
        <ele>267.0893631615</ele>
        <time>2026-07-28T08:36:26Z</time>
      </trkpt>
      <trkpt lat="41.40134045589726" lon="-81.74003460180107">
        <ele>266.5852689969</ele>
        <time>2026-07-28T08:37:19Z</time>
      </trkpt>
      <trkpt lat="41.40135083803642" lon="-81.74014616371495">
        <ele>266.7168125133</ele>
        <time>2026-07-28T08:37:27Z</time>
      </trkpt>
    </trkseg>
  </trk>
</gpx>