<?xml version='1.0' encoding='UTF-8'?>
<gpx xmlns="http://www.topografix.com/GPX/1/1" creator="https://gpx.studio" version="1.1">
  <metadata>
    <name>Dog Walk - 2026-08-13 #1</name>
  </metadata>
  <trk>
    <name>Dog Walk - 2026-08-13 #1</name>
    <type>dog walk</type>
    <trkseg>
      <trkpt lat="41.40132920302007" lon="-81.74022993103618">
        <ele>266.5217322105</ele>
        <time>2026-08-13T09:37:45Z</time>
      </trkpt>
      <trkpt lat="41.40133337245668" lon="-81.74083476498217">
        <ele>266.1031934190</ele>
        <time>2026-08-13T09:38:32Z</time>
      </trkpt>
      <trkpt lat="41.40132958682446" lon="-81.74143499031486">
        <ele>265.7953808566</ele>
        <time>2026-08-13T09:39:23Z</time>
      </trkpt>
      <trkpt lat="41.40133162519533" lon="-81.74202885891887">
        <ele>265.2452488314</ele>
        <time>2026-08-13T09:40:02Z</time>
      </trkpt>
      <trkpt lat="41.40132778171645" lon="-81.74239168547888">
        <ele>264.8805913935</ele>
        <time>2026-08-13T09:40:21Z</time>
      </trkpt>
      <trkpt lat="41.40090518492889" lon="-81.74219659346696">
        <ele>264.9814753586</ele>
        <time>2026-08-13T09:41:02Z</time>
      </trkpt>
      <trkpt lat="41.40047105677655" lon="-81.74200479996382">
        <ele>265.2327166320</ele>
        <time>2026-08-13T09:41:45Z</time>
      </trkpt>
      <trkpt lat="41.40005219382290" lon="-81.74180137007158">
        <ele>265.3170553211</ele>
        <time>2026-08-13T09:42:33Z</time>
      </trkpt>
      <trkpt lat="41.39962468482197" lon="-81.74161443868941">
        <ele>264.6683926190</ele>
        <time>2026-08-13T09:43:09Z</time>
      </trkpt>
      <trkpt lat="41.39953337411871" lon="-81.74157696635733">
        <ele>264.9941581137</ele>
        <time>2026-08-13T09:43:16Z</time>
      </trkpt>
      <trkpt lat="41.39953703638688" lon="-81.74097483960172">
        <ele>265.7049910372</ele>
        <time>2026-08-13T09:43:53Z</time>
      </trkpt>
      <trkpt lat="41.39953490690633" lon="-81.74037273574505">
        <ele>266.3538222299</ele>
        <time>2026-08-13T09:44:34Z</time>
      </trkpt>
      <trkpt lat="41.39953775313246" lon="-81.73977092867963">
        <ele>266.6701017497</ele>
        <time>2026-08-13T09:45:19Z</time>
      </trkpt>
      <trkpt lat="41.39952460164528" lon="-81.73918136999245">
        <ele>266.8361387789</ele>
        <time>2026-08-13T09:45:52Z</time>
      </trkpt>
      <trkpt lat="41.39952892716943" lon="-81.73857782816111">
        <ele>266.8841176953</ele>
        <time>2026-08-13T09:46:42Z</time>
      </trkpt>
      <trkpt lat="41.39952433825928" lon="-81.73798254687418">
        <ele>266.9947749069</ele>
        <time>2026-08-13T09:47:21Z</time>
      </trkpt>
      <trkpt lat="41.39953049380330" lon="-81.73738370479938">
        <ele>267.1326725233</ele>
        <time>2026-08-13T09:48:00Z</time>
      </trkpt>
      <trkpt lat="41.39952569703056" lon="-81.73677736865369">
        <ele>267.2707214295</ele>
        <time>2026-08-13T09:49:04Z</time>
      </trkpt>
      <trkpt lat="41.39952858562822" lon="-81.73617610961850">
        <ele>267.6401355489</ele>
        <time>2026-08-13T09:49:40Z</time>
      </trkpt>
      <trkpt lat="41.39952890457133" lon="-81.73557545601112">
        <ele>267.3441887558</ele>
        <time>2026-08-13T09:50:21Z</time>
      </trkpt>
      <trkpt lat="41.39952218693902" lon="-81.73498536502022">
        <ele>267.3511241120</ele>
        <time>2026-08-13T09:51:01Z</time>
      </trkpt>
      <trkpt lat="41.39952429243309" lon="-81.73461607908143">
        <ele>266.9205263455</ele>
        <time>2026-08-13T09:51:22Z</time>
      </trkpt>
      <trkpt lat="41.39998219156187" lon="-81.73462390570583">
        <ele>267.0656789998</ele>
        <time>2026-08-13T09:51:59Z</time>
      </trkpt>
      <trkpt lat="41.40043013367773" lon="-81.73463535515590">
        <ele>267.4382423019</ele>
        <time>2026-08-13T09:52:42Z</time>
      </trkpt>
      <trkpt lat="41.40087228601988" lon="-81.73463813456861">
        <ele>267.3898808075</ele>
        <time>2026-08-13T09:53:22Z</time>
      </trkpt>
      <trkpt lat="41.40132702686130" lon="-81.73464736150663">
        <ele>267.5001527061</ele>
        <time>2026-08-13T09:54:03Z</time>
      </trkpt>
      <trkpt lat="41.40131863411971" lon="-81.73523830652482">
        <ele>268.0478664836</ele>
        <time>2026-08-13T09:54:37Z</time>
      </trkpt>
      <trkpt lat="41.40131999438530" lon="-81.73583641170896">
        <ele>268.2487971791</ele>
        <time>2026-08-13T09:55:27Z</time>
      </trkpt>
      <trkpt lat="41.40132415054563" lon="-81.73644683054982">
        <ele>268.0573113365</ele>
        <time>2026-08-13T09:56:29Z</time>
      </trkpt>
      <trkpt lat="41.40132613182142" lon="-81.73703405311146">
        <ele>268.1215478083</ele>
        <time>2026-08-13T09:57:05Z</time>
      </trkpt>
      <trkpt lat="41.40132941145255" lon="-81.73764039408707">
        <ele>267.9658396195</ele>
        <time>2026-08-13T09:57:47Z</time>
      </trkpt>
      <trkpt lat="41.40132670136378" lon="-81.73823509038968">
        <ele>267.4966611352</ele>
        <time>2026-08-13T09:58:38Z</time>
      </trkpt>
      <trkpt lat="41.40132718690753" lon="-81.73883872493940">
        <ele>267.2987302211</ele>
        <time>2026-08-13T09:59:29Z</time>
      </trkpt>
      <trkpt lat="41.40133337963420" lon="-81.73943754245359">
        <ele>267.1939118673</ele>
        <time>2026-08-13T10:00:11Z</time>
      </trkpt>
      <trkpt lat="41.40133358765704" lon="-81.74003443239474">
        <ele>266.5733828337</ele>
        <time>2026-08-13T10:00:57Z</time>
      </trkpt>
      <trkpt lat="41.40133498102644" lon="-81.74021370583010">
        <ele>266.5149670202</ele>
        <time>2026-08-13T10:01:10Z</time>
      </trkpt>
    </trkseg>
  </trk>
</gpx>