<?xml version='1.0' encoding='UTF-8'?>
<gpx xmlns="http://www.topografix.com/GPX/1/1" creator="https://gpx.studio" version="1.1">
  <metadata>
    <name>Dog Walk - 2026-05-12 #2</name>
  </metadata>
  <trk>
    <name>Dog Walk - 2026-05-12 #2</name>
    <type>dog walk</type>
    <trkseg>
      <trkpt lat="41.40134808269749" lon="-81.74023472808339">
        <ele>266.4223600861</ele>
        <time>2026-05-12T10:43:32Z</time>
      </trkpt>
      <trkpt lat="41.40134309214599" lon="-81.74083214762319">
        <ele>266.1513389973</ele>
        <time>2026-05-12T10:44:09Z</time>
      </trkpt>
      <trkpt lat="41.40134240723768" lon="-81.74142557658222">
        <ele>265.8949914208</ele>
        <time>2026-05-12T10:44:42Z</time>
      </trkpt>
      <trkpt lat="41.40135240460081" lon="-81.74203353281389">
        <ele>265.1325907461</ele>
        <time>2026-05-12T10:45:16Z</time>
      </trkpt>
      <trkpt lat="41.40134767584349" lon="-81.74241600182775">
        <ele>264.6569142503</ele>
        <time>2026-05-12T10:45:38Z</time>
      </trkpt>
      <trkpt lat="41.40176447886017" lon="-81.74263934036888">
        <ele>264.2600649070</ele>
        <time>2026-05-12T10:46:17Z</time>
      </trkpt>
      <trkpt lat="41.40218968263376" lon="-81.74285138008742">
        <ele>263.4320525961</ele>
        <time>2026-05-12T10:46:53Z</time>
      </trkpt>
      <trkpt lat="41.40221403262061" lon="-81.74286424691914">
        <ele>263.4382599590</ele>
        <time>2026-05-12T10:46:56Z</time>
      </trkpt>
      <trkpt lat="41.40221386351856" lon="-81.74226642956067">
        <ele>264.2139683006</ele>
        <time>2026-05-12T10:47:38Z</time>
      </trkpt>
      <trkpt lat="41.40221801536789" lon="-81.74167229378514">
        <ele>264.6898779962</ele>
        <time>2026-05-12T10:48:14Z</time>
      </trkpt>
      <trkpt lat="41.40222220024108" lon="-81.74107139153600">
        <ele>265.7269896365</ele>
        <time>2026-05-12T10:48:47Z</time>
      </trkpt>
      <trkpt lat="41.40221594561186" lon="-81.74046783279358">
        <ele>265.9907762486</ele>
        <time>2026-05-12T10:49:38Z</time>
      </trkpt>
      <trkpt lat="41.40222682186928" lon="-81.73987424607148">
        <ele>266.7066971824</ele>
        <time>2026-05-12T10:50:10Z</time>
      </trkpt>
      <trkpt lat="41.40221604282447" lon="-81.73926887029985">
        <ele>266.9363736742</ele>
        <time>2026-05-12T10:50:44Z</time>
      </trkpt>
      <trkpt lat="41.40221949766696" lon="-81.73867063850906">
        <ele>266.9999926017</ele>
        <time>2026-05-12T10:51:25Z</time>
      </trkpt>
      <trkpt lat="41.40221538374065" lon="-81.73827138101458">
        <ele>267.0830029134</ele>
        <time>2026-05-12T10:51:53Z</time>
      </trkpt>
      <trkpt lat="41.40177655597922" lon="-81.73826750850174">
        <ele>267.8240178029</ele>
        <time>2026-05-12T10:52:26Z</time>
      </trkpt>
      <trkpt lat="41.40134438649128" lon="-81.73826578432940">
        <ele>267.6571150009</ele>
        <time>2026-05-12T10:52:59Z</time>
      </trkpt>
      <trkpt lat="41.40133873581829" lon="-81.73886634635927">
        <ele>267.3383123853</ele>
        <time>2026-05-12T10:53:37Z</time>
      </trkpt>
      <trkpt lat="41.40134372694327" lon="-81.73946726602341">
        <ele>267.2432227758</ele>
        <time>2026-05-12T10:54:20Z</time>
      </trkpt>
      <trkpt lat="41.40134266673150" lon="-81.74005119564492">
        <ele>266.5269724367</ele>
        <time>2026-05-12T10:54:58Z</time>
      </trkpt>
      <trkpt lat="41.40134127302653" lon="-81.74019609670491">
        <ele>266.5323982419</ele>
        <time>2026-05-12T10:55:05Z</time>
      </trkpt>
    </trkseg>
  </trk>
</gpx>