<?xml version='1.0' encoding='UTF-8'?>
<gpx xmlns="http://www.topografix.com/GPX/1/1" creator="https://gpx.studio" version="1.1">
  <metadata>
    <name>Dog Walk - 2026-08-23 #2</name>
  </metadata>
  <trk>
    <name>Dog Walk - 2026-08-23 #2</name>
    <type>dog walk</type>
    <trkseg>
      <trkpt lat="41.40134589452203" lon="-81.74022658949015">
        <ele>266.2691784150</ele>
        <time>2026-08-23T15:24:07Z</time>
      </trkpt>
      <trkpt lat="41.40134378427243" lon="-81.74083930535420">
        <ele>266.2753702312</ele>
        <time>2026-08-23T15:24:51Z</time>
      </trkpt>
      <trkpt lat="41.40133294851577" lon="-81.74144246421166">
        <ele>265.7142087305</ele>
        <time>2026-08-23T15:25:27Z</time>
      </trkpt>
      <trkpt lat="41.40133069154837" lon="-81.74202721765478">
        <ele>265.4976836457</ele>
        <time>2026-08-23T15:25:59Z</time>
      </trkpt>
      <trkpt lat="41.40132601267685" lon="-81.74239163720519">
        <ele>264.5846555687</ele>
        <time>2026-08-23T15:26:24Z</time>
      </trkpt>
      <trkpt lat="41.40091327070023" lon="-81.74218265290150">
        <ele>265.3948550718</ele>
        <time>2026-08-23T15:27:03Z</time>
      </trkpt>
      <trkpt lat="41.40049087560064" lon="-81.74197111601922">
        <ele>265.2181983818</ele>
        <time>2026-08-23T15:27:37Z</time>
      </trkpt>
      <trkpt lat="41.40045243291893" lon="-81.74194077553265">
        <ele>265.5051971180</ele>
        <time>2026-08-23T15:27:41Z</time>
      </trkpt>
      <trkpt lat="41.40044592903710" lon="-81.74135378044764">
        <ele>266.0624208468</ele>
        <time>2026-08-23T15:28:12Z</time>
      </trkpt>
      <trkpt lat="41.40043755673211" lon="-81.74075573792658">
        <ele>266.4836638858</ele>
        <time>2026-08-23T15:28:55Z</time>
      </trkpt>
      <trkpt lat="41.40043269678354" lon="-81.74015356574040">
        <ele>266.6830626408</ele>
        <time>2026-08-23T15:29:41Z</time>
      </trkpt>
      <trkpt lat="41.40043459860592" lon="-81.73955438094323">
        <ele>266.9566480784</ele>
        <time>2026-08-23T15:30:21Z</time>
      </trkpt>
      <trkpt lat="41.40041970482881" lon="-81.73894753166311">
        <ele>267.0904495047</ele>
        <time>2026-08-23T15:30:56Z</time>
      </trkpt>
      <trkpt lat="41.40042682812653" lon="-81.73835805392274">
        <ele>267.3325655281</ele>
        <time>2026-08-23T15:31:38Z</time>
      </trkpt>
      <trkpt lat="41.40041984692888" lon="-81.73775464333637">
        <ele>267.4943487861</ele>
        <time>2026-08-23T15:32:18Z</time>
      </trkpt>
      <trkpt lat="41.40041249079555" lon="-81.73715080148163">
        <ele>267.8708048943</ele>
        <time>2026-08-23T15:33:00Z</time>
      </trkpt>
      <trkpt lat="41.40041325088863" lon="-81.73655688124566">
        <ele>267.9942970846</ele>
        <time>2026-08-23T15:33:45Z</time>
      </trkpt>
      <trkpt lat="41.40040524177758" lon="-81.73595490888441">
        <ele>267.8074956552</ele>
        <time>2026-08-23T15:34:18Z</time>
      </trkpt>
      <trkpt lat="41.40039910588902" lon="-81.73536020555919">
        <ele>267.8034966469</ele>
        <time>2026-08-23T15:34:52Z</time>
      </trkpt>
      <trkpt lat="41.40040268303945" lon="-81.73475493285430">
        <ele>267.4004884665</ele>
        <time>2026-08-23T15:35:43Z</time>
      </trkpt>
      <trkpt lat="41.40039560943807" lon="-81.73462999738354">
        <ele>267.2155535552</ele>
        <time>2026-08-23T15:35:51Z</time>
      </trkpt>
      <trkpt lat="41.40084251935757" lon="-81.73462561836162">
        <ele>267.5177487575</ele>
        <time>2026-08-23T15:36:24Z</time>
      </trkpt>
      <trkpt lat="41.40128773464006" lon="-81.73464060614022">
        <ele>267.4560970611</ele>
        <time>2026-08-23T15:37:08Z</time>
      </trkpt>
      <trkpt lat="41.40132088113634" lon="-81.73463079987413">
        <ele>267.3016049009</ele>
        <time>2026-08-23T15:37:11Z</time>
      </trkpt>
      <trkpt lat="41.40131703737380" lon="-81.73523557200690">
        <ele>268.0035688027</ele>
        <time>2026-08-23T15:37:55Z</time>
      </trkpt>
      <trkpt lat="41.40132458755929" lon="-81.73583099398974">
        <ele>268.0682683306</ele>
        <time>2026-08-23T15:38:41Z</time>
      </trkpt>
      <trkpt lat="41.40133171968993" lon="-81.73643942213782">
        <ele>267.8857504958</ele>
        <time>2026-08-23T15:39:28Z</time>
      </trkpt>
      <trkpt lat="41.40133186949187" lon="-81.73703065242250">
        <ele>267.9261024763</ele>
        <time>2026-08-23T15:40:13Z</time>
      </trkpt>
      <trkpt lat="41.40133569336742" lon="-81.73762791073815">
        <ele>267.9872314819</ele>
        <time>2026-08-23T15:40:53Z</time>
      </trkpt>
      <trkpt lat="41.40133906963176" lon="-81.73823114978578">
        <ele>267.6727691202</ele>
        <time>2026-08-23T15:41:30Z</time>
      </trkpt>
      <trkpt lat="41.40133968618608" lon="-81.73883932834823">
        <ele>267.4420939556</ele>
        <time>2026-08-23T15:42:09Z</time>
      </trkpt>
      <trkpt lat="41.40134538459741" lon="-81.73942691383577">
        <ele>267.2206243783</ele>
        <time>2026-08-23T15:42:54Z</time>
      </trkpt>
      <trkpt lat="41.40134737003394" lon="-81.74002149869591">
        <ele>266.6015747447</ele>
        <time>2026-08-23T15:43:45Z</time>
      </trkpt>
      <trkpt lat="41.40134752949865" lon="-81.74019379225535">
        <ele>266.6679820927</ele>
        <time>2026-08-23T15:43:56Z</time>
      </trkpt>
    </trkseg>
  </trk>
</gpx>