<?xml version='1.0' encoding='UTF-8'?>
<gpx xmlns="http://www.topografix.com/GPX/1/1" creator="https://gpx.studio" version="1.1">
  <metadata>
    <name>Dog Walk - 2026-02-27 #2</name>
  </metadata>
  <trk>
    <name>Dog Walk - 2026-02-27 #2</name>
    <type>dog walk</type>
    <trkseg>
      <trkpt lat="41.40134858611184" lon="-81.74022317145540">
        <ele>266.6529555837</ele>
        <time>2026-02-27T14:41:48Z</time>
      </trkpt>
      <trkpt lat="41.40134103492628" lon="-81.74082833136251">
        <ele>266.1282371317</ele>
        <time>2026-02-27T14:42:31Z</time>
      </trkpt>
      <trkpt lat="41.40133189699687" lon="-81.74142154641217">
        <ele>265.7542758065</ele>
        <time>2026-02-27T14:43:02Z</time>
      </trkpt>
      <trkpt lat="41.40132926546668" lon="-81.74203044372463">
        <ele>265.5353103117</ele>
        <time>2026-02-27T14:44:02Z</time>
      </trkpt>
      <trkpt lat="41.40133579242996" lon="-81.74238839065274">
        <ele>264.8367307009</ele>
        <time>2026-02-27T14:44:24Z</time>
      </trkpt>
      <trkpt lat="41.40091054967345" lon="-81.74216631547868">
        <ele>265.2378088195</ele>
        <time>2026-02-27T14:44:59Z</time>
      </trkpt>
      <trkpt lat="41.40048710707222" lon="-81.74197169012669">
        <ele>265.0108587312</ele>
        <time>2026-02-27T14:45:39Z</time>
      </trkpt>
      <trkpt lat="41.40045188222381" lon="-81.74194094562310">
        <ele>265.0352331011</ele>
        <time>2026-02-27T14:45:42Z</time>
      </trkpt>
      <trkpt lat="41.40044267337844" lon="-81.74135389438094">
        <ele>266.1513149687</ele>
        <time>2026-02-27T14:46:41Z</time>
      </trkpt>
      <trkpt lat="41.40044173747449" lon="-81.74074911579373">
        <ele>266.1758541458</ele>
        <time>2026-02-27T14:47:19Z</time>
      </trkpt>
      <trkpt lat="41.40043219812760" lon="-81.74015233982155">
        <ele>266.8372145482</ele>
        <time>2026-02-27T14:47:57Z</time>
      </trkpt>
      <trkpt lat="41.40042346917428" lon="-81.73956351572264">
        <ele>267.0566563256</ele>
        <time>2026-02-27T14:48:43Z</time>
      </trkpt>
      <trkpt lat="41.40042733459887" lon="-81.73895292686360">
        <ele>267.3353475858</ele>
        <time>2026-02-27T14:49:24Z</time>
      </trkpt>
      <trkpt lat="41.40042449387565" lon="-81.73835013519874">
        <ele>267.2109164092</ele>
        <time>2026-02-27T14:50:05Z</time>
      </trkpt>
      <trkpt lat="41.40041774243922" lon="-81.73775721394189">
        <ele>267.6968445622</ele>
        <time>2026-02-27T14:50:55Z</time>
      </trkpt>
      <trkpt lat="41.40041440028039" lon="-81.73716165827383">
        <ele>267.8731284408</ele>
        <time>2026-02-27T14:51:35Z</time>
      </trkpt>
      <trkpt lat="41.40041101022772" lon="-81.73654711368640">
        <ele>267.9210280250</ele>
        <time>2026-02-27T14:52:12Z</time>
      </trkpt>
      <trkpt lat="41.40040199945398" lon="-81.73595138900336">
        <ele>267.9942900643</ele>
        <time>2026-02-27T14:52:52Z</time>
      </trkpt>
      <trkpt lat="41.40040446725429" lon="-81.73535237552997">
        <ele>267.8103875525</ele>
        <time>2026-02-27T14:53:39Z</time>
      </trkpt>
      <trkpt lat="41.40039249392866" lon="-81.73476327980256">
        <ele>267.4908007165</ele>
        <time>2026-02-27T14:54:22Z</time>
      </trkpt>
      <trkpt lat="41.40039886249982" lon="-81.73463037226998">
        <ele>267.1928642584</ele>
        <time>2026-02-27T14:54:31Z</time>
      </trkpt>
      <trkpt lat="41.40084890322309" lon="-81.73463356876367">
        <ele>266.9377814514</ele>
        <time>2026-02-27T14:55:22Z</time>
      </trkpt>
      <trkpt lat="41.40129399962822" lon="-81.73462764403449">
        <ele>267.3292503554</ele>
        <time>2026-02-27T14:55:58Z</time>
      </trkpt>
      <trkpt lat="41.40132912698022" lon="-81.73462937490194">
        <ele>267.3622754914</ele>
        <time>2026-02-27T14:56:01Z</time>
      </trkpt>
      <trkpt lat="41.40132409321280" lon="-81.73523363794646">
        <ele>267.7458909554</ele>
        <time>2026-02-27T14:56:36Z</time>
      </trkpt>
      <trkpt lat="41.40132045883765" lon="-81.73583152552075">
        <ele>268.1756849984</ele>
        <time>2026-02-27T14:57:14Z</time>
      </trkpt>
      <trkpt lat="41.40132610389022" lon="-81.73642798586624">
        <ele>268.1756226423</ele>
        <time>2026-02-27T14:58:06Z</time>
      </trkpt>
      <trkpt lat="41.40132496397961" lon="-81.73702255717248">
        <ele>268.0024937097</ele>
        <time>2026-02-27T14:58:47Z</time>
      </trkpt>
      <trkpt lat="41.40133052861368" lon="-81.73763508861526">
        <ele>267.8292356346</ele>
        <time>2026-02-27T14:59:30Z</time>
      </trkpt>
      <trkpt lat="41.40133764721473" lon="-81.73823161345096">
        <ele>267.4228422822</ele>
        <time>2026-02-27T15:00:08Z</time>
      </trkpt>
      <trkpt lat="41.40134099261803" lon="-81.73882264398206">
        <ele>267.3874612543</ele>
        <time>2026-02-27T15:00:46Z</time>
      </trkpt>
      <trkpt lat="41.40134293903439" lon="-81.73943593297679">
        <ele>267.2899696605</ele>
        <time>2026-02-27T15:01:23Z</time>
      </trkpt>
      <trkpt lat="41.40133279899678" lon="-81.74002802361213">
        <ele>266.6483571192</ele>
        <time>2026-02-27T15:01:59Z</time>
      </trkpt>
      <trkpt lat="41.40134528300038" lon="-81.74018573959377">
        <ele>266.6843196616</ele>
        <time>2026-02-27T15:02:09Z</time>
      </trkpt>
    </trkseg>
  </trk>
</gpx>