<?xml version='1.0' encoding='UTF-8'?>
<gpx xmlns="http://www.topografix.com/GPX/1/1" creator="https://gpx.studio" version="1.1">
  <metadata>
    <name>Dog Walk - 2026-04-20 #3</name>
  </metadata>
  <trk>
    <name>Dog Walk - 2026-04-20 #3</name>
    <type>dog walk</type>
    <trkseg>
      <trkpt lat="41.40134323565560" lon="-81.74023033342584">
        <ele>266.3257699253</ele>
        <time>2026-04-20T14:43:20Z</time>
      </trkpt>
      <trkpt lat="41.40133289850175" lon="-81.74083073729311">
        <ele>266.1112062362</ele>
        <time>2026-04-20T14:44:00Z</time>
      </trkpt>
      <trkpt lat="41.40133377136817" lon="-81.74143322337221">
        <ele>265.8867199702</ele>
        <time>2026-04-20T14:44:35Z</time>
      </trkpt>
      <trkpt lat="41.40133242442771" lon="-81.74203664439179">
        <ele>265.2570407959</ele>
        <time>2026-04-20T14:45:10Z</time>
      </trkpt>
      <trkpt lat="41.40133509057570" lon="-81.74240225412130">
        <ele>264.8930302933</ele>
        <time>2026-04-20T14:45:35Z</time>
      </trkpt>
      <trkpt lat="41.40090674566363" lon="-81.74217772656132">
        <ele>265.0447400748</ele>
        <time>2026-04-20T14:46:15Z</time>
      </trkpt>
      <trkpt lat="41.40049014389797" lon="-81.74196736108570">
        <ele>265.0275609245</ele>
        <time>2026-04-20T14:46:54Z</time>
      </trkpt>
      <trkpt lat="41.40045536703486" lon="-81.74195520384541">
        <ele>265.1743892226</ele>
        <time>2026-04-20T14:46:57Z</time>
      </trkpt>
      <trkpt lat="41.40045118006332" lon="-81.74135056131226">
        <ele>265.9534910334</ele>
        <time>2026-04-20T14:47:40Z</time>
      </trkpt>
      <trkpt lat="41.40043114368484" lon="-81.74074327926368">
        <ele>266.2791594112</ele>
        <time>2026-04-20T14:48:17Z</time>
      </trkpt>
      <trkpt lat="41.40043707243810" lon="-81.74015739480883">
        <ele>266.7982909428</ele>
        <time>2026-04-20T14:48:50Z</time>
      </trkpt>
      <trkpt lat="41.40043826277209" lon="-81.73955353582112">
        <ele>266.9343307033</ele>
        <time>2026-04-20T14:49:37Z</time>
      </trkpt>
      <trkpt lat="41.40042148662166" lon="-81.73894430645112">
        <ele>267.0016650625</ele>
        <time>2026-04-20T14:50:18Z</time>
      </trkpt>
      <trkpt lat="41.40042366838298" lon="-81.73835584974901">
        <ele>267.4005409848</ele>
        <time>2026-04-20T14:50:58Z</time>
      </trkpt>
      <trkpt lat="41.40041880924188" lon="-81.73775742455335">
        <ele>267.5112766822</ele>
        <time>2026-04-20T14:51:43Z</time>
      </trkpt>
      <trkpt lat="41.40042457680948" lon="-81.73715984392665">
        <ele>268.1316113797</ele>
        <time>2026-04-20T14:52:11Z</time>
      </trkpt>
      <trkpt lat="41.40040755866254" lon="-81.73655145549556">
        <ele>267.9906191287</ele>
        <time>2026-04-20T14:52:46Z</time>
      </trkpt>
      <trkpt lat="41.40040416650977" lon="-81.73595079960131">
        <ele>267.8766297442</ele>
        <time>2026-04-20T14:53:20Z</time>
      </trkpt>
      <trkpt lat="41.40040106826982" lon="-81.73535398578728">
        <ele>268.1040741470</ele>
        <time>2026-04-20T14:53:55Z</time>
      </trkpt>
      <trkpt lat="41.40039618147087" lon="-81.73475724877117">
        <ele>267.3188671129</ele>
        <time>2026-04-20T14:54:42Z</time>
      </trkpt>
      <trkpt lat="41.40039527426019" lon="-81.73462340516024">
        <ele>267.2163678357</ele>
        <time>2026-04-20T14:54:50Z</time>
      </trkpt>
      <trkpt lat="41.40084712313929" lon="-81.73463193431076">
        <ele>267.2422180886</ele>
        <time>2026-04-20T14:55:34Z</time>
      </trkpt>
      <trkpt lat="41.40128969133041" lon="-81.73463787560952">
        <ele>267.3792029449</ele>
        <time>2026-04-20T14:56:15Z</time>
      </trkpt>
      <trkpt lat="41.40131609803537" lon="-81.73464413086991">
        <ele>267.2244004682</ele>
        <time>2026-04-20T14:56:18Z</time>
      </trkpt>
      <trkpt lat="41.40132878609071" lon="-81.73523208604320">
        <ele>267.9570795296</ele>
        <time>2026-04-20T14:56:56Z</time>
      </trkpt>
      <trkpt lat="41.40132257793743" lon="-81.73583199940327">
        <ele>268.3314268873</ele>
        <time>2026-04-20T14:57:33Z</time>
      </trkpt>
      <trkpt lat="41.40133189957330" lon="-81.73643791313901">
        <ele>268.0933932243</ele>
        <time>2026-04-20T14:58:12Z</time>
      </trkpt>
      <trkpt lat="41.40131953299026" lon="-81.73702214468855">
        <ele>268.0952551076</ele>
        <time>2026-04-20T14:59:06Z</time>
      </trkpt>
      <trkpt lat="41.40132885951680" lon="-81.73763465222056">
        <ele>267.7713434895</ele>
        <time>2026-04-20T14:59:45Z</time>
      </trkpt>
      <trkpt lat="41.40134100810960" lon="-81.73822175623283">
        <ele>267.5867698038</ele>
        <time>2026-04-20T15:00:23Z</time>
      </trkpt>
      <trkpt lat="41.40133276103127" lon="-81.73883064112202">
        <ele>267.2873325753</ele>
        <time>2026-04-20T15:01:06Z</time>
      </trkpt>
      <trkpt lat="41.40134236530560" lon="-81.73942518039078">
        <ele>267.3160276099</ele>
        <time>2026-04-20T15:01:42Z</time>
      </trkpt>
      <trkpt lat="41.40133914098791" lon="-81.74002930228458">
        <ele>266.5625299013</ele>
        <time>2026-04-20T15:02:29Z</time>
      </trkpt>
      <trkpt lat="41.40134775598903" lon="-81.74019372381852">
        <ele>266.5422274222</ele>
        <time>2026-04-20T15:02:40Z</time>
      </trkpt>
    </trkseg>
  </trk>
</gpx>