<?xml version='1.0' encoding='UTF-8'?>
<gpx xmlns="http://www.topografix.com/GPX/1/1" creator="https://gpx.studio" version="1.1">
  <metadata>
    <name>Dog Walk - 2026-03-12 #4</name>
  </metadata>
  <trk>
    <name>Dog Walk - 2026-03-12 #4</name>
    <type>dog walk</type>
    <trkseg>
      <trkpt lat="41.40133211046637" lon="-81.74023222919476">
        <ele>266.5003542702</ele>
        <time>2026-03-12T18:26:43Z</time>
      </trkpt>
      <trkpt lat="41.40134339302480" lon="-81.74081985597726">
        <ele>266.2047330512</ele>
        <time>2026-03-12T18:27:22Z</time>
      </trkpt>
      <trkpt lat="41.40133841670904" lon="-81.74142328464046">
        <ele>265.6716680096</ele>
        <time>2026-03-12T18:28:06Z</time>
      </trkpt>
      <trkpt lat="41.40135069620197" lon="-81.74203455242110">
        <ele>265.3294230241</ele>
        <time>2026-03-12T18:28:50Z</time>
      </trkpt>
      <trkpt lat="41.40134627651590" lon="-81.74241561205119">
        <ele>264.8377933363</ele>
        <time>2026-03-12T18:29:12Z</time>
      </trkpt>
      <trkpt lat="41.40176688390925" lon="-81.74262574380478">
        <ele>264.5335896587</ele>
        <time>2026-03-12T18:29:52Z</time>
      </trkpt>
      <trkpt lat="41.40217842877963" lon="-81.74283966780843">
        <ele>263.4391477858</ele>
        <time>2026-03-12T18:30:27Z</time>
      </trkpt>
      <trkpt lat="41.40261121342790" lon="-81.74305257502293">
        <ele>263.1194216574</ele>
        <time>2026-03-12T18:31:09Z</time>
      </trkpt>
      <trkpt lat="41.40302935914080" lon="-81.74327218566860">
        <ele>262.4727034146</ele>
        <time>2026-03-12T18:31:52Z</time>
      </trkpt>
      <trkpt lat="41.40344878512161" lon="-81.74347234853497">
        <ele>261.9812254222</ele>
        <time>2026-03-12T18:32:31Z</time>
      </trkpt>
      <trkpt lat="41.40348725602579" lon="-81.74350499487650">
        <ele>261.7515916697</ele>
        <time>2026-03-12T18:32:41Z</time>
      </trkpt>
      <trkpt lat="41.40360368909063" lon="-81.74351954481116">
        <ele>261.7342862796</ele>
        <time>2026-03-12T18:32:51Z</time>
      </trkpt>
      <trkpt lat="41.40399251402486" lon="-81.74351282390839">
        <ele>260.6862938436</ele>
        <time>2026-03-12T18:33:24Z</time>
      </trkpt>
      <trkpt lat="41.40399808083784" lon="-81.74290429138226">
        <ele>261.4770377162</ele>
        <time>2026-03-12T18:34:03Z</time>
      </trkpt>
      <trkpt lat="41.40398998658185" lon="-81.74231312985980">
        <ele>262.1083961201</ele>
        <time>2026-03-12T18:34:47Z</time>
      </trkpt>
      <trkpt lat="41.40399643490530" lon="-81.74170265745397">
        <ele>262.4102704834</ele>
        <time>2026-03-12T18:35:24Z</time>
      </trkpt>
      <trkpt lat="41.40398615498625" lon="-81.74110912431873">
        <ele>263.0621311506</ele>
        <time>2026-03-12T18:36:13Z</time>
      </trkpt>
      <trkpt lat="41.40398770088569" lon="-81.74051308502195">
        <ele>263.6830278310</ele>
        <time>2026-03-12T18:36:47Z</time>
      </trkpt>
      <trkpt lat="41.40398968777063" lon="-81.73991596094029">
        <ele>264.3839704851</ele>
        <time>2026-03-12T18:37:25Z</time>
      </trkpt>
      <trkpt lat="41.40398713130073" lon="-81.73931321472547">
        <ele>264.9835275936</ele>
        <time>2026-03-12T18:38:09Z</time>
      </trkpt>
      <trkpt lat="41.40398504409442" lon="-81.73877610725502">
        <ele>265.6642892509</ele>
        <time>2026-03-12T18:38:50Z</time>
      </trkpt>
      <trkpt lat="41.40354157573325" lon="-81.73877464504662">
        <ele>265.9515425082</ele>
        <time>2026-03-12T18:39:31Z</time>
      </trkpt>
      <trkpt lat="41.40308853553118" lon="-81.73876980090324">
        <ele>266.2198573330</ele>
        <time>2026-03-12T18:40:01Z</time>
      </trkpt>
      <trkpt lat="41.40264072829526" lon="-81.73877192865194">
        <ele>266.8396813389</ele>
        <time>2026-03-12T18:40:44Z</time>
      </trkpt>
      <trkpt lat="41.40222828647994" lon="-81.73877009710154">
        <ele>267.1295185725</ele>
        <time>2026-03-12T18:41:15Z</time>
      </trkpt>
      <trkpt lat="41.40221826314479" lon="-81.73827359275722">
        <ele>266.8654463699</ele>
        <time>2026-03-12T18:41:57Z</time>
      </trkpt>
      <trkpt lat="41.40176885810482" lon="-81.73827495045860">
        <ele>267.7545104752</ele>
        <time>2026-03-12T18:43:08Z</time>
      </trkpt>
      <trkpt lat="41.40132612689671" lon="-81.73826691421010">
        <ele>267.6303406427</ele>
        <time>2026-03-12T18:43:50Z</time>
      </trkpt>
      <trkpt lat="41.40132170844665" lon="-81.73885809014983">
        <ele>267.3190185901</ele>
        <time>2026-03-12T18:44:52Z</time>
      </trkpt>
      <trkpt lat="41.40133298578771" lon="-81.73946053511173">
        <ele>267.2033922704</ele>
        <time>2026-03-12T18:45:29Z</time>
      </trkpt>
      <trkpt lat="41.40134004768842" lon="-81.74006084127322">
        <ele>266.7367058764</ele>
        <time>2026-03-12T18:46:07Z</time>
      </trkpt>
      <trkpt lat="41.40133506488708" lon="-81.74021190247069">
        <ele>266.5903812048</ele>
        <time>2026-03-12T18:46:15Z</time>
      </trkpt>
    </trkseg>
  </trk>
</gpx>