<?xml version='1.0' encoding='UTF-8'?>
<gpx xmlns="http://www.topografix.com/GPX/1/1" creator="https://gpx.studio" version="1.1">
  <metadata>
    <name>Dog Walk - 2026-06-17 #4</name>
  </metadata>
  <trk>
    <name>Dog Walk - 2026-06-17 #4</name>
    <type>dog walk</type>
    <trkseg>
      <trkpt lat="41.40132927590795" lon="-81.74023929089911">
        <ele>266.4952154624</ele>
        <time>2026-06-17T20:24:21Z</time>
      </trkpt>
      <trkpt lat="41.40133716788248" lon="-81.74084468226599">
        <ele>266.1475148265</ele>
        <time>2026-06-17T20:25:06Z</time>
      </trkpt>
      <trkpt lat="41.40132254229866" lon="-81.74144293280102">
        <ele>265.8447658610</ele>
        <time>2026-06-17T20:25:43Z</time>
      </trkpt>
      <trkpt lat="41.40132794481356" lon="-81.74204085087401">
        <ele>265.2750869610</ele>
        <time>2026-06-17T20:26:28Z</time>
      </trkpt>
      <trkpt lat="41.40132732441244" lon="-81.74239206557853">
        <ele>264.8311118499</ele>
        <time>2026-06-17T20:26:53Z</time>
      </trkpt>
      <trkpt lat="41.40089664499263" lon="-81.74219851674455">
        <ele>265.1348839219</ele>
        <time>2026-06-17T20:27:43Z</time>
      </trkpt>
      <trkpt lat="41.40047438602434" lon="-81.74200459286243">
        <ele>265.2550214135</ele>
        <time>2026-06-17T20:28:28Z</time>
      </trkpt>
      <trkpt lat="41.40005006444110" lon="-81.74181010314753">
        <ele>265.2537294203</ele>
        <time>2026-06-17T20:29:07Z</time>
      </trkpt>
      <trkpt lat="41.39962865232701" lon="-81.74161552308351">
        <ele>264.9899810976</ele>
        <time>2026-06-17T20:29:46Z</time>
      </trkpt>
      <trkpt lat="41.39953749927489" lon="-81.74156793554944">
        <ele>264.7973067063</ele>
        <time>2026-06-17T20:29:53Z</time>
      </trkpt>
      <trkpt lat="41.39952782198750" lon="-81.74098150385113">
        <ele>265.5616257224</ele>
        <time>2026-06-17T20:30:28Z</time>
      </trkpt>
      <trkpt lat="41.39953451183940" lon="-81.74036916302163">
        <ele>266.2560084704</ele>
        <time>2026-06-17T20:31:16Z</time>
      </trkpt>
      <trkpt lat="41.39953795809368" lon="-81.73976708369815">
        <ele>266.9805132451</ele>
        <time>2026-06-17T20:32:05Z</time>
      </trkpt>
      <trkpt lat="41.39953252930525" lon="-81.73917330832030">
        <ele>266.8754620256</ele>
        <time>2026-06-17T20:32:46Z</time>
      </trkpt>
      <trkpt lat="41.39953286029731" lon="-81.73857913464919">
        <ele>266.9611915520</ele>
        <time>2026-06-17T20:33:22Z</time>
      </trkpt>
      <trkpt lat="41.39952704565518" lon="-81.73797417846666">
        <ele>267.1398888419</ele>
        <time>2026-06-17T20:33:59Z</time>
      </trkpt>
      <trkpt lat="41.39952823260172" lon="-81.73737125116617">
        <ele>267.3098769049</ele>
        <time>2026-06-17T20:34:33Z</time>
      </trkpt>
      <trkpt lat="41.39953045885411" lon="-81.73677360887177">
        <ele>267.3679414130</ele>
        <time>2026-06-17T20:35:16Z</time>
      </trkpt>
      <trkpt lat="41.39953049319859" lon="-81.73617642592286">
        <ele>267.4569354302</ele>
        <time>2026-06-17T20:35:59Z</time>
      </trkpt>
      <trkpt lat="41.39952647382869" lon="-81.73558485766574">
        <ele>267.3049278319</ele>
        <time>2026-06-17T20:36:43Z</time>
      </trkpt>
      <trkpt lat="41.39952923982019" lon="-81.73498164026590">
        <ele>267.0524036973</ele>
        <time>2026-06-17T20:37:19Z</time>
      </trkpt>
      <trkpt lat="41.39952220197533" lon="-81.73462143589326">
        <ele>267.1997857192</ele>
        <time>2026-06-17T20:37:40Z</time>
      </trkpt>
      <trkpt lat="41.39997036621234" lon="-81.73462682709260">
        <ele>267.0047458596</ele>
        <time>2026-06-17T20:38:39Z</time>
      </trkpt>
      <trkpt lat="41.40043035950043" lon="-81.73462698545669">
        <ele>267.2819485138</ele>
        <time>2026-06-17T20:39:22Z</time>
      </trkpt>
      <trkpt lat="41.40087858890198" lon="-81.73463421072641">
        <ele>267.3670339364</ele>
        <time>2026-06-17T20:39:53Z</time>
      </trkpt>
      <trkpt lat="41.40132342938858" lon="-81.73463659200104">
        <ele>267.1983546581</ele>
        <time>2026-06-17T20:40:25Z</time>
      </trkpt>
      <trkpt lat="41.40132878339703" lon="-81.73524475167210">
        <ele>267.8939464800</ele>
        <time>2026-06-17T20:41:05Z</time>
      </trkpt>
      <trkpt lat="41.40131931466269" lon="-81.73583798877017">
        <ele>268.4056364155</ele>
        <time>2026-06-17T20:41:52Z</time>
      </trkpt>
      <trkpt lat="41.40132622989968" lon="-81.73644632381746">
        <ele>268.3123411839</ele>
        <time>2026-06-17T20:42:26Z</time>
      </trkpt>
      <trkpt lat="41.40131954194790" lon="-81.73703843583793">
        <ele>267.7844116837</ele>
        <time>2026-06-17T20:43:19Z</time>
      </trkpt>
      <trkpt lat="41.40133438726897" lon="-81.73764500162332">
        <ele>267.7860424401</ele>
        <time>2026-06-17T20:44:07Z</time>
      </trkpt>
      <trkpt lat="41.40132280009414" lon="-81.73823831712807">
        <ele>267.4878701054</ele>
        <time>2026-06-17T20:44:42Z</time>
      </trkpt>
      <trkpt lat="41.40133267284084" lon="-81.73882558452722">
        <ele>267.2798224016</ele>
        <time>2026-06-17T20:45:30Z</time>
      </trkpt>
      <trkpt lat="41.40133346590866" lon="-81.73943506344405">
        <ele>267.1145673779</ele>
        <time>2026-06-17T20:46:10Z</time>
      </trkpt>
      <trkpt lat="41.40133667092938" lon="-81.74003819867933">
        <ele>266.6447263771</ele>
        <time>2026-06-17T20:46:40Z</time>
      </trkpt>
      <trkpt lat="41.40133250416280" lon="-81.74021378752960">
        <ele>266.5552441806</ele>
        <time>2026-06-17T20:46:53Z</time>
      </trkpt>
    </trkseg>
  </trk>
</gpx>