<?xml version='1.0' encoding='UTF-8'?>
<gpx xmlns="http://www.topografix.com/GPX/1/1" creator="https://gpx.studio" version="1.1">
  <metadata>
    <name>Dog Walk - 2026-03-08 #5</name>
  </metadata>
  <trk>
    <name>Dog Walk - 2026-03-08 #5</name>
    <type>dog walk</type>
    <trkseg>
      <trkpt lat="41.40134410500365" lon="-81.74024161838787">
        <ele>266.5363633899</ele>
        <time>2026-03-08T19:01:44Z</time>
      </trkpt>
      <trkpt lat="41.40134424757583" lon="-81.74083223865848">
        <ele>266.2454899346</ele>
        <time>2026-03-08T19:02:28Z</time>
      </trkpt>
      <trkpt lat="41.40133979046181" lon="-81.74142610493637">
        <ele>265.6300478098</ele>
        <time>2026-03-08T19:03:26Z</time>
      </trkpt>
      <trkpt lat="41.40135448949400" lon="-81.74203846423032">
        <ele>265.2843750214</ele>
        <time>2026-03-08T19:04:11Z</time>
      </trkpt>
      <trkpt lat="41.40135184323560" lon="-81.74241778023577">
        <ele>264.6270295750</ele>
        <time>2026-03-08T19:04:44Z</time>
      </trkpt>
      <trkpt lat="41.40177648917479" lon="-81.74264255854484">
        <ele>264.1709960889</ele>
        <time>2026-03-08T19:05:31Z</time>
      </trkpt>
      <trkpt lat="41.40218177056505" lon="-81.74285113198665">
        <ele>263.6607218117</ele>
        <time>2026-03-08T19:06:11Z</time>
      </trkpt>
      <trkpt lat="41.40220515527531" lon="-81.74286398698480">
        <ele>263.4310312888</ele>
        <time>2026-03-08T19:06:13Z</time>
      </trkpt>
      <trkpt lat="41.40221567431156" lon="-81.74226477698464">
        <ele>264.1284514658</ele>
        <time>2026-03-08T19:06:55Z</time>
      </trkpt>
      <trkpt lat="41.40222320975870" lon="-81.74166875111402">
        <ele>264.5253698813</ele>
        <time>2026-03-08T19:07:36Z</time>
      </trkpt>
      <trkpt lat="41.40221087227447" lon="-81.74106698029468">
        <ele>265.2387017482</ele>
        <time>2026-03-08T19:08:07Z</time>
      </trkpt>
      <trkpt lat="41.40221170472601" lon="-81.74046938041336">
        <ele>265.8829038185</ele>
        <time>2026-03-08T19:08:48Z</time>
      </trkpt>
      <trkpt lat="41.40221827379602" lon="-81.73987320337169">
        <ele>266.2358281750</ele>
        <time>2026-03-08T19:09:26Z</time>
      </trkpt>
      <trkpt lat="41.40222248209705" lon="-81.73927385245781">
        <ele>266.8926868891</ele>
        <time>2026-03-08T19:10:00Z</time>
      </trkpt>
      <trkpt lat="41.40221507619195" lon="-81.73867760337851">
        <ele>267.2492435062</ele>
        <time>2026-03-08T19:10:54Z</time>
      </trkpt>
      <trkpt lat="41.40222126566574" lon="-81.73827004445369">
        <ele>267.0978685625</ele>
        <time>2026-03-08T19:11:23Z</time>
      </trkpt>
      <trkpt lat="41.40176797133292" lon="-81.73826103633068">
        <ele>267.9105550019</ele>
        <time>2026-03-08T19:11:56Z</time>
      </trkpt>
      <trkpt lat="41.40133684891683" lon="-81.73826830980884">
        <ele>267.6429818148</ele>
        <time>2026-03-08T19:12:35Z</time>
      </trkpt>
      <trkpt lat="41.40133662661235" lon="-81.73885850321344">
        <ele>267.3892151647</ele>
        <time>2026-03-08T19:13:11Z</time>
      </trkpt>
      <trkpt lat="41.40134213803783" lon="-81.73945877618979">
        <ele>267.3592153928</ele>
        <time>2026-03-08T19:13:42Z</time>
      </trkpt>
      <trkpt lat="41.40133832161391" lon="-81.74006540094366">
        <ele>266.6356541234</ele>
        <time>2026-03-08T19:14:34Z</time>
      </trkpt>
      <trkpt lat="41.40133225753866" lon="-81.74019009959792">
        <ele>266.5666405679</ele>
        <time>2026-03-08T19:14:43Z</time>
      </trkpt>
    </trkseg>
  </trk>
</gpx>