<?xml version='1.0' encoding='UTF-8'?>
<gpx xmlns="http://www.topografix.com/GPX/1/1" creator="https://gpx.studio" version="1.1">
  <metadata>
    <name>Dog Walk - 2026-08-08 #3</name>
  </metadata>
  <trk>
    <name>Dog Walk - 2026-08-08 #3</name>
    <type>dog walk</type>
    <trkseg>
      <trkpt lat="41.40134748095276" lon="-81.74022908695477">
        <ele>266.5656923183</ele>
        <time>2026-08-08T14:38:17Z</time>
      </trkpt>
      <trkpt lat="41.40134525328153" lon="-81.74082954117701">
        <ele>266.5181863125</ele>
        <time>2026-08-08T14:39:09Z</time>
      </trkpt>
      <trkpt lat="41.40133025674184" lon="-81.74142836092329">
        <ele>265.7734145599</ele>
        <time>2026-08-08T14:39:49Z</time>
      </trkpt>
      <trkpt lat="41.40132867277112" lon="-81.74202987431600">
        <ele>265.0860427014</ele>
        <time>2026-08-08T14:40:25Z</time>
      </trkpt>
      <trkpt lat="41.40133003985958" lon="-81.74237051999373">
        <ele>264.6327707433</ele>
        <time>2026-08-08T14:40:50Z</time>
      </trkpt>
      <trkpt lat="41.40091272409718" lon="-81.74217317305016">
        <ele>265.1754469324</ele>
        <time>2026-08-08T14:41:34Z</time>
      </trkpt>
      <trkpt lat="41.40048731123819" lon="-81.74197137189962">
        <ele>265.2231534458</ele>
        <time>2026-08-08T14:42:05Z</time>
      </trkpt>
      <trkpt lat="41.40044708973221" lon="-81.74194186046515">
        <ele>265.3396048426</ele>
        <time>2026-08-08T14:42:09Z</time>
      </trkpt>
      <trkpt lat="41.40044590220248" lon="-81.74134472287365">
        <ele>266.0153525024</ele>
        <time>2026-08-08T14:42:43Z</time>
      </trkpt>
      <trkpt lat="41.40043894474170" lon="-81.74075467333601">
        <ele>266.4003121248</ele>
        <time>2026-08-08T14:43:40Z</time>
      </trkpt>
      <trkpt lat="41.40044449264742" lon="-81.74015466542824">
        <ele>266.8338502394</ele>
        <time>2026-08-08T14:44:21Z</time>
      </trkpt>
      <trkpt lat="41.40043265594620" lon="-81.73955403740099">
        <ele>266.8786218143</ele>
        <time>2026-08-08T14:45:02Z</time>
      </trkpt>
      <trkpt lat="41.40042892639661" lon="-81.73895206138423">
        <ele>267.1744766845</ele>
        <time>2026-08-08T14:45:55Z</time>
      </trkpt>
      <trkpt lat="41.40042116715199" lon="-81.73835213635911">
        <ele>267.4109408282</ele>
        <time>2026-08-08T14:46:31Z</time>
      </trkpt>
      <trkpt lat="41.40041729189225" lon="-81.73775298609944">
        <ele>267.7673335788</ele>
        <time>2026-08-08T14:47:21Z</time>
      </trkpt>
      <trkpt lat="41.40041840362181" lon="-81.73715440701605">
        <ele>268.0025831584</ele>
        <time>2026-08-08T14:47:53Z</time>
      </trkpt>
      <trkpt lat="41.40041003219958" lon="-81.73655089771356">
        <ele>268.1962413228</ele>
        <time>2026-08-08T14:48:22Z</time>
      </trkpt>
      <trkpt lat="41.40040571008480" lon="-81.73595906574701">
        <ele>268.1189805431</ele>
        <time>2026-08-08T14:48:56Z</time>
      </trkpt>
      <trkpt lat="41.40040187011601" lon="-81.73535689637848">
        <ele>267.7146053453</ele>
        <time>2026-08-08T14:49:46Z</time>
      </trkpt>
      <trkpt lat="41.40039363781981" lon="-81.73475667359126">
        <ele>267.3212605536</ele>
        <time>2026-08-08T14:50:37Z</time>
      </trkpt>
      <trkpt lat="41.40039134213207" lon="-81.73463164544916">
        <ele>267.3733951072</ele>
        <time>2026-08-08T14:50:45Z</time>
      </trkpt>
      <trkpt lat="41.40084584692740" lon="-81.73464036699653">
        <ele>267.2305682796</ele>
        <time>2026-08-08T14:51:30Z</time>
      </trkpt>
      <trkpt lat="41.40128885943913" lon="-81.73463845782609">
        <ele>267.4028526670</ele>
        <time>2026-08-08T14:52:16Z</time>
      </trkpt>
      <trkpt lat="41.40133181092204" lon="-81.73463193330912">
        <ele>267.2022292356</ele>
        <time>2026-08-08T14:52:32Z</time>
      </trkpt>
      <trkpt lat="41.40131991667044" lon="-81.73522853699299">
        <ele>267.9435501771</ele>
        <time>2026-08-08T14:53:11Z</time>
      </trkpt>
      <trkpt lat="41.40132670986040" lon="-81.73583731102030">
        <ele>268.1576316436</ele>
        <time>2026-08-08T14:53:46Z</time>
      </trkpt>
      <trkpt lat="41.40132225002751" lon="-81.73643444623291">
        <ele>267.9808778639</ele>
        <time>2026-08-08T14:54:20Z</time>
      </trkpt>
      <trkpt lat="41.40132599323442" lon="-81.73702914000299">
        <ele>268.0863443143</ele>
        <time>2026-08-08T14:55:02Z</time>
      </trkpt>
      <trkpt lat="41.40133110004175" lon="-81.73762818841533">
        <ele>268.0508470565</ele>
        <time>2026-08-08T14:55:37Z</time>
      </trkpt>
      <trkpt lat="41.40133517803413" lon="-81.73823423828797">
        <ele>267.5823085732</ele>
        <time>2026-08-08T14:56:23Z</time>
      </trkpt>
      <trkpt lat="41.40133736158203" lon="-81.73882702040649">
        <ele>267.4833456423</ele>
        <time>2026-08-08T14:57:11Z</time>
      </trkpt>
      <trkpt lat="41.40134385327795" lon="-81.73943709143572">
        <ele>267.3157482446</ele>
        <time>2026-08-08T14:57:50Z</time>
      </trkpt>
      <trkpt lat="41.40135448527036" lon="-81.74003400624552">
        <ele>266.5742600391</ele>
        <time>2026-08-08T14:58:30Z</time>
      </trkpt>
      <trkpt lat="41.40134705233337" lon="-81.74019498892892">
        <ele>266.4348381485</ele>
        <time>2026-08-08T14:58:41Z</time>
      </trkpt>
    </trkseg>
  </trk>
</gpx>