<?xml version='1.0' encoding='UTF-8'?>
<gpx xmlns="http://www.topografix.com/GPX/1/1" creator="https://gpx.studio" version="1.1">
  <metadata>
    <name>Dog Walk - 2026-08-02 #2</name>
  </metadata>
  <trk>
    <name>Dog Walk - 2026-08-02 #2</name>
    <type>dog walk</type>
    <trkseg>
      <trkpt lat="41.40134166536196" lon="-81.74024228029987">
        <ele>266.5221208861</ele>
        <time>2026-08-02T14:02:06Z</time>
      </trkpt>
      <trkpt lat="41.40133740973874" lon="-81.74083512674751">
        <ele>266.0875599571</ele>
        <time>2026-08-02T14:02:43Z</time>
      </trkpt>
      <trkpt lat="41.40133970812484" lon="-81.74143922299241">
        <ele>265.7906673757</ele>
        <time>2026-08-02T14:03:19Z</time>
      </trkpt>
      <trkpt lat="41.40134957616002" lon="-81.74203713762830">
        <ele>265.1540154645</ele>
        <time>2026-08-02T14:04:01Z</time>
      </trkpt>
      <trkpt lat="41.40134257378400" lon="-81.74241877823441">
        <ele>264.6302246382</ele>
        <time>2026-08-02T14:04:33Z</time>
      </trkpt>
      <trkpt lat="41.40177494165201" lon="-81.74261997656103">
        <ele>264.2715274771</ele>
        <time>2026-08-02T14:05:14Z</time>
      </trkpt>
      <trkpt lat="41.40219236749163" lon="-81.74281988406491">
        <ele>263.3966386702</ele>
        <time>2026-08-02T14:05:53Z</time>
      </trkpt>
      <trkpt lat="41.40261797201604" lon="-81.74302240529045">
        <ele>263.1060652374</ele>
        <time>2026-08-02T14:06:33Z</time>
      </trkpt>
      <trkpt lat="41.40303602854584" lon="-81.74321802352438">
        <ele>262.3922495114</ele>
        <time>2026-08-02T14:07:07Z</time>
      </trkpt>
      <trkpt lat="41.40311531491624" lon="-81.74324855092792">
        <ele>262.2006773683</ele>
        <time>2026-08-02T14:07:17Z</time>
      </trkpt>
      <trkpt lat="41.40311955680527" lon="-81.74264819775281">
        <ele>262.9366109635</ele>
        <time>2026-08-02T14:08:01Z</time>
      </trkpt>
      <trkpt lat="41.40310896246662" lon="-81.74204777595202">
        <ele>263.8738406836</ele>
        <time>2026-08-02T14:08:43Z</time>
      </trkpt>
      <trkpt lat="41.40311293137215" lon="-81.74145829657283">
        <ele>264.2737932573</ele>
        <time>2026-08-02T14:09:21Z</time>
      </trkpt>
      <trkpt lat="41.40310399745038" lon="-81.74085586869739">
        <ele>264.5172270178</ele>
        <time>2026-08-02T14:09:54Z</time>
      </trkpt>
      <trkpt lat="41.40310629575388" lon="-81.74026020975930">
        <ele>265.6214810523</ele>
        <time>2026-08-02T14:10:49Z</time>
      </trkpt>
      <trkpt lat="41.40310690951502" lon="-81.73965677306307">
        <ele>265.9359700074</ele>
        <time>2026-08-02T14:11:26Z</time>
      </trkpt>
      <trkpt lat="41.40309840299329" lon="-81.73906411210049">
        <ele>266.1251119457</ele>
        <time>2026-08-02T14:12:05Z</time>
      </trkpt>
      <trkpt lat="41.40310153219311" lon="-81.73879125002986">
        <ele>266.0349130964</ele>
        <time>2026-08-02T14:12:23Z</time>
      </trkpt>
      <trkpt lat="41.40264483858447" lon="-81.73877867060811">
        <ele>266.8553078580</ele>
        <time>2026-08-02T14:13:03Z</time>
      </trkpt>
      <trkpt lat="41.40223284204458" lon="-81.73879004025605">
        <ele>267.0974767096</ele>
        <time>2026-08-02T14:13:40Z</time>
      </trkpt>
      <trkpt lat="41.40223437194762" lon="-81.73817163728937">
        <ele>267.2466466649</ele>
        <time>2026-08-02T14:14:24Z</time>
      </trkpt>
      <trkpt lat="41.40223236346768" lon="-81.73757684982510">
        <ele>267.0490555010</ele>
        <time>2026-08-02T14:15:08Z</time>
      </trkpt>
      <trkpt lat="41.40222853055277" lon="-81.73697478090511">
        <ele>267.4247303642</ele>
        <time>2026-08-02T14:15:50Z</time>
      </trkpt>
      <trkpt lat="41.40222574037514" lon="-81.73638232119905">
        <ele>267.1796055328</ele>
        <time>2026-08-02T14:16:37Z</time>
      </trkpt>
      <trkpt lat="41.40222923688411" lon="-81.73578756136736">
        <ele>267.1104173360</ele>
        <time>2026-08-02T14:17:16Z</time>
      </trkpt>
      <trkpt lat="41.40223318879838" lon="-81.73519361037826">
        <ele>267.3063330059</ele>
        <time>2026-08-02T14:17:56Z</time>
      </trkpt>
      <trkpt lat="41.40222910662990" lon="-81.73465267377576">
        <ele>266.8902194260</ele>
        <time>2026-08-02T14:18:32Z</time>
      </trkpt>
      <trkpt lat="41.40177993576399" lon="-81.73464773085827">
        <ele>267.2799745179</ele>
        <time>2026-08-02T14:19:14Z</time>
      </trkpt>
      <trkpt lat="41.40132377431360" lon="-81.73462814060365">
        <ele>267.3930577291</ele>
        <time>2026-08-02T14:19:59Z</time>
      </trkpt>
      <trkpt lat="41.40132057328074" lon="-81.73463524097528">
        <ele>267.2791869920</ele>
        <time>2026-08-02T14:20:04Z</time>
      </trkpt>
      <trkpt lat="41.40132008093533" lon="-81.73523527212092">
        <ele>268.1076336430</ele>
        <time>2026-08-02T14:20:41Z</time>
      </trkpt>
      <trkpt lat="41.40132034237602" lon="-81.73584432116772">
        <ele>268.4244851195</ele>
        <time>2026-08-02T14:21:17Z</time>
      </trkpt>
      <trkpt lat="41.40132436882931" lon="-81.73643902383861">
        <ele>268.1645022584</ele>
        <time>2026-08-02T14:21:57Z</time>
      </trkpt>
      <trkpt lat="41.40132316022263" lon="-81.73703646732480">
        <ele>268.0622426973</ele>
        <time>2026-08-02T14:22:31Z</time>
      </trkpt>
      <trkpt lat="41.40134165963130" lon="-81.73763212644513">
        <ele>267.8836726081</ele>
        <time>2026-08-02T14:23:13Z</time>
      </trkpt>
      <trkpt lat="41.40134181817981" lon="-81.73822767918249">
        <ele>267.7450757813</ele>
        <time>2026-08-02T14:24:00Z</time>
      </trkpt>
      <trkpt lat="41.40133495228066" lon="-81.73883989024293">
        <ele>267.3699193723</ele>
        <time>2026-08-02T14:24:54Z</time>
      </trkpt>
      <trkpt lat="41.40134794552907" lon="-81.73943277688456">
        <ele>267.1585332597</ele>
        <time>2026-08-02T14:25:45Z</time>
      </trkpt>
      <trkpt lat="41.40135402820781" lon="-81.74003095269208">
        <ele>266.6655632061</ele>
        <time>2026-08-02T14:26:33Z</time>
      </trkpt>
      <trkpt lat="41.40134186016147" lon="-81.74015925898205">
        <ele>266.6326854710</ele>
        <time>2026-08-02T14:26:42Z</time>
      </trkpt>
    </trkseg>
  </trk>
</gpx>