<?xml version='1.0' encoding='UTF-8'?>
<gpx xmlns="http://www.topografix.com/GPX/1/1" creator="https://gpx.studio" version="1.1">
  <metadata>
    <name>Dog Walk - 2026-06-29 #2</name>
  </metadata>
  <trk>
    <name>Dog Walk - 2026-06-29 #2</name>
    <type>dog walk</type>
    <trkseg>
      <trkpt lat="41.40133309207819" lon="-81.74026504934768">
        <ele>266.5476291515</ele>
        <time>2026-06-29T17:01:34Z</time>
      </trkpt>
      <trkpt lat="41.40133319177238" lon="-81.74025817912649">
        <ele>266.4723643135</ele>
        <time>2026-06-29T17:01:35Z</time>
      </trkpt>
      <trkpt lat="41.40133031164552" lon="-81.74084764186168">
        <ele>266.0583542978</ele>
        <time>2026-06-29T17:02:22Z</time>
      </trkpt>
      <trkpt lat="41.40132846449146" lon="-81.74145736866991">
        <ele>265.7616508129</ele>
        <time>2026-06-29T17:03:04Z</time>
      </trkpt>
      <trkpt lat="41.40132888533275" lon="-81.74205267377879">
        <ele>265.5197123726</ele>
        <time>2026-06-29T17:03:45Z</time>
      </trkpt>
      <trkpt lat="41.40132613749122" lon="-81.74237422841114">
        <ele>264.7834726871</ele>
        <time>2026-06-29T17:04:08Z</time>
      </trkpt>
      <trkpt lat="41.40132958746850" lon="-81.74237457700799">
        <ele>264.9369836565</ele>
        <time>2026-06-29T17:04:09Z</time>
      </trkpt>
      <trkpt lat="41.40089746008530" lon="-81.74219103277910">
        <ele>265.1840265289</ele>
        <time>2026-06-29T17:04:48Z</time>
      </trkpt>
      <trkpt lat="41.40046776874016" lon="-81.74198314586239">
        <ele>265.1448645592</ele>
        <time>2026-06-29T17:05:27Z</time>
      </trkpt>
      <trkpt lat="41.40004408023778" lon="-81.74180100413631">
        <ele>265.3476828189</ele>
        <time>2026-06-29T17:06:01Z</time>
      </trkpt>
      <trkpt lat="41.39962679241422" lon="-81.74160100996551">
        <ele>264.8771826887</ele>
        <time>2026-06-29T17:06:46Z</time>
      </trkpt>
      <trkpt lat="41.39954698066160" lon="-81.74157402179330">
        <ele>264.8629382751</ele>
        <time>2026-06-29T17:06:55Z</time>
      </trkpt>
      <trkpt lat="41.39954803495294" lon="-81.74096963216618">
        <ele>265.5475077404</ele>
        <time>2026-06-29T17:07:33Z</time>
      </trkpt>
      <trkpt lat="41.39954187409233" lon="-81.74037482175117">
        <ele>266.2144754277</ele>
        <time>2026-06-29T17:08:13Z</time>
      </trkpt>
      <trkpt lat="41.39953151336140" lon="-81.73976907801720">
        <ele>266.5955875953</ele>
        <time>2026-06-29T17:09:05Z</time>
      </trkpt>
      <trkpt lat="41.39953846336098" lon="-81.73916530422979">
        <ele>267.0510211356</ele>
        <time>2026-06-29T17:09:45Z</time>
      </trkpt>
      <trkpt lat="41.39954387639109" lon="-81.73857623931679">
        <ele>266.9158323465</ele>
        <time>2026-06-29T17:10:27Z</time>
      </trkpt>
      <trkpt lat="41.39953712322664" lon="-81.73828993350016">
        <ele>266.9113493688</ele>
        <time>2026-06-29T17:10:50Z</time>
      </trkpt>
      <trkpt lat="41.39953389781529" lon="-81.73829665717756">
        <ele>266.8742950052</ele>
        <time>2026-06-29T17:10:51Z</time>
      </trkpt>
      <trkpt lat="41.39998039598141" lon="-81.73829555459213">
        <ele>267.0708002619</ele>
        <time>2026-06-29T17:11:27Z</time>
      </trkpt>
      <trkpt lat="41.40043557252457" lon="-81.73829546165915">
        <ele>267.3398540851</ele>
        <time>2026-06-29T17:12:06Z</time>
      </trkpt>
      <trkpt lat="41.40088136900692" lon="-81.73829583943720">
        <ele>267.4229872819</ele>
        <time>2026-06-29T17:12:42Z</time>
      </trkpt>
      <trkpt lat="41.40132117012926" lon="-81.73829628662911">
        <ele>267.3294706971</ele>
        <time>2026-06-29T17:13:25Z</time>
      </trkpt>
      <trkpt lat="41.40132399538136" lon="-81.73889826561638">
        <ele>267.5314813085</ele>
        <time>2026-06-29T17:14:06Z</time>
      </trkpt>
      <trkpt lat="41.40133057913403" lon="-81.73951402944202">
        <ele>267.1647573402</ele>
        <time>2026-06-29T17:15:12Z</time>
      </trkpt>
      <trkpt lat="41.40133981542909" lon="-81.74010155893302">
        <ele>266.6132278619</ele>
        <time>2026-06-29T17:15:43Z</time>
      </trkpt>
      <trkpt lat="41.40134576977800" lon="-81.74015884362045">
        <ele>266.4668054414</ele>
        <time>2026-06-29T17:15:46Z</time>
      </trkpt>
    </trkseg>
  </trk>
</gpx>