<?xml version='1.0' encoding='UTF-8'?>
<gpx xmlns="http://www.topografix.com/GPX/1/1" creator="https://gpx.studio" version="1.1">
  <metadata>
    <name>Dog Walk - 2026-05-01 #1</name>
  </metadata>
  <trk>
    <name>Dog Walk - 2026-05-01 #1</name>
    <type>dog walk</type>
    <trkseg>
      <trkpt lat="41.40134082767209" lon="-81.74022879452103">
        <ele>266.3838378530</ele>
        <time>2026-05-01T06:37:02Z</time>
      </trkpt>
      <trkpt lat="41.40133487045949" lon="-81.74083011678523">
        <ele>266.2200318692</ele>
        <time>2026-05-01T06:37:31Z</time>
      </trkpt>
      <trkpt lat="41.40134518014513" lon="-81.74143568923296">
        <ele>265.7005136671</ele>
        <time>2026-05-01T06:38:08Z</time>
      </trkpt>
      <trkpt lat="41.40135162666922" lon="-81.74204401209084">
        <ele>265.0896800651</ele>
        <time>2026-05-01T06:38:42Z</time>
      </trkpt>
      <trkpt lat="41.40135046529247" lon="-81.74242573548632">
        <ele>264.6309147399</ele>
        <time>2026-05-01T06:39:12Z</time>
      </trkpt>
      <trkpt lat="41.40176273859383" lon="-81.74264172571550">
        <ele>264.2074056149</ele>
        <time>2026-05-01T06:39:54Z</time>
      </trkpt>
      <trkpt lat="41.40218946838872" lon="-81.74285160180919">
        <ele>263.3614042224</ele>
        <time>2026-05-01T06:40:38Z</time>
      </trkpt>
      <trkpt lat="41.40222056780274" lon="-81.74286399449704">
        <ele>263.4719008872</ele>
        <time>2026-05-01T06:40:41Z</time>
      </trkpt>
      <trkpt lat="41.40221622303208" lon="-81.74226157686721">
        <ele>264.0450480660</ele>
        <time>2026-05-01T06:41:23Z</time>
      </trkpt>
      <trkpt lat="41.40221607150271" lon="-81.74166836329597">
        <ele>264.7604496514</ele>
        <time>2026-05-01T06:42:09Z</time>
      </trkpt>
      <trkpt lat="41.40221806637671" lon="-81.74106867446783">
        <ele>265.4754822984</ele>
        <time>2026-05-01T06:42:51Z</time>
      </trkpt>
      <trkpt lat="41.40221898323392" lon="-81.74046206213019">
        <ele>266.0783659615</ele>
        <time>2026-05-01T06:43:28Z</time>
      </trkpt>
      <trkpt lat="41.40221346512450" lon="-81.73986170257606">
        <ele>266.5122726770</ele>
        <time>2026-05-01T06:44:08Z</time>
      </trkpt>
      <trkpt lat="41.40222037993318" lon="-81.73927141446573">
        <ele>266.9209786488</ele>
        <time>2026-05-01T06:44:51Z</time>
      </trkpt>
      <trkpt lat="41.40222027766500" lon="-81.73867363561062">
        <ele>267.1977713474</ele>
        <time>2026-05-01T06:45:32Z</time>
      </trkpt>
      <trkpt lat="41.40221412136788" lon="-81.73826237719594">
        <ele>267.0571349558</ele>
        <time>2026-05-01T06:46:00Z</time>
      </trkpt>
      <trkpt lat="41.40176197958137" lon="-81.73825832416586">
        <ele>267.7491244624</ele>
        <time>2026-05-01T06:46:54Z</time>
      </trkpt>
      <trkpt lat="41.40133311616203" lon="-81.73825969557683">
        <ele>267.5839584068</ele>
        <time>2026-05-01T06:47:35Z</time>
      </trkpt>
      <trkpt lat="41.40133742042854" lon="-81.73885917386173">
        <ele>267.4424793534</ele>
        <time>2026-05-01T06:48:14Z</time>
      </trkpt>
      <trkpt lat="41.40134043561350" lon="-81.73945659498813">
        <ele>267.2301107438</ele>
        <time>2026-05-01T06:48:54Z</time>
      </trkpt>
      <trkpt lat="41.40134330371810" lon="-81.74005615427807">
        <ele>266.7605848214</ele>
        <time>2026-05-01T06:49:38Z</time>
      </trkpt>
      <trkpt lat="41.40134743513761" lon="-81.74019489393501">
        <ele>266.7206178526</ele>
        <time>2026-05-01T06:49:46Z</time>
      </trkpt>
    </trkseg>
  </trk>
</gpx>