<?xml version='1.0' encoding='UTF-8'?>
<gpx xmlns="http://www.topografix.com/GPX/1/1" creator="https://gpx.studio" version="1.1">
  <metadata>
    <name>Dog Walk - 2026-03-25 #1</name>
  </metadata>
  <trk>
    <name>Dog Walk - 2026-03-25 #1</name>
    <type>dog walk</type>
    <trkseg>
      <trkpt lat="41.40134209208237" lon="-81.74023966388691">
        <ele>266.4249322223</ele>
        <time>2026-03-25T08:48:11Z</time>
      </trkpt>
      <trkpt lat="41.40134656790975" lon="-81.74082674479300">
        <ele>266.2451187586</ele>
        <time>2026-03-25T08:48:48Z</time>
      </trkpt>
      <trkpt lat="41.40134134978473" lon="-81.74143425704955">
        <ele>265.6636434203</ele>
        <time>2026-03-25T08:49:22Z</time>
      </trkpt>
      <trkpt lat="41.40134633021727" lon="-81.74203265793665">
        <ele>265.4494175350</ele>
        <time>2026-03-25T08:50:12Z</time>
      </trkpt>
      <trkpt lat="41.40134502692106" lon="-81.74241893336080">
        <ele>264.7821995079</ele>
        <time>2026-03-25T08:50:35Z</time>
      </trkpt>
      <trkpt lat="41.40176652435929" lon="-81.74264493377341">
        <ele>264.2006333961</ele>
        <time>2026-03-25T08:51:14Z</time>
      </trkpt>
      <trkpt lat="41.40218921967822" lon="-81.74284143185740">
        <ele>263.5012907965</ele>
        <time>2026-03-25T08:51:49Z</time>
      </trkpt>
      <trkpt lat="41.40221507451228" lon="-81.74286534566755">
        <ele>263.2306166876</ele>
        <time>2026-03-25T08:52:03Z</time>
      </trkpt>
      <trkpt lat="41.40221828670948" lon="-81.74226656521064">
        <ele>263.9844543922</ele>
        <time>2026-03-25T08:52:40Z</time>
      </trkpt>
      <trkpt lat="41.40221923281436" lon="-81.74166505984870">
        <ele>264.8377288720</ele>
        <time>2026-03-25T08:53:27Z</time>
      </trkpt>
      <trkpt lat="41.40221944507968" lon="-81.74107043508681">
        <ele>265.4597047611</ele>
        <time>2026-03-25T08:54:09Z</time>
      </trkpt>
      <trkpt lat="41.40222194400099" lon="-81.74046574847527">
        <ele>265.9821663227</ele>
        <time>2026-03-25T08:54:47Z</time>
      </trkpt>
      <trkpt lat="41.40220490762604" lon="-81.73987379669370">
        <ele>266.6550058600</ele>
        <time>2026-03-25T08:55:18Z</time>
      </trkpt>
      <trkpt lat="41.40221570550627" lon="-81.73926803606227">
        <ele>266.9505643731</ele>
        <time>2026-03-25T08:56:00Z</time>
      </trkpt>
      <trkpt lat="41.40222495853278" lon="-81.73866685105580">
        <ele>267.2115358748</ele>
        <time>2026-03-25T08:57:02Z</time>
      </trkpt>
      <trkpt lat="41.40221695889647" lon="-81.73827488452700">
        <ele>267.1369673568</ele>
        <time>2026-03-25T08:57:33Z</time>
      </trkpt>
      <trkpt lat="41.40176557628723" lon="-81.73826001750366">
        <ele>267.8218450491</ele>
        <time>2026-03-25T08:58:14Z</time>
      </trkpt>
      <trkpt lat="41.40133719275637" lon="-81.73826267903176">
        <ele>267.5160900117</ele>
        <time>2026-03-25T08:58:55Z</time>
      </trkpt>
      <trkpt lat="41.40133434721664" lon="-81.73885377636783">
        <ele>267.4427083791</ele>
        <time>2026-03-25T08:59:38Z</time>
      </trkpt>
      <trkpt lat="41.40133877468745" lon="-81.73945630333320">
        <ele>267.1508608015</ele>
        <time>2026-03-25T09:00:22Z</time>
      </trkpt>
      <trkpt lat="41.40134286954277" lon="-81.74005126266297">
        <ele>266.6413855550</ele>
        <time>2026-03-25T09:01:05Z</time>
      </trkpt>
      <trkpt lat="41.40134053001957" lon="-81.74018923320759">
        <ele>266.7178527749</ele>
        <time>2026-03-25T09:01:16Z</time>
      </trkpt>
    </trkseg>
  </trk>
</gpx>