<?xml version='1.0' encoding='UTF-8'?>
<gpx xmlns="http://www.topografix.com/GPX/1/1" creator="https://gpx.studio" version="1.1">
  <metadata>
    <name>Dog Walk - 2026-06-07 #3</name>
  </metadata>
  <trk>
    <name>Dog Walk - 2026-06-07 #3</name>
    <type>dog walk</type>
    <trkseg>
      <trkpt lat="41.40133473225919" lon="-81.74023108665270">
        <ele>266.2479747787</ele>
        <time>2026-06-07T19:57:05Z</time>
      </trkpt>
      <trkpt lat="41.40134443093791" lon="-81.74083375022366">
        <ele>266.1734971699</ele>
        <time>2026-06-07T19:57:35Z</time>
      </trkpt>
      <trkpt lat="41.40133561931808" lon="-81.74142545455203">
        <ele>265.7895539044</ele>
        <time>2026-06-07T19:58:35Z</time>
      </trkpt>
      <trkpt lat="41.40132986870670" lon="-81.74202195554514">
        <ele>265.3860552135</ele>
        <time>2026-06-07T19:59:30Z</time>
      </trkpt>
      <trkpt lat="41.40133360283261" lon="-81.74239748701102">
        <ele>264.7135279518</ele>
        <time>2026-06-07T19:59:54Z</time>
      </trkpt>
      <trkpt lat="41.40090324440762" lon="-81.74217443981745">
        <ele>265.1404594314</ele>
        <time>2026-06-07T20:00:28Z</time>
      </trkpt>
      <trkpt lat="41.40048632989959" lon="-81.74196744388904">
        <ele>265.2412662553</ele>
        <time>2026-06-07T20:01:01Z</time>
      </trkpt>
      <trkpt lat="41.40045284279591" lon="-81.74194594891625">
        <ele>265.0605853082</ele>
        <time>2026-06-07T20:01:06Z</time>
      </trkpt>
      <trkpt lat="41.40044975665276" lon="-81.74135728956985">
        <ele>266.1409573569</ele>
        <time>2026-06-07T20:01:42Z</time>
      </trkpt>
      <trkpt lat="41.40043185421850" lon="-81.74075044211453">
        <ele>266.2466165927</ele>
        <time>2026-06-07T20:02:19Z</time>
      </trkpt>
      <trkpt lat="41.40043634476305" lon="-81.74014586360919">
        <ele>266.8536354918</ele>
        <time>2026-06-07T20:03:07Z</time>
      </trkpt>
      <trkpt lat="41.40042866832984" lon="-81.73954942617347">
        <ele>267.0397056490</ele>
        <time>2026-06-07T20:03:46Z</time>
      </trkpt>
      <trkpt lat="41.40042527907407" lon="-81.73895564714407">
        <ele>267.2618811144</ele>
        <time>2026-06-07T20:04:17Z</time>
      </trkpt>
      <trkpt lat="41.40041482181394" lon="-81.73835617528903">
        <ele>267.2660518895</ele>
        <time>2026-06-07T20:04:56Z</time>
      </trkpt>
      <trkpt lat="41.40041136044483" lon="-81.73775938644775">
        <ele>267.6164625358</ele>
        <time>2026-06-07T20:05:58Z</time>
      </trkpt>
      <trkpt lat="41.40041641290112" lon="-81.73715736187876">
        <ele>267.8300428355</ele>
        <time>2026-06-07T20:07:06Z</time>
      </trkpt>
      <trkpt lat="41.40040892210928" lon="-81.73655372566235">
        <ele>268.0008680182</ele>
        <time>2026-06-07T20:07:43Z</time>
      </trkpt>
      <trkpt lat="41.40039819237352" lon="-81.73595505452448">
        <ele>267.8926238024</ele>
        <time>2026-06-07T20:08:19Z</time>
      </trkpt>
      <trkpt lat="41.40040006235264" lon="-81.73535956043096">
        <ele>267.8466432514</ele>
        <time>2026-06-07T20:08:52Z</time>
      </trkpt>
      <trkpt lat="41.40038595604147" lon="-81.73475433569307">
        <ele>267.3430400151</ele>
        <time>2026-06-07T20:09:32Z</time>
      </trkpt>
      <trkpt lat="41.40038770418958" lon="-81.73462720196652">
        <ele>267.4774863011</ele>
        <time>2026-06-07T20:09:40Z</time>
      </trkpt>
      <trkpt lat="41.40083854055401" lon="-81.73463682148250">
        <ele>267.2660840829</ele>
        <time>2026-06-07T20:10:16Z</time>
      </trkpt>
      <trkpt lat="41.40129463814421" lon="-81.73463784489094">
        <ele>267.3279161323</ele>
        <time>2026-06-07T20:11:06Z</time>
      </trkpt>
      <trkpt lat="41.40132783411113" lon="-81.73463260098642">
        <ele>267.4586357784</ele>
        <time>2026-06-07T20:11:10Z</time>
      </trkpt>
      <trkpt lat="41.40132973889155" lon="-81.73523011663877">
        <ele>267.9265038428</ele>
        <time>2026-06-07T20:11:54Z</time>
      </trkpt>
      <trkpt lat="41.40132044119224" lon="-81.73583670442197">
        <ele>268.2331907051</ele>
        <time>2026-06-07T20:12:47Z</time>
      </trkpt>
      <trkpt lat="41.40132886271495" lon="-81.73643450747477">
        <ele>268.1679898055</ele>
        <time>2026-06-07T20:13:38Z</time>
      </trkpt>
      <trkpt lat="41.40133980118768" lon="-81.73703242102114">
        <ele>267.9582267494</ele>
        <time>2026-06-07T20:14:24Z</time>
      </trkpt>
      <trkpt lat="41.40133161638221" lon="-81.73763668556330">
        <ele>267.9861882348</ele>
        <time>2026-06-07T20:15:00Z</time>
      </trkpt>
      <trkpt lat="41.40133248794039" lon="-81.73822832466742">
        <ele>267.3500458237</ele>
        <time>2026-06-07T20:15:36Z</time>
      </trkpt>
      <trkpt lat="41.40134090155360" lon="-81.73883758185173">
        <ele>267.4777086062</ele>
        <time>2026-06-07T20:16:15Z</time>
      </trkpt>
      <trkpt lat="41.40133897867072" lon="-81.73942263821876">
        <ele>267.2584346884</ele>
        <time>2026-06-07T20:16:52Z</time>
      </trkpt>
      <trkpt lat="41.40134623639170" lon="-81.74001641899858">
        <ele>266.6047595663</ele>
        <time>2026-06-07T20:17:29Z</time>
      </trkpt>
      <trkpt lat="41.40134225950160" lon="-81.74019432963496">
        <ele>266.5340886371</ele>
        <time>2026-06-07T20:17:40Z</time>
      </trkpt>
    </trkseg>
  </trk>
</gpx>