<?xml version='1.0' encoding='UTF-8'?>
<gpx xmlns="http://www.topografix.com/GPX/1/1" creator="https://gpx.studio" version="1.1">
  <metadata>
    <name>Dog Walk - 2026-07-27 #3</name>
  </metadata>
  <trk>
    <name>Dog Walk - 2026-07-27 #3</name>
    <type>dog walk</type>
    <trkseg>
      <trkpt lat="41.40133491389336" lon="-81.74023954134728">
        <ele>266.5681478864</ele>
        <time>2026-07-27T14:22:05Z</time>
      </trkpt>
      <trkpt lat="41.40133951989468" lon="-81.74084063249452">
        <ele>266.2985559154</ele>
        <time>2026-07-27T14:22:38Z</time>
      </trkpt>
      <trkpt lat="41.40134130851214" lon="-81.74143496990351">
        <ele>265.7210301812</ele>
        <time>2026-07-27T14:23:24Z</time>
      </trkpt>
      <trkpt lat="41.40134225480644" lon="-81.74203917773610">
        <ele>265.2215171369</ele>
        <time>2026-07-27T14:24:11Z</time>
      </trkpt>
      <trkpt lat="41.40134944349625" lon="-81.74242188600147">
        <ele>264.6940492260</ele>
        <time>2026-07-27T14:24:38Z</time>
      </trkpt>
      <trkpt lat="41.40176970578860" lon="-81.74262775285220">
        <ele>264.5023263933</ele>
        <time>2026-07-27T14:25:36Z</time>
      </trkpt>
      <trkpt lat="41.40218323707133" lon="-81.74285429408062">
        <ele>263.3531583292</ele>
        <time>2026-07-27T14:26:13Z</time>
      </trkpt>
      <trkpt lat="41.40221620529395" lon="-81.74285639877148">
        <ele>263.1450886779</ele>
        <time>2026-07-27T14:26:16Z</time>
      </trkpt>
      <trkpt lat="41.40221568236073" lon="-81.74226611647340">
        <ele>264.1264472073</ele>
        <time>2026-07-27T14:26:48Z</time>
      </trkpt>
      <trkpt lat="41.40222085814979" lon="-81.74167553474189">
        <ele>264.8811425689</ele>
        <time>2026-07-27T14:27:54Z</time>
      </trkpt>
      <trkpt lat="41.40221698489044" lon="-81.74107259000095">
        <ele>265.5331965816</ele>
        <time>2026-07-27T14:28:51Z</time>
      </trkpt>
      <trkpt lat="41.40222061460909" lon="-81.74046961677450">
        <ele>266.0509840823</ele>
        <time>2026-07-27T14:29:37Z</time>
      </trkpt>
      <trkpt lat="41.40222315225948" lon="-81.73986002120137">
        <ele>266.6287887558</ele>
        <time>2026-07-27T14:30:10Z</time>
      </trkpt>
      <trkpt lat="41.40222308224815" lon="-81.73925768070707">
        <ele>266.9868431754</ele>
        <time>2026-07-27T14:30:54Z</time>
      </trkpt>
      <trkpt lat="41.40221992142731" lon="-81.73867190757427">
        <ele>267.2205960213</ele>
        <time>2026-07-27T14:31:32Z</time>
      </trkpt>
      <trkpt lat="41.40221584156361" lon="-81.73827679285033">
        <ele>266.9637895625</ele>
        <time>2026-07-27T14:32:02Z</time>
      </trkpt>
      <trkpt lat="41.40176404839370" lon="-81.73827734158830">
        <ele>267.7950435876</ele>
        <time>2026-07-27T14:32:43Z</time>
      </trkpt>
      <trkpt lat="41.40133528113467" lon="-81.73825481455334">
        <ele>267.4992012977</ele>
        <time>2026-07-27T14:33:30Z</time>
      </trkpt>
      <trkpt lat="41.40133960694760" lon="-81.73885935663364">
        <ele>267.3543444808</ele>
        <time>2026-07-27T14:34:01Z</time>
      </trkpt>
      <trkpt lat="41.40133977423692" lon="-81.73945015102640">
        <ele>267.0317255085</ele>
        <time>2026-07-27T14:34:48Z</time>
      </trkpt>
      <trkpt lat="41.40133494001423" lon="-81.74005863613901">
        <ele>266.6128383499</ele>
        <time>2026-07-27T14:35:21Z</time>
      </trkpt>
      <trkpt lat="41.40134086080786" lon="-81.74018294290222">
        <ele>266.7318082535</ele>
        <time>2026-07-27T14:35:28Z</time>
      </trkpt>
    </trkseg>
  </trk>
</gpx>