<?xml version='1.0' encoding='UTF-8'?>
<gpx xmlns="http://www.topografix.com/GPX/1/1" creator="https://gpx.studio" version="1.1">
  <metadata>
    <name>Dog Walk - 2026-09-07 #3</name>
  </metadata>
  <trk>
    <name>Dog Walk - 2026-09-07 #3</name>
    <type>dog walk</type>
    <trkseg>
      <trkpt lat="41.40134139146652" lon="-81.74021935317917">
        <ele>266.5254584587</ele>
        <time>2026-09-07T18:01:21Z</time>
      </trkpt>
      <trkpt lat="41.40134866965145" lon="-81.74083069298948">
        <ele>266.2935900422</ele>
        <time>2026-09-07T18:02:07Z</time>
      </trkpt>
      <trkpt lat="41.40134251373647" lon="-81.74143168218222">
        <ele>265.9158724971</ele>
        <time>2026-09-07T18:02:50Z</time>
      </trkpt>
      <trkpt lat="41.40134086049867" lon="-81.74204380779238">
        <ele>265.4617866383</ele>
        <time>2026-09-07T18:03:42Z</time>
      </trkpt>
      <trkpt lat="41.40134372231443" lon="-81.74241585965197">
        <ele>264.7213983603</ele>
        <time>2026-09-07T18:04:04Z</time>
      </trkpt>
      <trkpt lat="41.40177322468821" lon="-81.74264213098495">
        <ele>264.2035464122</ele>
        <time>2026-09-07T18:04:43Z</time>
      </trkpt>
      <trkpt lat="41.40219989617568" lon="-81.74284922223607">
        <ele>263.5665605555</ele>
        <time>2026-09-07T18:05:28Z</time>
      </trkpt>
      <trkpt lat="41.40221535043039" lon="-81.74286766187745">
        <ele>263.3688312386</ele>
        <time>2026-09-07T18:05:30Z</time>
      </trkpt>
      <trkpt lat="41.40221573940666" lon="-81.74226506304323">
        <ele>263.9515163668</ele>
        <time>2026-09-07T18:06:09Z</time>
      </trkpt>
      <trkpt lat="41.40222069761334" lon="-81.74167076812233">
        <ele>264.4907036757</ele>
        <time>2026-09-07T18:06:57Z</time>
      </trkpt>
      <trkpt lat="41.40221704091077" lon="-81.74107219693697">
        <ele>265.5855660436</ele>
        <time>2026-09-07T18:07:43Z</time>
      </trkpt>
      <trkpt lat="41.40221826650392" lon="-81.74047123770062">
        <ele>266.1016684435</ele>
        <time>2026-09-07T18:08:29Z</time>
      </trkpt>
      <trkpt lat="41.40221834363142" lon="-81.73987124404749">
        <ele>266.4410590273</ele>
        <time>2026-09-07T18:09:25Z</time>
      </trkpt>
      <trkpt lat="41.40221222484894" lon="-81.73926739837226">
        <ele>266.9868695687</ele>
        <time>2026-09-07T18:10:07Z</time>
      </trkpt>
      <trkpt lat="41.40221339628637" lon="-81.73866829157123">
        <ele>267.0673147207</ele>
        <time>2026-09-07T18:10:39Z</time>
      </trkpt>
      <trkpt lat="41.40220985947769" lon="-81.73827419027997">
        <ele>267.1229187588</ele>
        <time>2026-09-07T18:11:07Z</time>
      </trkpt>
      <trkpt lat="41.40176693335665" lon="-81.73825609379276">
        <ele>267.8455786052</ele>
        <time>2026-09-07T18:11:50Z</time>
      </trkpt>
      <trkpt lat="41.40134748339072" lon="-81.73826231890743">
        <ele>267.1258673982</ele>
        <time>2026-09-07T18:12:30Z</time>
      </trkpt>
      <trkpt lat="41.40134357647135" lon="-81.73886118719476">
        <ele>267.4277424963</ele>
        <time>2026-09-07T18:13:13Z</time>
      </trkpt>
      <trkpt lat="41.40133719731484" lon="-81.73946920880636">
        <ele>267.0474416033</ele>
        <time>2026-09-07T18:13:47Z</time>
      </trkpt>
      <trkpt lat="41.40133556590035" lon="-81.74006060799309">
        <ele>266.6483732193</ele>
        <time>2026-09-07T18:14:32Z</time>
      </trkpt>
      <trkpt lat="41.40134510778855" lon="-81.74017761932868">
        <ele>266.4739924263</ele>
        <time>2026-09-07T18:14:38Z</time>
      </trkpt>
    </trkseg>
  </trk>
</gpx>