<?xml version='1.0' encoding='UTF-8'?>
<gpx xmlns="http://www.topografix.com/GPX/1/1" creator="https://gpx.studio" version="1.1">
  <metadata>
    <name>Dog Walk - 2026-03-13 #3</name>
  </metadata>
  <trk>
    <name>Dog Walk - 2026-03-13 #3</name>
    <type>dog walk</type>
    <trkseg>
      <trkpt lat="41.40134323664358" lon="-81.74023138866603">
        <ele>266.4841172621</ele>
        <time>2026-03-13T18:19:25Z</time>
      </trkpt>
      <trkpt lat="41.40134204064408" lon="-81.74082889280788">
        <ele>266.1733123379</ele>
        <time>2026-03-13T18:20:14Z</time>
      </trkpt>
      <trkpt lat="41.40133590866200" lon="-81.74142763610509">
        <ele>265.7730318959</ele>
        <time>2026-03-13T18:20:51Z</time>
      </trkpt>
      <trkpt lat="41.40132218317918" lon="-81.74202568396669">
        <ele>265.4533841168</ele>
        <time>2026-03-13T18:21:24Z</time>
      </trkpt>
      <trkpt lat="41.40132966354323" lon="-81.74238690893071">
        <ele>264.9976507029</ele>
        <time>2026-03-13T18:21:48Z</time>
      </trkpt>
      <trkpt lat="41.40090844306528" lon="-81.74218124869751">
        <ele>265.1657602994</ele>
        <time>2026-03-13T18:22:28Z</time>
      </trkpt>
      <trkpt lat="41.40048232367513" lon="-81.74196791703918">
        <ele>265.1434667466</ele>
        <time>2026-03-13T18:23:12Z</time>
      </trkpt>
      <trkpt lat="41.40045222247736" lon="-81.74194506250333">
        <ele>265.3311250529</ele>
        <time>2026-03-13T18:23:14Z</time>
      </trkpt>
      <trkpt lat="41.40044958048835" lon="-81.74135184762822">
        <ele>266.1612826820</ele>
        <time>2026-03-13T18:24:00Z</time>
      </trkpt>
      <trkpt lat="41.40043685007035" lon="-81.74075428062883">
        <ele>266.4698307328</ele>
        <time>2026-03-13T18:25:01Z</time>
      </trkpt>
      <trkpt lat="41.40043598191932" lon="-81.74014576739155">
        <ele>266.6987640413</ele>
        <time>2026-03-13T18:25:45Z</time>
      </trkpt>
      <trkpt lat="41.40043533574135" lon="-81.73954552487965">
        <ele>267.0244660127</ele>
        <time>2026-03-13T18:26:24Z</time>
      </trkpt>
      <trkpt lat="41.40042516241782" lon="-81.73894650969517">
        <ele>267.0992078509</ele>
        <time>2026-03-13T18:27:10Z</time>
      </trkpt>
      <trkpt lat="41.40042187189797" lon="-81.73835806353016">
        <ele>267.1793037011</ele>
        <time>2026-03-13T18:27:48Z</time>
      </trkpt>
      <trkpt lat="41.40041646349787" lon="-81.73775465873049">
        <ele>267.5943864983</ele>
        <time>2026-03-13T18:28:35Z</time>
      </trkpt>
      <trkpt lat="41.40041949328812" lon="-81.73717036485995">
        <ele>267.8437248175</ele>
        <time>2026-03-13T18:29:34Z</time>
      </trkpt>
      <trkpt lat="41.40041175123371" lon="-81.73654400194599">
        <ele>268.0726102736</ele>
        <time>2026-03-13T18:30:08Z</time>
      </trkpt>
      <trkpt lat="41.40040535144091" lon="-81.73595943628997">
        <ele>267.8808500100</ele>
        <time>2026-03-13T18:30:41Z</time>
      </trkpt>
      <trkpt lat="41.40039764375044" lon="-81.73535309835671">
        <ele>267.7188070600</ele>
        <time>2026-03-13T18:31:32Z</time>
      </trkpt>
      <trkpt lat="41.40039230805990" lon="-81.73474937113913">
        <ele>267.2454196403</ele>
        <time>2026-03-13T18:32:15Z</time>
      </trkpt>
      <trkpt lat="41.40039585879160" lon="-81.73462578694762">
        <ele>267.2961031591</ele>
        <time>2026-03-13T18:32:23Z</time>
      </trkpt>
      <trkpt lat="41.40084389785918" lon="-81.73462688030219">
        <ele>267.0772926954</ele>
        <time>2026-03-13T18:32:59Z</time>
      </trkpt>
      <trkpt lat="41.40128650962254" lon="-81.73463395389250">
        <ele>267.1270715640</ele>
        <time>2026-03-13T18:33:49Z</time>
      </trkpt>
      <trkpt lat="41.40131913949490" lon="-81.73462449165964">
        <ele>267.4112890046</ele>
        <time>2026-03-13T18:33:53Z</time>
      </trkpt>
      <trkpt lat="41.40132053071788" lon="-81.73523148530136">
        <ele>267.8395465415</ele>
        <time>2026-03-13T18:34:53Z</time>
      </trkpt>
      <trkpt lat="41.40132272565982" lon="-81.73583200468782">
        <ele>268.3678547010</ele>
        <time>2026-03-13T18:35:42Z</time>
      </trkpt>
      <trkpt lat="41.40132540650283" lon="-81.73644398175209">
        <ele>268.2398149935</ele>
        <time>2026-03-13T18:36:17Z</time>
      </trkpt>
      <trkpt lat="41.40133202534317" lon="-81.73703605767200">
        <ele>268.0999208486</ele>
        <time>2026-03-13T18:37:23Z</time>
      </trkpt>
      <trkpt lat="41.40134020201593" lon="-81.73763180272260">
        <ele>267.6646220621</ele>
        <time>2026-03-13T18:38:08Z</time>
      </trkpt>
      <trkpt lat="41.40133607931030" lon="-81.73822690782092">
        <ele>267.6249030306</ele>
        <time>2026-03-13T18:38:41Z</time>
      </trkpt>
      <trkpt lat="41.40134235097457" lon="-81.73883056045867">
        <ele>267.3055557013</ele>
        <time>2026-03-13T18:39:27Z</time>
      </trkpt>
      <trkpt lat="41.40134409601315" lon="-81.73942343319976">
        <ele>267.0191407750</ele>
        <time>2026-03-13T18:40:08Z</time>
      </trkpt>
      <trkpt lat="41.40134105646010" lon="-81.74002601236616">
        <ele>266.5744080422</ele>
        <time>2026-03-13T18:40:59Z</time>
      </trkpt>
      <trkpt lat="41.40134309344941" lon="-81.74020443594374">
        <ele>266.6609259233</ele>
        <time>2026-03-13T18:41:11Z</time>
      </trkpt>
    </trkseg>
  </trk>
</gpx>