<?xml version='1.0' encoding='UTF-8'?>
<gpx xmlns="http://www.topografix.com/GPX/1/1" creator="https://gpx.studio" version="1.1">
  <metadata>
    <name>Dog Walk - 2026-02-14 #2</name>
  </metadata>
  <trk>
    <name>Dog Walk - 2026-02-14 #2</name>
    <type>dog walk</type>
    <trkseg>
      <trkpt lat="41.40134097539499" lon="-81.74023156602540">
        <ele>266.5343336263</ele>
        <time>2026-02-14T12:00:21Z</time>
      </trkpt>
      <trkpt lat="41.40133750876089" lon="-81.74081998859717">
        <ele>265.9937305840</ele>
        <time>2026-02-14T12:00:54Z</time>
      </trkpt>
      <trkpt lat="41.40133601246611" lon="-81.74143601858943">
        <ele>265.7912358360</ele>
        <time>2026-02-14T12:01:41Z</time>
      </trkpt>
      <trkpt lat="41.40132910560282" lon="-81.74202640116242">
        <ele>265.4768174573</ele>
        <time>2026-02-14T12:02:27Z</time>
      </trkpt>
      <trkpt lat="41.40132695870933" lon="-81.74238735997734">
        <ele>264.7624597894</ele>
        <time>2026-02-14T12:02:53Z</time>
      </trkpt>
      <trkpt lat="41.40090529664161" lon="-81.74218084796283">
        <ele>265.3763866281</ele>
        <time>2026-02-14T12:03:33Z</time>
      </trkpt>
      <trkpt lat="41.40048542006910" lon="-81.74196856092613">
        <ele>265.1615535735</ele>
        <time>2026-02-14T12:04:20Z</time>
      </trkpt>
      <trkpt lat="41.40044905251150" lon="-81.74194456263004">
        <ele>265.2848811297</ele>
        <time>2026-02-14T12:04:24Z</time>
      </trkpt>
      <trkpt lat="41.40044578967623" lon="-81.74135303150284">
        <ele>266.1222601774</ele>
        <time>2026-02-14T12:05:06Z</time>
      </trkpt>
      <trkpt lat="41.40044084549466" lon="-81.74075723982921">
        <ele>266.4038798562</ele>
        <time>2026-02-14T12:05:45Z</time>
      </trkpt>
      <trkpt lat="41.40044195248496" lon="-81.74015098846230">
        <ele>266.7646421516</ele>
        <time>2026-02-14T12:06:27Z</time>
      </trkpt>
      <trkpt lat="41.40043547670410" lon="-81.73955664620904">
        <ele>267.0282583123</ele>
        <time>2026-02-14T12:07:11Z</time>
      </trkpt>
      <trkpt lat="41.40043115219684" lon="-81.73895195668854">
        <ele>267.3975898112</ele>
        <time>2026-02-14T12:07:58Z</time>
      </trkpt>
      <trkpt lat="41.40041478093762" lon="-81.73835694465359">
        <ele>267.3469555171</ele>
        <time>2026-02-14T12:08:32Z</time>
      </trkpt>
      <trkpt lat="41.40042390795778" lon="-81.73775769680861">
        <ele>267.4007444478</ele>
        <time>2026-02-14T12:09:23Z</time>
      </trkpt>
      <trkpt lat="41.40041783502163" lon="-81.73715632581023">
        <ele>268.1365378497</ele>
        <time>2026-02-14T12:10:15Z</time>
      </trkpt>
      <trkpt lat="41.40040657410055" lon="-81.73654935807787">
        <ele>268.0852790041</ele>
        <time>2026-02-14T12:10:49Z</time>
      </trkpt>
      <trkpt lat="41.40039849890830" lon="-81.73595597814871">
        <ele>268.0017198773</ele>
        <time>2026-02-14T12:11:38Z</time>
      </trkpt>
      <trkpt lat="41.40039320480355" lon="-81.73535287369751">
        <ele>267.7694897187</ele>
        <time>2026-02-14T12:12:22Z</time>
      </trkpt>
      <trkpt lat="41.40039798770702" lon="-81.73476506993643">
        <ele>267.4514599496</ele>
        <time>2026-02-14T12:13:04Z</time>
      </trkpt>
      <trkpt lat="41.40039421982836" lon="-81.73462271006282">
        <ele>267.4244789703</ele>
        <time>2026-02-14T12:13:16Z</time>
      </trkpt>
      <trkpt lat="41.40085063036769" lon="-81.73464040285057">
        <ele>267.1684037436</ele>
        <time>2026-02-14T12:13:56Z</time>
      </trkpt>
      <trkpt lat="41.40129962989680" lon="-81.73463854828084">
        <ele>267.4237085446</ele>
        <time>2026-02-14T12:15:00Z</time>
      </trkpt>
      <trkpt lat="41.40132827323678" lon="-81.73462928805026">
        <ele>267.1746847966</ele>
        <time>2026-02-14T12:15:03Z</time>
      </trkpt>
      <trkpt lat="41.40131955823649" lon="-81.73523206909780">
        <ele>267.7782529536</ele>
        <time>2026-02-14T12:15:40Z</time>
      </trkpt>
      <trkpt lat="41.40132660540927" lon="-81.73584155823090">
        <ele>267.9771577510</ele>
        <time>2026-02-14T12:16:26Z</time>
      </trkpt>
      <trkpt lat="41.40132276433688" lon="-81.73642815737173">
        <ele>268.2352501134</ele>
        <time>2026-02-14T12:16:55Z</time>
      </trkpt>
      <trkpt lat="41.40133925359582" lon="-81.73703062363610">
        <ele>268.0981776127</ele>
        <time>2026-02-14T12:17:29Z</time>
      </trkpt>
      <trkpt lat="41.40133729414273" lon="-81.73763888840442">
        <ele>267.9593828709</ele>
        <time>2026-02-14T12:18:15Z</time>
      </trkpt>
      <trkpt lat="41.40133934673378" lon="-81.73822872274317">
        <ele>267.6816629448</ele>
        <time>2026-02-14T12:19:02Z</time>
      </trkpt>
      <trkpt lat="41.40133687236408" lon="-81.73883511931703">
        <ele>267.2349597199</ele>
        <time>2026-02-14T12:19:41Z</time>
      </trkpt>
      <trkpt lat="41.40134939965805" lon="-81.73943452169688">
        <ele>267.2928583811</ele>
        <time>2026-02-14T12:20:11Z</time>
      </trkpt>
      <trkpt lat="41.40135205960068" lon="-81.74003524925872">
        <ele>266.6508442900</ele>
        <time>2026-02-14T12:20:53Z</time>
      </trkpt>
      <trkpt lat="41.40135407579083" lon="-81.74019344499382">
        <ele>266.3420397049</ele>
        <time>2026-02-14T12:21:05Z</time>
      </trkpt>
    </trkseg>
  </trk>
</gpx>