<?xml version='1.0' encoding='UTF-8'?>
<gpx xmlns="http://www.topografix.com/GPX/1/1" creator="https://gpx.studio" version="1.1">
  <metadata>
    <name>Dog Walk - 2026-02-20 #1</name>
  </metadata>
  <trk>
    <name>Dog Walk - 2026-02-20 #1</name>
    <type>dog walk</type>
    <trkseg>
      <trkpt lat="41.40134106208328" lon="-81.74023007197454">
        <ele>266.5511813563</ele>
        <time>2026-02-20T08:50:04Z</time>
      </trkpt>
      <trkpt lat="41.40134229465610" lon="-81.74082913350389">
        <ele>266.3251859570</ele>
        <time>2026-02-20T08:50:47Z</time>
      </trkpt>
      <trkpt lat="41.40133848452697" lon="-81.74143316613605">
        <ele>265.7745406547</ele>
        <time>2026-02-20T08:51:28Z</time>
      </trkpt>
      <trkpt lat="41.40135212260247" lon="-81.74203595395072">
        <ele>265.6954508301</ele>
        <time>2026-02-20T08:52:24Z</time>
      </trkpt>
      <trkpt lat="41.40134521738410" lon="-81.74241312939795">
        <ele>264.7913769698</ele>
        <time>2026-02-20T08:53:04Z</time>
      </trkpt>
      <trkpt lat="41.40176583991884" lon="-81.74262243074121">
        <ele>264.2828821767</ele>
        <time>2026-02-20T08:53:40Z</time>
      </trkpt>
      <trkpt lat="41.40218826636882" lon="-81.74284573524545">
        <ele>263.5403672139</ele>
        <time>2026-02-20T08:54:24Z</time>
      </trkpt>
      <trkpt lat="41.40260507754123" lon="-81.74305290025015">
        <ele>262.9846381361</ele>
        <time>2026-02-20T08:55:05Z</time>
      </trkpt>
      <trkpt lat="41.40302929915181" lon="-81.74325653837784">
        <ele>262.4878739180</ele>
        <time>2026-02-20T08:55:36Z</time>
      </trkpt>
      <trkpt lat="41.40344696265690" lon="-81.74348300424258">
        <ele>261.8053164366</ele>
        <time>2026-02-20T08:56:18Z</time>
      </trkpt>
      <trkpt lat="41.40348769019155" lon="-81.74349822635895">
        <ele>261.9016572241</ele>
        <time>2026-02-20T08:56:21Z</time>
      </trkpt>
      <trkpt lat="41.40360014155512" lon="-81.74353153460696">
        <ele>261.6787302457</ele>
        <time>2026-02-20T08:56:40Z</time>
      </trkpt>
      <trkpt lat="41.40399234753711" lon="-81.74350651298516">
        <ele>260.7788452969</ele>
        <time>2026-02-20T08:57:09Z</time>
      </trkpt>
      <trkpt lat="41.40399527320287" lon="-81.74291611431961">
        <ele>261.5941082230</ele>
        <time>2026-02-20T08:57:42Z</time>
      </trkpt>
      <trkpt lat="41.40398823733814" lon="-81.74230154722393">
        <ele>262.2469810296</ele>
        <time>2026-02-20T08:58:16Z</time>
      </trkpt>
      <trkpt lat="41.40398626294097" lon="-81.74170407697193">
        <ele>262.2799566496</ele>
        <time>2026-02-20T08:59:00Z</time>
      </trkpt>
      <trkpt lat="41.40398209367410" lon="-81.74110141042564">
        <ele>263.0448289798</ele>
        <time>2026-02-20T08:59:43Z</time>
      </trkpt>
      <trkpt lat="41.40399854381641" lon="-81.74051404239464">
        <ele>263.5899093373</ele>
        <time>2026-02-20T09:00:34Z</time>
      </trkpt>
      <trkpt lat="41.40398502612299" lon="-81.73991448643618">
        <ele>264.3161907837</ele>
        <time>2026-02-20T09:01:40Z</time>
      </trkpt>
      <trkpt lat="41.40398868561329" lon="-81.73930631519761">
        <ele>264.8273074900</ele>
        <time>2026-02-20T09:02:13Z</time>
      </trkpt>
      <trkpt lat="41.40398488549879" lon="-81.73877528243986">
        <ele>265.4413738776</ele>
        <time>2026-02-20T09:02:43Z</time>
      </trkpt>
      <trkpt lat="41.40353908805765" lon="-81.73878550474591">
        <ele>265.7098719482</ele>
        <time>2026-02-20T09:03:20Z</time>
      </trkpt>
      <trkpt lat="41.40308737774199" lon="-81.73878143575379">
        <ele>266.3940111412</ele>
        <time>2026-02-20T09:04:24Z</time>
      </trkpt>
      <trkpt lat="41.40264592920445" lon="-81.73877882241128">
        <ele>266.6916422610</ele>
        <time>2026-02-20T09:05:01Z</time>
      </trkpt>
      <trkpt lat="41.40223094300155" lon="-81.73878160118784">
        <ele>267.2332767193</ele>
        <time>2026-02-20T09:05:43Z</time>
      </trkpt>
      <trkpt lat="41.40221847127852" lon="-81.73827874564051">
        <ele>267.0807562849</ele>
        <time>2026-02-20T09:06:12Z</time>
      </trkpt>
      <trkpt lat="41.40177297991197" lon="-81.73827384596851">
        <ele>267.7086784848</ele>
        <time>2026-02-20T09:06:58Z</time>
      </trkpt>
      <trkpt lat="41.40133643765906" lon="-81.73826348537571">
        <ele>267.7133775100</ele>
        <time>2026-02-20T09:07:27Z</time>
      </trkpt>
      <trkpt lat="41.40132968103364" lon="-81.73885924617390">
        <ele>267.2885206241</ele>
        <time>2026-02-20T09:08:03Z</time>
      </trkpt>
      <trkpt lat="41.40133912400614" lon="-81.73946923215324">
        <ele>267.3623473574</ele>
        <time>2026-02-20T09:08:39Z</time>
      </trkpt>
      <trkpt lat="41.40133573583503" lon="-81.74007280944851">
        <ele>266.7437220391</ele>
        <time>2026-02-20T09:09:14Z</time>
      </trkpt>
      <trkpt lat="41.40134104377187" lon="-81.74020983096287">
        <ele>266.5194460238</ele>
        <time>2026-02-20T09:09:26Z</time>
      </trkpt>
    </trkseg>
  </trk>
</gpx>