<?xml version='1.0' encoding='UTF-8'?>
<gpx xmlns="http://www.topografix.com/GPX/1/1" creator="https://gpx.studio" version="1.1">
  <metadata>
    <name>Dog Walk - 2026-07-30 #1</name>
  </metadata>
  <trk>
    <name>Dog Walk - 2026-07-30 #1</name>
    <type>dog walk</type>
    <trkseg>
      <trkpt lat="41.40134938837725" lon="-81.74023131089768">
        <ele>266.6895881591</ele>
        <time>2026-07-30T11:26:34Z</time>
      </trkpt>
      <trkpt lat="41.40134146571479" lon="-81.74084294922646">
        <ele>266.0355757191</ele>
        <time>2026-07-30T11:27:16Z</time>
      </trkpt>
      <trkpt lat="41.40134004363836" lon="-81.74143576900995">
        <ele>265.7963408308</ele>
        <time>2026-07-30T11:28:07Z</time>
      </trkpt>
      <trkpt lat="41.40134844060744" lon="-81.74202871343327">
        <ele>265.4602830318</ele>
        <time>2026-07-30T11:28:41Z</time>
      </trkpt>
      <trkpt lat="41.40135066145868" lon="-81.74241317829581">
        <ele>264.6299386047</ele>
        <time>2026-07-30T11:29:07Z</time>
      </trkpt>
      <trkpt lat="41.40176538910035" lon="-81.74263999235103">
        <ele>264.2065307198</ele>
        <time>2026-07-30T11:30:10Z</time>
      </trkpt>
      <trkpt lat="41.40218912508285" lon="-81.74285268621016">
        <ele>263.3026410690</ele>
        <time>2026-07-30T11:30:59Z</time>
      </trkpt>
      <trkpt lat="41.40221937305784" lon="-81.74286919605832">
        <ele>263.5421344272</ele>
        <time>2026-07-30T11:31:02Z</time>
      </trkpt>
      <trkpt lat="41.40221462958625" lon="-81.74227476069314">
        <ele>264.2712649415</ele>
        <time>2026-07-30T11:31:42Z</time>
      </trkpt>
      <trkpt lat="41.40221446545112" lon="-81.74166502072015">
        <ele>264.7400597220</ele>
        <time>2026-07-30T11:32:21Z</time>
      </trkpt>
      <trkpt lat="41.40221616875797" lon="-81.74107099500262">
        <ele>265.3681338179</ele>
        <time>2026-07-30T11:32:55Z</time>
      </trkpt>
      <trkpt lat="41.40221661984381" lon="-81.74046670355949">
        <ele>265.9550323109</ele>
        <time>2026-07-30T11:33:39Z</time>
      </trkpt>
      <trkpt lat="41.40222148739280" lon="-81.73987280931669">
        <ele>266.4116208902</ele>
        <time>2026-07-30T11:34:23Z</time>
      </trkpt>
      <trkpt lat="41.40221831294195" lon="-81.73926863234092">
        <ele>266.9377397494</ele>
        <time>2026-07-30T11:34:58Z</time>
      </trkpt>
      <trkpt lat="41.40222310344729" lon="-81.73866868967879">
        <ele>266.9560833841</ele>
        <time>2026-07-30T11:35:43Z</time>
      </trkpt>
      <trkpt lat="41.40221927286171" lon="-81.73827576919049">
        <ele>266.9596399701</ele>
        <time>2026-07-30T11:36:07Z</time>
      </trkpt>
      <trkpt lat="41.40177075777614" lon="-81.73827503702903">
        <ele>267.9483807964</ele>
        <time>2026-07-30T11:36:49Z</time>
      </trkpt>
      <trkpt lat="41.40133561789044" lon="-81.73826795536858">
        <ele>267.5948628182</ele>
        <time>2026-07-30T11:37:28Z</time>
      </trkpt>
      <trkpt lat="41.40133055887554" lon="-81.73885601184401">
        <ele>267.2153241039</ele>
        <time>2026-07-30T11:38:13Z</time>
      </trkpt>
      <trkpt lat="41.40134098402407" lon="-81.73946273141043">
        <ele>267.2884281600</ele>
        <time>2026-07-30T11:38:50Z</time>
      </trkpt>
      <trkpt lat="41.40134100568337" lon="-81.74005811688451">
        <ele>266.5918439755</ele>
        <time>2026-07-30T11:39:50Z</time>
      </trkpt>
      <trkpt lat="41.40133696834913" lon="-81.74018856776374">
        <ele>266.3929446371</ele>
        <time>2026-07-30T11:39:58Z</time>
      </trkpt>
    </trkseg>
  </trk>
</gpx>