<?xml version='1.0' encoding='UTF-8'?>
<gpx xmlns="http://www.topografix.com/GPX/1/1" creator="https://gpx.studio" version="1.1">
  <metadata>
    <name>Dog Walk - 2026-06-19 #2</name>
  </metadata>
  <trk>
    <name>Dog Walk - 2026-06-19 #2</name>
    <type>dog walk</type>
    <trkseg>
      <trkpt lat="41.40133650894841" lon="-81.74023239430913">
        <ele>266.4520113818</ele>
        <time>2026-06-19T12:43:42Z</time>
      </trkpt>
      <trkpt lat="41.40133725862320" lon="-81.74082984050384">
        <ele>266.2986330931</ele>
        <time>2026-06-19T12:44:22Z</time>
      </trkpt>
      <trkpt lat="41.40133638769043" lon="-81.74143507950608">
        <ele>265.7072240568</ele>
        <time>2026-06-19T12:45:02Z</time>
      </trkpt>
      <trkpt lat="41.40133100324952" lon="-81.74203727696177">
        <ele>265.4138846288</ele>
        <time>2026-06-19T12:45:46Z</time>
      </trkpt>
      <trkpt lat="41.40132584148949" lon="-81.74238563589567">
        <ele>264.6716876814</ele>
        <time>2026-06-19T12:46:10Z</time>
      </trkpt>
      <trkpt lat="41.40090769160625" lon="-81.74217629629284">
        <ele>265.0592482242</ele>
        <time>2026-06-19T12:46:58Z</time>
      </trkpt>
      <trkpt lat="41.40049074324934" lon="-81.74197260168792">
        <ele>265.1580817962</ele>
        <time>2026-06-19T12:47:39Z</time>
      </trkpt>
      <trkpt lat="41.40045451692572" lon="-81.74195843215752">
        <ele>265.3403903950</ele>
        <time>2026-06-19T12:47:43Z</time>
      </trkpt>
      <trkpt lat="41.40044300901847" lon="-81.74135420337423">
        <ele>265.8852583361</ele>
        <time>2026-06-19T12:48:20Z</time>
      </trkpt>
      <trkpt lat="41.40043888478250" lon="-81.74075530561947">
        <ele>266.7776854675</ele>
        <time>2026-06-19T12:48:55Z</time>
      </trkpt>
      <trkpt lat="41.40043442414045" lon="-81.74014845589330">
        <ele>266.7558159629</ele>
        <time>2026-06-19T12:49:44Z</time>
      </trkpt>
      <trkpt lat="41.40043915654852" lon="-81.73954952064256">
        <ele>267.0161602473</ele>
        <time>2026-06-19T12:50:28Z</time>
      </trkpt>
      <trkpt lat="41.40043058495134" lon="-81.73894507596665">
        <ele>267.1959697580</ele>
        <time>2026-06-19T12:51:12Z</time>
      </trkpt>
      <trkpt lat="41.40042857953596" lon="-81.73835528810683">
        <ele>266.8777901073</ele>
        <time>2026-06-19T12:51:46Z</time>
      </trkpt>
      <trkpt lat="41.40042139405482" lon="-81.73775559733316">
        <ele>267.7167065225</ele>
        <time>2026-06-19T12:52:30Z</time>
      </trkpt>
      <trkpt lat="41.40040697310851" lon="-81.73715482175469">
        <ele>268.0185239344</ele>
        <time>2026-06-19T12:53:13Z</time>
      </trkpt>
      <trkpt lat="41.40040086287686" lon="-81.73655118436548">
        <ele>268.0836686372</ele>
        <time>2026-06-19T12:53:55Z</time>
      </trkpt>
      <trkpt lat="41.40040799120580" lon="-81.73595070002108">
        <ele>267.8244109518</ele>
        <time>2026-06-19T12:54:31Z</time>
      </trkpt>
      <trkpt lat="41.40040443447441" lon="-81.73536430095791">
        <ele>267.9372668862</ele>
        <time>2026-06-19T12:55:09Z</time>
      </trkpt>
      <trkpt lat="41.40038725930614" lon="-81.73475864136795">
        <ele>267.2713916074</ele>
        <time>2026-06-19T12:56:23Z</time>
      </trkpt>
      <trkpt lat="41.40039582230918" lon="-81.73462439770088">
        <ele>267.2676106326</ele>
        <time>2026-06-19T12:56:45Z</time>
      </trkpt>
      <trkpt lat="41.40083635748324" lon="-81.73463217640322">
        <ele>267.1882763327</ele>
        <time>2026-06-19T12:57:21Z</time>
      </trkpt>
      <trkpt lat="41.40129020206439" lon="-81.73462901783616">
        <ele>267.3170855284</ele>
        <time>2026-06-19T12:58:10Z</time>
      </trkpt>
      <trkpt lat="41.40131862168534" lon="-81.73463548266533">
        <ele>267.4305520791</ele>
        <time>2026-06-19T12:58:13Z</time>
      </trkpt>
      <trkpt lat="41.40131844407818" lon="-81.73523635771662">
        <ele>267.9693855548</ele>
        <time>2026-06-19T12:58:54Z</time>
      </trkpt>
      <trkpt lat="41.40133402394684" lon="-81.73583798732928">
        <ele>268.2481736457</ele>
        <time>2026-06-19T12:59:31Z</time>
      </trkpt>
      <trkpt lat="41.40132690037226" lon="-81.73642595824850">
        <ele>268.0566296577</ele>
        <time>2026-06-19T13:00:13Z</time>
      </trkpt>
      <trkpt lat="41.40132899493237" lon="-81.73703549803272">
        <ele>267.9709886017</ele>
        <time>2026-06-19T13:00:54Z</time>
      </trkpt>
      <trkpt lat="41.40132881668004" lon="-81.73762672600175">
        <ele>267.9508903012</ele>
        <time>2026-06-19T13:01:29Z</time>
      </trkpt>
      <trkpt lat="41.40134399748783" lon="-81.73823759612986">
        <ele>267.2516998767</ele>
        <time>2026-06-19T13:02:12Z</time>
      </trkpt>
      <trkpt lat="41.40133957917828" lon="-81.73883847785081">
        <ele>267.3975095278</ele>
        <time>2026-06-19T13:02:51Z</time>
      </trkpt>
      <trkpt lat="41.40134645592384" lon="-81.73942536922773">
        <ele>267.2258995465</ele>
        <time>2026-06-19T13:03:33Z</time>
      </trkpt>
      <trkpt lat="41.40133765085761" lon="-81.74003337072152">
        <ele>266.5335506642</ele>
        <time>2026-06-19T13:04:18Z</time>
      </trkpt>
      <trkpt lat="41.40134141045641" lon="-81.74019407493422">
        <ele>266.6710048315</ele>
        <time>2026-06-19T13:04:30Z</time>
      </trkpt>
    </trkseg>
  </trk>
</gpx>