<?xml version='1.0' encoding='UTF-8'?>
<gpx xmlns="http://www.topografix.com/GPX/1/1" creator="https://gpx.studio" version="1.1">
  <metadata>
    <name>Dog Walk - 2026-04-25 #2</name>
  </metadata>
  <trk>
    <name>Dog Walk - 2026-04-25 #2</name>
    <type>dog walk</type>
    <trkseg>
      <trkpt lat="41.40132695525699" lon="-81.74025568567774">
        <ele>266.4165809220</ele>
        <time>2026-04-25T12:41:34Z</time>
      </trkpt>
      <trkpt lat="41.40133369804600" lon="-81.74025586926965">
        <ele>266.2531633118</ele>
        <time>2026-04-25T12:41:35Z</time>
      </trkpt>
      <trkpt lat="41.40132392128714" lon="-81.74086564503803">
        <ele>266.2935591528</ele>
        <time>2026-04-25T12:42:08Z</time>
      </trkpt>
      <trkpt lat="41.40133358434687" lon="-81.74145617501553">
        <ele>265.7664941580</ele>
        <time>2026-04-25T12:42:40Z</time>
      </trkpt>
      <trkpt lat="41.40132306750827" lon="-81.74205010430957">
        <ele>265.4506950508</ele>
        <time>2026-04-25T12:43:18Z</time>
      </trkpt>
      <trkpt lat="41.40132803331075" lon="-81.74238329815755">
        <ele>264.8266333714</ele>
        <time>2026-04-25T12:43:35Z</time>
      </trkpt>
      <trkpt lat="41.40131770717757" lon="-81.74237721389740">
        <ele>264.7419364241</ele>
        <time>2026-04-25T12:43:36Z</time>
      </trkpt>
      <trkpt lat="41.40089959714721" lon="-81.74218855617154">
        <ele>265.1094532096</ele>
        <time>2026-04-25T12:44:14Z</time>
      </trkpt>
      <trkpt lat="41.40047427557641" lon="-81.74199595639043">
        <ele>265.2606406413</ele>
        <time>2026-04-25T12:44:59Z</time>
      </trkpt>
      <trkpt lat="41.40004497595758" lon="-81.74180380048621">
        <ele>265.2762045346</ele>
        <time>2026-04-25T12:45:35Z</time>
      </trkpt>
      <trkpt lat="41.39962600942519" lon="-81.74160746264607">
        <ele>264.8906722366</ele>
        <time>2026-04-25T12:46:23Z</time>
      </trkpt>
      <trkpt lat="41.39954240618798" lon="-81.74157437343789">
        <ele>264.8277148477</ele>
        <time>2026-04-25T12:46:29Z</time>
      </trkpt>
      <trkpt lat="41.39954554903627" lon="-81.74096410912250">
        <ele>265.6384928799</ele>
        <time>2026-04-25T12:47:08Z</time>
      </trkpt>
      <trkpt lat="41.39953873366513" lon="-81.74037076187210">
        <ele>266.2338963504</ele>
        <time>2026-04-25T12:47:45Z</time>
      </trkpt>
      <trkpt lat="41.39953907511045" lon="-81.73978087015104">
        <ele>266.8072709394</ele>
        <time>2026-04-25T12:48:18Z</time>
      </trkpt>
      <trkpt lat="41.39953947448154" lon="-81.73917562537544">
        <ele>266.6164992415</ele>
        <time>2026-04-25T12:49:07Z</time>
      </trkpt>
      <trkpt lat="41.39953555447050" lon="-81.73857724495905">
        <ele>266.9819538967</ele>
        <time>2026-04-25T12:49:36Z</time>
      </trkpt>
      <trkpt lat="41.39953777726260" lon="-81.73829052065452">
        <ele>266.7869351562</ele>
        <time>2026-04-25T12:49:54Z</time>
      </trkpt>
      <trkpt lat="41.39952865026542" lon="-81.73829712503574">
        <ele>267.0390373606</ele>
        <time>2026-04-25T12:49:55Z</time>
      </trkpt>
      <trkpt lat="41.39998878738618" lon="-81.73829290843412">
        <ele>267.2683295950</ele>
        <time>2026-04-25T12:50:47Z</time>
      </trkpt>
      <trkpt lat="41.40042993269338" lon="-81.73830241248474">
        <ele>267.1271966841</ele>
        <time>2026-04-25T12:51:21Z</time>
      </trkpt>
      <trkpt lat="41.40089037865985" lon="-81.73829632537000">
        <ele>267.1710797786</ele>
        <time>2026-04-25T12:52:01Z</time>
      </trkpt>
      <trkpt lat="41.40131762480087" lon="-81.73830977318889">
        <ele>267.5773975935</ele>
        <time>2026-04-25T12:52:36Z</time>
      </trkpt>
      <trkpt lat="41.40133533827629" lon="-81.73889873416826">
        <ele>267.5126360845</ele>
        <time>2026-04-25T12:53:13Z</time>
      </trkpt>
      <trkpt lat="41.40132921151236" lon="-81.73951175497163">
        <ele>267.0767988583</ele>
        <time>2026-04-25T12:54:11Z</time>
      </trkpt>
      <trkpt lat="41.40134151384751" lon="-81.74010038172521">
        <ele>266.5365280837</ele>
        <time>2026-04-25T12:54:49Z</time>
      </trkpt>
      <trkpt lat="41.40133740838932" lon="-81.74016349658756">
        <ele>266.6738640653</ele>
        <time>2026-04-25T12:54:55Z</time>
      </trkpt>
    </trkseg>
  </trk>
</gpx>