<?xml version='1.0' encoding='UTF-8'?>
<gpx xmlns="http://www.topografix.com/GPX/1/1" creator="https://gpx.studio" version="1.1">
  <metadata>
    <name>Dog Walk - 2026-08-01 #2</name>
  </metadata>
  <trk>
    <name>Dog Walk - 2026-08-01 #2</name>
    <type>dog walk</type>
    <trkseg>
      <trkpt lat="41.40134306319720" lon="-81.74023431310239">
        <ele>266.3278654396</ele>
        <time>2026-08-01T11:12:33Z</time>
      </trkpt>
      <trkpt lat="41.40133349881013" lon="-81.74082071212177">
        <ele>266.2113697980</ele>
        <time>2026-08-01T11:13:21Z</time>
      </trkpt>
      <trkpt lat="41.40133699993869" lon="-81.74142047146513">
        <ele>266.0012996473</ele>
        <time>2026-08-01T11:14:03Z</time>
      </trkpt>
      <trkpt lat="41.40132893328227" lon="-81.74202696911935">
        <ele>265.3729057231</ele>
        <time>2026-08-01T11:14:40Z</time>
      </trkpt>
      <trkpt lat="41.40132952939641" lon="-81.74238859047942">
        <ele>264.5610864145</ele>
        <time>2026-08-01T11:15:11Z</time>
      </trkpt>
      <trkpt lat="41.40090808687815" lon="-81.74217805763595">
        <ele>265.4163846242</ele>
        <time>2026-08-01T11:16:01Z</time>
      </trkpt>
      <trkpt lat="41.40048296666597" lon="-81.74196723036926">
        <ele>265.0839752904</ele>
        <time>2026-08-01T11:16:34Z</time>
      </trkpt>
      <trkpt lat="41.40044935829028" lon="-81.74194705930201">
        <ele>265.3275059270</ele>
        <time>2026-08-01T11:16:38Z</time>
      </trkpt>
      <trkpt lat="41.40045092861419" lon="-81.74135856800876">
        <ele>265.9682473001</ele>
        <time>2026-08-01T11:17:15Z</time>
      </trkpt>
      <trkpt lat="41.40044037824654" lon="-81.74074835357965">
        <ele>266.5208718749</ele>
        <time>2026-08-01T11:17:49Z</time>
      </trkpt>
      <trkpt lat="41.40044368156145" lon="-81.74014345441766">
        <ele>266.5938196982</ele>
        <time>2026-08-01T11:18:27Z</time>
      </trkpt>
      <trkpt lat="41.40043574843448" lon="-81.73955217345818">
        <ele>267.0295307091</ele>
        <time>2026-08-01T11:18:58Z</time>
      </trkpt>
      <trkpt lat="41.40042912355738" lon="-81.73895225135500">
        <ele>267.2810207047</ele>
        <time>2026-08-01T11:19:43Z</time>
      </trkpt>
      <trkpt lat="41.40042527759522" lon="-81.73835365010348">
        <ele>267.2128297429</ele>
        <time>2026-08-01T11:20:42Z</time>
      </trkpt>
      <trkpt lat="41.40042110828528" lon="-81.73774759263574">
        <ele>267.6003008734</ele>
        <time>2026-08-01T11:21:24Z</time>
      </trkpt>
      <trkpt lat="41.40041532868660" lon="-81.73714865110831">
        <ele>267.9368008150</ele>
        <time>2026-08-01T11:22:09Z</time>
      </trkpt>
      <trkpt lat="41.40041436397056" lon="-81.73654614759228">
        <ele>268.1826173096</ele>
        <time>2026-08-01T11:22:48Z</time>
      </trkpt>
      <trkpt lat="41.40040478954151" lon="-81.73595585595312">
        <ele>267.9231439608</ele>
        <time>2026-08-01T11:23:41Z</time>
      </trkpt>
      <trkpt lat="41.40039995918490" lon="-81.73535133128080">
        <ele>267.7686947167</ele>
        <time>2026-08-01T11:24:16Z</time>
      </trkpt>
      <trkpt lat="41.40039225599250" lon="-81.73475246873436">
        <ele>267.4562899697</ele>
        <time>2026-08-01T11:24:55Z</time>
      </trkpt>
      <trkpt lat="41.40039280689601" lon="-81.73462895970671">
        <ele>267.4990598263</ele>
        <time>2026-08-01T11:25:04Z</time>
      </trkpt>
      <trkpt lat="41.40084562187025" lon="-81.73464111640153">
        <ele>267.1740411884</ele>
        <time>2026-08-01T11:25:42Z</time>
      </trkpt>
      <trkpt lat="41.40129929280199" lon="-81.73463692457405">
        <ele>267.4094521328</ele>
        <time>2026-08-01T11:26:20Z</time>
      </trkpt>
      <trkpt lat="41.40132361722842" lon="-81.73463514255012">
        <ele>267.2290574975</ele>
        <time>2026-08-01T11:26:22Z</time>
      </trkpt>
      <trkpt lat="41.40131898176426" lon="-81.73523166584971">
        <ele>267.8511423201</ele>
        <time>2026-08-01T11:27:04Z</time>
      </trkpt>
      <trkpt lat="41.40133025439432" lon="-81.73583114626413">
        <ele>268.1940463073</ele>
        <time>2026-08-01T11:27:43Z</time>
      </trkpt>
      <trkpt lat="41.40132487038122" lon="-81.73643997285198">
        <ele>268.1585281609</ele>
        <time>2026-08-01T11:28:16Z</time>
      </trkpt>
      <trkpt lat="41.40132536730471" lon="-81.73703471547255">
        <ele>267.9141738637</ele>
        <time>2026-08-01T11:28:59Z</time>
      </trkpt>
      <trkpt lat="41.40132769832200" lon="-81.73763073989784">
        <ele>267.9128944541</ele>
        <time>2026-08-01T11:30:09Z</time>
      </trkpt>
      <trkpt lat="41.40134256292788" lon="-81.73822347308165">
        <ele>267.5742561813</ele>
        <time>2026-08-01T11:30:38Z</time>
      </trkpt>
      <trkpt lat="41.40134110344025" lon="-81.73882061141963">
        <ele>267.3016417648</ele>
        <time>2026-08-01T11:31:16Z</time>
      </trkpt>
      <trkpt lat="41.40134467904795" lon="-81.73942449757516">
        <ele>266.8977365788</ele>
        <time>2026-08-01T11:32:03Z</time>
      </trkpt>
      <trkpt lat="41.40135125269864" lon="-81.74002438782007">
        <ele>266.6937184803</ele>
        <time>2026-08-01T11:32:47Z</time>
      </trkpt>
      <trkpt lat="41.40134871273693" lon="-81.74019818304828">
        <ele>266.6859520566</ele>
        <time>2026-08-01T11:32:59Z</time>
      </trkpt>
    </trkseg>
  </trk>
</gpx>