<?xml version='1.0' encoding='UTF-8'?>
<gpx xmlns="http://www.topografix.com/GPX/1/1" creator="https://gpx.studio" version="1.1">
  <metadata>
    <name>Dog Walk - 2026-02-27 #1</name>
  </metadata>
  <trk>
    <name>Dog Walk - 2026-02-27 #1</name>
    <type>dog walk</type>
    <trkseg>
      <trkpt lat="41.40134466905814" lon="-81.74023744663893">
        <ele>266.5976118346</ele>
        <time>2026-02-27T07:56:41Z</time>
      </trkpt>
      <trkpt lat="41.40133471363699" lon="-81.74083739037995">
        <ele>266.2157227422</ele>
        <time>2026-02-27T07:57:17Z</time>
      </trkpt>
      <trkpt lat="41.40133514208159" lon="-81.74143832536092">
        <ele>265.8139949031</ele>
        <time>2026-02-27T07:58:03Z</time>
      </trkpt>
      <trkpt lat="41.40133625414889" lon="-81.74202763493801">
        <ele>265.4719759210</ele>
        <time>2026-02-27T07:58:50Z</time>
      </trkpt>
      <trkpt lat="41.40132768734787" lon="-81.74239447658061">
        <ele>264.8940643809</ele>
        <time>2026-02-27T07:59:26Z</time>
      </trkpt>
      <trkpt lat="41.40090324769653" lon="-81.74217345822071">
        <ele>265.1397619864</ele>
        <time>2026-02-27T08:00:11Z</time>
      </trkpt>
      <trkpt lat="41.40048956340061" lon="-81.74195759445301">
        <ele>265.2300926777</ele>
        <time>2026-02-27T08:00:50Z</time>
      </trkpt>
      <trkpt lat="41.40044477310857" lon="-81.74195746301294">
        <ele>265.2550676741</ele>
        <time>2026-02-27T08:00:54Z</time>
      </trkpt>
      <trkpt lat="41.40044334867899" lon="-81.74135120255475">
        <ele>265.9429097175</ele>
        <time>2026-02-27T08:01:32Z</time>
      </trkpt>
      <trkpt lat="41.40043916428015" lon="-81.74075313158829">
        <ele>266.2923585832</ele>
        <time>2026-02-27T08:02:09Z</time>
      </trkpt>
      <trkpt lat="41.40044119469099" lon="-81.74015031323410">
        <ele>266.7887686350</ele>
        <time>2026-02-27T08:02:50Z</time>
      </trkpt>
      <trkpt lat="41.40043842277147" lon="-81.73955168712659">
        <ele>266.9457004199</ele>
        <time>2026-02-27T08:03:39Z</time>
      </trkpt>
      <trkpt lat="41.40042756336465" lon="-81.73895060213778">
        <ele>267.1337610114</ele>
        <time>2026-02-27T08:04:08Z</time>
      </trkpt>
      <trkpt lat="41.40042088941424" lon="-81.73835055892569">
        <ele>267.2031021931</ele>
        <time>2026-02-27T08:04:47Z</time>
      </trkpt>
      <trkpt lat="41.40042145998378" lon="-81.73775036100633">
        <ele>267.7575767375</ele>
        <time>2026-02-27T08:05:34Z</time>
      </trkpt>
      <trkpt lat="41.40041877204168" lon="-81.73714615554097">
        <ele>268.0282824697</ele>
        <time>2026-02-27T08:06:21Z</time>
      </trkpt>
      <trkpt lat="41.40041121564966" lon="-81.73655343968042">
        <ele>267.8453402099</ele>
        <time>2026-02-27T08:07:01Z</time>
      </trkpt>
      <trkpt lat="41.40040446505111" lon="-81.73595676395119">
        <ele>267.7336764848</ele>
        <time>2026-02-27T08:07:39Z</time>
      </trkpt>
      <trkpt lat="41.40039983910575" lon="-81.73535546350260">
        <ele>267.6147346572</ele>
        <time>2026-02-27T08:08:15Z</time>
      </trkpt>
      <trkpt lat="41.40039574100376" lon="-81.73475398825288">
        <ele>267.3648620777</ele>
        <time>2026-02-27T08:08:55Z</time>
      </trkpt>
      <trkpt lat="41.40039175288042" lon="-81.73462558739928">
        <ele>267.4989637300</ele>
        <time>2026-02-27T08:09:03Z</time>
      </trkpt>
      <trkpt lat="41.40084299638280" lon="-81.73463270226158">
        <ele>267.3308882663</ele>
        <time>2026-02-27T08:09:46Z</time>
      </trkpt>
      <trkpt lat="41.40129454257661" lon="-81.73462546914435">
        <ele>267.4318283041</ele>
        <time>2026-02-27T08:10:25Z</time>
      </trkpt>
      <trkpt lat="41.40132779068396" lon="-81.73463487231066">
        <ele>267.3040877612</ele>
        <time>2026-02-27T08:10:28Z</time>
      </trkpt>
      <trkpt lat="41.40132130027813" lon="-81.73523712791898">
        <ele>267.9321552432</ele>
        <time>2026-02-27T08:11:08Z</time>
      </trkpt>
      <trkpt lat="41.40132313243991" lon="-81.73582966335590">
        <ele>268.4001379058</ele>
        <time>2026-02-27T08:12:00Z</time>
      </trkpt>
      <trkpt lat="41.40132680074316" lon="-81.73643238371622">
        <ele>268.0359548543</ele>
        <time>2026-02-27T08:12:49Z</time>
      </trkpt>
      <trkpt lat="41.40132008379205" lon="-81.73702481929801">
        <ele>268.0807613463</ele>
        <time>2026-02-27T08:13:38Z</time>
      </trkpt>
      <trkpt lat="41.40132679839927" lon="-81.73763043040334">
        <ele>267.8110215941</ele>
        <time>2026-02-27T08:14:18Z</time>
      </trkpt>
      <trkpt lat="41.40133325511806" lon="-81.73823134433160">
        <ele>267.3615996823</ele>
        <time>2026-02-27T08:15:00Z</time>
      </trkpt>
      <trkpt lat="41.40134624538968" lon="-81.73882684162388">
        <ele>267.3653925701</ele>
        <time>2026-02-27T08:15:43Z</time>
      </trkpt>
      <trkpt lat="41.40134161520882" lon="-81.73942940738144">
        <ele>267.2506252334</ele>
        <time>2026-02-27T08:16:26Z</time>
      </trkpt>
      <trkpt lat="41.40134524311092" lon="-81.74001952154576">
        <ele>266.7580686189</ele>
        <time>2026-02-27T08:17:18Z</time>
      </trkpt>
      <trkpt lat="41.40134499167007" lon="-81.74019565968376">
        <ele>266.5390877855</ele>
        <time>2026-02-27T08:17:32Z</time>
      </trkpt>
    </trkseg>
  </trk>
</gpx>