<?xml version='1.0' encoding='UTF-8'?>
<gpx xmlns="http://www.topografix.com/GPX/1/1" creator="https://gpx.studio" version="1.1">
  <metadata>
    <name>Dog Walk - 2026-03-06 #1</name>
  </metadata>
  <trk>
    <name>Dog Walk - 2026-03-06 #1</name>
    <type>dog walk</type>
    <trkseg>
      <trkpt lat="41.40133292592466" lon="-81.74025422175180">
        <ele>266.4421891924</ele>
        <time>2026-03-06T07:40:36Z</time>
      </trkpt>
      <trkpt lat="41.40133325641989" lon="-81.74025617529294">
        <ele>266.4820550839</ele>
        <time>2026-03-06T07:40:37Z</time>
      </trkpt>
      <trkpt lat="41.40133176128792" lon="-81.74085882272189">
        <ele>266.4067192844</ele>
        <time>2026-03-06T07:41:35Z</time>
      </trkpt>
      <trkpt lat="41.40132774873963" lon="-81.74145508754958">
        <ele>265.8675836767</ele>
        <time>2026-03-06T07:42:15Z</time>
      </trkpt>
      <trkpt lat="41.40133034929855" lon="-81.74205962177739">
        <ele>265.2571906414</ele>
        <time>2026-03-06T07:42:49Z</time>
      </trkpt>
      <trkpt lat="41.40132026907835" lon="-81.74237822302747">
        <ele>264.9310814152</ele>
        <time>2026-03-06T07:43:13Z</time>
      </trkpt>
      <trkpt lat="41.40132696958293" lon="-81.74238248641312">
        <ele>264.7165083725</ele>
        <time>2026-03-06T07:43:14Z</time>
      </trkpt>
      <trkpt lat="41.40089550613422" lon="-81.74218206216727">
        <ele>265.2215767938</ele>
        <time>2026-03-06T07:43:58Z</time>
      </trkpt>
      <trkpt lat="41.40047558234073" lon="-81.74200144024678">
        <ele>265.0793972808</ele>
        <time>2026-03-06T07:44:33Z</time>
      </trkpt>
      <trkpt lat="41.40004404864359" lon="-81.74180379542550">
        <ele>265.5036723780</ele>
        <time>2026-03-06T07:45:12Z</time>
      </trkpt>
      <trkpt lat="41.39961004762219" lon="-81.74160201730889">
        <ele>264.8512751402</ele>
        <time>2026-03-06T07:45:56Z</time>
      </trkpt>
      <trkpt lat="41.39954328530645" lon="-81.74157345168834">
        <ele>264.7573282534</ele>
        <time>2026-03-06T07:46:03Z</time>
      </trkpt>
      <trkpt lat="41.39954410148130" lon="-81.74097399143692">
        <ele>265.6818893358</ele>
        <time>2026-03-06T07:46:41Z</time>
      </trkpt>
      <trkpt lat="41.39954052475648" lon="-81.74036480601855">
        <ele>265.9042611010</ele>
        <time>2026-03-06T07:47:25Z</time>
      </trkpt>
      <trkpt lat="41.39953681391660" lon="-81.73976853532157">
        <ele>266.6630836335</ele>
        <time>2026-03-06T07:48:12Z</time>
      </trkpt>
      <trkpt lat="41.39953220542741" lon="-81.73919004461314">
        <ele>266.9152570414</ele>
        <time>2026-03-06T07:48:49Z</time>
      </trkpt>
      <trkpt lat="41.39953683471601" lon="-81.73855677331046">
        <ele>266.9312678783</ele>
        <time>2026-03-06T07:49:34Z</time>
      </trkpt>
      <trkpt lat="41.39953805727286" lon="-81.73829827255946">
        <ele>266.7700623645</ele>
        <time>2026-03-06T07:50:12Z</time>
      </trkpt>
      <trkpt lat="41.39953844817097" lon="-81.73829543099582">
        <ele>267.1267096849</ele>
        <time>2026-03-06T07:50:13Z</time>
      </trkpt>
      <trkpt lat="41.39998836096100" lon="-81.73828804922805">
        <ele>267.0641151270</ele>
        <time>2026-03-06T07:51:03Z</time>
      </trkpt>
      <trkpt lat="41.40042771382198" lon="-81.73830313478790">
        <ele>267.2237073708</ele>
        <time>2026-03-06T07:51:37Z</time>
      </trkpt>
      <trkpt lat="41.40088299097115" lon="-81.73829754236644">
        <ele>267.4193936453</ele>
        <time>2026-03-06T07:52:12Z</time>
      </trkpt>
      <trkpt lat="41.40132511261992" lon="-81.73830164288196">
        <ele>267.4541753174</ele>
        <time>2026-03-06T07:52:55Z</time>
      </trkpt>
      <trkpt lat="41.40133025254035" lon="-81.73890169710475">
        <ele>267.3180515155</ele>
        <time>2026-03-06T07:53:31Z</time>
      </trkpt>
      <trkpt lat="41.40133601375302" lon="-81.73950274968249">
        <ele>267.0762101024</ele>
        <time>2026-03-06T07:54:12Z</time>
      </trkpt>
      <trkpt lat="41.40134190574985" lon="-81.74011564107009">
        <ele>266.5487060919</ele>
        <time>2026-03-06T07:54:49Z</time>
      </trkpt>
      <trkpt lat="41.40133882464453" lon="-81.74015026384981">
        <ele>266.6604093651</ele>
        <time>2026-03-06T07:54:51Z</time>
      </trkpt>
    </trkseg>
  </trk>
</gpx>