<?xml version='1.0' encoding='UTF-8'?>
<gpx xmlns="http://www.topografix.com/GPX/1/1" creator="https://gpx.studio" version="1.1">
  <metadata>
    <name>Dog Walk - 2026-05-29 #4</name>
  </metadata>
  <trk>
    <name>Dog Walk - 2026-05-29 #4</name>
    <type>dog walk</type>
    <trkseg>
      <trkpt lat="41.40133886982751" lon="-81.74024258572189">
        <ele>266.5488750338</ele>
        <time>2026-05-29T15:48:57Z</time>
      </trkpt>
      <trkpt lat="41.40133250285415" lon="-81.74082952546520">
        <ele>266.2109520619</ele>
        <time>2026-05-29T15:49:38Z</time>
      </trkpt>
      <trkpt lat="41.40132877391679" lon="-81.74143331763298">
        <ele>265.7896202614</ele>
        <time>2026-05-29T15:50:22Z</time>
      </trkpt>
      <trkpt lat="41.40132974648772" lon="-81.74203550088741">
        <ele>265.2686058267</ele>
        <time>2026-05-29T15:51:21Z</time>
      </trkpt>
      <trkpt lat="41.40132591113917" lon="-81.74238975391417">
        <ele>264.6221905631</ele>
        <time>2026-05-29T15:51:43Z</time>
      </trkpt>
      <trkpt lat="41.40090405743589" lon="-81.74220275640234">
        <ele>265.2045212298</ele>
        <time>2026-05-29T15:52:30Z</time>
      </trkpt>
      <trkpt lat="41.40048210262514" lon="-81.74200363846838">
        <ele>265.0699961014</ele>
        <time>2026-05-29T15:53:14Z</time>
      </trkpt>
      <trkpt lat="41.40004773174604" lon="-81.74181603879059">
        <ele>265.4429526912</ele>
        <time>2026-05-29T15:54:03Z</time>
      </trkpt>
      <trkpt lat="41.39962892790101" lon="-81.74161606845506">
        <ele>264.7866223439</ele>
        <time>2026-05-29T15:54:35Z</time>
      </trkpt>
      <trkpt lat="41.39953376823789" lon="-81.74157911595806">
        <ele>264.7839674474</ele>
        <time>2026-05-29T15:54:43Z</time>
      </trkpt>
      <trkpt lat="41.39953277452794" lon="-81.74096333482457">
        <ele>265.7068163238</ele>
        <time>2026-05-29T15:55:32Z</time>
      </trkpt>
      <trkpt lat="41.39952771689092" lon="-81.74037768973837">
        <ele>266.2356333128</ele>
        <time>2026-05-29T15:56:09Z</time>
      </trkpt>
      <trkpt lat="41.39952776694554" lon="-81.73977836081947">
        <ele>266.4532130402</ele>
        <time>2026-05-29T15:57:03Z</time>
      </trkpt>
      <trkpt lat="41.39952910695117" lon="-81.73918021442216">
        <ele>266.9651996014</ele>
        <time>2026-05-29T15:57:48Z</time>
      </trkpt>
      <trkpt lat="41.39953201940429" lon="-81.73857805087806">
        <ele>267.0122995242</ele>
        <time>2026-05-29T15:58:29Z</time>
      </trkpt>
      <trkpt lat="41.39952362211110" lon="-81.73796951365131">
        <ele>267.0505819006</ele>
        <time>2026-05-29T15:58:58Z</time>
      </trkpt>
      <trkpt lat="41.39953318844552" lon="-81.73738824052350">
        <ele>267.3896709396</ele>
        <time>2026-05-29T15:59:30Z</time>
      </trkpt>
      <trkpt lat="41.39952744810961" lon="-81.73677725192451">
        <ele>267.4344589411</ele>
        <time>2026-05-29T16:00:07Z</time>
      </trkpt>
      <trkpt lat="41.39952777022749" lon="-81.73617851052583">
        <ele>267.5200499868</ele>
        <time>2026-05-29T16:01:02Z</time>
      </trkpt>
      <trkpt lat="41.39951966598930" lon="-81.73558156647262">
        <ele>267.4043244848</ele>
        <time>2026-05-29T16:01:48Z</time>
      </trkpt>
      <trkpt lat="41.39952670052509" lon="-81.73498278826872">
        <ele>267.1630678080</ele>
        <time>2026-05-29T16:02:39Z</time>
      </trkpt>
      <trkpt lat="41.39952155478236" lon="-81.73461006220845">
        <ele>267.0579654312</ele>
        <time>2026-05-29T16:03:05Z</time>
      </trkpt>
      <trkpt lat="41.39997327242409" lon="-81.73462580717353">
        <ele>267.1747547197</ele>
        <time>2026-05-29T16:03:49Z</time>
      </trkpt>
      <trkpt lat="41.40042031178883" lon="-81.73463386196991">
        <ele>267.3073376338</ele>
        <time>2026-05-29T16:04:22Z</time>
      </trkpt>
      <trkpt lat="41.40087743522009" lon="-81.73463287383626">
        <ele>267.3614803750</ele>
        <time>2026-05-29T16:04:58Z</time>
      </trkpt>
      <trkpt lat="41.40131757886492" lon="-81.73463110097923">
        <ele>267.4037575255</ele>
        <time>2026-05-29T16:05:45Z</time>
      </trkpt>
      <trkpt lat="41.40131815617855" lon="-81.73524567397746">
        <ele>267.9438294140</ele>
        <time>2026-05-29T16:06:29Z</time>
      </trkpt>
      <trkpt lat="41.40132276482140" lon="-81.73584192687153">
        <ele>268.3651717287</ele>
        <time>2026-05-29T16:07:14Z</time>
      </trkpt>
      <trkpt lat="41.40132554587666" lon="-81.73644598846134">
        <ele>268.1222022561</ele>
        <time>2026-05-29T16:07:56Z</time>
      </trkpt>
      <trkpt lat="41.40132555578734" lon="-81.73703993306817">
        <ele>268.0245458214</ele>
        <time>2026-05-29T16:08:30Z</time>
      </trkpt>
      <trkpt lat="41.40132464923138" lon="-81.73763413507125">
        <ele>267.9339448637</ele>
        <time>2026-05-29T16:09:11Z</time>
      </trkpt>
      <trkpt lat="41.40132337744542" lon="-81.73824743494450">
        <ele>267.5976893826</ele>
        <time>2026-05-29T16:09:51Z</time>
      </trkpt>
      <trkpt lat="41.40133220510937" lon="-81.73884172639181">
        <ele>267.3256755588</ele>
        <time>2026-05-29T16:10:44Z</time>
      </trkpt>
      <trkpt lat="41.40132737304864" lon="-81.73943775150016">
        <ele>267.1750397459</ele>
        <time>2026-05-29T16:11:48Z</time>
      </trkpt>
      <trkpt lat="41.40132897441995" lon="-81.74002858670184">
        <ele>266.7006876079</ele>
        <time>2026-05-29T16:12:23Z</time>
      </trkpt>
      <trkpt lat="41.40133613811341" lon="-81.74021316580766">
        <ele>266.6599489628</ele>
        <time>2026-05-29T16:12:36Z</time>
      </trkpt>
    </trkseg>
  </trk>
</gpx>