<?xml version='1.0' encoding='UTF-8'?>
<gpx xmlns="http://www.topografix.com/GPX/1/1" creator="https://gpx.studio" version="1.1">
  <metadata>
    <name>Dog Walk - 2026-02-24 #1</name>
  </metadata>
  <trk>
    <name>Dog Walk - 2026-02-24 #1</name>
    <type>dog walk</type>
    <trkseg>
      <trkpt lat="41.40133982900115" lon="-81.74022661010264">
        <ele>266.6412791133</ele>
        <time>2026-02-24T07:20:27Z</time>
      </trkpt>
      <trkpt lat="41.40133790890643" lon="-81.74083006860032">
        <ele>266.1816329738</ele>
        <time>2026-02-24T07:21:03Z</time>
      </trkpt>
      <trkpt lat="41.40134262594824" lon="-81.74144152418974">
        <ele>265.7495812894</ele>
        <time>2026-02-24T07:21:40Z</time>
      </trkpt>
      <trkpt lat="41.40134126956461" lon="-81.74203350919190">
        <ele>265.4255201053</ele>
        <time>2026-02-24T07:22:08Z</time>
      </trkpt>
      <trkpt lat="41.40134952901322" lon="-81.74243089988889">
        <ele>264.8671523356</ele>
        <time>2026-02-24T07:22:33Z</time>
      </trkpt>
      <trkpt lat="41.40177754957123" lon="-81.74263709984756">
        <ele>264.2044017474</ele>
        <time>2026-02-24T07:23:17Z</time>
      </trkpt>
      <trkpt lat="41.40219352821735" lon="-81.74282096170894">
        <ele>263.5924250337</ele>
        <time>2026-02-24T07:24:14Z</time>
      </trkpt>
      <trkpt lat="41.40261667459992" lon="-81.74301799702798">
        <ele>263.0165065744</ele>
        <time>2026-02-24T07:25:01Z</time>
      </trkpt>
      <trkpt lat="41.40304429826295" lon="-81.74322518196465">
        <ele>262.4176752606</ele>
        <time>2026-02-24T07:25:51Z</time>
      </trkpt>
      <trkpt lat="41.40311959615278" lon="-81.74325083580750">
        <ele>262.2536928043</ele>
        <time>2026-02-24T07:25:58Z</time>
      </trkpt>
      <trkpt lat="41.40311014096319" lon="-81.74265415055307">
        <ele>263.0045180978</ele>
        <time>2026-02-24T07:26:40Z</time>
      </trkpt>
      <trkpt lat="41.40311015163031" lon="-81.74205578068484">
        <ele>263.7891200447</ele>
        <time>2026-02-24T07:27:30Z</time>
      </trkpt>
      <trkpt lat="41.40311007004542" lon="-81.74146155024982">
        <ele>264.2033238074</ele>
        <time>2026-02-24T07:28:19Z</time>
      </trkpt>
      <trkpt lat="41.40311259427495" lon="-81.74086133807521">
        <ele>264.8570324829</ele>
        <time>2026-02-24T07:28:54Z</time>
      </trkpt>
      <trkpt lat="41.40310365434397" lon="-81.74025374459671">
        <ele>265.4176770144</ele>
        <time>2026-02-24T07:29:32Z</time>
      </trkpt>
      <trkpt lat="41.40309700329840" lon="-81.73966509139909">
        <ele>266.0765689119</ele>
        <time>2026-02-24T07:30:10Z</time>
      </trkpt>
      <trkpt lat="41.40310287695394" lon="-81.73906701664465">
        <ele>266.0294420813</ele>
        <time>2026-02-24T07:31:00Z</time>
      </trkpt>
      <trkpt lat="41.40309835402694" lon="-81.73877966278455">
        <ele>266.2116529037</ele>
        <time>2026-02-24T07:31:19Z</time>
      </trkpt>
      <trkpt lat="41.40265391782155" lon="-81.73878079226959">
        <ele>266.8643713048</ele>
        <time>2026-02-24T07:32:07Z</time>
      </trkpt>
      <trkpt lat="41.40223102261906" lon="-81.73878394895898">
        <ele>267.0198364098</ele>
        <time>2026-02-24T07:32:45Z</time>
      </trkpt>
      <trkpt lat="41.40223159450239" lon="-81.73818221754084">
        <ele>267.1080663357</ele>
        <time>2026-02-24T07:33:30Z</time>
      </trkpt>
      <trkpt lat="41.40222402024713" lon="-81.73757014289775">
        <ele>267.3033426949</ele>
        <time>2026-02-24T07:34:04Z</time>
      </trkpt>
      <trkpt lat="41.40222621748045" lon="-81.73697160865440">
        <ele>267.2421007168</ele>
        <time>2026-02-24T07:34:42Z</time>
      </trkpt>
      <trkpt lat="41.40222268565860" lon="-81.73637968893877">
        <ele>267.2815474133</ele>
        <time>2026-02-24T07:35:14Z</time>
      </trkpt>
      <trkpt lat="41.40223084861361" lon="-81.73578430994421">
        <ele>267.2176278722</ele>
        <time>2026-02-24T07:36:14Z</time>
      </trkpt>
      <trkpt lat="41.40222600427852" lon="-81.73518256719333">
        <ele>267.3298869101</ele>
        <time>2026-02-24T07:36:46Z</time>
      </trkpt>
      <trkpt lat="41.40222554251193" lon="-81.73465487755237">
        <ele>266.9802650767</ele>
        <time>2026-02-24T07:37:24Z</time>
      </trkpt>
      <trkpt lat="41.40177531014347" lon="-81.73463750049821">
        <ele>267.3353088695</ele>
        <time>2026-02-24T07:38:14Z</time>
      </trkpt>
      <trkpt lat="41.40132233161098" lon="-81.73464154127842">
        <ele>267.2414566592</ele>
        <time>2026-02-24T07:38:47Z</time>
      </trkpt>
      <trkpt lat="41.40132563534519" lon="-81.73463825942470">
        <ele>267.4420867372</ele>
        <time>2026-02-24T07:38:48Z</time>
      </trkpt>
      <trkpt lat="41.40132067674635" lon="-81.73523082080230">
        <ele>268.0131043807</ele>
        <time>2026-02-24T07:39:51Z</time>
      </trkpt>
      <trkpt lat="41.40132665250755" lon="-81.73584092635181">
        <ele>268.2121613603</ele>
        <time>2026-02-24T07:40:24Z</time>
      </trkpt>
      <trkpt lat="41.40132419028083" lon="-81.73644231884204">
        <ele>268.1067111445</ele>
        <time>2026-02-24T07:41:02Z</time>
      </trkpt>
      <trkpt lat="41.40132943957311" lon="-81.73703440159910">
        <ele>267.8950562104</ele>
        <time>2026-02-24T07:41:44Z</time>
      </trkpt>
      <trkpt lat="41.40132851209633" lon="-81.73763377951060">
        <ele>267.8309378377</ele>
        <time>2026-02-24T07:42:23Z</time>
      </trkpt>
      <trkpt lat="41.40133395932496" lon="-81.73824032931284">
        <ele>267.5705949683</ele>
        <time>2026-02-24T07:43:32Z</time>
      </trkpt>
      <trkpt lat="41.40133598308143" lon="-81.73883499403686">
        <ele>267.4610941527</ele>
        <time>2026-02-24T07:44:22Z</time>
      </trkpt>
      <trkpt lat="41.40135101549873" lon="-81.73943070461654">
        <ele>267.1118837840</ele>
        <time>2026-02-24T07:45:10Z</time>
      </trkpt>
      <trkpt lat="41.40134051135450" lon="-81.74003269750366">
        <ele>266.8269828497</ele>
        <time>2026-02-24T07:45:52Z</time>
      </trkpt>
      <trkpt lat="41.40134434447123" lon="-81.74015310648100">
        <ele>266.5903829779</ele>
        <time>2026-02-24T07:45:59Z</time>
      </trkpt>
    </trkseg>
  </trk>
</gpx>