<?xml version='1.0' encoding='UTF-8'?>
<gpx xmlns="http://www.topografix.com/GPX/1/1" creator="https://gpx.studio" version="1.1">
  <metadata>
    <name>Dog Walk - 2026-07-27 #1</name>
  </metadata>
  <trk>
    <name>Dog Walk - 2026-07-27 #1</name>
    <type>dog walk</type>
    <trkseg>
      <trkpt lat="41.40134186607951" lon="-81.74023461597213">
        <ele>266.4907990352</ele>
        <time>2026-07-27T06:41:44Z</time>
      </trkpt>
      <trkpt lat="41.40133759267626" lon="-81.74082128978880">
        <ele>266.1237924513</ele>
        <time>2026-07-27T06:42:20Z</time>
      </trkpt>
      <trkpt lat="41.40134642926618" lon="-81.74142421919005">
        <ele>265.5461142287</ele>
        <time>2026-07-27T06:43:02Z</time>
      </trkpt>
      <trkpt lat="41.40134820778908" lon="-81.74202575801193">
        <ele>265.1601384751</ele>
        <time>2026-07-27T06:43:34Z</time>
      </trkpt>
      <trkpt lat="41.40134435915366" lon="-81.74241238634202">
        <ele>264.6543999994</ele>
        <time>2026-07-27T06:43:53Z</time>
      </trkpt>
      <trkpt lat="41.40176713917230" lon="-81.74262451143602">
        <ele>264.2753489148</ele>
        <time>2026-07-27T06:44:46Z</time>
      </trkpt>
      <trkpt lat="41.40219010186946" lon="-81.74283702597350">
        <ele>263.3865449866</ele>
        <time>2026-07-27T06:45:38Z</time>
      </trkpt>
      <trkpt lat="41.40260630517565" lon="-81.74305032196163">
        <ele>263.0491189445</ele>
        <time>2026-07-27T06:46:36Z</time>
      </trkpt>
      <trkpt lat="41.40302827660577" lon="-81.74327075747081">
        <ele>262.1233367913</ele>
        <time>2026-07-27T06:47:09Z</time>
      </trkpt>
      <trkpt lat="41.40344347377967" lon="-81.74347664039566">
        <ele>261.9054511274</ele>
        <time>2026-07-27T06:47:54Z</time>
      </trkpt>
      <trkpt lat="41.40349487133200" lon="-81.74350423141826">
        <ele>261.7306602377</ele>
        <time>2026-07-27T06:47:59Z</time>
      </trkpt>
      <trkpt lat="41.40359535109236" lon="-81.74352393451711">
        <ele>261.5428170913</ele>
        <time>2026-07-27T06:48:06Z</time>
      </trkpt>
      <trkpt lat="41.40399019539868" lon="-81.74350945682143">
        <ele>260.6232061599</ele>
        <time>2026-07-27T06:48:41Z</time>
      </trkpt>
      <trkpt lat="41.40399704763360" lon="-81.74290944533435">
        <ele>261.5625481156</ele>
        <time>2026-07-27T06:49:20Z</time>
      </trkpt>
      <trkpt lat="41.40399543768221" lon="-81.74230346101997">
        <ele>262.1337541322</ele>
        <time>2026-07-27T06:50:11Z</time>
      </trkpt>
      <trkpt lat="41.40399280995345" lon="-81.74171101784526">
        <ele>262.4999935218</ele>
        <time>2026-07-27T06:50:48Z</time>
      </trkpt>
      <trkpt lat="41.40399653858047" lon="-81.74111065234635">
        <ele>262.9155333068</ele>
        <time>2026-07-27T06:51:32Z</time>
      </trkpt>
      <trkpt lat="41.40397678704124" lon="-81.74050633782650">
        <ele>263.7206237532</ele>
        <time>2026-07-27T06:52:08Z</time>
      </trkpt>
      <trkpt lat="41.40398843030651" lon="-81.73991752712432">
        <ele>264.2006277570</ele>
        <time>2026-07-27T06:52:45Z</time>
      </trkpt>
      <trkpt lat="41.40399568231150" lon="-81.73930304192839">
        <ele>264.9376765224</ele>
        <time>2026-07-27T06:53:27Z</time>
      </trkpt>
      <trkpt lat="41.40397679561372" lon="-81.73877492052644">
        <ele>265.4914140361</ele>
        <time>2026-07-27T06:54:03Z</time>
      </trkpt>
      <trkpt lat="41.40353866710381" lon="-81.73878159883219">
        <ele>265.8195490835</ele>
        <time>2026-07-27T06:54:43Z</time>
      </trkpt>
      <trkpt lat="41.40307799022943" lon="-81.73877244546833">
        <ele>265.9980887885</ele>
        <time>2026-07-27T06:55:28Z</time>
      </trkpt>
      <trkpt lat="41.40262821169204" lon="-81.73877588857664">
        <ele>266.6791741263</ele>
        <time>2026-07-27T06:56:02Z</time>
      </trkpt>
      <trkpt lat="41.40222453963575" lon="-81.73877530740013">
        <ele>267.0660777916</ele>
        <time>2026-07-27T06:56:39Z</time>
      </trkpt>
      <trkpt lat="41.40221141587383" lon="-81.73827428578579">
        <ele>267.1671120148</ele>
        <time>2026-07-27T06:57:13Z</time>
      </trkpt>
      <trkpt lat="41.40176941529742" lon="-81.73827363606782">
        <ele>267.9215435582</ele>
        <time>2026-07-27T06:57:47Z</time>
      </trkpt>
      <trkpt lat="41.40133247503162" lon="-81.73826675526135">
        <ele>267.6404989358</ele>
        <time>2026-07-27T06:58:26Z</time>
      </trkpt>
      <trkpt lat="41.40133374749586" lon="-81.73885781349965">
        <ele>267.2186471190</ele>
        <time>2026-07-27T06:58:57Z</time>
      </trkpt>
      <trkpt lat="41.40133340867518" lon="-81.73946711842360">
        <ele>266.9773508938</ele>
        <time>2026-07-27T06:59:41Z</time>
      </trkpt>
      <trkpt lat="41.40133513289026" lon="-81.74006366162533">
        <ele>266.5470789496</ele>
        <time>2026-07-27T07:00:34Z</time>
      </trkpt>
      <trkpt lat="41.40133854348954" lon="-81.74021223302428">
        <ele>266.6798277983</ele>
        <time>2026-07-27T07:00:44Z</time>
      </trkpt>
    </trkseg>
  </trk>
</gpx>