<?xml version='1.0' encoding='UTF-8'?>
<gpx xmlns="http://www.topografix.com/GPX/1/1" creator="https://gpx.studio" version="1.1">
  <metadata>
    <name>Dog Walk - 2026-03-17</name>
  </metadata>
  <trk>
    <name>Dog Walk - 2026-03-17</name>
    <type>dog walk</type>
    <trkseg>
      <trkpt lat="41.40133423043510" lon="-81.74025416501505">
        <ele>266.5718898821</ele>
        <time>2026-03-17T13:19:31Z</time>
      </trkpt>
      <trkpt lat="41.40132812136176" lon="-81.74024748658000">
        <ele>266.3252555527</ele>
        <time>2026-03-17T13:19:32Z</time>
      </trkpt>
      <trkpt lat="41.40133293739201" lon="-81.74085971446479">
        <ele>266.1669901914</ele>
        <time>2026-03-17T13:20:20Z</time>
      </trkpt>
      <trkpt lat="41.40132794384168" lon="-81.74144984166821">
        <ele>265.6717521032</ele>
        <time>2026-03-17T13:21:07Z</time>
      </trkpt>
      <trkpt lat="41.40132374223813" lon="-81.74205102405330">
        <ele>265.3662701100</ele>
        <time>2026-03-17T13:21:43Z</time>
      </trkpt>
      <trkpt lat="41.40132309978683" lon="-81.74237269844487">
        <ele>264.6702274532</ele>
        <time>2026-03-17T13:22:03Z</time>
      </trkpt>
      <trkpt lat="41.40132515891930" lon="-81.74238193275183">
        <ele>264.6562378237</ele>
        <time>2026-03-17T13:22:04Z</time>
      </trkpt>
      <trkpt lat="41.40090164176316" lon="-81.74218296468362">
        <ele>265.4527295770</ele>
        <time>2026-03-17T13:22:35Z</time>
      </trkpt>
      <trkpt lat="41.40047054477025" lon="-81.74198931548126">
        <ele>265.1667632718</ele>
        <time>2026-03-17T13:23:26Z</time>
      </trkpt>
      <trkpt lat="41.40005338430765" lon="-81.74179171322807">
        <ele>265.4673714092</ele>
        <time>2026-03-17T13:24:06Z</time>
      </trkpt>
      <trkpt lat="41.39961452986282" lon="-81.74160920030013">
        <ele>264.9196160339</ele>
        <time>2026-03-17T13:24:44Z</time>
      </trkpt>
      <trkpt lat="41.39954834327676" lon="-81.74157738451883">
        <ele>264.8968691280</ele>
        <time>2026-03-17T13:24:50Z</time>
      </trkpt>
      <trkpt lat="41.39954389303739" lon="-81.74096565646543">
        <ele>265.7460645994</ele>
        <time>2026-03-17T13:25:20Z</time>
      </trkpt>
      <trkpt lat="41.39955143784360" lon="-81.74037296551377">
        <ele>266.2042809366</ele>
        <time>2026-03-17T13:25:59Z</time>
      </trkpt>
      <trkpt lat="41.39953556830368" lon="-81.73977451413521">
        <ele>266.5084057697</ele>
        <time>2026-03-17T13:26:29Z</time>
      </trkpt>
      <trkpt lat="41.39953163092518" lon="-81.73916466131378">
        <ele>266.7219815438</ele>
        <time>2026-03-17T13:27:09Z</time>
      </trkpt>
      <trkpt lat="41.39953236905542" lon="-81.73857029243483">
        <ele>267.0541065767</ele>
        <time>2026-03-17T13:27:52Z</time>
      </trkpt>
      <trkpt lat="41.39953368848249" lon="-81.73830595507928">
        <ele>267.0468143168</ele>
        <time>2026-03-17T13:28:10Z</time>
      </trkpt>
      <trkpt lat="41.39953893661693" lon="-81.73829148201251">
        <ele>266.8937748915</ele>
        <time>2026-03-17T13:28:12Z</time>
      </trkpt>
      <trkpt lat="41.39998147965489" lon="-81.73829824611403">
        <ele>267.3117827992</ele>
        <time>2026-03-17T13:28:57Z</time>
      </trkpt>
      <trkpt lat="41.40043383628004" lon="-81.73830049071339">
        <ele>267.0910162946</ele>
        <time>2026-03-17T13:29:40Z</time>
      </trkpt>
      <trkpt lat="41.40088776521918" lon="-81.73830040927137">
        <ele>267.5102393822</ele>
        <time>2026-03-17T13:30:15Z</time>
      </trkpt>
      <trkpt lat="41.40132643313711" lon="-81.73829834905733">
        <ele>267.2527987464</ele>
        <time>2026-03-17T13:31:18Z</time>
      </trkpt>
      <trkpt lat="41.40132536538710" lon="-81.73891172785039">
        <ele>267.4270990907</ele>
        <time>2026-03-17T13:32:05Z</time>
      </trkpt>
      <trkpt lat="41.40132999593482" lon="-81.73950906496826">
        <ele>267.0910391014</ele>
        <time>2026-03-17T13:32:41Z</time>
      </trkpt>
      <trkpt lat="41.40134118987263" lon="-81.74009965196200">
        <ele>266.6143876629</ele>
        <time>2026-03-17T13:33:22Z</time>
      </trkpt>
      <trkpt lat="41.40134426981186" lon="-81.74015273631468">
        <ele>266.5070250275</ele>
        <time>2026-03-17T13:33:25Z</time>
      </trkpt>
    </trkseg>
  </trk>
</gpx>