<?xml version='1.0' encoding='UTF-8'?>
<gpx xmlns="http://www.topografix.com/GPX/1/1" creator="https://gpx.studio" version="1.1">
  <metadata>
    <name>Dog Walk - 2026-07-06 #4</name>
  </metadata>
  <trk>
    <name>Dog Walk - 2026-07-06 #4</name>
    <type>dog walk</type>
    <trkseg>
      <trkpt lat="41.40133076296786" lon="-81.74022590572082">
        <ele>266.6790863111</ele>
        <time>2026-07-06T19:17:32Z</time>
      </trkpt>
      <trkpt lat="41.40133392455110" lon="-81.74082885336840">
        <ele>266.0397481067</ele>
        <time>2026-07-06T19:18:16Z</time>
      </trkpt>
      <trkpt lat="41.40134468485192" lon="-81.74142206613679">
        <ele>265.6713396878</ele>
        <time>2026-07-06T19:19:03Z</time>
      </trkpt>
      <trkpt lat="41.40134733758054" lon="-81.74202337348719">
        <ele>265.4239134025</ele>
        <time>2026-07-06T19:19:38Z</time>
      </trkpt>
      <trkpt lat="41.40134947707957" lon="-81.74241128322419">
        <ele>264.7466891058</ele>
        <time>2026-07-06T19:20:00Z</time>
      </trkpt>
      <trkpt lat="41.40177214506640" lon="-81.74262778301272">
        <ele>264.2798425847</ele>
        <time>2026-07-06T19:20:39Z</time>
      </trkpt>
      <trkpt lat="41.40219016258648" lon="-81.74283721409518">
        <ele>263.3915424259</ele>
        <time>2026-07-06T19:21:23Z</time>
      </trkpt>
      <trkpt lat="41.40260774884260" lon="-81.74304993704044">
        <ele>262.8827679888</ele>
        <time>2026-07-06T19:21:54Z</time>
      </trkpt>
      <trkpt lat="41.40303381906760" lon="-81.74326629063447">
        <ele>262.1721257771</ele>
        <time>2026-07-06T19:22:31Z</time>
      </trkpt>
      <trkpt lat="41.40344924207843" lon="-81.74347814569494">
        <ele>261.9021517196</ele>
        <time>2026-07-06T19:23:04Z</time>
      </trkpt>
      <trkpt lat="41.40349132215916" lon="-81.74349757105409">
        <ele>261.8719162303</ele>
        <time>2026-07-06T19:23:10Z</time>
      </trkpt>
      <trkpt lat="41.40360081487275" lon="-81.74351920485570">
        <ele>261.9428830193</ele>
        <time>2026-07-06T19:23:20Z</time>
      </trkpt>
      <trkpt lat="41.40398807721726" lon="-81.74349363372288">
        <ele>260.9860382574</ele>
        <time>2026-07-06T19:23:55Z</time>
      </trkpt>
      <trkpt lat="41.40399344125188" lon="-81.74290158662396">
        <ele>261.5191193362</ele>
        <time>2026-07-06T19:24:35Z</time>
      </trkpt>
      <trkpt lat="41.40398772481334" lon="-81.74231524474897">
        <ele>261.9489333003</ele>
        <time>2026-07-06T19:25:14Z</time>
      </trkpt>
      <trkpt lat="41.40398696160069" lon="-81.74172007160308">
        <ele>262.4862295480</ele>
        <time>2026-07-06T19:25:59Z</time>
      </trkpt>
      <trkpt lat="41.40399230951206" lon="-81.74109951916365">
        <ele>262.9012304215</ele>
        <time>2026-07-06T19:26:43Z</time>
      </trkpt>
      <trkpt lat="41.40399300901417" lon="-81.74050955530844">
        <ele>263.5988515731</ele>
        <time>2026-07-06T19:27:21Z</time>
      </trkpt>
      <trkpt lat="41.40399178246809" lon="-81.73992182517460">
        <ele>264.1590425998</ele>
        <time>2026-07-06T19:27:58Z</time>
      </trkpt>
      <trkpt lat="41.40398518965647" lon="-81.73931729650420">
        <ele>265.2627073184</ele>
        <time>2026-07-06T19:28:38Z</time>
      </trkpt>
      <trkpt lat="41.40398912675499" lon="-81.73877888721215">
        <ele>265.4599962206</ele>
        <time>2026-07-06T19:29:10Z</time>
      </trkpt>
      <trkpt lat="41.40353398254704" lon="-81.73877163249819">
        <ele>266.0915748325</ele>
        <time>2026-07-06T19:29:43Z</time>
      </trkpt>
      <trkpt lat="41.40308902258582" lon="-81.73877638499835">
        <ele>266.0510056877</ele>
        <time>2026-07-06T19:30:19Z</time>
      </trkpt>
      <trkpt lat="41.40264056068970" lon="-81.73878700634641">
        <ele>266.7644662387</ele>
        <time>2026-07-06T19:30:54Z</time>
      </trkpt>
      <trkpt lat="41.40222789551660" lon="-81.73877237045308">
        <ele>267.1220857523</ele>
        <time>2026-07-06T19:31:31Z</time>
      </trkpt>
      <trkpt lat="41.40222433630024" lon="-81.73827185983309">
        <ele>267.0273807063</ele>
        <time>2026-07-06T19:32:05Z</time>
      </trkpt>
      <trkpt lat="41.40177315896140" lon="-81.73826635700252">
        <ele>267.6995567636</ele>
        <time>2026-07-06T19:32:41Z</time>
      </trkpt>
      <trkpt lat="41.40133431815945" lon="-81.73827264856783">
        <ele>267.5220309975</ele>
        <time>2026-07-06T19:33:14Z</time>
      </trkpt>
      <trkpt lat="41.40132987592806" lon="-81.73886797013439">
        <ele>267.6298042521</ele>
        <time>2026-07-06T19:33:58Z</time>
      </trkpt>
      <trkpt lat="41.40134342090193" lon="-81.73946007266288">
        <ele>267.2843266929</ele>
        <time>2026-07-06T19:34:52Z</time>
      </trkpt>
      <trkpt lat="41.40133673015679" lon="-81.74006658278475">
        <ele>266.6140238338</ele>
        <time>2026-07-06T19:35:40Z</time>
      </trkpt>
      <trkpt lat="41.40133635930233" lon="-81.74020713594035">
        <ele>266.5520591459</ele>
        <time>2026-07-06T19:35:50Z</time>
      </trkpt>
    </trkseg>
  </trk>
</gpx>