<?xml version='1.0' encoding='UTF-8'?>
<gpx xmlns="http://www.topografix.com/GPX/1/1" creator="https://gpx.studio" version="1.1">
  <metadata>
    <name>Dog Walk - 2026-03-10 #2</name>
  </metadata>
  <trk>
    <name>Dog Walk - 2026-03-10 #2</name>
    <type>dog walk</type>
    <trkseg>
      <trkpt lat="41.40134787395253" lon="-81.74023754161553">
        <ele>266.6187269809</ele>
        <time>2026-03-10T18:24:13Z</time>
      </trkpt>
      <trkpt lat="41.40134392626251" lon="-81.74082258900157">
        <ele>266.3074432118</ele>
        <time>2026-03-10T18:25:02Z</time>
      </trkpt>
      <trkpt lat="41.40133863799165" lon="-81.74144046944993">
        <ele>266.0224375792</ele>
        <time>2026-03-10T18:25:51Z</time>
      </trkpt>
      <trkpt lat="41.40135174973085" lon="-81.74204165529275">
        <ele>265.2478202408</ele>
        <time>2026-03-10T18:26:33Z</time>
      </trkpt>
      <trkpt lat="41.40135212032278" lon="-81.74242357892749">
        <ele>264.6237609623</ele>
        <time>2026-03-10T18:26:57Z</time>
      </trkpt>
      <trkpt lat="41.40176189282414" lon="-81.74263364053887">
        <ele>264.2313234822</ele>
        <time>2026-03-10T18:27:37Z</time>
      </trkpt>
      <trkpt lat="41.40219425161180" lon="-81.74285082068714">
        <ele>263.4144654716</ele>
        <time>2026-03-10T18:28:17Z</time>
      </trkpt>
      <trkpt lat="41.40220920216361" lon="-81.74286531100607">
        <ele>263.3312025558</ele>
        <time>2026-03-10T18:28:33Z</time>
      </trkpt>
      <trkpt lat="41.40220763828725" lon="-81.74226642132125">
        <ele>264.2876941458</ele>
        <time>2026-03-10T18:29:13Z</time>
      </trkpt>
      <trkpt lat="41.40221845223150" lon="-81.74167034319680">
        <ele>264.5975403425</ele>
        <time>2026-03-10T18:29:56Z</time>
      </trkpt>
      <trkpt lat="41.40222087438175" lon="-81.74106993512149">
        <ele>265.5395675018</ele>
        <time>2026-03-10T18:30:27Z</time>
      </trkpt>
      <trkpt lat="41.40221532041549" lon="-81.74046566344180">
        <ele>265.7872851262</ele>
        <time>2026-03-10T18:31:06Z</time>
      </trkpt>
      <trkpt lat="41.40221816090025" lon="-81.73986147665877">
        <ele>266.6298334545</ele>
        <time>2026-03-10T18:31:52Z</time>
      </trkpt>
      <trkpt lat="41.40221909539224" lon="-81.73926297743303">
        <ele>266.8701884116</ele>
        <time>2026-03-10T18:32:39Z</time>
      </trkpt>
      <trkpt lat="41.40220833790846" lon="-81.73865938011340">
        <ele>267.2405457910</ele>
        <time>2026-03-10T18:33:15Z</time>
      </trkpt>
      <trkpt lat="41.40221709289443" lon="-81.73827199850703">
        <ele>266.8696999548</ele>
        <time>2026-03-10T18:33:39Z</time>
      </trkpt>
      <trkpt lat="41.40177153507525" lon="-81.73826457965440">
        <ele>267.7973705010</ele>
        <time>2026-03-10T18:34:18Z</time>
      </trkpt>
      <trkpt lat="41.40133773398328" lon="-81.73825743752802">
        <ele>267.4234877742</ele>
        <time>2026-03-10T18:34:58Z</time>
      </trkpt>
      <trkpt lat="41.40134154213629" lon="-81.73886685047259">
        <ele>267.1838773816</ele>
        <time>2026-03-10T18:35:39Z</time>
      </trkpt>
      <trkpt lat="41.40134574303477" lon="-81.73945954172341">
        <ele>267.1614667779</ele>
        <time>2026-03-10T18:36:16Z</time>
      </trkpt>
      <trkpt lat="41.40134714097691" lon="-81.74007728552611">
        <ele>266.8212719634</ele>
        <time>2026-03-10T18:37:00Z</time>
      </trkpt>
      <trkpt lat="41.40134161670978" lon="-81.74018687479342">
        <ele>266.6696191415</ele>
        <time>2026-03-10T18:37:19Z</time>
      </trkpt>
    </trkseg>
  </trk>
</gpx>