<?xml version='1.0' encoding='UTF-8'?>
<gpx xmlns="http://www.topografix.com/GPX/1/1" creator="https://gpx.studio" version="1.1">
  <metadata>
    <name>Dog Walk - 2026-03-25 #2</name>
  </metadata>
  <trk>
    <name>Dog Walk - 2026-03-25 #2</name>
    <type>dog walk</type>
    <trkseg>
      <trkpt lat="41.40134002277962" lon="-81.74024094431668">
        <ele>266.4554197344</ele>
        <time>2026-03-25T13:25:58Z</time>
      </trkpt>
      <trkpt lat="41.40133647006087" lon="-81.74082765956705">
        <ele>266.2544467054</ele>
        <time>2026-03-25T13:26:31Z</time>
      </trkpt>
      <trkpt lat="41.40133635765936" lon="-81.74143393109085">
        <ele>265.7114599980</ele>
        <time>2026-03-25T13:27:16Z</time>
      </trkpt>
      <trkpt lat="41.40134478092786" lon="-81.74203609071105">
        <ele>265.1585573970</ele>
        <time>2026-03-25T13:27:51Z</time>
      </trkpt>
      <trkpt lat="41.40135812150863" lon="-81.74240989803764">
        <ele>264.4386371592</ele>
        <time>2026-03-25T13:28:18Z</time>
      </trkpt>
      <trkpt lat="41.40176067196634" lon="-81.74261454695650">
        <ele>264.2810827949</ele>
        <time>2026-03-25T13:29:18Z</time>
      </trkpt>
      <trkpt lat="41.40220732103931" lon="-81.74281547816008">
        <ele>263.5449678105</ele>
        <time>2026-03-25T13:29:58Z</time>
      </trkpt>
      <trkpt lat="41.40261035732294" lon="-81.74301717349287">
        <ele>263.0865023043</ele>
        <time>2026-03-25T13:30:32Z</time>
      </trkpt>
      <trkpt lat="41.40303762100985" lon="-81.74322086104164">
        <ele>262.5749350505</ele>
        <time>2026-03-25T13:31:09Z</time>
      </trkpt>
      <trkpt lat="41.40311658390100" lon="-81.74324905592400">
        <ele>262.3968263258</ele>
        <time>2026-03-25T13:31:16Z</time>
      </trkpt>
      <trkpt lat="41.40312035257881" lon="-81.74265083115408">
        <ele>263.0454376698</ele>
        <time>2026-03-25T13:32:06Z</time>
      </trkpt>
      <trkpt lat="41.40311318077053" lon="-81.74206063966240">
        <ele>263.8619524155</ele>
        <time>2026-03-25T13:32:51Z</time>
      </trkpt>
      <trkpt lat="41.40311255639175" lon="-81.74145647930240">
        <ele>264.3519695074</ele>
        <time>2026-03-25T13:33:28Z</time>
      </trkpt>
      <trkpt lat="41.40310963200720" lon="-81.74085168401712">
        <ele>264.9209673677</ele>
        <time>2026-03-25T13:34:22Z</time>
      </trkpt>
      <trkpt lat="41.40310909304581" lon="-81.74025827341374">
        <ele>265.3151655058</ele>
        <time>2026-03-25T13:35:04Z</time>
      </trkpt>
      <trkpt lat="41.40310655143274" lon="-81.73964432749615">
        <ele>265.7464688788</ele>
        <time>2026-03-25T13:35:40Z</time>
      </trkpt>
      <trkpt lat="41.40309854986498" lon="-81.73906001288445">
        <ele>265.9072645219</ele>
        <time>2026-03-25T13:36:25Z</time>
      </trkpt>
      <trkpt lat="41.40309655739483" lon="-81.73879169335675">
        <ele>266.3048620631</ele>
        <time>2026-03-25T13:36:40Z</time>
      </trkpt>
      <trkpt lat="41.40264969428617" lon="-81.73878326044873">
        <ele>266.7270968987</ele>
        <time>2026-03-25T13:37:22Z</time>
      </trkpt>
      <trkpt lat="41.40223453637959" lon="-81.73877611165901">
        <ele>267.0985229674</ele>
        <time>2026-03-25T13:37:54Z</time>
      </trkpt>
      <trkpt lat="41.40223806886671" lon="-81.73817570302515">
        <ele>267.1341514885</ele>
        <time>2026-03-25T13:38:29Z</time>
      </trkpt>
      <trkpt lat="41.40223187562090" lon="-81.73757398664674">
        <ele>266.9407375644</ele>
        <time>2026-03-25T13:39:08Z</time>
      </trkpt>
      <trkpt lat="41.40223291768895" lon="-81.73697989994062">
        <ele>267.2050175569</ele>
        <time>2026-03-25T13:39:40Z</time>
      </trkpt>
      <trkpt lat="41.40222587263725" lon="-81.73638391361116">
        <ele>267.3782291315</ele>
        <time>2026-03-25T13:40:38Z</time>
      </trkpt>
      <trkpt lat="41.40222341950995" lon="-81.73578111157769">
        <ele>267.6243439072</ele>
        <time>2026-03-25T13:41:32Z</time>
      </trkpt>
      <trkpt lat="41.40222414417309" lon="-81.73518142362394">
        <ele>267.2781778341</ele>
        <time>2026-03-25T13:42:12Z</time>
      </trkpt>
      <trkpt lat="41.40222071407545" lon="-81.73465039609979">
        <ele>267.0365183593</ele>
        <time>2026-03-25T13:42:50Z</time>
      </trkpt>
      <trkpt lat="41.40177724565852" lon="-81.73464918525639">
        <ele>267.1683443946</ele>
        <time>2026-03-25T13:43:20Z</time>
      </trkpt>
      <trkpt lat="41.40132285411273" lon="-81.73463934030288">
        <ele>267.2716013944</ele>
        <time>2026-03-25T13:43:54Z</time>
      </trkpt>
      <trkpt lat="41.40131201713557" lon="-81.73464098965826">
        <ele>267.1881044974</ele>
        <time>2026-03-25T13:43:55Z</time>
      </trkpt>
      <trkpt lat="41.40133053838686" lon="-81.73523727842016">
        <ele>267.9283964188</ele>
        <time>2026-03-25T13:44:34Z</time>
      </trkpt>
      <trkpt lat="41.40132241226168" lon="-81.73583912754151">
        <ele>268.1315700983</ele>
        <time>2026-03-25T13:45:07Z</time>
      </trkpt>
      <trkpt lat="41.40132249661968" lon="-81.73643293227084">
        <ele>267.9507318966</ele>
        <time>2026-03-25T13:45:45Z</time>
      </trkpt>
      <trkpt lat="41.40132514740292" lon="-81.73703620877221">
        <ele>268.2577544401</ele>
        <time>2026-03-25T13:46:43Z</time>
      </trkpt>
      <trkpt lat="41.40133920979100" lon="-81.73762588666925">
        <ele>268.0411292445</ele>
        <time>2026-03-25T13:47:23Z</time>
      </trkpt>
      <trkpt lat="41.40133537240268" lon="-81.73823361640591">
        <ele>267.5265905448</ele>
        <time>2026-03-25T13:48:01Z</time>
      </trkpt>
      <trkpt lat="41.40133687850120" lon="-81.73882567769031">
        <ele>267.1977888317</ele>
        <time>2026-03-25T13:48:39Z</time>
      </trkpt>
      <trkpt lat="41.40134040896020" lon="-81.73943471977769">
        <ele>267.2520618334</ele>
        <time>2026-03-25T13:49:18Z</time>
      </trkpt>
      <trkpt lat="41.40134059909806" lon="-81.74003024634351">
        <ele>266.5588196002</ele>
        <time>2026-03-25T13:50:00Z</time>
      </trkpt>
      <trkpt lat="41.40134493884755" lon="-81.74016548762397">
        <ele>266.4348727251</ele>
        <time>2026-03-25T13:50:08Z</time>
      </trkpt>
    </trkseg>
  </trk>
</gpx>