<?xml version='1.0' encoding='UTF-8'?>
<gpx xmlns="http://www.topografix.com/GPX/1/1" creator="https://gpx.studio" version="1.1">
  <metadata>
    <name>Dog Walk - 2026-06-16 #2</name>
  </metadata>
  <trk>
    <name>Dog Walk - 2026-06-16 #2</name>
    <type>dog walk</type>
    <trkseg>
      <trkpt lat="41.40132791049290" lon="-81.74023652911909">
        <ele>266.7204406611</ele>
        <time>2026-06-16T12:31:43Z</time>
      </trkpt>
      <trkpt lat="41.40133031824803" lon="-81.74083765917516">
        <ele>266.3619053953</ele>
        <time>2026-06-16T12:32:25Z</time>
      </trkpt>
      <trkpt lat="41.40132735309675" lon="-81.74143617197781">
        <ele>265.7570584520</ele>
        <time>2026-06-16T12:33:07Z</time>
      </trkpt>
      <trkpt lat="41.40132555472496" lon="-81.74203934915586">
        <ele>265.2580720051</ele>
        <time>2026-06-16T12:33:47Z</time>
      </trkpt>
      <trkpt lat="41.40132863832935" lon="-81.74239440291191">
        <ele>264.8559161459</ele>
        <time>2026-06-16T12:34:09Z</time>
      </trkpt>
      <trkpt lat="41.40090449411932" lon="-81.74219600373415">
        <ele>265.2105495173</ele>
        <time>2026-06-16T12:34:47Z</time>
      </trkpt>
      <trkpt lat="41.40047550567215" lon="-81.74200671354029">
        <ele>265.3385162697</ele>
        <time>2026-06-16T12:35:27Z</time>
      </trkpt>
      <trkpt lat="41.40005644921771" lon="-81.74180923929706">
        <ele>265.3285618102</ele>
        <time>2026-06-16T12:36:09Z</time>
      </trkpt>
      <trkpt lat="41.39962915993792" lon="-81.74161830425501">
        <ele>264.9174928055</ele>
        <time>2026-06-16T12:37:02Z</time>
      </trkpt>
      <trkpt lat="41.39953691917319" lon="-81.74157602047366">
        <ele>264.9416019822</ele>
        <time>2026-06-16T12:37:10Z</time>
      </trkpt>
      <trkpt lat="41.39952874823044" lon="-81.74097291629148">
        <ele>265.8208267081</ele>
        <time>2026-06-16T12:37:51Z</time>
      </trkpt>
      <trkpt lat="41.39953624523415" lon="-81.74037345458025">
        <ele>266.2262216839</ele>
        <time>2026-06-16T12:38:37Z</time>
      </trkpt>
      <trkpt lat="41.39953854365790" lon="-81.73977013561745">
        <ele>266.6760441153</ele>
        <time>2026-06-16T12:39:39Z</time>
      </trkpt>
      <trkpt lat="41.39952697218161" lon="-81.73916844654735">
        <ele>266.9684396966</ele>
        <time>2026-06-16T12:40:30Z</time>
      </trkpt>
      <trkpt lat="41.39953514606457" lon="-81.73857667075464">
        <ele>266.9243924901</ele>
        <time>2026-06-16T12:41:11Z</time>
      </trkpt>
      <trkpt lat="41.39952591657042" lon="-81.73797882188464">
        <ele>267.2511546209</ele>
        <time>2026-06-16T12:41:50Z</time>
      </trkpt>
      <trkpt lat="41.39952464764990" lon="-81.73737755036936">
        <ele>267.3783012132</ele>
        <time>2026-06-16T12:43:21Z</time>
      </trkpt>
      <trkpt lat="41.39952528276515" lon="-81.73677635605564">
        <ele>267.4035440344</ele>
        <time>2026-06-16T12:43:57Z</time>
      </trkpt>
      <trkpt lat="41.39953142172637" lon="-81.73618030782264">
        <ele>267.1612714875</ele>
        <time>2026-06-16T12:44:33Z</time>
      </trkpt>
      <trkpt lat="41.39952726765374" lon="-81.73557606081225">
        <ele>267.3426646266</ele>
        <time>2026-06-16T12:45:12Z</time>
      </trkpt>
      <trkpt lat="41.39952143191694" lon="-81.73498238123214">
        <ele>267.0458392241</ele>
        <time>2026-06-16T12:45:56Z</time>
      </trkpt>
      <trkpt lat="41.39953259665652" lon="-81.73462165396053">
        <ele>266.9423324568</ele>
        <time>2026-06-16T12:46:22Z</time>
      </trkpt>
      <trkpt lat="41.39997504128690" lon="-81.73462212908805">
        <ele>267.0430245787</ele>
        <time>2026-06-16T12:46:59Z</time>
      </trkpt>
      <trkpt lat="41.40042423835768" lon="-81.73462744335630">
        <ele>267.3555815463</ele>
        <time>2026-06-16T12:47:57Z</time>
      </trkpt>
      <trkpt lat="41.40088302232745" lon="-81.73462268084472">
        <ele>267.2868922917</ele>
        <time>2026-06-16T12:48:48Z</time>
      </trkpt>
      <trkpt lat="41.40132464644409" lon="-81.73464055911667">
        <ele>267.5400965655</ele>
        <time>2026-06-16T12:49:34Z</time>
      </trkpt>
      <trkpt lat="41.40132085367299" lon="-81.73524092272304">
        <ele>267.8994578430</ele>
        <time>2026-06-16T12:50:21Z</time>
      </trkpt>
      <trkpt lat="41.40132971839152" lon="-81.73583372125113">
        <ele>268.1690507913</ele>
        <time>2026-06-16T12:50:52Z</time>
      </trkpt>
      <trkpt lat="41.40132270625686" lon="-81.73644670824719">
        <ele>268.2732667103</ele>
        <time>2026-06-16T12:51:41Z</time>
      </trkpt>
      <trkpt lat="41.40133061932196" lon="-81.73704048098963">
        <ele>268.0564783858</ele>
        <time>2026-06-16T12:52:10Z</time>
      </trkpt>
      <trkpt lat="41.40132917051839" lon="-81.73763561240236">
        <ele>267.8521562808</ele>
        <time>2026-06-16T12:53:05Z</time>
      </trkpt>
      <trkpt lat="41.40132454832394" lon="-81.73824490086034">
        <ele>267.5489988464</ele>
        <time>2026-06-16T12:53:42Z</time>
      </trkpt>
      <trkpt lat="41.40133487078705" lon="-81.73884304656065">
        <ele>267.4150426868</ele>
        <time>2026-06-16T12:54:25Z</time>
      </trkpt>
      <trkpt lat="41.40132857833991" lon="-81.73944076547774">
        <ele>266.9438444495</ele>
        <time>2026-06-16T12:55:01Z</time>
      </trkpt>
      <trkpt lat="41.40133679428062" lon="-81.74004224698797">
        <ele>266.4331726491</ele>
        <time>2026-06-16T12:55:32Z</time>
      </trkpt>
      <trkpt lat="41.40132939053947" lon="-81.74020997315355">
        <ele>266.5033685106</ele>
        <time>2026-06-16T12:55:41Z</time>
      </trkpt>
    </trkseg>
  </trk>
</gpx>