<?xml version='1.0' encoding='UTF-8'?>
<gpx xmlns="http://www.topografix.com/GPX/1/1" creator="https://gpx.studio" version="1.1">
  <metadata>
    <name>Dog Walk - 2026-06-06 #5</name>
  </metadata>
  <trk>
    <name>Dog Walk - 2026-06-06 #5</name>
    <type>dog walk</type>
    <trkseg>
      <trkpt lat="41.40133419702088" lon="-81.74022064562750">
        <ele>266.5415635504</ele>
        <time>2026-06-06T19:52:59Z</time>
      </trkpt>
      <trkpt lat="41.40134283964956" lon="-81.74082171527979">
        <ele>266.1463604104</ele>
        <time>2026-06-06T19:53:42Z</time>
      </trkpt>
      <trkpt lat="41.40134152019697" lon="-81.74143038063468">
        <ele>265.5302492355</ele>
        <time>2026-06-06T19:54:20Z</time>
      </trkpt>
      <trkpt lat="41.40134359317802" lon="-81.74203514721744">
        <ele>265.1632476723</ele>
        <time>2026-06-06T19:54:55Z</time>
      </trkpt>
      <trkpt lat="41.40134663011808" lon="-81.74242524460384">
        <ele>264.4908575165</ele>
        <time>2026-06-06T19:55:24Z</time>
      </trkpt>
      <trkpt lat="41.40176755447764" lon="-81.74261901494313">
        <ele>264.2590970050</ele>
        <time>2026-06-06T19:56:04Z</time>
      </trkpt>
      <trkpt lat="41.40218476501185" lon="-81.74283012821027">
        <ele>263.5076748438</ele>
        <time>2026-06-06T19:56:44Z</time>
      </trkpt>
      <trkpt lat="41.40261283752398" lon="-81.74305605803836">
        <ele>263.1538013893</ele>
        <time>2026-06-06T19:57:24Z</time>
      </trkpt>
      <trkpt lat="41.40303404450196" lon="-81.74325319227452">
        <ele>262.4780548776</ele>
        <time>2026-06-06T19:58:04Z</time>
      </trkpt>
      <trkpt lat="41.40344633648844" lon="-81.74347810981401">
        <ele>262.0734043349</ele>
        <time>2026-06-06T19:58:39Z</time>
      </trkpt>
      <trkpt lat="41.40349081800303" lon="-81.74349224837620">
        <ele>261.7349641497</ele>
        <time>2026-06-06T19:58:43Z</time>
      </trkpt>
      <trkpt lat="41.40359726643494" lon="-81.74351066328003">
        <ele>261.4981839355</ele>
        <time>2026-06-06T19:58:52Z</time>
      </trkpt>
      <trkpt lat="41.40399327893904" lon="-81.74350449709085">
        <ele>260.6842043218</ele>
        <time>2026-06-06T19:59:38Z</time>
      </trkpt>
      <trkpt lat="41.40398499205247" lon="-81.74290012092654">
        <ele>261.7660256043</ele>
        <time>2026-06-06T20:00:21Z</time>
      </trkpt>
      <trkpt lat="41.40398581277617" lon="-81.74230667281442">
        <ele>262.1159550914</ele>
        <time>2026-06-06T20:00:59Z</time>
      </trkpt>
      <trkpt lat="41.40398886831185" lon="-81.74171247388639">
        <ele>262.3971362253</ele>
        <time>2026-06-06T20:01:37Z</time>
      </trkpt>
      <trkpt lat="41.40399096306543" lon="-81.74111001637255">
        <ele>262.9227406291</ele>
        <time>2026-06-06T20:02:15Z</time>
      </trkpt>
      <trkpt lat="41.40398841633455" lon="-81.74051290366090">
        <ele>263.4392268957</ele>
        <time>2026-06-06T20:03:00Z</time>
      </trkpt>
      <trkpt lat="41.40398457205429" lon="-81.73991573769788">
        <ele>264.4127076557</ele>
        <time>2026-06-06T20:03:36Z</time>
      </trkpt>
      <trkpt lat="41.40399371259784" lon="-81.73931018722624">
        <ele>264.8234081116</ele>
        <time>2026-06-06T20:04:10Z</time>
      </trkpt>
      <trkpt lat="41.40398762850422" lon="-81.73877852982824">
        <ele>265.4211198442</ele>
        <time>2026-06-06T20:04:51Z</time>
      </trkpt>
      <trkpt lat="41.40353906916652" lon="-81.73877597180193">
        <ele>265.9538478940</ele>
        <time>2026-06-06T20:05:24Z</time>
      </trkpt>
      <trkpt lat="41.40309069922082" lon="-81.73877337967259">
        <ele>266.2862720889</ele>
        <time>2026-06-06T20:06:07Z</time>
      </trkpt>
      <trkpt lat="41.40263456500703" lon="-81.73877591677839">
        <ele>266.7941166499</ele>
        <time>2026-06-06T20:07:13Z</time>
      </trkpt>
      <trkpt lat="41.40222929133591" lon="-81.73877434507227">
        <ele>267.0878615826</ele>
        <time>2026-06-06T20:07:40Z</time>
      </trkpt>
      <trkpt lat="41.40221650439013" lon="-81.73828066586159">
        <ele>266.9206074789</ele>
        <time>2026-06-06T20:08:16Z</time>
      </trkpt>
      <trkpt lat="41.40176549712966" lon="-81.73827195196846">
        <ele>267.5758117863</ele>
        <time>2026-06-06T20:09:04Z</time>
      </trkpt>
      <trkpt lat="41.40132466364115" lon="-81.73826820829183">
        <ele>267.6863816714</ele>
        <time>2026-06-06T20:09:39Z</time>
      </trkpt>
      <trkpt lat="41.40133971298211" lon="-81.73886657300623">
        <ele>267.2288540020</ele>
        <time>2026-06-06T20:10:18Z</time>
      </trkpt>
      <trkpt lat="41.40132902587685" lon="-81.73946761567822">
        <ele>267.0909023888</ele>
        <time>2026-06-06T20:10:58Z</time>
      </trkpt>
      <trkpt lat="41.40134577006970" lon="-81.74006232231264">
        <ele>266.7537469618</ele>
        <time>2026-06-06T20:11:41Z</time>
      </trkpt>
      <trkpt lat="41.40133054649757" lon="-81.74021298770643">
        <ele>266.4506935771</ele>
        <time>2026-06-06T20:11:52Z</time>
      </trkpt>
    </trkseg>
  </trk>
</gpx>