<?xml version='1.0' encoding='UTF-8'?>
<gpx xmlns="http://www.topografix.com/GPX/1/1" creator="https://gpx.studio" version="1.1">
  <metadata>
    <name>Dog Walk - 2026-09-10 #2</name>
  </metadata>
  <trk>
    <name>Dog Walk - 2026-09-10 #2</name>
    <type>dog walk</type>
    <trkseg>
      <trkpt lat="41.40134240608320" lon="-81.74023027288342">
        <ele>266.4412849775</ele>
        <time>2026-09-10T10:44:41Z</time>
      </trkpt>
      <trkpt lat="41.40133314689700" lon="-81.74083934300548">
        <ele>266.3021133506</ele>
        <time>2026-09-10T10:45:19Z</time>
      </trkpt>
      <trkpt lat="41.40134199700040" lon="-81.74144108053807">
        <ele>265.8337041181</ele>
        <time>2026-09-10T10:45:57Z</time>
      </trkpt>
      <trkpt lat="41.40136010852373" lon="-81.74202752888171">
        <ele>265.2909142621</ele>
        <time>2026-09-10T10:46:52Z</time>
      </trkpt>
      <trkpt lat="41.40134963078675" lon="-81.74240506857365">
        <ele>264.4726370437</ele>
        <time>2026-09-10T10:47:31Z</time>
      </trkpt>
      <trkpt lat="41.40176335242578" lon="-81.74262339671030">
        <ele>264.2895784567</ele>
        <time>2026-09-10T10:48:07Z</time>
      </trkpt>
      <trkpt lat="41.40219430396254" lon="-81.74284306437626">
        <ele>263.3944266389</ele>
        <time>2026-09-10T10:48:54Z</time>
      </trkpt>
      <trkpt lat="41.40260861739653" lon="-81.74304958131333">
        <ele>262.6841943702</ele>
        <time>2026-09-10T10:49:28Z</time>
      </trkpt>
      <trkpt lat="41.40302736192626" lon="-81.74326017278518">
        <ele>262.3433695607</ele>
        <time>2026-09-10T10:50:10Z</time>
      </trkpt>
      <trkpt lat="41.40345110782032" lon="-81.74349070846246">
        <ele>261.9498899901</ele>
        <time>2026-09-10T10:50:47Z</time>
      </trkpt>
      <trkpt lat="41.40348802367756" lon="-81.74349733094014">
        <ele>261.8240553516</ele>
        <time>2026-09-10T10:50:50Z</time>
      </trkpt>
      <trkpt lat="41.40358755022543" lon="-81.74352258507631">
        <ele>261.7369066441</ele>
        <time>2026-09-10T10:50:58Z</time>
      </trkpt>
      <trkpt lat="41.40399043818513" lon="-81.74350720432957">
        <ele>260.8101277965</ele>
        <time>2026-09-10T10:51:46Z</time>
      </trkpt>
      <trkpt lat="41.40398148676887" lon="-81.74290861044449">
        <ele>261.5258776245</ele>
        <time>2026-09-10T10:52:33Z</time>
      </trkpt>
      <trkpt lat="41.40399964905733" lon="-81.74230917143090">
        <ele>262.3428026196</ele>
        <time>2026-09-10T10:53:13Z</time>
      </trkpt>
      <trkpt lat="41.40398947867526" lon="-81.74171586330412">
        <ele>262.3748013183</ele>
        <time>2026-09-10T10:53:58Z</time>
      </trkpt>
      <trkpt lat="41.40399209975848" lon="-81.74111535707351">
        <ele>262.9517643621</ele>
        <time>2026-09-10T10:54:37Z</time>
      </trkpt>
      <trkpt lat="41.40398915220091" lon="-81.74051918062662">
        <ele>263.6518816314</ele>
        <time>2026-09-10T10:55:11Z</time>
      </trkpt>
      <trkpt lat="41.40398436995020" lon="-81.73991186149161">
        <ele>264.4057517158</ele>
        <time>2026-09-10T10:55:51Z</time>
      </trkpt>
      <trkpt lat="41.40398776475882" lon="-81.73931750405191">
        <ele>264.9906376500</ele>
        <time>2026-09-10T10:56:26Z</time>
      </trkpt>
      <trkpt lat="41.40398764775244" lon="-81.73877624805951">
        <ele>265.2343969027</ele>
        <time>2026-09-10T10:57:01Z</time>
      </trkpt>
      <trkpt lat="41.40354283690189" lon="-81.73877544022358">
        <ele>266.0058520762</ele>
        <time>2026-09-10T10:57:55Z</time>
      </trkpt>
      <trkpt lat="41.40308837023557" lon="-81.73877726411101">
        <ele>266.2457205916</ele>
        <time>2026-09-10T10:58:57Z</time>
      </trkpt>
      <trkpt lat="41.40263356992452" lon="-81.73877975482068">
        <ele>266.8233028882</ele>
        <time>2026-09-10T10:59:35Z</time>
      </trkpt>
      <trkpt lat="41.40222688886706" lon="-81.73876634193948">
        <ele>266.8314831445</ele>
        <time>2026-09-10T11:00:23Z</time>
      </trkpt>
      <trkpt lat="41.40222112732118" lon="-81.73826319014790">
        <ele>266.8545877246</ele>
        <time>2026-09-10T11:00:55Z</time>
      </trkpt>
      <trkpt lat="41.40176308556084" lon="-81.73826256990034">
        <ele>267.3973591152</ele>
        <time>2026-09-10T11:01:36Z</time>
      </trkpt>
      <trkpt lat="41.40133056964366" lon="-81.73827248993739">
        <ele>267.5469224351</ele>
        <time>2026-09-10T11:02:07Z</time>
      </trkpt>
      <trkpt lat="41.40132830588529" lon="-81.73886190253155">
        <ele>267.3260705891</ele>
        <time>2026-09-10T11:02:44Z</time>
      </trkpt>
      <trkpt lat="41.40134116421316" lon="-81.73946199153045">
        <ele>267.3951783073</ele>
        <time>2026-09-10T11:03:25Z</time>
      </trkpt>
      <trkpt lat="41.40134280629047" lon="-81.74005340723798">
        <ele>266.8699427192</ele>
        <time>2026-09-10T11:04:05Z</time>
      </trkpt>
      <trkpt lat="41.40133819035189" lon="-81.74020978902026">
        <ele>266.6041604134</ele>
        <time>2026-09-10T11:04:12Z</time>
      </trkpt>
    </trkseg>
  </trk>
</gpx>