<?xml version='1.0' encoding='UTF-8'?>
<gpx xmlns="http://www.topografix.com/GPX/1/1" creator="https://gpx.studio" version="1.1">
  <metadata>
    <name>Dog Walk - 2026-09-18 #3</name>
  </metadata>
  <trk>
    <name>Dog Walk - 2026-09-18 #3</name>
    <type>dog walk</type>
    <trkseg>
      <trkpt lat="41.40133614068744" lon="-81.74023850473529">
        <ele>266.3917361037</ele>
        <time>2026-09-18T17:49:22Z</time>
      </trkpt>
      <trkpt lat="41.40134874808958" lon="-81.74084116967938">
        <ele>266.2139206165</ele>
        <time>2026-09-18T17:50:01Z</time>
      </trkpt>
      <trkpt lat="41.40133847274107" lon="-81.74143659923010">
        <ele>265.7590418019</ele>
        <time>2026-09-18T17:50:42Z</time>
      </trkpt>
      <trkpt lat="41.40134420985176" lon="-81.74203702669351">
        <ele>265.2841683575</ele>
        <time>2026-09-18T17:51:19Z</time>
      </trkpt>
      <trkpt lat="41.40135078889140" lon="-81.74242191334353">
        <ele>264.9539523005</ele>
        <time>2026-09-18T17:51:42Z</time>
      </trkpt>
      <trkpt lat="41.40176926088743" lon="-81.74261509882110">
        <ele>264.1225661287</ele>
        <time>2026-09-18T17:52:21Z</time>
      </trkpt>
      <trkpt lat="41.40220361604894" lon="-81.74282303653558">
        <ele>263.3700626024</ele>
        <time>2026-09-18T17:53:05Z</time>
      </trkpt>
      <trkpt lat="41.40262145921064" lon="-81.74301448368817">
        <ele>263.1129268526</ele>
        <time>2026-09-18T17:53:47Z</time>
      </trkpt>
      <trkpt lat="41.40304531923783" lon="-81.74322156017510">
        <ele>262.5977132249</ele>
        <time>2026-09-18T17:54:34Z</time>
      </trkpt>
      <trkpt lat="41.40311881026754" lon="-81.74324396464807">
        <ele>262.3013972560</ele>
        <time>2026-09-18T17:54:40Z</time>
      </trkpt>
      <trkpt lat="41.40310634250264" lon="-81.74265107312841">
        <ele>263.0992114023</ele>
        <time>2026-09-18T17:55:20Z</time>
      </trkpt>
      <trkpt lat="41.40311635594084" lon="-81.74205784929688">
        <ele>263.5694660584</ele>
        <time>2026-09-18T17:56:08Z</time>
      </trkpt>
      <trkpt lat="41.40310801422336" lon="-81.74145145001107">
        <ele>264.3001683334</ele>
        <time>2026-09-18T17:57:01Z</time>
      </trkpt>
      <trkpt lat="41.40310485709421" lon="-81.74085341476672">
        <ele>264.7467501879</ele>
        <time>2026-09-18T17:57:47Z</time>
      </trkpt>
      <trkpt lat="41.40309757134168" lon="-81.74024728478255">
        <ele>265.4438392952</ele>
        <time>2026-09-18T17:58:39Z</time>
      </trkpt>
      <trkpt lat="41.40310362747987" lon="-81.73966254765114">
        <ele>265.6010949868</ele>
        <time>2026-09-18T17:59:20Z</time>
      </trkpt>
      <trkpt lat="41.40309536339581" lon="-81.73905835004923">
        <ele>265.9993008681</ele>
        <time>2026-09-18T18:00:14Z</time>
      </trkpt>
      <trkpt lat="41.40310380048808" lon="-81.73878241923555">
        <ele>266.2399861648</ele>
        <time>2026-09-18T18:00:34Z</time>
      </trkpt>
      <trkpt lat="41.40265054764185" lon="-81.73878224564288">
        <ele>266.3746510850</ele>
        <time>2026-09-18T18:01:16Z</time>
      </trkpt>
      <trkpt lat="41.40222989755402" lon="-81.73878123899058">
        <ele>267.0390530355</ele>
        <time>2026-09-18T18:01:57Z</time>
      </trkpt>
      <trkpt lat="41.40223237810565" lon="-81.73817153341827">
        <ele>266.9893911726</ele>
        <time>2026-09-18T18:02:34Z</time>
      </trkpt>
      <trkpt lat="41.40222962706471" lon="-81.73757692211998">
        <ele>267.0704417359</ele>
        <time>2026-09-18T18:03:12Z</time>
      </trkpt>
      <trkpt lat="41.40223935810241" lon="-81.73697994149185">
        <ele>267.1686804314</ele>
        <time>2026-09-18T18:04:03Z</time>
      </trkpt>
      <trkpt lat="41.40222773925068" lon="-81.73638755447560">
        <ele>267.1377339347</ele>
        <time>2026-09-18T18:04:47Z</time>
      </trkpt>
      <trkpt lat="41.40222557802951" lon="-81.73579568333145">
        <ele>267.5422446787</ele>
        <time>2026-09-18T18:05:28Z</time>
      </trkpt>
      <trkpt lat="41.40222240494118" lon="-81.73518111880010">
        <ele>267.5112086715</ele>
        <time>2026-09-18T18:06:22Z</time>
      </trkpt>
      <trkpt lat="41.40221970591818" lon="-81.73465034570945">
        <ele>266.9913570989</ele>
        <time>2026-09-18T18:06:54Z</time>
      </trkpt>
      <trkpt lat="41.40177399886338" lon="-81.73463777991495">
        <ele>267.4881987926</ele>
        <time>2026-09-18T18:08:04Z</time>
      </trkpt>
      <trkpt lat="41.40132487883207" lon="-81.73464570351690">
        <ele>267.3694403594</ele>
        <time>2026-09-18T18:08:43Z</time>
      </trkpt>
      <trkpt lat="41.40131524866934" lon="-81.73462894052629">
        <ele>267.4073719094</ele>
        <time>2026-09-18T18:08:45Z</time>
      </trkpt>
      <trkpt lat="41.40131553849442" lon="-81.73523747628667">
        <ele>267.8946226254</ele>
        <time>2026-09-18T18:09:32Z</time>
      </trkpt>
      <trkpt lat="41.40131828540617" lon="-81.73583855279659">
        <ele>268.2108647138</ele>
        <time>2026-09-18T18:10:16Z</time>
      </trkpt>
      <trkpt lat="41.40132455457788" lon="-81.73643397256164">
        <ele>268.0710837180</ele>
        <time>2026-09-18T18:11:05Z</time>
      </trkpt>
      <trkpt lat="41.40133017457951" lon="-81.73702863852239">
        <ele>268.2803303767</ele>
        <time>2026-09-18T18:11:52Z</time>
      </trkpt>
      <trkpt lat="41.40133361856178" lon="-81.73763378181182">
        <ele>267.7640643809</ele>
        <time>2026-09-18T18:12:43Z</time>
      </trkpt>
      <trkpt lat="41.40133601032183" lon="-81.73823769014746">
        <ele>267.5341611766</ele>
        <time>2026-09-18T18:13:32Z</time>
      </trkpt>
      <trkpt lat="41.40133832262813" lon="-81.73883588534689">
        <ele>267.4460404378</ele>
        <time>2026-09-18T18:14:20Z</time>
      </trkpt>
      <trkpt lat="41.40133600584315" lon="-81.73943559086676">
        <ele>266.9486595644</ele>
        <time>2026-09-18T18:14:53Z</time>
      </trkpt>
      <trkpt lat="41.40133991586885" lon="-81.74003559776709">
        <ele>266.6794286498</ele>
        <time>2026-09-18T18:15:38Z</time>
      </trkpt>
      <trkpt lat="41.40134330936440" lon="-81.74015124515819">
        <ele>266.7788729895</ele>
        <time>2026-09-18T18:15:44Z</time>
      </trkpt>
    </trkseg>
  </trk>
</gpx>