<?xml version='1.0' encoding='UTF-8'?>
<gpx xmlns="http://www.topografix.com/GPX/1/1" creator="https://gpx.studio" version="1.1">
  <metadata>
    <name>Dog Walk - 2026-09-10 #1</name>
  </metadata>
  <trk>
    <name>Dog Walk - 2026-09-10 #1</name>
    <type>dog walk</type>
    <trkseg>
      <trkpt lat="41.40135148667147" lon="-81.74023556570478">
        <ele>266.7997449631</ele>
        <time>2026-09-10T08:19:18Z</time>
      </trkpt>
      <trkpt lat="41.40134703639825" lon="-81.74084675991026">
        <ele>266.3219222891</ele>
        <time>2026-09-10T08:20:01Z</time>
      </trkpt>
      <trkpt lat="41.40135159676998" lon="-81.74143778539360">
        <ele>265.9731291767</ele>
        <time>2026-09-10T08:20:34Z</time>
      </trkpt>
      <trkpt lat="41.40134514868500" lon="-81.74203368455333">
        <ele>265.2311312996</ele>
        <time>2026-09-10T08:21:15Z</time>
      </trkpt>
      <trkpt lat="41.40133964196426" lon="-81.74241734588205">
        <ele>264.7300132916</ele>
        <time>2026-09-10T08:21:40Z</time>
      </trkpt>
      <trkpt lat="41.40176456498888" lon="-81.74263549269570">
        <ele>264.2022772352</ele>
        <time>2026-09-10T08:22:35Z</time>
      </trkpt>
      <trkpt lat="41.40218684766048" lon="-81.74284422918596">
        <ele>263.4913017013</ele>
        <time>2026-09-10T08:23:20Z</time>
      </trkpt>
      <trkpt lat="41.40221610923986" lon="-81.74286761876402">
        <ele>263.2287528795</ele>
        <time>2026-09-10T08:23:23Z</time>
      </trkpt>
      <trkpt lat="41.40221974698704" lon="-81.74226445847110">
        <ele>264.0403022969</ele>
        <time>2026-09-10T08:23:59Z</time>
      </trkpt>
      <trkpt lat="41.40222177411212" lon="-81.74166051859500">
        <ele>264.6911403347</ele>
        <time>2026-09-10T08:24:49Z</time>
      </trkpt>
      <trkpt lat="41.40221468771716" lon="-81.74107443333141">
        <ele>265.5114911660</ele>
        <time>2026-09-10T08:25:29Z</time>
      </trkpt>
      <trkpt lat="41.40222800351510" lon="-81.74045747100966">
        <ele>266.0606228917</ele>
        <time>2026-09-10T08:26:14Z</time>
      </trkpt>
      <trkpt lat="41.40221854814560" lon="-81.73986121935955">
        <ele>266.5006674916</ele>
        <time>2026-09-10T08:26:59Z</time>
      </trkpt>
      <trkpt lat="41.40221964412030" lon="-81.73926469691362">
        <ele>267.0586647806</ele>
        <time>2026-09-10T08:27:48Z</time>
      </trkpt>
      <trkpt lat="41.40222126017840" lon="-81.73867774159586">
        <ele>267.1052078214</ele>
        <time>2026-09-10T08:28:21Z</time>
      </trkpt>
      <trkpt lat="41.40221239842145" lon="-81.73827154909164">
        <ele>267.0224236450</ele>
        <time>2026-09-10T08:28:49Z</time>
      </trkpt>
      <trkpt lat="41.40177530402100" lon="-81.73827386941049">
        <ele>267.9086490396</ele>
        <time>2026-09-10T08:29:38Z</time>
      </trkpt>
      <trkpt lat="41.40133733553375" lon="-81.73825790869186">
        <ele>267.5039374841</ele>
        <time>2026-09-10T08:30:10Z</time>
      </trkpt>
      <trkpt lat="41.40133877566647" lon="-81.73886180733982">
        <ele>267.4150386013</ele>
        <time>2026-09-10T08:30:53Z</time>
      </trkpt>
      <trkpt lat="41.40133586487219" lon="-81.73947301265062">
        <ele>267.1629842754</ele>
        <time>2026-09-10T08:31:42Z</time>
      </trkpt>
      <trkpt lat="41.40134566694369" lon="-81.74005648261071">
        <ele>266.7074427297</ele>
        <time>2026-09-10T08:32:18Z</time>
      </trkpt>
      <trkpt lat="41.40133959452763" lon="-81.74019170866474">
        <ele>266.6319912281</ele>
        <time>2026-09-10T08:32:27Z</time>
      </trkpt>
    </trkseg>
  </trk>
</gpx>