<?xml version='1.0' encoding='UTF-8'?>
<gpx xmlns="http://www.topografix.com/GPX/1/1" creator="https://gpx.studio" version="1.1">
  <metadata>
    <name>Dog Walk - 2026-06-01 #2</name>
  </metadata>
  <trk>
    <name>Dog Walk - 2026-06-01 #2</name>
    <type>dog walk</type>
    <trkseg>
      <trkpt lat="41.40134051439824" lon="-81.74023182915721">
        <ele>266.4600892640</ele>
        <time>2026-06-01T16:28:06Z</time>
      </trkpt>
      <trkpt lat="41.40134080537180" lon="-81.74083581694957">
        <ele>266.2260363015</ele>
        <time>2026-06-01T16:28:37Z</time>
      </trkpt>
      <trkpt lat="41.40134986482803" lon="-81.74143749123503">
        <ele>265.7989254653</ele>
        <time>2026-06-01T16:29:08Z</time>
      </trkpt>
      <trkpt lat="41.40135114830642" lon="-81.74203323430503">
        <ele>265.4875302078</ele>
        <time>2026-06-01T16:30:04Z</time>
      </trkpt>
      <trkpt lat="41.40135430337642" lon="-81.74242674422476">
        <ele>264.5578112858</ele>
        <time>2026-06-01T16:30:30Z</time>
      </trkpt>
      <trkpt lat="41.40176390956955" lon="-81.74264000250184">
        <ele>264.2654727482</ele>
        <time>2026-06-01T16:31:04Z</time>
      </trkpt>
      <trkpt lat="41.40218810854778" lon="-81.74284474943201">
        <ele>263.6432297136</ele>
        <time>2026-06-01T16:31:52Z</time>
      </trkpt>
      <trkpt lat="41.40221761158232" lon="-81.74286589286967">
        <ele>263.2868944297</ele>
        <time>2026-06-01T16:31:54Z</time>
      </trkpt>
      <trkpt lat="41.40221527782842" lon="-81.74227634528583">
        <ele>264.1605417969</ele>
        <time>2026-06-01T16:32:25Z</time>
      </trkpt>
      <trkpt lat="41.40222115604071" lon="-81.74166428318547">
        <ele>264.7811592486</ele>
        <time>2026-06-01T16:33:11Z</time>
      </trkpt>
      <trkpt lat="41.40221914978029" lon="-81.74106478176290">
        <ele>265.7069525322</ele>
        <time>2026-06-01T16:33:49Z</time>
      </trkpt>
      <trkpt lat="41.40221784798145" lon="-81.74046984749805">
        <ele>266.0310601479</ele>
        <time>2026-06-01T16:34:50Z</time>
      </trkpt>
      <trkpt lat="41.40221600451144" lon="-81.73986763865756">
        <ele>266.5235983354</ele>
        <time>2026-06-01T16:35:34Z</time>
      </trkpt>
      <trkpt lat="41.40222308743287" lon="-81.73927146562821">
        <ele>266.8486460978</ele>
        <time>2026-06-01T16:36:30Z</time>
      </trkpt>
      <trkpt lat="41.40221735609981" lon="-81.73866554129302">
        <ele>267.1810988453</ele>
        <time>2026-06-01T16:37:14Z</time>
      </trkpt>
      <trkpt lat="41.40221360264471" lon="-81.73827918935042">
        <ele>267.1418978834</ele>
        <time>2026-06-01T16:37:44Z</time>
      </trkpt>
      <trkpt lat="41.40177319108869" lon="-81.73826762533744">
        <ele>267.9431650751</ele>
        <time>2026-06-01T16:38:36Z</time>
      </trkpt>
      <trkpt lat="41.40133855433349" lon="-81.73826073737962">
        <ele>267.4404565667</ele>
        <time>2026-06-01T16:39:15Z</time>
      </trkpt>
      <trkpt lat="41.40134655432043" lon="-81.73886802587627">
        <ele>267.3947140587</ele>
        <time>2026-06-01T16:40:07Z</time>
      </trkpt>
      <trkpt lat="41.40133955336032" lon="-81.73945847908826">
        <ele>267.1298188169</ele>
        <time>2026-06-01T16:40:41Z</time>
      </trkpt>
      <trkpt lat="41.40133332567159" lon="-81.74005675091679">
        <ele>266.5526148351</ele>
        <time>2026-06-01T16:41:18Z</time>
      </trkpt>
      <trkpt lat="41.40133605300492" lon="-81.74019161186766">
        <ele>266.5020598786</ele>
        <time>2026-06-01T16:41:26Z</time>
      </trkpt>
    </trkseg>
  </trk>
</gpx>