<?xml version='1.0' encoding='UTF-8'?>
<gpx xmlns="http://www.topografix.com/GPX/1/1" creator="https://gpx.studio" version="1.1">
  <metadata>
    <name>Dog Walk - 2026-04-17 #2</name>
  </metadata>
  <trk>
    <name>Dog Walk - 2026-04-17 #2</name>
    <type>dog walk</type>
    <trkseg>
      <trkpt lat="41.40133520237492" lon="-81.74023027200691">
        <ele>266.3679900972</ele>
        <time>2026-04-17T13:09:52Z</time>
      </trkpt>
      <trkpt lat="41.40133557776103" lon="-81.74082236216699">
        <ele>266.1843873925</ele>
        <time>2026-04-17T13:10:33Z</time>
      </trkpt>
      <trkpt lat="41.40134364053842" lon="-81.74143037664062">
        <ele>265.7344713076</ele>
        <time>2026-04-17T13:11:10Z</time>
      </trkpt>
      <trkpt lat="41.40134851268578" lon="-81.74203236604183">
        <ele>265.3183345693</ele>
        <time>2026-04-17T13:11:57Z</time>
      </trkpt>
      <trkpt lat="41.40135110971696" lon="-81.74241729746991">
        <ele>264.6123909872</ele>
        <time>2026-04-17T13:12:24Z</time>
      </trkpt>
      <trkpt lat="41.40177076868936" lon="-81.74262384665084">
        <ele>264.3898851860</ele>
        <time>2026-04-17T13:13:07Z</time>
      </trkpt>
      <trkpt lat="41.40218995789114" lon="-81.74283625996753">
        <ele>263.5213271690</ele>
        <time>2026-04-17T13:13:54Z</time>
      </trkpt>
      <trkpt lat="41.40260706088539" lon="-81.74305582926659">
        <ele>262.9011969830</ele>
        <time>2026-04-17T13:14:35Z</time>
      </trkpt>
      <trkpt lat="41.40303589326127" lon="-81.74325820624166">
        <ele>262.4198225363</ele>
        <time>2026-04-17T13:15:26Z</time>
      </trkpt>
      <trkpt lat="41.40344583087931" lon="-81.74348191022011">
        <ele>261.7650468941</ele>
        <time>2026-04-17T13:16:13Z</time>
      </trkpt>
      <trkpt lat="41.40348693630362" lon="-81.74349884920525">
        <ele>261.9106978259</ele>
        <time>2026-04-17T13:16:16Z</time>
      </trkpt>
      <trkpt lat="41.40359529745877" lon="-81.74352511166846">
        <ele>261.6524836047</ele>
        <time>2026-04-17T13:16:27Z</time>
      </trkpt>
      <trkpt lat="41.40399053038081" lon="-81.74351839256508">
        <ele>260.7409130610</ele>
        <time>2026-04-17T13:17:09Z</time>
      </trkpt>
      <trkpt lat="41.40399276814368" lon="-81.74291259600334">
        <ele>261.5190175957</ele>
        <time>2026-04-17T13:17:53Z</time>
      </trkpt>
      <trkpt lat="41.40399328136908" lon="-81.74232008779636">
        <ele>262.1628154662</ele>
        <time>2026-04-17T13:18:28Z</time>
      </trkpt>
      <trkpt lat="41.40398935366520" lon="-81.74169361733483">
        <ele>262.7430521389</ele>
        <time>2026-04-17T13:19:09Z</time>
      </trkpt>
      <trkpt lat="41.40398913708821" lon="-81.74111696516040">
        <ele>262.8233593120</ele>
        <time>2026-04-17T13:19:43Z</time>
      </trkpt>
      <trkpt lat="41.40398399198818" lon="-81.74049798069902">
        <ele>263.4944480896</ele>
        <time>2026-04-17T13:20:37Z</time>
      </trkpt>
      <trkpt lat="41.40398073864701" lon="-81.73991459143556">
        <ele>264.4352111070</ele>
        <time>2026-04-17T13:21:19Z</time>
      </trkpt>
      <trkpt lat="41.40399349010009" lon="-81.73931412364402">
        <ele>264.9204457958</ele>
        <time>2026-04-17T13:22:12Z</time>
      </trkpt>
      <trkpt lat="41.40398375019561" lon="-81.73877634250847">
        <ele>265.1778256709</ele>
        <time>2026-04-17T13:22:49Z</time>
      </trkpt>
      <trkpt lat="41.40353190933650" lon="-81.73877290848350">
        <ele>265.9396027318</ele>
        <time>2026-04-17T13:23:28Z</time>
      </trkpt>
      <trkpt lat="41.40309175691156" lon="-81.73877784013935">
        <ele>266.3188062535</ele>
        <time>2026-04-17T13:24:09Z</time>
      </trkpt>
      <trkpt lat="41.40263807095135" lon="-81.73878007131550">
        <ele>266.6088675451</ele>
        <time>2026-04-17T13:24:38Z</time>
      </trkpt>
      <trkpt lat="41.40223195161650" lon="-81.73877861645113">
        <ele>267.2152118949</ele>
        <time>2026-04-17T13:25:23Z</time>
      </trkpt>
      <trkpt lat="41.40222085636849" lon="-81.73827533128038">
        <ele>267.2783588880</ele>
        <time>2026-04-17T13:26:06Z</time>
      </trkpt>
      <trkpt lat="41.40175840869598" lon="-81.73826850896195">
        <ele>267.6242807760</ele>
        <time>2026-04-17T13:27:07Z</time>
      </trkpt>
      <trkpt lat="41.40131999086483" lon="-81.73826424746497">
        <ele>267.5656851196</ele>
        <time>2026-04-17T13:27:49Z</time>
      </trkpt>
      <trkpt lat="41.40132781557670" lon="-81.73886735207776">
        <ele>267.4994504938</ele>
        <time>2026-04-17T13:28:38Z</time>
      </trkpt>
      <trkpt lat="41.40132958214322" lon="-81.73946118802348">
        <ele>267.1009798708</ele>
        <time>2026-04-17T13:29:10Z</time>
      </trkpt>
      <trkpt lat="41.40133412020936" lon="-81.74006107123716">
        <ele>266.7664174075</ele>
        <time>2026-04-17T13:29:41Z</time>
      </trkpt>
      <trkpt lat="41.40133119087700" lon="-81.74021313799484">
        <ele>266.5116890658</ele>
        <time>2026-04-17T13:30:08Z</time>
      </trkpt>
    </trkseg>
  </trk>
</gpx>