<?xml version='1.0' encoding='UTF-8'?>
<gpx xmlns="http://www.topografix.com/GPX/1/1" creator="https://gpx.studio" version="1.1">
  <metadata>
    <name>Dog Walk - 2026-08-29</name>
  </metadata>
  <trk>
    <name>Dog Walk - 2026-08-29</name>
    <type>dog walk</type>
    <trkseg>
      <trkpt lat="41.40133931758437" lon="-81.74022362740956">
        <ele>266.6771884922</ele>
        <time>2026-08-29T10:49:50Z</time>
      </trkpt>
      <trkpt lat="41.40133998261650" lon="-81.74082789713857">
        <ele>266.1868098533</ele>
        <time>2026-08-29T10:50:31Z</time>
      </trkpt>
      <trkpt lat="41.40132958811627" lon="-81.74143023265191">
        <ele>265.8232535120</ele>
        <time>2026-08-29T10:51:07Z</time>
      </trkpt>
      <trkpt lat="41.40133377076005" lon="-81.74202000171547">
        <ele>265.4454937107</ele>
        <time>2026-08-29T10:51:57Z</time>
      </trkpt>
      <trkpt lat="41.40132479453680" lon="-81.74238575725870">
        <ele>264.8706186005</ele>
        <time>2026-08-29T10:52:25Z</time>
      </trkpt>
      <trkpt lat="41.40090584672700" lon="-81.74218472922468">
        <ele>265.2239956348</ele>
        <time>2026-08-29T10:53:14Z</time>
      </trkpt>
      <trkpt lat="41.40047871979476" lon="-81.74196792140211">
        <ele>265.0347008551</ele>
        <time>2026-08-29T10:54:15Z</time>
      </trkpt>
      <trkpt lat="41.40044951784641" lon="-81.74195581888836">
        <ele>265.3574796781</ele>
        <time>2026-08-29T10:54:17Z</time>
      </trkpt>
      <trkpt lat="41.40045488510464" lon="-81.74136062653338">
        <ele>266.0539020905</ele>
        <time>2026-08-29T10:54:49Z</time>
      </trkpt>
      <trkpt lat="41.40043968818564" lon="-81.74074640254172">
        <ele>266.3500988328</ele>
        <time>2026-08-29T10:55:41Z</time>
      </trkpt>
      <trkpt lat="41.40043783585654" lon="-81.74014852665587">
        <ele>266.4597408042</ele>
        <time>2026-08-29T10:56:16Z</time>
      </trkpt>
      <trkpt lat="41.40043631441572" lon="-81.73956006432596">
        <ele>266.8363340498</ele>
        <time>2026-08-29T10:56:48Z</time>
      </trkpt>
      <trkpt lat="41.40041986238392" lon="-81.73895103401627">
        <ele>267.1078819937</ele>
        <time>2026-08-29T10:57:30Z</time>
      </trkpt>
      <trkpt lat="41.40042095206562" lon="-81.73834663896511">
        <ele>267.3415969954</ele>
        <time>2026-08-29T10:58:15Z</time>
      </trkpt>
      <trkpt lat="41.40042383371970" lon="-81.73775482429706">
        <ele>267.8138839292</ele>
        <time>2026-08-29T10:58:53Z</time>
      </trkpt>
      <trkpt lat="41.40041257365704" lon="-81.73716079163655">
        <ele>267.9239725348</ele>
        <time>2026-08-29T10:59:25Z</time>
      </trkpt>
      <trkpt lat="41.40040951189462" lon="-81.73655190990937">
        <ele>268.0951396002</ele>
        <time>2026-08-29T11:00:31Z</time>
      </trkpt>
      <trkpt lat="41.40040726674991" lon="-81.73595096732288">
        <ele>268.1680154851</ele>
        <time>2026-08-29T11:01:33Z</time>
      </trkpt>
      <trkpt lat="41.40040708006741" lon="-81.73535185446937">
        <ele>267.9253303709</ele>
        <time>2026-08-29T11:02:06Z</time>
      </trkpt>
      <trkpt lat="41.40039359144981" lon="-81.73475206264074">
        <ele>267.5601477103</ele>
        <time>2026-08-29T11:02:55Z</time>
      </trkpt>
      <trkpt lat="41.40039046867513" lon="-81.73462893150125">
        <ele>267.2245015159</ele>
        <time>2026-08-29T11:03:05Z</time>
      </trkpt>
      <trkpt lat="41.40084210514637" lon="-81.73463526605910">
        <ele>267.3556102604</ele>
        <time>2026-08-29T11:03:38Z</time>
      </trkpt>
      <trkpt lat="41.40130119541635" lon="-81.73462872403913">
        <ele>267.1212990719</ele>
        <time>2026-08-29T11:04:15Z</time>
      </trkpt>
      <trkpt lat="41.40131574837451" lon="-81.73463337232239">
        <ele>267.4247275740</ele>
        <time>2026-08-29T11:04:17Z</time>
      </trkpt>
      <trkpt lat="41.40133189737758" lon="-81.73523338426531">
        <ele>267.9182423073</ele>
        <time>2026-08-29T11:04:51Z</time>
      </trkpt>
      <trkpt lat="41.40132117997953" lon="-81.73584442621208">
        <ele>268.5014341109</ele>
        <time>2026-08-29T11:05:34Z</time>
      </trkpt>
      <trkpt lat="41.40132702544136" lon="-81.73642908587954">
        <ele>268.1191856754</ele>
        <time>2026-08-29T11:06:08Z</time>
      </trkpt>
      <trkpt lat="41.40133180757572" lon="-81.73702652257708">
        <ele>268.2501363666</ele>
        <time>2026-08-29T11:06:52Z</time>
      </trkpt>
      <trkpt lat="41.40134005003733" lon="-81.73763439857279">
        <ele>267.8358737270</ele>
        <time>2026-08-29T11:07:26Z</time>
      </trkpt>
      <trkpt lat="41.40133547947912" lon="-81.73822398015476">
        <ele>267.7114704222</ele>
        <time>2026-08-29T11:07:55Z</time>
      </trkpt>
      <trkpt lat="41.40133366918664" lon="-81.73883349595177">
        <ele>267.3940191300</ele>
        <time>2026-08-29T11:08:42Z</time>
      </trkpt>
      <trkpt lat="41.40134286557284" lon="-81.73942632056026">
        <ele>267.1765759490</ele>
        <time>2026-08-29T11:09:20Z</time>
      </trkpt>
      <trkpt lat="41.40135447511584" lon="-81.74002821744867">
        <ele>266.5149468520</ele>
        <time>2026-08-29T11:09:54Z</time>
      </trkpt>
      <trkpt lat="41.40134478231694" lon="-81.74019684201483">
        <ele>266.3625752431</ele>
        <time>2026-08-29T11:10:07Z</time>
      </trkpt>
    </trkseg>
  </trk>
</gpx>