<?xml version='1.0' encoding='UTF-8'?>
<gpx xmlns="http://www.topografix.com/GPX/1/1" creator="https://gpx.studio" version="1.1">
  <metadata>
    <name>Dog Walk - 2026-05-11 #2</name>
  </metadata>
  <trk>
    <name>Dog Walk - 2026-05-11 #2</name>
    <type>dog walk</type>
    <trkseg>
      <trkpt lat="41.40134222172451" lon="-81.74023468599067">
        <ele>266.6369999621</ele>
        <time>2026-05-11T15:28:06Z</time>
      </trkpt>
      <trkpt lat="41.40133494320376" lon="-81.74084464802729">
        <ele>266.2747123723</ele>
        <time>2026-05-11T15:28:59Z</time>
      </trkpt>
      <trkpt lat="41.40134274487050" lon="-81.74143120682024">
        <ele>265.7909866351</ele>
        <time>2026-05-11T15:29:41Z</time>
      </trkpt>
      <trkpt lat="41.40134449143415" lon="-81.74203227805839">
        <ele>265.1953848506</ele>
        <time>2026-05-11T15:30:25Z</time>
      </trkpt>
      <trkpt lat="41.40134853126965" lon="-81.74241572927355">
        <ele>264.6735172625</ele>
        <time>2026-05-11T15:30:49Z</time>
      </trkpt>
      <trkpt lat="41.40177808569376" lon="-81.74262234433155">
        <ele>264.4614791583</ele>
        <time>2026-05-11T15:31:20Z</time>
      </trkpt>
      <trkpt lat="41.40219652434055" lon="-81.74281948258779">
        <ele>263.4901100205</ele>
        <time>2026-05-11T15:31:47Z</time>
      </trkpt>
      <trkpt lat="41.40261805542431" lon="-81.74301555531368">
        <ele>263.0554270473</ele>
        <time>2026-05-11T15:32:24Z</time>
      </trkpt>
      <trkpt lat="41.40304393580971" lon="-81.74322225659705">
        <ele>262.4571541777</ele>
        <time>2026-05-11T15:33:09Z</time>
      </trkpt>
      <trkpt lat="41.40311896049511" lon="-81.74325800123164">
        <ele>262.2134819182</ele>
        <time>2026-05-11T15:33:16Z</time>
      </trkpt>
      <trkpt lat="41.40311913923596" lon="-81.74265011193525">
        <ele>263.2477821459</ele>
        <time>2026-05-11T15:34:04Z</time>
      </trkpt>
      <trkpt lat="41.40311190308883" lon="-81.74206334239904">
        <ele>263.5441346275</ele>
        <time>2026-05-11T15:35:01Z</time>
      </trkpt>
      <trkpt lat="41.40310776885430" lon="-81.74145794342375">
        <ele>264.3550115522</ele>
        <time>2026-05-11T15:35:34Z</time>
      </trkpt>
      <trkpt lat="41.40310338637545" lon="-81.74086271042383">
        <ele>264.6061463881</ele>
        <time>2026-05-11T15:36:25Z</time>
      </trkpt>
      <trkpt lat="41.40310060711567" lon="-81.74026396318740">
        <ele>265.3166758679</ele>
        <time>2026-05-11T15:37:06Z</time>
      </trkpt>
      <trkpt lat="41.40309542634976" lon="-81.73964578810622">
        <ele>266.0269295769</ele>
        <time>2026-05-11T15:37:46Z</time>
      </trkpt>
      <trkpt lat="41.40309879930000" lon="-81.73905364126068">
        <ele>265.9756826601</ele>
        <time>2026-05-11T15:38:18Z</time>
      </trkpt>
      <trkpt lat="41.40309988196265" lon="-81.73879005503588">
        <ele>266.4229601225</ele>
        <time>2026-05-11T15:38:36Z</time>
      </trkpt>
      <trkpt lat="41.40265041911358" lon="-81.73877529740835">
        <ele>266.7918631099</ele>
        <time>2026-05-11T15:39:20Z</time>
      </trkpt>
      <trkpt lat="41.40222647075757" lon="-81.73878073221128">
        <ele>267.0221391841</ele>
        <time>2026-05-11T15:40:07Z</time>
      </trkpt>
      <trkpt lat="41.40222660341995" lon="-81.73817712317101">
        <ele>267.3561302250</ele>
        <time>2026-05-11T15:40:49Z</time>
      </trkpt>
      <trkpt lat="41.40223731840898" lon="-81.73758554932678">
        <ele>267.1938222170</ele>
        <time>2026-05-11T15:41:49Z</time>
      </trkpt>
      <trkpt lat="41.40222992958793" lon="-81.73698479671346">
        <ele>267.0315447664</ele>
        <time>2026-05-11T15:42:29Z</time>
      </trkpt>
      <trkpt lat="41.40222938529154" lon="-81.73637857071155">
        <ele>267.1343505617</ele>
        <time>2026-05-11T15:43:21Z</time>
      </trkpt>
      <trkpt lat="41.40222517979550" lon="-81.73577648709245">
        <ele>267.1890278203</ele>
        <time>2026-05-11T15:44:15Z</time>
      </trkpt>
      <trkpt lat="41.40222552819152" lon="-81.73518297085040">
        <ele>267.2062011667</ele>
        <time>2026-05-11T15:44:55Z</time>
      </trkpt>
      <trkpt lat="41.40221574497705" lon="-81.73465179352331">
        <ele>267.1588444803</ele>
        <time>2026-05-11T15:45:39Z</time>
      </trkpt>
      <trkpt lat="41.40177172256906" lon="-81.73464636130225">
        <ele>267.2023356958</ele>
        <time>2026-05-11T15:46:29Z</time>
      </trkpt>
      <trkpt lat="41.40132769943020" lon="-81.73464124202776">
        <ele>267.4151092177</ele>
        <time>2026-05-11T15:47:05Z</time>
      </trkpt>
      <trkpt lat="41.40131126436786" lon="-81.73462933461595">
        <ele>267.3254312633</ele>
        <time>2026-05-11T15:47:07Z</time>
      </trkpt>
      <trkpt lat="41.40132179818495" lon="-81.73523010392577">
        <ele>267.6114032435</ele>
        <time>2026-05-11T15:48:04Z</time>
      </trkpt>
      <trkpt lat="41.40132356348188" lon="-81.73582185312961">
        <ele>268.4868941721</ele>
        <time>2026-05-11T15:48:39Z</time>
      </trkpt>
      <trkpt lat="41.40132863053831" lon="-81.73644132926201">
        <ele>268.1769943702</ele>
        <time>2026-05-11T15:49:19Z</time>
      </trkpt>
      <trkpt lat="41.40132267287657" lon="-81.73703629826316">
        <ele>268.0030216473</ele>
        <time>2026-05-11T15:50:06Z</time>
      </trkpt>
      <trkpt lat="41.40133979493129" lon="-81.73763107615396">
        <ele>267.9040766903</ele>
        <time>2026-05-11T15:50:44Z</time>
      </trkpt>
      <trkpt lat="41.40133745268711" lon="-81.73823335432037">
        <ele>267.4082125018</ele>
        <time>2026-05-11T15:51:29Z</time>
      </trkpt>
      <trkpt lat="41.40134060339975" lon="-81.73884022005295">
        <ele>267.3850227959</ele>
        <time>2026-05-11T15:52:07Z</time>
      </trkpt>
      <trkpt lat="41.40134138869745" lon="-81.73943432729436">
        <ele>267.3803878099</ele>
        <time>2026-05-11T15:52:43Z</time>
      </trkpt>
      <trkpt lat="41.40134279049611" lon="-81.74004473402169">
        <ele>266.7411932788</ele>
        <time>2026-05-11T15:53:24Z</time>
      </trkpt>
      <trkpt lat="41.40133908503677" lon="-81.74016107664337">
        <ele>266.5268298782</ele>
        <time>2026-05-11T15:53:33Z</time>
      </trkpt>
    </trkseg>
  </trk>
</gpx>