<?xml version='1.0' encoding='UTF-8'?>
<gpx xmlns="http://www.topografix.com/GPX/1/1" creator="https://gpx.studio" version="1.1">
  <metadata>
    <name>Dog Walk - 2026-03-05 #1</name>
  </metadata>
  <trk>
    <name>Dog Walk - 2026-03-05 #1</name>
    <type>dog walk</type>
    <trkseg>
      <trkpt lat="41.40133626440467" lon="-81.74023756138133">
        <ele>266.4610483323</ele>
        <time>2026-03-05T11:59:26Z</time>
      </trkpt>
      <trkpt lat="41.40133566047798" lon="-81.74083649668229">
        <ele>266.1742489980</ele>
        <time>2026-03-05T12:00:05Z</time>
      </trkpt>
      <trkpt lat="41.40133962169773" lon="-81.74143567050670">
        <ele>265.7109820496</ele>
        <time>2026-03-05T12:00:46Z</time>
      </trkpt>
      <trkpt lat="41.40134696990420" lon="-81.74203116226431">
        <ele>265.2366677173</ele>
        <time>2026-03-05T12:01:54Z</time>
      </trkpt>
      <trkpt lat="41.40135103477486" lon="-81.74242346894182">
        <ele>264.7966465754</ele>
        <time>2026-03-05T12:02:20Z</time>
      </trkpt>
      <trkpt lat="41.40177636256819" lon="-81.74262302097694">
        <ele>264.4297102694</ele>
        <time>2026-03-05T12:03:30Z</time>
      </trkpt>
      <trkpt lat="41.40218696512252" lon="-81.74281827609991">
        <ele>263.6256666471</ele>
        <time>2026-03-05T12:04:04Z</time>
      </trkpt>
      <trkpt lat="41.40261410533540" lon="-81.74301930296343">
        <ele>263.0587339495</ele>
        <time>2026-03-05T12:04:53Z</time>
      </trkpt>
      <trkpt lat="41.40304387919835" lon="-81.74322108721834">
        <ele>262.4164731249</ele>
        <time>2026-03-05T12:05:23Z</time>
      </trkpt>
      <trkpt lat="41.40311683883436" lon="-81.74324885838996">
        <ele>262.4744413935</ele>
        <time>2026-03-05T12:05:29Z</time>
      </trkpt>
      <trkpt lat="41.40311892451577" lon="-81.74264900418173">
        <ele>263.2225129105</ele>
        <time>2026-03-05T12:06:20Z</time>
      </trkpt>
      <trkpt lat="41.40311598896833" lon="-81.74205723543557">
        <ele>263.7959961649</ele>
        <time>2026-03-05T12:07:03Z</time>
      </trkpt>
      <trkpt lat="41.40310096956197" lon="-81.74145882034522">
        <ele>264.2106529931</ele>
        <time>2026-03-05T12:07:46Z</time>
      </trkpt>
      <trkpt lat="41.40310326130783" lon="-81.74086313549674">
        <ele>264.8440604404</ele>
        <time>2026-03-05T12:08:23Z</time>
      </trkpt>
      <trkpt lat="41.40310584531984" lon="-81.74025447703882">
        <ele>265.3568775373</ele>
        <time>2026-03-05T12:09:09Z</time>
      </trkpt>
      <trkpt lat="41.40309839815800" lon="-81.73966204845624">
        <ele>265.8771761871</ele>
        <time>2026-03-05T12:09:51Z</time>
      </trkpt>
      <trkpt lat="41.40309100471369" lon="-81.73905672346434">
        <ele>266.2144652132</ele>
        <time>2026-03-05T12:10:38Z</time>
      </trkpt>
      <trkpt lat="41.40309787445954" lon="-81.73879229588701">
        <ele>266.2089671796</ele>
        <time>2026-03-05T12:10:56Z</time>
      </trkpt>
      <trkpt lat="41.40264087070786" lon="-81.73878280543052">
        <ele>266.5624911443</ele>
        <time>2026-03-05T12:11:43Z</time>
      </trkpt>
      <trkpt lat="41.40223849092538" lon="-81.73878540288632">
        <ele>266.8928935377</ele>
        <time>2026-03-05T12:12:22Z</time>
      </trkpt>
      <trkpt lat="41.40223525347207" lon="-81.73817807348227">
        <ele>266.9775843877</ele>
        <time>2026-03-05T12:13:00Z</time>
      </trkpt>
      <trkpt lat="41.40222289154744" lon="-81.73757803164520">
        <ele>266.9353090147</ele>
        <time>2026-03-05T12:13:42Z</time>
      </trkpt>
      <trkpt lat="41.40223168267991" lon="-81.73697067427624">
        <ele>267.3011128766</ele>
        <time>2026-03-05T12:14:15Z</time>
      </trkpt>
      <trkpt lat="41.40221876829929" lon="-81.73638450200937">
        <ele>267.1553212011</ele>
        <time>2026-03-05T12:15:01Z</time>
      </trkpt>
      <trkpt lat="41.40221992070167" lon="-81.73578369957865">
        <ele>267.3810518815</ele>
        <time>2026-03-05T12:15:37Z</time>
      </trkpt>
      <trkpt lat="41.40222537575586" lon="-81.73517929855272">
        <ele>267.2689146142</ele>
        <time>2026-03-05T12:16:11Z</time>
      </trkpt>
      <trkpt lat="41.40221114512646" lon="-81.73465601659792">
        <ele>266.9871756798</ele>
        <time>2026-03-05T12:17:02Z</time>
      </trkpt>
      <trkpt lat="41.40177566024084" lon="-81.73464123978029">
        <ele>267.1176841131</ele>
        <time>2026-03-05T12:17:52Z</time>
      </trkpt>
      <trkpt lat="41.40131692911307" lon="-81.73464281376235">
        <ele>267.1455752404</ele>
        <time>2026-03-05T12:18:26Z</time>
      </trkpt>
      <trkpt lat="41.40132148234426" lon="-81.73464322471015">
        <ele>267.1949672218</ele>
        <time>2026-03-05T12:18:27Z</time>
      </trkpt>
      <trkpt lat="41.40132448095626" lon="-81.73523382191946">
        <ele>267.9506627502</ele>
        <time>2026-03-05T12:19:04Z</time>
      </trkpt>
      <trkpt lat="41.40132510317212" lon="-81.73582468934990">
        <ele>268.3239692510</ele>
        <time>2026-03-05T12:19:42Z</time>
      </trkpt>
      <trkpt lat="41.40132439049147" lon="-81.73644129068113">
        <ele>268.0528334513</ele>
        <time>2026-03-05T12:20:29Z</time>
      </trkpt>
      <trkpt lat="41.40132896971689" lon="-81.73702573252439">
        <ele>268.1157411077</ele>
        <time>2026-03-05T12:21:17Z</time>
      </trkpt>
      <trkpt lat="41.40133673793605" lon="-81.73762593621355">
        <ele>267.7284718325</ele>
        <time>2026-03-05T12:22:20Z</time>
      </trkpt>
      <trkpt lat="41.40134038051801" lon="-81.73824381482676">
        <ele>267.5986487510</ele>
        <time>2026-03-05T12:23:05Z</time>
      </trkpt>
      <trkpt lat="41.40134142653952" lon="-81.73884581931888">
        <ele>267.0894883353</ele>
        <time>2026-03-05T12:23:39Z</time>
      </trkpt>
      <trkpt lat="41.40133555781387" lon="-81.73942973009882">
        <ele>267.1876170388</ele>
        <time>2026-03-05T12:24:19Z</time>
      </trkpt>
      <trkpt lat="41.40134657527912" lon="-81.74003222533518">
        <ele>266.5282305796</ele>
        <time>2026-03-05T12:25:01Z</time>
      </trkpt>
      <trkpt lat="41.40135105914298" lon="-81.74015265461664">
        <ele>266.4661382183</ele>
        <time>2026-03-05T12:25:11Z</time>
      </trkpt>
    </trkseg>
  </trk>
</gpx>