<?xml version='1.0' encoding='UTF-8'?>
<gpx xmlns="http://www.topografix.com/GPX/1/1" creator="https://gpx.studio" version="1.1">
  <metadata>
    <name>Dog Walk - 2026-05-05 #4</name>
  </metadata>
  <trk>
    <name>Dog Walk - 2026-05-05 #4</name>
    <type>dog walk</type>
    <trkseg>
      <trkpt lat="41.40134155123518" lon="-81.74024446255437">
        <ele>266.3485329742</ele>
        <time>2026-05-05T17:56:53Z</time>
      </trkpt>
      <trkpt lat="41.40134805555397" lon="-81.74084612590475">
        <ele>266.2920120325</ele>
        <time>2026-05-05T17:57:32Z</time>
      </trkpt>
      <trkpt lat="41.40133830752824" lon="-81.74142800295041">
        <ele>265.8795894645</ele>
        <time>2026-05-05T17:58:10Z</time>
      </trkpt>
      <trkpt lat="41.40134343643657" lon="-81.74203909780221">
        <ele>265.4685253358</ele>
        <time>2026-05-05T17:58:52Z</time>
      </trkpt>
      <trkpt lat="41.40135692570098" lon="-81.74241829558613">
        <ele>264.6408479449</ele>
        <time>2026-05-05T17:59:19Z</time>
      </trkpt>
      <trkpt lat="41.40176648370710" lon="-81.74262535846063">
        <ele>264.2327212016</ele>
        <time>2026-05-05T17:59:54Z</time>
      </trkpt>
      <trkpt lat="41.40218728648340" lon="-81.74284757675920">
        <ele>263.4490289441</ele>
        <time>2026-05-05T18:00:43Z</time>
      </trkpt>
      <trkpt lat="41.40221047769770" lon="-81.74285931542624">
        <ele>263.3174590304</ele>
        <time>2026-05-05T18:00:45Z</time>
      </trkpt>
      <trkpt lat="41.40221430899510" lon="-81.74226671382023">
        <ele>263.9924316771</ele>
        <time>2026-05-05T18:01:32Z</time>
      </trkpt>
      <trkpt lat="41.40222687104505" lon="-81.74167414109959">
        <ele>264.6004816400</ele>
        <time>2026-05-05T18:02:11Z</time>
      </trkpt>
      <trkpt lat="41.40220766476753" lon="-81.74105753237087">
        <ele>265.4144358523</ele>
        <time>2026-05-05T18:02:58Z</time>
      </trkpt>
      <trkpt lat="41.40221989581946" lon="-81.74047611731791">
        <ele>265.8052382221</ele>
        <time>2026-05-05T18:03:49Z</time>
      </trkpt>
      <trkpt lat="41.40221428288505" lon="-81.73987701740145">
        <ele>266.6467022856</ele>
        <time>2026-05-05T18:04:24Z</time>
      </trkpt>
      <trkpt lat="41.40221359793323" lon="-81.73926990486821">
        <ele>266.9796694407</ele>
        <time>2026-05-05T18:04:53Z</time>
      </trkpt>
      <trkpt lat="41.40221877171087" lon="-81.73867048512355">
        <ele>267.2677070626</ele>
        <time>2026-05-05T18:05:36Z</time>
      </trkpt>
      <trkpt lat="41.40221727704603" lon="-81.73828700072043">
        <ele>267.1105271344</ele>
        <time>2026-05-05T18:06:04Z</time>
      </trkpt>
      <trkpt lat="41.40177049616467" lon="-81.73826031764327">
        <ele>267.7211739276</ele>
        <time>2026-05-05T18:06:44Z</time>
      </trkpt>
      <trkpt lat="41.40132961170296" lon="-81.73825555308920">
        <ele>267.5264956970</ele>
        <time>2026-05-05T18:07:22Z</time>
      </trkpt>
      <trkpt lat="41.40133680825966" lon="-81.73885093176405">
        <ele>267.5098554697</ele>
        <time>2026-05-05T18:08:02Z</time>
      </trkpt>
      <trkpt lat="41.40134223023684" lon="-81.73946262472501">
        <ele>267.2869187849</ele>
        <time>2026-05-05T18:08:43Z</time>
      </trkpt>
      <trkpt lat="41.40134281377420" lon="-81.74005275994571">
        <ele>266.6356271736</ele>
        <time>2026-05-05T18:09:18Z</time>
      </trkpt>
      <trkpt lat="41.40134033741973" lon="-81.74018228628000">
        <ele>266.4176661794</ele>
        <time>2026-05-05T18:09:29Z</time>
      </trkpt>
    </trkseg>
  </trk>
</gpx>