<?xml version='1.0' encoding='UTF-8'?>
<gpx xmlns="http://www.topografix.com/GPX/1/1" creator="https://gpx.studio" version="1.1">
  <metadata>
    <name>Dog Walk - 2026-08-14 #2</name>
  </metadata>
  <trk>
    <name>Dog Walk - 2026-08-14 #2</name>
    <type>dog walk</type>
    <trkseg>
      <trkpt lat="41.40134405959096" lon="-81.74022857311621">
        <ele>266.6089879597</ele>
        <time>2026-08-14T11:09:31Z</time>
      </trkpt>
      <trkpt lat="41.40133781262839" lon="-81.74083331695505">
        <ele>266.1806502648</ele>
        <time>2026-08-14T11:10:07Z</time>
      </trkpt>
      <trkpt lat="41.40134540327444" lon="-81.74143753122132">
        <ele>265.5142696750</ele>
        <time>2026-08-14T11:11:08Z</time>
      </trkpt>
      <trkpt lat="41.40134986637196" lon="-81.74204247156904">
        <ele>265.3413166441</ele>
        <time>2026-08-14T11:11:59Z</time>
      </trkpt>
      <trkpt lat="41.40134551792780" lon="-81.74241975067171">
        <ele>264.7306618932</ele>
        <time>2026-08-14T11:12:40Z</time>
      </trkpt>
      <trkpt lat="41.40176009759885" lon="-81.74263899843854">
        <ele>264.2658873082</ele>
        <time>2026-08-14T11:13:16Z</time>
      </trkpt>
      <trkpt lat="41.40219044724487" lon="-81.74284633414516">
        <ele>263.4770186610</ele>
        <time>2026-08-14T11:14:21Z</time>
      </trkpt>
      <trkpt lat="41.40221841742572" lon="-81.74285985029019">
        <ele>263.2720947286</ele>
        <time>2026-08-14T11:14:24Z</time>
      </trkpt>
      <trkpt lat="41.40221286281520" lon="-81.74225528415673">
        <ele>264.1464726530</ele>
        <time>2026-08-14T11:15:02Z</time>
      </trkpt>
      <trkpt lat="41.40222100425760" lon="-81.74165835064974">
        <ele>264.4996217961</ele>
        <time>2026-08-14T11:15:37Z</time>
      </trkpt>
      <trkpt lat="41.40222157180745" lon="-81.74106791563094">
        <ele>265.5174316248</ele>
        <time>2026-08-14T11:16:15Z</time>
      </trkpt>
      <trkpt lat="41.40222045429333" lon="-81.74046919006824">
        <ele>266.1771366904</ele>
        <time>2026-08-14T11:16:48Z</time>
      </trkpt>
      <trkpt lat="41.40221207566206" lon="-81.73987484554701">
        <ele>266.6152747530</ele>
        <time>2026-08-14T11:17:29Z</time>
      </trkpt>
      <trkpt lat="41.40221862979202" lon="-81.73927540130030">
        <ele>266.8880742899</ele>
        <time>2026-08-14T11:18:03Z</time>
      </trkpt>
      <trkpt lat="41.40221642652718" lon="-81.73866991223274">
        <ele>267.3225482830</ele>
        <time>2026-08-14T11:18:49Z</time>
      </trkpt>
      <trkpt lat="41.40221986531999" lon="-81.73827302274869">
        <ele>266.8803830336</ele>
        <time>2026-08-14T11:19:23Z</time>
      </trkpt>
      <trkpt lat="41.40176448798966" lon="-81.73825325973246">
        <ele>267.7021928212</ele>
        <time>2026-08-14T11:20:00Z</time>
      </trkpt>
      <trkpt lat="41.40134249451567" lon="-81.73825887400989">
        <ele>267.5655392937</ele>
        <time>2026-08-14T11:20:41Z</time>
      </trkpt>
      <trkpt lat="41.40134591553316" lon="-81.73886537003540">
        <ele>267.3994042888</ele>
        <time>2026-08-14T11:21:36Z</time>
      </trkpt>
      <trkpt lat="41.40134154198237" lon="-81.73945855716691">
        <ele>267.2257628595</ele>
        <time>2026-08-14T11:22:16Z</time>
      </trkpt>
      <trkpt lat="41.40134168950397" lon="-81.74006264782021">
        <ele>266.7512419629</ele>
        <time>2026-08-14T11:22:52Z</time>
      </trkpt>
      <trkpt lat="41.40133327517874" lon="-81.74019496587319">
        <ele>266.6494645061</ele>
        <time>2026-08-14T11:23:04Z</time>
      </trkpt>
    </trkseg>
  </trk>
</gpx>