<?xml version='1.0' encoding='UTF-8'?>
<gpx xmlns="http://www.topografix.com/GPX/1/1" creator="https://gpx.studio" version="1.1">
  <metadata>
    <name>Dog Walk - 2026-05-07 #1</name>
  </metadata>
  <trk>
    <name>Dog Walk - 2026-05-07 #1</name>
    <type>dog walk</type>
    <trkseg>
      <trkpt lat="41.40133110618757" lon="-81.74023684238931">
        <ele>266.5823265362</ele>
        <time>2026-05-07T08:50:12Z</time>
      </trkpt>
      <trkpt lat="41.40134037400326" lon="-81.74082780295731">
        <ele>266.1451380709</ele>
        <time>2026-05-07T08:50:55Z</time>
      </trkpt>
      <trkpt lat="41.40134361606435" lon="-81.74143787111663">
        <ele>265.7848709396</ele>
        <time>2026-05-07T08:51:33Z</time>
      </trkpt>
      <trkpt lat="41.40134373561942" lon="-81.74203788284308">
        <ele>265.3044886751</ele>
        <time>2026-05-07T08:52:12Z</time>
      </trkpt>
      <trkpt lat="41.40134740668629" lon="-81.74240877876581">
        <ele>264.5541164604</ele>
        <time>2026-05-07T08:52:38Z</time>
      </trkpt>
      <trkpt lat="41.40177665768889" lon="-81.74261361308896">
        <ele>264.2939379769</ele>
        <time>2026-05-07T08:53:14Z</time>
      </trkpt>
      <trkpt lat="41.40218698260901" lon="-81.74284247796612">
        <ele>263.5448367391</ele>
        <time>2026-05-07T08:53:57Z</time>
      </trkpt>
      <trkpt lat="41.40260530372521" lon="-81.74304894004243">
        <ele>263.0452791785</ele>
        <time>2026-05-07T08:54:38Z</time>
      </trkpt>
      <trkpt lat="41.40302561068508" lon="-81.74326896136385">
        <ele>262.4869915924</ele>
        <time>2026-05-07T08:55:15Z</time>
      </trkpt>
      <trkpt lat="41.40344358645773" lon="-81.74346995693946">
        <ele>262.0186621397</ele>
        <time>2026-05-07T08:55:55Z</time>
      </trkpt>
      <trkpt lat="41.40348179750652" lon="-81.74349347354071">
        <ele>261.8745031479</ele>
        <time>2026-05-07T08:55:59Z</time>
      </trkpt>
      <trkpt lat="41.40360338093465" lon="-81.74353147712316">
        <ele>261.7433015701</ele>
        <time>2026-05-07T08:56:09Z</time>
      </trkpt>
      <trkpt lat="41.40398971041543" lon="-81.74350802912110">
        <ele>260.5159995952</ele>
        <time>2026-05-07T08:56:50Z</time>
      </trkpt>
      <trkpt lat="41.40400039219427" lon="-81.74290750549991">
        <ele>261.5054201242</ele>
        <time>2026-05-07T08:57:32Z</time>
      </trkpt>
      <trkpt lat="41.40399408938272" lon="-81.74230027766886">
        <ele>262.0468896090</ele>
        <time>2026-05-07T08:58:07Z</time>
      </trkpt>
      <trkpt lat="41.40398909479292" lon="-81.74170803096101">
        <ele>262.5359182725</ele>
        <time>2026-05-07T08:58:49Z</time>
      </trkpt>
      <trkpt lat="41.40399558274635" lon="-81.74111041395950">
        <ele>262.9847555416</ele>
        <time>2026-05-07T08:59:39Z</time>
      </trkpt>
      <trkpt lat="41.40398638351051" lon="-81.74050534584592">
        <ele>263.6257128173</ele>
        <time>2026-05-07T09:00:21Z</time>
      </trkpt>
      <trkpt lat="41.40398826816678" lon="-81.73990799445060">
        <ele>264.1573257785</ele>
        <time>2026-05-07T09:00:56Z</time>
      </trkpt>
      <trkpt lat="41.40398994422198" lon="-81.73931349041393">
        <ele>264.9118158673</ele>
        <time>2026-05-07T09:01:30Z</time>
      </trkpt>
      <trkpt lat="41.40398356715158" lon="-81.73877399285740">
        <ele>265.4226255664</ele>
        <time>2026-05-07T09:02:15Z</time>
      </trkpt>
      <trkpt lat="41.40353574032961" lon="-81.73877441491742">
        <ele>265.9295712450</ele>
        <time>2026-05-07T09:03:01Z</time>
      </trkpt>
      <trkpt lat="41.40308267125340" lon="-81.73876946750428">
        <ele>266.2182352693</ele>
        <time>2026-05-07T09:03:42Z</time>
      </trkpt>
      <trkpt lat="41.40263476345333" lon="-81.73877189722504">
        <ele>266.8069649972</ele>
        <time>2026-05-07T09:04:17Z</time>
      </trkpt>
      <trkpt lat="41.40223016470221" lon="-81.73878127150378">
        <ele>267.1057355385</ele>
        <time>2026-05-07T09:04:47Z</time>
      </trkpt>
      <trkpt lat="41.40220940315441" lon="-81.73827448013103">
        <ele>267.0794152061</ele>
        <time>2026-05-07T09:05:20Z</time>
      </trkpt>
      <trkpt lat="41.40176768858801" lon="-81.73827741269021">
        <ele>267.5014009931</ele>
        <time>2026-05-07T09:05:53Z</time>
      </trkpt>
      <trkpt lat="41.40132245783637" lon="-81.73827081534584">
        <ele>267.6209948287</ele>
        <time>2026-05-07T09:06:32Z</time>
      </trkpt>
      <trkpt lat="41.40133184176202" lon="-81.73886579748472">
        <ele>267.2580041180</ele>
        <time>2026-05-07T09:07:06Z</time>
      </trkpt>
      <trkpt lat="41.40133447765638" lon="-81.73946670509480">
        <ele>267.3219226779</ele>
        <time>2026-05-07T09:07:35Z</time>
      </trkpt>
      <trkpt lat="41.40133896728743" lon="-81.74006452748064">
        <ele>266.9172555067</ele>
        <time>2026-05-07T09:08:28Z</time>
      </trkpt>
      <trkpt lat="41.40132954455014" lon="-81.74021073403617">
        <ele>266.5512932668</ele>
        <time>2026-05-07T09:08:37Z</time>
      </trkpt>
    </trkseg>
  </trk>
</gpx>