<?xml version='1.0' encoding='UTF-8'?>
<gpx xmlns="http://www.topografix.com/GPX/1/1" creator="https://gpx.studio" version="1.1">
  <metadata>
    <name>Dog Walk - 2026-05-04 #3</name>
  </metadata>
  <trk>
    <name>Dog Walk - 2026-05-04 #3</name>
    <type>dog walk</type>
    <trkseg>
      <trkpt lat="41.40133501163557" lon="-81.74022234771671">
        <ele>266.6403436340</ele>
        <time>2026-05-04T19:13:42Z</time>
      </trkpt>
      <trkpt lat="41.40133532562074" lon="-81.74084383353319">
        <ele>266.1839576064</ele>
        <time>2026-05-04T19:14:30Z</time>
      </trkpt>
      <trkpt lat="41.40134341496395" lon="-81.74142811266665">
        <ele>265.8402610713</ele>
        <time>2026-05-04T19:15:05Z</time>
      </trkpt>
      <trkpt lat="41.40134412454253" lon="-81.74203174942620">
        <ele>265.5049733685</ele>
        <time>2026-05-04T19:15:41Z</time>
      </trkpt>
      <trkpt lat="41.40135051882686" lon="-81.74241564509120">
        <ele>264.8081631574</ele>
        <time>2026-05-04T19:16:03Z</time>
      </trkpt>
      <trkpt lat="41.40176552783927" lon="-81.74262963436996">
        <ele>264.2284854040</ele>
        <time>2026-05-04T19:16:44Z</time>
      </trkpt>
      <trkpt lat="41.40218212733230" lon="-81.74283164302288">
        <ele>263.6355435549</ele>
        <time>2026-05-04T19:17:38Z</time>
      </trkpt>
      <trkpt lat="41.40261516925976" lon="-81.74305516780147">
        <ele>263.0167239760</ele>
        <time>2026-05-04T19:18:28Z</time>
      </trkpt>
      <trkpt lat="41.40302846450342" lon="-81.74326636218827">
        <ele>262.3187585349</ele>
        <time>2026-05-04T19:19:01Z</time>
      </trkpt>
      <trkpt lat="41.40344823102831" lon="-81.74348942170933">
        <ele>261.7818267579</ele>
        <time>2026-05-04T19:19:49Z</time>
      </trkpt>
      <trkpt lat="41.40348671887848" lon="-81.74349524517559">
        <ele>261.7477164829</ele>
        <time>2026-05-04T19:19:52Z</time>
      </trkpt>
      <trkpt lat="41.40360383299211" lon="-81.74352067940799">
        <ele>261.7764683324</ele>
        <time>2026-05-04T19:20:03Z</time>
      </trkpt>
      <trkpt lat="41.40398383393543" lon="-81.74351295173641">
        <ele>260.6148164411</ele>
        <time>2026-05-04T19:20:54Z</time>
      </trkpt>
      <trkpt lat="41.40399503154054" lon="-81.74291399975320">
        <ele>261.7437559184</ele>
        <time>2026-05-04T19:21:37Z</time>
      </trkpt>
      <trkpt lat="41.40398848844115" lon="-81.74231621360697">
        <ele>262.0577981739</ele>
        <time>2026-05-04T19:22:18Z</time>
      </trkpt>
      <trkpt lat="41.40399412254754" lon="-81.74171132672610">
        <ele>262.6419237284</ele>
        <time>2026-05-04T19:23:07Z</time>
      </trkpt>
      <trkpt lat="41.40398680196348" lon="-81.74111051796254">
        <ele>262.7798623396</ele>
        <time>2026-05-04T19:23:45Z</time>
      </trkpt>
      <trkpt lat="41.40399273039665" lon="-81.74051452415311">
        <ele>263.4325385981</ele>
        <time>2026-05-04T19:24:29Z</time>
      </trkpt>
      <trkpt lat="41.40398816176616" lon="-81.73991115972872">
        <ele>264.3599884871</ele>
        <time>2026-05-04T19:25:04Z</time>
      </trkpt>
      <trkpt lat="41.40399011300455" lon="-81.73930484585809">
        <ele>264.6813071263</ele>
        <time>2026-05-04T19:25:42Z</time>
      </trkpt>
      <trkpt lat="41.40398675303408" lon="-81.73876777242842">
        <ele>265.4053677805</ele>
        <time>2026-05-04T19:26:30Z</time>
      </trkpt>
      <trkpt lat="41.40353979736110" lon="-81.73878588481288">
        <ele>265.6738673209</ele>
        <time>2026-05-04T19:27:13Z</time>
      </trkpt>
      <trkpt lat="41.40308786353018" lon="-81.73877155093190">
        <ele>266.2090292936</ele>
        <time>2026-05-04T19:27:52Z</time>
      </trkpt>
      <trkpt lat="41.40263807223926" lon="-81.73877684799143">
        <ele>266.7642397876</ele>
        <time>2026-05-04T19:28:46Z</time>
      </trkpt>
      <trkpt lat="41.40223356909833" lon="-81.73877005528584">
        <ele>266.9701127377</ele>
        <time>2026-05-04T19:29:20Z</time>
      </trkpt>
      <trkpt lat="41.40221280339814" lon="-81.73828530251275">
        <ele>266.9635551612</ele>
        <time>2026-05-04T19:29:53Z</time>
      </trkpt>
      <trkpt lat="41.40176447264844" lon="-81.73827049881756">
        <ele>267.7226048604</ele>
        <time>2026-05-04T19:30:43Z</time>
      </trkpt>
      <trkpt lat="41.40132830142293" lon="-81.73827866560794">
        <ele>267.6083759041</ele>
        <time>2026-05-04T19:31:24Z</time>
      </trkpt>
      <trkpt lat="41.40133792637062" lon="-81.73886172077241">
        <ele>267.0616283118</ele>
        <time>2026-05-04T19:32:20Z</time>
      </trkpt>
      <trkpt lat="41.40133461134938" lon="-81.73946269268838">
        <ele>267.1993996231</ele>
        <time>2026-05-04T19:33:17Z</time>
      </trkpt>
      <trkpt lat="41.40133889024489" lon="-81.74006500128110">
        <ele>266.8009660413</ele>
        <time>2026-05-04T19:34:04Z</time>
      </trkpt>
      <trkpt lat="41.40134170027921" lon="-81.74020635330353">
        <ele>266.5303504777</ele>
        <time>2026-05-04T19:34:13Z</time>
      </trkpt>
    </trkseg>
  </trk>
</gpx>