<?xml version='1.0' encoding='UTF-8'?>
<gpx xmlns="http://www.topografix.com/GPX/1/1" creator="https://gpx.studio" version="1.1">
  <metadata>
    <name>Dog Walk - 2026-03-18 #1</name>
  </metadata>
  <trk>
    <name>Dog Walk - 2026-03-18 #1</name>
    <type>dog walk</type>
    <trkseg>
      <trkpt lat="41.40133799812310" lon="-81.74025082039982">
        <ele>266.4231531428</ele>
        <time>2026-03-18T09:19:43Z</time>
      </trkpt>
      <trkpt lat="41.40133616397097" lon="-81.74026471366383">
        <ele>266.7796979992</ele>
        <time>2026-03-18T09:19:47Z</time>
      </trkpt>
      <trkpt lat="41.40132667304544" lon="-81.74085308399944">
        <ele>266.2789701368</ele>
        <time>2026-03-18T09:20:21Z</time>
      </trkpt>
      <trkpt lat="41.40132303398193" lon="-81.74145268798314">
        <ele>265.7832874667</ele>
        <time>2026-03-18T09:21:02Z</time>
      </trkpt>
      <trkpt lat="41.40132779291470" lon="-81.74204969336745">
        <ele>265.5190112389</ele>
        <time>2026-03-18T09:21:36Z</time>
      </trkpt>
      <trkpt lat="41.40132166100705" lon="-81.74237794920687">
        <ele>264.9770916757</ele>
        <time>2026-03-18T09:22:00Z</time>
      </trkpt>
      <trkpt lat="41.40133187241634" lon="-81.74237459163051">
        <ele>264.6048368430</ele>
        <time>2026-03-18T09:22:01Z</time>
      </trkpt>
      <trkpt lat="41.40089318139167" lon="-81.74217842505733">
        <ele>265.1800881842</ele>
        <time>2026-03-18T09:22:39Z</time>
      </trkpt>
      <trkpt lat="41.40048343300906" lon="-81.74199385131512">
        <ele>265.1491184443</ele>
        <time>2026-03-18T09:23:09Z</time>
      </trkpt>
      <trkpt lat="41.40006129682495" lon="-81.74179979088841">
        <ele>265.3903942645</ele>
        <time>2026-03-18T09:23:44Z</time>
      </trkpt>
      <trkpt lat="41.39962269550875" lon="-81.74160893979698">
        <ele>264.7115739520</ele>
        <time>2026-03-18T09:24:14Z</time>
      </trkpt>
      <trkpt lat="41.39955310599439" lon="-81.74158707482481">
        <ele>264.7667615815</ele>
        <time>2026-03-18T09:24:20Z</time>
      </trkpt>
      <trkpt lat="41.39954115173695" lon="-81.74096581753099">
        <ele>265.7214560311</ele>
        <time>2026-03-18T09:25:08Z</time>
      </trkpt>
      <trkpt lat="41.39953803291165" lon="-81.74037209203571">
        <ele>266.1889195200</ele>
        <time>2026-03-18T09:25:41Z</time>
      </trkpt>
      <trkpt lat="41.39954614253999" lon="-81.73977620145156">
        <ele>266.6419214436</ele>
        <time>2026-03-18T09:26:18Z</time>
      </trkpt>
      <trkpt lat="41.39954304322043" lon="-81.73916446516964">
        <ele>266.6975204291</ele>
        <time>2026-03-18T09:26:57Z</time>
      </trkpt>
      <trkpt lat="41.39952569193417" lon="-81.73857085724643">
        <ele>267.0898978485</ele>
        <time>2026-03-18T09:27:51Z</time>
      </trkpt>
      <trkpt lat="41.39953398804123" lon="-81.73828780282321">
        <ele>266.5560058802</ele>
        <time>2026-03-18T09:28:07Z</time>
      </trkpt>
      <trkpt lat="41.39953721936708" lon="-81.73829752065113">
        <ele>266.8949184515</ele>
        <time>2026-03-18T09:28:08Z</time>
      </trkpt>
      <trkpt lat="41.39998259169068" lon="-81.73830351509018">
        <ele>267.1476161859</ele>
        <time>2026-03-18T09:28:46Z</time>
      </trkpt>
      <trkpt lat="41.40043355066116" lon="-81.73830386150534">
        <ele>267.1643398263</ele>
        <time>2026-03-18T09:29:40Z</time>
      </trkpt>
      <trkpt lat="41.40088582905666" lon="-81.73829757868701">
        <ele>267.6597445340</ele>
        <time>2026-03-18T09:30:31Z</time>
      </trkpt>
      <trkpt lat="41.40132094711262" lon="-81.73829690219294">
        <ele>267.6615484898</ele>
        <time>2026-03-18T09:31:07Z</time>
      </trkpt>
      <trkpt lat="41.40133263760748" lon="-81.73890513895824">
        <ele>267.3760517350</ele>
        <time>2026-03-18T09:31:47Z</time>
      </trkpt>
      <trkpt lat="41.40133630145027" lon="-81.73950027228808">
        <ele>267.5438142723</ele>
        <time>2026-03-18T09:32:23Z</time>
      </trkpt>
      <trkpt lat="41.40134349694318" lon="-81.74010118219951">
        <ele>266.5784275383</ele>
        <time>2026-03-18T09:32:55Z</time>
      </trkpt>
      <trkpt lat="41.40133473150406" lon="-81.74014749306737">
        <ele>266.6295331028</ele>
        <time>2026-03-18T09:32:58Z</time>
      </trkpt>
    </trkseg>
  </trk>
</gpx>