<?xml version='1.0' encoding='UTF-8'?>
<gpx xmlns="http://www.topografix.com/GPX/1/1" creator="https://gpx.studio" version="1.1">
  <metadata>
    <name>Dog Walk - 2026-05-16 #5</name>
  </metadata>
  <trk>
    <name>Dog Walk - 2026-05-16 #5</name>
    <type>dog walk</type>
    <trkseg>
      <trkpt lat="41.40133133662177" lon="-81.74026227963270">
        <ele>266.5958285521</ele>
        <time>2026-05-16T19:47:14Z</time>
      </trkpt>
      <trkpt lat="41.40132945410900" lon="-81.74026330570979">
        <ele>266.3478624548</ele>
        <time>2026-05-16T19:47:15Z</time>
      </trkpt>
      <trkpt lat="41.40133191353756" lon="-81.74085333167957">
        <ele>266.0933835525</ele>
        <time>2026-05-16T19:47:46Z</time>
      </trkpt>
      <trkpt lat="41.40132712168923" lon="-81.74146001536012">
        <ele>265.7430909603</ele>
        <time>2026-05-16T19:48:26Z</time>
      </trkpt>
      <trkpt lat="41.40132677831587" lon="-81.74205714097867">
        <ele>265.1161387092</ele>
        <time>2026-05-16T19:49:03Z</time>
      </trkpt>
      <trkpt lat="41.40132937875466" lon="-81.74236976695654">
        <ele>264.7792365751</ele>
        <time>2026-05-16T19:49:34Z</time>
      </trkpt>
      <trkpt lat="41.40132412940302" lon="-81.74237280670351">
        <ele>264.6546492906</ele>
        <time>2026-05-16T19:49:35Z</time>
      </trkpt>
      <trkpt lat="41.40090112450503" lon="-81.74218178270053">
        <ele>265.0859563064</ele>
        <time>2026-05-16T19:50:24Z</time>
      </trkpt>
      <trkpt lat="41.40047332560173" lon="-81.74198666708961">
        <ele>265.2321362469</ele>
        <time>2026-05-16T19:50:57Z</time>
      </trkpt>
      <trkpt lat="41.40004509792967" lon="-81.74180163005637">
        <ele>265.6023644845</ele>
        <time>2026-05-16T19:51:45Z</time>
      </trkpt>
      <trkpt lat="41.39962680279162" lon="-81.74160530749694">
        <ele>264.5608265179</ele>
        <time>2026-05-16T19:52:26Z</time>
      </trkpt>
      <trkpt lat="41.39954835508482" lon="-81.74157114851280">
        <ele>264.7305998654</ele>
        <time>2026-05-16T19:52:34Z</time>
      </trkpt>
      <trkpt lat="41.39953644157288" lon="-81.74097530274265">
        <ele>265.6428671556</ele>
        <time>2026-05-16T19:53:08Z</time>
      </trkpt>
      <trkpt lat="41.39954013845943" lon="-81.74036792774267">
        <ele>266.1730648228</ele>
        <time>2026-05-16T19:53:44Z</time>
      </trkpt>
      <trkpt lat="41.39954305088978" lon="-81.73978839688186">
        <ele>266.7122999905</ele>
        <time>2026-05-16T19:54:49Z</time>
      </trkpt>
      <trkpt lat="41.39954286982857" lon="-81.73916428661605">
        <ele>266.7938087507</ele>
        <time>2026-05-16T19:55:32Z</time>
      </trkpt>
      <trkpt lat="41.39952451372695" lon="-81.73857210779599">
        <ele>267.1840433160</ele>
        <time>2026-05-16T19:56:08Z</time>
      </trkpt>
      <trkpt lat="41.39953113280084" lon="-81.73828139780426">
        <ele>266.8853016020</ele>
        <time>2026-05-16T19:56:28Z</time>
      </trkpt>
      <trkpt lat="41.39953513499555" lon="-81.73828789254934">
        <ele>266.9742374706</ele>
        <time>2026-05-16T19:56:29Z</time>
      </trkpt>
      <trkpt lat="41.39997815768346" lon="-81.73828914193540">
        <ele>267.1202174587</ele>
        <time>2026-05-16T19:56:58Z</time>
      </trkpt>
      <trkpt lat="41.40043829712029" lon="-81.73830073979158">
        <ele>267.2320409419</ele>
        <time>2026-05-16T19:57:46Z</time>
      </trkpt>
      <trkpt lat="41.40088158711254" lon="-81.73829081805633">
        <ele>267.5004188879</ele>
        <time>2026-05-16T19:58:23Z</time>
      </trkpt>
      <trkpt lat="41.40132803541548" lon="-81.73830519033424">
        <ele>267.4561844479</ele>
        <time>2026-05-16T19:59:13Z</time>
      </trkpt>
      <trkpt lat="41.40132987094059" lon="-81.73890680075905">
        <ele>267.5304529208</ele>
        <time>2026-05-16T20:00:10Z</time>
      </trkpt>
      <trkpt lat="41.40134345985100" lon="-81.73950468765931">
        <ele>267.1743903767</ele>
        <time>2026-05-16T20:00:44Z</time>
      </trkpt>
      <trkpt lat="41.40133711136740" lon="-81.74009564043273">
        <ele>266.5406490236</ele>
        <time>2026-05-16T20:01:39Z</time>
      </trkpt>
      <trkpt lat="41.40133140540038" lon="-81.74016030929637">
        <ele>266.5955369657</ele>
        <time>2026-05-16T20:01:43Z</time>
      </trkpt>
    </trkseg>
  </trk>
</gpx>