<?xml version='1.0' encoding='UTF-8'?>
<gpx xmlns="http://www.topografix.com/GPX/1/1" creator="https://gpx.studio" version="1.1">
  <metadata>
    <name>Dog Walk - 2026-05-14 #3</name>
  </metadata>
  <trk>
    <name>Dog Walk - 2026-05-14 #3</name>
    <type>dog walk</type>
    <trkseg>
      <trkpt lat="41.40134412865731" lon="-81.74022552169799">
        <ele>266.6547993752</ele>
        <time>2026-05-14T13:54:56Z</time>
      </trkpt>
      <trkpt lat="41.40133304431956" lon="-81.74083020574523">
        <ele>266.2099253340</ele>
        <time>2026-05-14T13:55:29Z</time>
      </trkpt>
      <trkpt lat="41.40133218427725" lon="-81.74142491318999">
        <ele>265.7427471076</ele>
        <time>2026-05-14T13:56:06Z</time>
      </trkpt>
      <trkpt lat="41.40133281755167" lon="-81.74202337740540">
        <ele>265.3487741465</ele>
        <time>2026-05-14T13:56:46Z</time>
      </trkpt>
      <trkpt lat="41.40133152850262" lon="-81.74240288538500">
        <ele>264.8181900575</ele>
        <time>2026-05-14T13:57:09Z</time>
      </trkpt>
      <trkpt lat="41.40090324074825" lon="-81.74217436530608">
        <ele>265.1849602294</ele>
        <time>2026-05-14T13:57:49Z</time>
      </trkpt>
      <trkpt lat="41.40049179563349" lon="-81.74196366917069">
        <ele>265.0609720052</ele>
        <time>2026-05-14T13:58:26Z</time>
      </trkpt>
      <trkpt lat="41.40043944267615" lon="-81.74194938421012">
        <ele>265.2784055670</ele>
        <time>2026-05-14T13:58:32Z</time>
      </trkpt>
      <trkpt lat="41.40044593415482" lon="-81.74134677927874">
        <ele>266.0778047870</ele>
        <time>2026-05-14T13:59:17Z</time>
      </trkpt>
      <trkpt lat="41.40044343263573" lon="-81.74074659890610">
        <ele>266.3349766801</ele>
        <time>2026-05-14T14:00:08Z</time>
      </trkpt>
      <trkpt lat="41.40043695093792" lon="-81.74015769235631">
        <ele>266.6343181361</ele>
        <time>2026-05-14T14:00:45Z</time>
      </trkpt>
      <trkpt lat="41.40042136540067" lon="-81.73955911548684">
        <ele>266.8909202040</ele>
        <time>2026-05-14T14:01:21Z</time>
      </trkpt>
      <trkpt lat="41.40042718897432" lon="-81.73895156797511">
        <ele>266.9644533508</ele>
        <time>2026-05-14T14:02:02Z</time>
      </trkpt>
      <trkpt lat="41.40042188892046" lon="-81.73835345018195">
        <ele>267.1659524087</ele>
        <time>2026-05-14T14:02:41Z</time>
      </trkpt>
      <trkpt lat="41.40041779803494" lon="-81.73775908488319">
        <ele>267.5338537738</ele>
        <time>2026-05-14T14:03:25Z</time>
      </trkpt>
      <trkpt lat="41.40041468877725" lon="-81.73714634589659">
        <ele>267.9655122318</ele>
        <time>2026-05-14T14:04:36Z</time>
      </trkpt>
      <trkpt lat="41.40040640195391" lon="-81.73655164316351">
        <ele>267.9984396054</ele>
        <time>2026-05-14T14:05:06Z</time>
      </trkpt>
      <trkpt lat="41.40041065351846" lon="-81.73596174076114">
        <ele>268.0323738834</ele>
        <time>2026-05-14T14:05:47Z</time>
      </trkpt>
      <trkpt lat="41.40039929507990" lon="-81.73536525012629">
        <ele>267.9037594602</ele>
        <time>2026-05-14T14:06:21Z</time>
      </trkpt>
      <trkpt lat="41.40039559167511" lon="-81.73475087876918">
        <ele>267.2731864587</ele>
        <time>2026-05-14T14:06:58Z</time>
      </trkpt>
      <trkpt lat="41.40039410342399" lon="-81.73462476425699">
        <ele>267.3215229043</ele>
        <time>2026-05-14T14:07:11Z</time>
      </trkpt>
      <trkpt lat="41.40084374235366" lon="-81.73463621555398">
        <ele>267.2209350972</ele>
        <time>2026-05-14T14:07:55Z</time>
      </trkpt>
      <trkpt lat="41.40129190453376" lon="-81.73463622749586">
        <ele>267.1961359620</ele>
        <time>2026-05-14T14:08:35Z</time>
      </trkpt>
      <trkpt lat="41.40131802569039" lon="-81.73463365340554">
        <ele>267.3226639065</ele>
        <time>2026-05-14T14:08:50Z</time>
      </trkpt>
      <trkpt lat="41.40132756300601" lon="-81.73523310097117">
        <ele>267.8867612145</ele>
        <time>2026-05-14T14:09:44Z</time>
      </trkpt>
      <trkpt lat="41.40132727924566" lon="-81.73583608849340">
        <ele>268.1459734672</ele>
        <time>2026-05-14T14:10:23Z</time>
      </trkpt>
      <trkpt lat="41.40133453186034" lon="-81.73643122953361">
        <ele>268.0527353243</ele>
        <time>2026-05-14T14:11:11Z</time>
      </trkpt>
      <trkpt lat="41.40132222220537" lon="-81.73704359639370">
        <ele>268.0847565803</ele>
        <time>2026-05-14T14:12:12Z</time>
      </trkpt>
      <trkpt lat="41.40133398188805" lon="-81.73763879720498">
        <ele>267.8726410475</ele>
        <time>2026-05-14T14:12:54Z</time>
      </trkpt>
      <trkpt lat="41.40133363624361" lon="-81.73824092778504">
        <ele>267.6763244505</ele>
        <time>2026-05-14T14:13:44Z</time>
      </trkpt>
      <trkpt lat="41.40133743777866" lon="-81.73883505688937">
        <ele>267.3817539241</ele>
        <time>2026-05-14T14:14:21Z</time>
      </trkpt>
      <trkpt lat="41.40135123404644" lon="-81.73942652798213">
        <ele>267.0936513396</ele>
        <time>2026-05-14T14:14:57Z</time>
      </trkpt>
      <trkpt lat="41.40133649212616" lon="-81.74002198254745">
        <ele>266.7519562757</ele>
        <time>2026-05-14T14:15:28Z</time>
      </trkpt>
      <trkpt lat="41.40134951619169" lon="-81.74019435883594">
        <ele>266.5019321731</ele>
        <time>2026-05-14T14:15:41Z</time>
      </trkpt>
    </trkseg>
  </trk>
</gpx>