<?xml version='1.0' encoding='UTF-8'?>
<gpx xmlns="http://www.topografix.com/GPX/1/1" creator="https://gpx.studio" version="1.1">
  <metadata>
    <name>Dog Walk - 2026-04-06 #5</name>
  </metadata>
  <trk>
    <name>Dog Walk - 2026-04-06 #5</name>
    <type>dog walk</type>
    <trkseg>
      <trkpt lat="41.40134439016297" lon="-81.74023707012051">
        <ele>266.5861600832</ele>
        <time>2026-04-06T20:27:02Z</time>
      </trkpt>
      <trkpt lat="41.40133907833739" lon="-81.74083677003797">
        <ele>266.1387058196</ele>
        <time>2026-04-06T20:27:39Z</time>
      </trkpt>
      <trkpt lat="41.40134350293505" lon="-81.74143082032205">
        <ele>265.7121436509</ele>
        <time>2026-04-06T20:28:21Z</time>
      </trkpt>
      <trkpt lat="41.40134563674053" lon="-81.74203382865302">
        <ele>265.3399821779</ele>
        <time>2026-04-06T20:29:11Z</time>
      </trkpt>
      <trkpt lat="41.40134796492914" lon="-81.74242266565520">
        <ele>264.5882125528</ele>
        <time>2026-04-06T20:29:42Z</time>
      </trkpt>
      <trkpt lat="41.40176826382031" lon="-81.74263643173614">
        <ele>264.2865988552</ele>
        <time>2026-04-06T20:30:23Z</time>
      </trkpt>
      <trkpt lat="41.40218445332476" lon="-81.74284589198002">
        <ele>263.4850518300</ele>
        <time>2026-04-06T20:31:05Z</time>
      </trkpt>
      <trkpt lat="41.40221703128844" lon="-81.74285636670177">
        <ele>263.3682491463</ele>
        <time>2026-04-06T20:31:08Z</time>
      </trkpt>
      <trkpt lat="41.40222002679075" lon="-81.74226881223007">
        <ele>263.9718112202</ele>
        <time>2026-04-06T20:31:53Z</time>
      </trkpt>
      <trkpt lat="41.40222249804596" lon="-81.74166408775930">
        <ele>264.5339383302</ele>
        <time>2026-04-06T20:32:28Z</time>
      </trkpt>
      <trkpt lat="41.40222043621660" lon="-81.74107640780100">
        <ele>265.5131541801</ele>
        <time>2026-04-06T20:33:00Z</time>
      </trkpt>
      <trkpt lat="41.40221513462885" lon="-81.74046966781542">
        <ele>266.0062495927</ele>
        <time>2026-04-06T20:33:59Z</time>
      </trkpt>
      <trkpt lat="41.40221718453613" lon="-81.73987186211100">
        <ele>266.4957061080</ele>
        <time>2026-04-06T20:34:38Z</time>
      </trkpt>
      <trkpt lat="41.40222098894264" lon="-81.73926837747165">
        <ele>267.3429756759</ele>
        <time>2026-04-06T20:35:40Z</time>
      </trkpt>
      <trkpt lat="41.40222287686147" lon="-81.73867311020391">
        <ele>267.0913812406</ele>
        <time>2026-04-06T20:36:15Z</time>
      </trkpt>
      <trkpt lat="41.40221074841322" lon="-81.73827221220159">
        <ele>267.0541935333</ele>
        <time>2026-04-06T20:36:42Z</time>
      </trkpt>
      <trkpt lat="41.40176984441641" lon="-81.73827257260801">
        <ele>267.7167773467</ele>
        <time>2026-04-06T20:37:13Z</time>
      </trkpt>
      <trkpt lat="41.40133658564614" lon="-81.73826074924796">
        <ele>267.5385517485</ele>
        <time>2026-04-06T20:37:51Z</time>
      </trkpt>
      <trkpt lat="41.40134351085421" lon="-81.73886444898849">
        <ele>267.3522950198</ele>
        <time>2026-04-06T20:38:32Z</time>
      </trkpt>
      <trkpt lat="41.40132924957928" lon="-81.73946370084805">
        <ele>267.3619602107</ele>
        <time>2026-04-06T20:39:21Z</time>
      </trkpt>
      <trkpt lat="41.40133541103297" lon="-81.74005177690898">
        <ele>266.5794789419</ele>
        <time>2026-04-06T20:40:02Z</time>
      </trkpt>
      <trkpt lat="41.40134593704170" lon="-81.74018397034446">
        <ele>266.5083823350</ele>
        <time>2026-04-06T20:40:10Z</time>
      </trkpt>
    </trkseg>
  </trk>
</gpx>