<?xml version='1.0' encoding='UTF-8'?>
<gpx xmlns="http://www.topografix.com/GPX/1/1" creator="https://gpx.studio" version="1.1">
  <metadata>
    <name>Dog Walk - 2026-04-27</name>
  </metadata>
  <trk>
    <name>Dog Walk - 2026-04-27</name>
    <type>dog walk</type>
    <trkseg>
      <trkpt lat="41.40133875079458" lon="-81.74025761484131">
        <ele>266.4150007304</ele>
        <time>2026-04-27T09:13:23Z</time>
      </trkpt>
      <trkpt lat="41.40133361735882" lon="-81.74024591765112">
        <ele>266.4372332032</ele>
        <time>2026-04-27T09:13:24Z</time>
      </trkpt>
      <trkpt lat="41.40133311012904" lon="-81.74084974629756">
        <ele>266.2534227079</ele>
        <time>2026-04-27T09:14:10Z</time>
      </trkpt>
      <trkpt lat="41.40132724282284" lon="-81.74145054830244">
        <ele>265.6734465549</ele>
        <time>2026-04-27T09:14:49Z</time>
      </trkpt>
      <trkpt lat="41.40132165823130" lon="-81.74205700681425">
        <ele>265.2360931050</ele>
        <time>2026-04-27T09:15:27Z</time>
      </trkpt>
      <trkpt lat="41.40132636220998" lon="-81.74237254251358">
        <ele>264.7843961754</ele>
        <time>2026-04-27T09:16:10Z</time>
      </trkpt>
      <trkpt lat="41.40132730146127" lon="-81.74238759618765">
        <ele>264.8308711785</ele>
        <time>2026-04-27T09:16:11Z</time>
      </trkpt>
      <trkpt lat="41.40089819160674" lon="-81.74218468211778">
        <ele>265.3580218445</ele>
        <time>2026-04-27T09:16:50Z</time>
      </trkpt>
      <trkpt lat="41.40046958391280" lon="-81.74200197940974">
        <ele>265.1808443344</ele>
        <time>2026-04-27T09:17:33Z</time>
      </trkpt>
      <trkpt lat="41.40004338592340" lon="-81.74179287402110">
        <ele>265.4237040288</ele>
        <time>2026-04-27T09:18:36Z</time>
      </trkpt>
      <trkpt lat="41.39962888319936" lon="-81.74161280393459">
        <ele>264.7385051339</ele>
        <time>2026-04-27T09:19:14Z</time>
      </trkpt>
      <trkpt lat="41.39954701598158" lon="-81.74156947773510">
        <ele>264.7032189903</ele>
        <time>2026-04-27T09:19:22Z</time>
      </trkpt>
      <trkpt lat="41.39954282788003" lon="-81.74097543636235">
        <ele>265.7063194668</ele>
        <time>2026-04-27T09:20:14Z</time>
      </trkpt>
      <trkpt lat="41.39953883366591" lon="-81.74037469574264">
        <ele>266.2621527201</ele>
        <time>2026-04-27T09:21:08Z</time>
      </trkpt>
      <trkpt lat="41.39953696854010" lon="-81.73976808660719">
        <ele>266.6824195599</ele>
        <time>2026-04-27T09:22:08Z</time>
      </trkpt>
      <trkpt lat="41.39954077692587" lon="-81.73917915686127">
        <ele>266.7944990055</ele>
        <time>2026-04-27T09:22:46Z</time>
      </trkpt>
      <trkpt lat="41.39953674287863" lon="-81.73857371151934">
        <ele>266.7899555178</ele>
        <time>2026-04-27T09:23:47Z</time>
      </trkpt>
      <trkpt lat="41.39954041226094" lon="-81.73829913298613">
        <ele>266.9376660125</ele>
        <time>2026-04-27T09:24:04Z</time>
      </trkpt>
      <trkpt lat="41.39952995907812" lon="-81.73829476654613">
        <ele>266.8704913559</ele>
        <time>2026-04-27T09:24:05Z</time>
      </trkpt>
      <trkpt lat="41.39999086289188" lon="-81.73829579389245">
        <ele>267.0645351400</ele>
        <time>2026-04-27T09:24:47Z</time>
      </trkpt>
      <trkpt lat="41.40042614803350" lon="-81.73829895479740">
        <ele>267.2356893914</ele>
        <time>2026-04-27T09:25:21Z</time>
      </trkpt>
      <trkpt lat="41.40088904595890" lon="-81.73830129838863">
        <ele>267.4633014556</ele>
        <time>2026-04-27T09:26:02Z</time>
      </trkpt>
      <trkpt lat="41.40132575173706" lon="-81.73831079862954">
        <ele>267.5476114374</ele>
        <time>2026-04-27T09:26:42Z</time>
      </trkpt>
      <trkpt lat="41.40133055299440" lon="-81.73890663709862">
        <ele>267.4367916049</ele>
        <time>2026-04-27T09:27:16Z</time>
      </trkpt>
      <trkpt lat="41.40133979007826" lon="-81.73949758141535">
        <ele>267.0242703120</ele>
        <time>2026-04-27T09:28:05Z</time>
      </trkpt>
      <trkpt lat="41.40133648088492" lon="-81.74010672061301">
        <ele>266.6818323383</ele>
        <time>2026-04-27T09:28:49Z</time>
      </trkpt>
      <trkpt lat="41.40133930771034" lon="-81.74015498640712">
        <ele>266.4402389955</ele>
        <time>2026-04-27T09:29:10Z</time>
      </trkpt>
    </trkseg>
  </trk>
</gpx>