<?xml version='1.0' encoding='UTF-8'?>
<gpx xmlns="http://www.topografix.com/GPX/1/1" creator="https://gpx.studio" version="1.1">
  <metadata>
    <name>Dog Walk - 2026-05-02</name>
  </metadata>
  <trk>
    <name>Dog Walk - 2026-05-02</name>
    <type>dog walk</type>
    <trkseg>
      <trkpt lat="41.40133391789044" lon="-81.74022661901171">
        <ele>266.3827299632</ele>
        <time>2026-05-02T14:41:24Z</time>
      </trkpt>
      <trkpt lat="41.40134010396703" lon="-81.74082781201298">
        <ele>266.1069724716</ele>
        <time>2026-05-02T14:42:09Z</time>
      </trkpt>
      <trkpt lat="41.40134246363449" lon="-81.74142839046755">
        <ele>266.0024799147</ele>
        <time>2026-05-02T14:42:56Z</time>
      </trkpt>
      <trkpt lat="41.40134383160422" lon="-81.74202685810708">
        <ele>265.2467168413</ele>
        <time>2026-05-02T14:43:35Z</time>
      </trkpt>
      <trkpt lat="41.40134797485105" lon="-81.74241984385665">
        <ele>264.6635168206</ele>
        <time>2026-05-02T14:44:03Z</time>
      </trkpt>
      <trkpt lat="41.40176623623051" lon="-81.74262815728137">
        <ele>264.2205268473</ele>
        <time>2026-05-02T14:44:39Z</time>
      </trkpt>
      <trkpt lat="41.40219477219453" lon="-81.74282808572973">
        <ele>263.3715329168</ele>
        <time>2026-05-02T14:45:16Z</time>
      </trkpt>
      <trkpt lat="41.40261219848444" lon="-81.74304901758542">
        <ele>262.9248912033</ele>
        <time>2026-05-02T14:45:51Z</time>
      </trkpt>
      <trkpt lat="41.40302940277202" lon="-81.74326857829851">
        <ele>262.3539211123</ele>
        <time>2026-05-02T14:46:27Z</time>
      </trkpt>
      <trkpt lat="41.40344853288500" lon="-81.74348195733393">
        <ele>262.0397008727</ele>
        <time>2026-05-02T14:47:03Z</time>
      </trkpt>
      <trkpt lat="41.40349367143254" lon="-81.74349440220976">
        <ele>261.9134464008</ele>
        <time>2026-05-02T14:47:08Z</time>
      </trkpt>
      <trkpt lat="41.40359344405352" lon="-81.74352565339173">
        <ele>261.7077766430</ele>
        <time>2026-05-02T14:47:16Z</time>
      </trkpt>
      <trkpt lat="41.40399100920220" lon="-81.74350906128313">
        <ele>260.5991949941</ele>
        <time>2026-05-02T14:47:56Z</time>
      </trkpt>
      <trkpt lat="41.40399366315366" lon="-81.74291283601525">
        <ele>261.5299495927</ele>
        <time>2026-05-02T14:48:54Z</time>
      </trkpt>
      <trkpt lat="41.40398702311661" lon="-81.74230496794445">
        <ele>261.7718968366</ele>
        <time>2026-05-02T14:49:31Z</time>
      </trkpt>
      <trkpt lat="41.40399552996082" lon="-81.74171738285912">
        <ele>262.5232317288</ele>
        <time>2026-05-02T14:50:08Z</time>
      </trkpt>
      <trkpt lat="41.40399131945896" lon="-81.74111993155134">
        <ele>262.8107329353</ele>
        <time>2026-05-02T14:50:43Z</time>
      </trkpt>
      <trkpt lat="41.40398845599648" lon="-81.74051312146186">
        <ele>263.5514617579</ele>
        <time>2026-05-02T14:51:33Z</time>
      </trkpt>
      <trkpt lat="41.40398595613456" lon="-81.73991878254984">
        <ele>264.2796853052</ele>
        <time>2026-05-02T14:52:15Z</time>
      </trkpt>
      <trkpt lat="41.40398561286355" lon="-81.73931369423919">
        <ele>265.0472488703</ele>
        <time>2026-05-02T14:52:57Z</time>
      </trkpt>
      <trkpt lat="41.40398992725104" lon="-81.73878175834841">
        <ele>265.4984756112</ele>
        <time>2026-05-02T14:53:45Z</time>
      </trkpt>
      <trkpt lat="41.40353755798857" lon="-81.73877205015120">
        <ele>265.9595351310</ele>
        <time>2026-05-02T14:54:37Z</time>
      </trkpt>
      <trkpt lat="41.40308978504885" lon="-81.73877953486111">
        <ele>266.0117960751</ele>
        <time>2026-05-02T14:55:29Z</time>
      </trkpt>
      <trkpt lat="41.40264179548987" lon="-81.73877948578949">
        <ele>266.8793291025</ele>
        <time>2026-05-02T14:56:19Z</time>
      </trkpt>
      <trkpt lat="41.40223230871236" lon="-81.73877628607617">
        <ele>267.1999972085</ele>
        <time>2026-05-02T14:56:58Z</time>
      </trkpt>
      <trkpt lat="41.40221956173025" lon="-81.73828090528926">
        <ele>266.9948852269</ele>
        <time>2026-05-02T14:57:30Z</time>
      </trkpt>
      <trkpt lat="41.40176132879141" lon="-81.73827441505290">
        <ele>267.7852729735</ele>
        <time>2026-05-02T14:58:16Z</time>
      </trkpt>
      <trkpt lat="41.40133205512578" lon="-81.73825631925691">
        <ele>267.4003035173</ele>
        <time>2026-05-02T14:58:54Z</time>
      </trkpt>
      <trkpt lat="41.40133285382624" lon="-81.73887107548629">
        <ele>267.4289728033</ele>
        <time>2026-05-02T14:59:36Z</time>
      </trkpt>
      <trkpt lat="41.40133204056525" lon="-81.73946455959123">
        <ele>267.4080776953</ele>
        <time>2026-05-02T15:00:14Z</time>
      </trkpt>
      <trkpt lat="41.40134036238543" lon="-81.74005990332267">
        <ele>266.5373591106</ele>
        <time>2026-05-02T15:00:45Z</time>
      </trkpt>
      <trkpt lat="41.40133653274940" lon="-81.74021040408523">
        <ele>266.3794301997</ele>
        <time>2026-05-02T15:00:54Z</time>
      </trkpt>
    </trkseg>
  </trk>
</gpx>