<?xml version='1.0' encoding='UTF-8'?>
<gpx xmlns="http://www.topografix.com/GPX/1/1" creator="https://gpx.studio" version="1.1">
  <metadata>
    <name>Dog Walk - 2026-03-29 #1</name>
  </metadata>
  <trk>
    <name>Dog Walk - 2026-03-29 #1</name>
    <type>dog walk</type>
    <trkseg>
      <trkpt lat="41.40132656422200" lon="-81.74025826378818">
        <ele>266.3809309623</ele>
        <time>2026-03-29T06:43:40Z</time>
      </trkpt>
      <trkpt lat="41.40133214570382" lon="-81.74024684631725">
        <ele>266.4207311734</ele>
        <time>2026-03-29T06:43:41Z</time>
      </trkpt>
      <trkpt lat="41.40132726489983" lon="-81.74085106390115">
        <ele>266.3377738823</ele>
        <time>2026-03-29T06:44:26Z</time>
      </trkpt>
      <trkpt lat="41.40133059148848" lon="-81.74145386276375">
        <ele>265.7560957213</ele>
        <time>2026-03-29T06:45:01Z</time>
      </trkpt>
      <trkpt lat="41.40132287848478" lon="-81.74205103059600">
        <ele>265.3495944960</ele>
        <time>2026-03-29T06:45:43Z</time>
      </trkpt>
      <trkpt lat="41.40132553743378" lon="-81.74237902379679">
        <ele>264.9274380097</ele>
        <time>2026-03-29T06:46:08Z</time>
      </trkpt>
      <trkpt lat="41.40132857328941" lon="-81.74237549667711">
        <ele>264.6679670625</ele>
        <time>2026-03-29T06:46:09Z</time>
      </trkpt>
      <trkpt lat="41.40090218168098" lon="-81.74218025915654">
        <ele>265.1012175466</ele>
        <time>2026-03-29T06:47:02Z</time>
      </trkpt>
      <trkpt lat="41.40047669386367" lon="-81.74198899231530">
        <ele>265.2578608242</ele>
        <time>2026-03-29T06:47:42Z</time>
      </trkpt>
      <trkpt lat="41.40005082806356" lon="-81.74180209916676">
        <ele>265.3928773008</ele>
        <time>2026-03-29T06:48:14Z</time>
      </trkpt>
      <trkpt lat="41.39961923040838" lon="-81.74161713271904">
        <ele>264.5544415606</ele>
        <time>2026-03-29T06:48:53Z</time>
      </trkpt>
      <trkpt lat="41.39953995950339" lon="-81.74158409612808">
        <ele>264.9175250832</ele>
        <time>2026-03-29T06:49:03Z</time>
      </trkpt>
      <trkpt lat="41.39955191966888" lon="-81.74097412068440">
        <ele>265.7231207427</ele>
        <time>2026-03-29T06:49:37Z</time>
      </trkpt>
      <trkpt lat="41.39954484693688" lon="-81.74038524323211">
        <ele>266.1288718422</ele>
        <time>2026-03-29T06:50:17Z</time>
      </trkpt>
      <trkpt lat="41.39954437587203" lon="-81.73977512317670">
        <ele>266.7517415182</ele>
        <time>2026-03-29T06:50:56Z</time>
      </trkpt>
      <trkpt lat="41.39953540702970" lon="-81.73916971474320">
        <ele>266.9049100853</ele>
        <time>2026-03-29T06:51:28Z</time>
      </trkpt>
      <trkpt lat="41.39954193386463" lon="-81.73856309873000">
        <ele>266.8488764254</ele>
        <time>2026-03-29T06:52:01Z</time>
      </trkpt>
      <trkpt lat="41.39954168207586" lon="-81.73829258345212">
        <ele>266.8740800681</ele>
        <time>2026-03-29T06:52:29Z</time>
      </trkpt>
      <trkpt lat="41.39953618931597" lon="-81.73830142055664">
        <ele>267.0851032576</ele>
        <time>2026-03-29T06:52:36Z</time>
      </trkpt>
      <trkpt lat="41.39998383907295" lon="-81.73828893455791">
        <ele>267.3415902214</ele>
        <time>2026-03-29T06:53:18Z</time>
      </trkpt>
      <trkpt lat="41.40043661142420" lon="-81.73829712897727">
        <ele>267.2380804866</ele>
        <time>2026-03-29T06:53:59Z</time>
      </trkpt>
      <trkpt lat="41.40088658499198" lon="-81.73830620156696">
        <ele>267.5938743893</ele>
        <time>2026-03-29T06:54:39Z</time>
      </trkpt>
      <trkpt lat="41.40132372183320" lon="-81.73829788188210">
        <ele>267.5106848347</ele>
        <time>2026-03-29T06:55:18Z</time>
      </trkpt>
      <trkpt lat="41.40132912852767" lon="-81.73890246192296">
        <ele>267.4879792385</ele>
        <time>2026-03-29T06:56:00Z</time>
      </trkpt>
      <trkpt lat="41.40133857838678" lon="-81.73950333960853">
        <ele>267.0911184602</ele>
        <time>2026-03-29T06:56:42Z</time>
      </trkpt>
      <trkpt lat="41.40134474233771" lon="-81.74009906210291">
        <ele>266.3920519642</ele>
        <time>2026-03-29T06:57:34Z</time>
      </trkpt>
      <trkpt lat="41.40133437955758" lon="-81.74015608011088">
        <ele>266.4561297930</ele>
        <time>2026-03-29T06:57:38Z</time>
      </trkpt>
    </trkseg>
  </trk>
</gpx>