<?xml version='1.0' encoding='UTF-8'?>
<gpx xmlns="http://www.topografix.com/GPX/1/1" creator="https://gpx.studio" version="1.1">
  <metadata>
    <name>Dog Walk - 2026-08-11</name>
  </metadata>
  <trk>
    <name>Dog Walk - 2026-08-11</name>
    <type>dog walk</type>
    <trkseg>
      <trkpt lat="41.40133178205658" lon="-81.74023608420525">
        <ele>266.5626844572</ele>
        <time>2026-08-11T17:27:30Z</time>
      </trkpt>
      <trkpt lat="41.40132682568154" lon="-81.74083857183280">
        <ele>266.2310556711</ele>
        <time>2026-08-11T17:28:02Z</time>
      </trkpt>
      <trkpt lat="41.40133400912489" lon="-81.74143367703219">
        <ele>265.6064563128</ele>
        <time>2026-08-11T17:28:37Z</time>
      </trkpt>
      <trkpt lat="41.40132944603679" lon="-81.74203787153083">
        <ele>265.5361611484</ele>
        <time>2026-08-11T17:29:17Z</time>
      </trkpt>
      <trkpt lat="41.40132572204802" lon="-81.74239335213586">
        <ele>264.9032468688</ele>
        <time>2026-08-11T17:29:40Z</time>
      </trkpt>
      <trkpt lat="41.40090940823763" lon="-81.74219138211264">
        <ele>265.0745696106</ele>
        <time>2026-08-11T17:30:18Z</time>
      </trkpt>
      <trkpt lat="41.40048339485688" lon="-81.74200400886527">
        <ele>265.2074696421</ele>
        <time>2026-08-11T17:30:53Z</time>
      </trkpt>
      <trkpt lat="41.40005696822802" lon="-81.74180860091590">
        <ele>265.3862270950</ele>
        <time>2026-08-11T17:31:43Z</time>
      </trkpt>
      <trkpt lat="41.39963414906781" lon="-81.74160702874953">
        <ele>264.8691334961</ele>
        <time>2026-08-11T17:32:18Z</time>
      </trkpt>
      <trkpt lat="41.39953173153296" lon="-81.74157341916255">
        <ele>264.9871598557</ele>
        <time>2026-08-11T17:32:30Z</time>
      </trkpt>
      <trkpt lat="41.39953165699767" lon="-81.74098241852879">
        <ele>265.6319237576</ele>
        <time>2026-08-11T17:33:06Z</time>
      </trkpt>
      <trkpt lat="41.39953568691381" lon="-81.74036503140771">
        <ele>266.0719246359</ele>
        <time>2026-08-11T17:33:56Z</time>
      </trkpt>
      <trkpt lat="41.39952873207586" lon="-81.73977011110982">
        <ele>266.6022876573</ele>
        <time>2026-08-11T17:34:43Z</time>
      </trkpt>
      <trkpt lat="41.39953624647931" lon="-81.73916956490145">
        <ele>266.9155356618</ele>
        <time>2026-08-11T17:35:30Z</time>
      </trkpt>
      <trkpt lat="41.39952747031332" lon="-81.73857550602382">
        <ele>266.9274015518</ele>
        <time>2026-08-11T17:36:23Z</time>
      </trkpt>
      <trkpt lat="41.39953393027287" lon="-81.73797883246246">
        <ele>267.1028195163</ele>
        <time>2026-08-11T17:37:09Z</time>
      </trkpt>
      <trkpt lat="41.39952863430004" lon="-81.73737528849892">
        <ele>267.4127830728</ele>
        <time>2026-08-11T17:37:51Z</time>
      </trkpt>
      <trkpt lat="41.39953206796589" lon="-81.73677775076382">
        <ele>267.3068222508</ele>
        <time>2026-08-11T17:38:31Z</time>
      </trkpt>
      <trkpt lat="41.39952192834305" lon="-81.73618052362224">
        <ele>267.3835973061</ele>
        <time>2026-08-11T17:39:07Z</time>
      </trkpt>
      <trkpt lat="41.39952189343131" lon="-81.73557318377516">
        <ele>267.2379774710</ele>
        <time>2026-08-11T17:39:46Z</time>
      </trkpt>
      <trkpt lat="41.39953228644612" lon="-81.73498210957599">
        <ele>267.2123252816</ele>
        <time>2026-08-11T17:40:38Z</time>
      </trkpt>
      <trkpt lat="41.39952744099158" lon="-81.73460857607706">
        <ele>267.0438494593</ele>
        <time>2026-08-11T17:41:03Z</time>
      </trkpt>
      <trkpt lat="41.39998073179606" lon="-81.73461839741799">
        <ele>267.1974971248</ele>
        <time>2026-08-11T17:41:40Z</time>
      </trkpt>
      <trkpt lat="41.40042461286323" lon="-81.73462902036736">
        <ele>267.4146969967</ele>
        <time>2026-08-11T17:42:15Z</time>
      </trkpt>
      <trkpt lat="41.40087457418066" lon="-81.73464220974488">
        <ele>267.5780128796</ele>
        <time>2026-08-11T17:43:07Z</time>
      </trkpt>
      <trkpt lat="41.40132466331600" lon="-81.73464352921246">
        <ele>267.3082865440</ele>
        <time>2026-08-11T17:43:45Z</time>
      </trkpt>
      <trkpt lat="41.40131799843372" lon="-81.73524148893866">
        <ele>267.8352036569</ele>
        <time>2026-08-11T17:44:39Z</time>
      </trkpt>
      <trkpt lat="41.40131466983382" lon="-81.73583534763354">
        <ele>268.2737628393</ele>
        <time>2026-08-11T17:45:21Z</time>
      </trkpt>
      <trkpt lat="41.40132457861249" lon="-81.73643664071579">
        <ele>268.1292041217</ele>
        <time>2026-08-11T17:46:07Z</time>
      </trkpt>
      <trkpt lat="41.40132669363328" lon="-81.73702840042769">
        <ele>267.8192586743</ele>
        <time>2026-08-11T17:46:45Z</time>
      </trkpt>
      <trkpt lat="41.40132003838905" lon="-81.73765164862459">
        <ele>267.9769721136</ele>
        <time>2026-08-11T17:47:31Z</time>
      </trkpt>
      <trkpt lat="41.40132627582813" lon="-81.73823705129159">
        <ele>267.6722821708</ele>
        <time>2026-08-11T17:48:27Z</time>
      </trkpt>
      <trkpt lat="41.40133365074450" lon="-81.73884898990364">
        <ele>267.3614021410</ele>
        <time>2026-08-11T17:49:15Z</time>
      </trkpt>
      <trkpt lat="41.40133632631885" lon="-81.73943401032369">
        <ele>267.4100868802</ele>
        <time>2026-08-11T17:49:51Z</time>
      </trkpt>
      <trkpt lat="41.40133861549540" lon="-81.74004337973984">
        <ele>266.5097113545</ele>
        <time>2026-08-11T17:50:30Z</time>
      </trkpt>
      <trkpt lat="41.40133732913429" lon="-81.74022114189729">
        <ele>266.4765577689</ele>
        <time>2026-08-11T17:50:39Z</time>
      </trkpt>
    </trkseg>
  </trk>
</gpx>