<?xml version='1.0' encoding='UTF-8'?>
<gpx xmlns="http://www.topografix.com/GPX/1/1" creator="https://gpx.studio" version="1.1">
  <metadata>
    <name>Dog Walk - 2026-08-28 #3</name>
  </metadata>
  <trk>
    <name>Dog Walk - 2026-08-28 #3</name>
    <type>dog walk</type>
    <trkseg>
      <trkpt lat="41.40133807111211" lon="-81.74024023000946">
        <ele>266.3596719490</ele>
        <time>2026-08-28T18:04:22Z</time>
      </trkpt>
      <trkpt lat="41.40133870984516" lon="-81.74083907011438">
        <ele>266.1252805096</ele>
        <time>2026-08-28T18:05:00Z</time>
      </trkpt>
      <trkpt lat="41.40134111512487" lon="-81.74144298362172">
        <ele>265.6773009213</ele>
        <time>2026-08-28T18:05:45Z</time>
      </trkpt>
      <trkpt lat="41.40134810925490" lon="-81.74202935172906">
        <ele>265.1610265778</ele>
        <time>2026-08-28T18:06:23Z</time>
      </trkpt>
      <trkpt lat="41.40134065440214" lon="-81.74241915598206">
        <ele>264.8168683867</ele>
        <time>2026-08-28T18:06:48Z</time>
      </trkpt>
      <trkpt lat="41.40177188328418" lon="-81.74262052721232">
        <ele>264.5896303366</ele>
        <time>2026-08-28T18:07:24Z</time>
      </trkpt>
      <trkpt lat="41.40219427783016" lon="-81.74281643072447">
        <ele>263.8312714353</ele>
        <time>2026-08-28T18:08:06Z</time>
      </trkpt>
      <trkpt lat="41.40261721919163" lon="-81.74301696091808">
        <ele>263.1134059948</ele>
        <time>2026-08-28T18:08:42Z</time>
      </trkpt>
      <trkpt lat="41.40304031393121" lon="-81.74321880806876">
        <ele>262.6160529077</ele>
        <time>2026-08-28T18:09:22Z</time>
      </trkpt>
      <trkpt lat="41.40312242152897" lon="-81.74325296066925">
        <ele>262.3921698387</ele>
        <time>2026-08-28T18:09:30Z</time>
      </trkpt>
      <trkpt lat="41.40311112803469" lon="-81.74266007293438">
        <ele>263.0080704533</ele>
        <time>2026-08-28T18:10:05Z</time>
      </trkpt>
      <trkpt lat="41.40312332423103" lon="-81.74205480062741">
        <ele>263.7407249043</ele>
        <time>2026-08-28T18:10:55Z</time>
      </trkpt>
      <trkpt lat="41.40310465934112" lon="-81.74146270197775">
        <ele>264.2593206215</ele>
        <time>2026-08-28T18:11:36Z</time>
      </trkpt>
      <trkpt lat="41.40310026147137" lon="-81.74084780233370">
        <ele>264.7768705263</ele>
        <time>2026-08-28T18:12:22Z</time>
      </trkpt>
      <trkpt lat="41.40310468159610" lon="-81.74024817993978">
        <ele>265.4984405857</ele>
        <time>2026-08-28T18:13:06Z</time>
      </trkpt>
      <trkpt lat="41.40309639221963" lon="-81.73965503046760">
        <ele>265.6725387431</ele>
        <time>2026-08-28T18:13:39Z</time>
      </trkpt>
      <trkpt lat="41.40309842293826" lon="-81.73905310970648">
        <ele>265.8906725172</ele>
        <time>2026-08-28T18:14:24Z</time>
      </trkpt>
      <trkpt lat="41.40309925174449" lon="-81.73878916644387">
        <ele>266.3529867338</ele>
        <time>2026-08-28T18:14:47Z</time>
      </trkpt>
      <trkpt lat="41.40265106131090" lon="-81.73878050532535">
        <ele>266.8683415298</ele>
        <time>2026-08-28T18:15:22Z</time>
      </trkpt>
      <trkpt lat="41.40223703712960" lon="-81.73877483691365">
        <ele>266.8386701286</ele>
        <time>2026-08-28T18:15:50Z</time>
      </trkpt>
      <trkpt lat="41.40223824946415" lon="-81.73818195297207">
        <ele>267.1821168906</ele>
        <time>2026-08-28T18:16:33Z</time>
      </trkpt>
      <trkpt lat="41.40223448561132" lon="-81.73757950842901">
        <ele>266.9096595764</ele>
        <time>2026-08-28T18:17:19Z</time>
      </trkpt>
      <trkpt lat="41.40222498025580" lon="-81.73698250703450">
        <ele>267.2926934556</ele>
        <time>2026-08-28T18:17:55Z</time>
      </trkpt>
      <trkpt lat="41.40222993277310" lon="-81.73637428122684">
        <ele>267.2911699090</ele>
        <time>2026-08-28T18:18:53Z</time>
      </trkpt>
      <trkpt lat="41.40221688913779" lon="-81.73578052010224">
        <ele>267.2641249443</ele>
        <time>2026-08-28T18:19:26Z</time>
      </trkpt>
      <trkpt lat="41.40222642691087" lon="-81.73518391903893">
        <ele>267.1169104567</ele>
        <time>2026-08-28T18:20:07Z</time>
      </trkpt>
      <trkpt lat="41.40222974265446" lon="-81.73465670072117">
        <ele>267.1816053772</ele>
        <time>2026-08-28T18:20:36Z</time>
      </trkpt>
      <trkpt lat="41.40177237763560" lon="-81.73464429338105">
        <ele>267.2184834671</ele>
        <time>2026-08-28T18:21:13Z</time>
      </trkpt>
      <trkpt lat="41.40132674560272" lon="-81.73463579152232">
        <ele>267.2182837898</ele>
        <time>2026-08-28T18:21:54Z</time>
      </trkpt>
      <trkpt lat="41.40131254637710" lon="-81.73464314877238">
        <ele>267.1739320970</ele>
        <time>2026-08-28T18:21:56Z</time>
      </trkpt>
      <trkpt lat="41.40131649455147" lon="-81.73523156556142">
        <ele>267.8501664182</ele>
        <time>2026-08-28T18:22:32Z</time>
      </trkpt>
      <trkpt lat="41.40132244933896" lon="-81.73583686503702">
        <ele>268.1998500022</ele>
        <time>2026-08-28T18:23:02Z</time>
      </trkpt>
      <trkpt lat="41.40133011614112" lon="-81.73643225062099">
        <ele>268.1778378268</ele>
        <time>2026-08-28T18:23:39Z</time>
      </trkpt>
      <trkpt lat="41.40132083458280" lon="-81.73703869394855">
        <ele>268.0093058177</ele>
        <time>2026-08-28T18:24:18Z</time>
      </trkpt>
      <trkpt lat="41.40133605454277" lon="-81.73763515470172">
        <ele>268.1646991142</ele>
        <time>2026-08-28T18:25:02Z</time>
      </trkpt>
      <trkpt lat="41.40133548920773" lon="-81.73823251262064">
        <ele>267.6403144200</ele>
        <time>2026-08-28T18:25:48Z</time>
      </trkpt>
      <trkpt lat="41.40134215135257" lon="-81.73882224572988">
        <ele>267.4229789312</ele>
        <time>2026-08-28T18:26:25Z</time>
      </trkpt>
      <trkpt lat="41.40134011336738" lon="-81.73942660240530">
        <ele>266.9229818995</ele>
        <time>2026-08-28T18:27:13Z</time>
      </trkpt>
      <trkpt lat="41.40134708934843" lon="-81.74002727310453">
        <ele>266.6938249349</ele>
        <time>2026-08-28T18:28:07Z</time>
      </trkpt>
      <trkpt lat="41.40134780156053" lon="-81.74015381660837">
        <ele>266.4792417337</ele>
        <time>2026-08-28T18:28:33Z</time>
      </trkpt>
    </trkseg>
  </trk>
</gpx>