<?xml version='1.0' encoding='UTF-8'?>
<gpx xmlns="http://www.topografix.com/GPX/1/1" creator="https://gpx.studio" version="1.1">
  <metadata>
    <name>Dog Walk - 2026-08-01 #3</name>
  </metadata>
  <trk>
    <name>Dog Walk - 2026-08-01 #3</name>
    <type>dog walk</type>
    <trkseg>
      <trkpt lat="41.40134134969837" lon="-81.74023462001570">
        <ele>266.4149291543</ele>
        <time>2026-08-01T15:49:04Z</time>
      </trkpt>
      <trkpt lat="41.40133812757970" lon="-81.74084179458671">
        <ele>266.1076733902</ele>
        <time>2026-08-01T15:49:48Z</time>
      </trkpt>
      <trkpt lat="41.40133906855306" lon="-81.74143239357132">
        <ele>265.8675645193</ele>
        <time>2026-08-01T15:50:40Z</time>
      </trkpt>
      <trkpt lat="41.40134969411247" lon="-81.74204127699475">
        <ele>265.2010393689</ele>
        <time>2026-08-01T15:51:19Z</time>
      </trkpt>
      <trkpt lat="41.40134707518869" lon="-81.74241211294823">
        <ele>264.5197800660</ele>
        <time>2026-08-01T15:51:48Z</time>
      </trkpt>
      <trkpt lat="41.40177241296845" lon="-81.74262624498004">
        <ele>264.3045615203</ele>
        <time>2026-08-01T15:52:29Z</time>
      </trkpt>
      <trkpt lat="41.40219358150785" lon="-81.74280800814408">
        <ele>263.3264149896</ele>
        <time>2026-08-01T15:53:11Z</time>
      </trkpt>
      <trkpt lat="41.40261627862294" lon="-81.74303278149056">
        <ele>262.9040426552</ele>
        <time>2026-08-01T15:54:00Z</time>
      </trkpt>
      <trkpt lat="41.40303857133387" lon="-81.74320396567367">
        <ele>262.5796202427</ele>
        <time>2026-08-01T15:54:29Z</time>
      </trkpt>
      <trkpt lat="41.40311173379580" lon="-81.74324966443788">
        <ele>262.3609094119</ele>
        <time>2026-08-01T15:54:35Z</time>
      </trkpt>
      <trkpt lat="41.40311616327974" lon="-81.74265588544982">
        <ele>263.0200200911</ele>
        <time>2026-08-01T15:55:25Z</time>
      </trkpt>
      <trkpt lat="41.40311155821624" lon="-81.74206220667540">
        <ele>263.8253186517</ele>
        <time>2026-08-01T15:56:01Z</time>
      </trkpt>
      <trkpt lat="41.40311488466380" lon="-81.74145757429139">
        <ele>264.3044048015</ele>
        <time>2026-08-01T15:56:45Z</time>
      </trkpt>
      <trkpt lat="41.40311438428120" lon="-81.74086524053655">
        <ele>264.5084729805</ele>
        <time>2026-08-01T15:57:18Z</time>
      </trkpt>
      <trkpt lat="41.40310742417988" lon="-81.74026111285640">
        <ele>265.2961757441</ele>
        <time>2026-08-01T15:57:56Z</time>
      </trkpt>
      <trkpt lat="41.40310457813951" lon="-81.73965982304954">
        <ele>265.7861707605</ele>
        <time>2026-08-01T15:58:37Z</time>
      </trkpt>
      <trkpt lat="41.40309785901462" lon="-81.73904879573730">
        <ele>265.7876596285</ele>
        <time>2026-08-01T15:59:18Z</time>
      </trkpt>
      <trkpt lat="41.40310564438722" lon="-81.73877992414694">
        <ele>266.2694167188</ele>
        <time>2026-08-01T15:59:40Z</time>
      </trkpt>
      <trkpt lat="41.40264676131998" lon="-81.73878324640954">
        <ele>266.6807356608</ele>
        <time>2026-08-01T16:00:26Z</time>
      </trkpt>
      <trkpt lat="41.40223749116338" lon="-81.73878326355685">
        <ele>267.2544454981</ele>
        <time>2026-08-01T16:01:11Z</time>
      </trkpt>
      <trkpt lat="41.40223328726579" lon="-81.73817256401692">
        <ele>267.0911429892</ele>
        <time>2026-08-01T16:02:02Z</time>
      </trkpt>
      <trkpt lat="41.40223910669442" lon="-81.73758627789142">
        <ele>267.1718074899</ele>
        <time>2026-08-01T16:02:46Z</time>
      </trkpt>
      <trkpt lat="41.40222524016730" lon="-81.73698052089213">
        <ele>267.0556909445</ele>
        <time>2026-08-01T16:03:26Z</time>
      </trkpt>
      <trkpt lat="41.40222916736632" lon="-81.73638716161328">
        <ele>267.2606607572</ele>
        <time>2026-08-01T16:04:26Z</time>
      </trkpt>
      <trkpt lat="41.40222389918899" lon="-81.73577831417586">
        <ele>267.1843938888</ele>
        <time>2026-08-01T16:05:04Z</time>
      </trkpt>
      <trkpt lat="41.40221718755119" lon="-81.73518326190859">
        <ele>267.5438791086</ele>
        <time>2026-08-01T16:05:56Z</time>
      </trkpt>
      <trkpt lat="41.40222775263017" lon="-81.73465510633088">
        <ele>266.9354894401</ele>
        <time>2026-08-01T16:06:31Z</time>
      </trkpt>
      <trkpt lat="41.40177195895703" lon="-81.73464425362423">
        <ele>267.2675032913</ele>
        <time>2026-08-01T16:07:03Z</time>
      </trkpt>
      <trkpt lat="41.40131933587040" lon="-81.73462947614624">
        <ele>267.4322435158</ele>
        <time>2026-08-01T16:07:46Z</time>
      </trkpt>
      <trkpt lat="41.40131747451518" lon="-81.73463016753956">
        <ele>267.3204103836</ele>
        <time>2026-08-01T16:07:56Z</time>
      </trkpt>
      <trkpt lat="41.40131558418152" lon="-81.73523602767823">
        <ele>268.0306544276</ele>
        <time>2026-08-01T16:08:37Z</time>
      </trkpt>
      <trkpt lat="41.40132312493602" lon="-81.73583572301487">
        <ele>268.0841927229</ele>
        <time>2026-08-01T16:09:26Z</time>
      </trkpt>
      <trkpt lat="41.40132140425964" lon="-81.73643785336111">
        <ele>268.1137225801</ele>
        <time>2026-08-01T16:10:09Z</time>
      </trkpt>
      <trkpt lat="41.40132964825424" lon="-81.73703032256630">
        <ele>268.0787432221</ele>
        <time>2026-08-01T16:10:46Z</time>
      </trkpt>
      <trkpt lat="41.40133421331571" lon="-81.73762457069598">
        <ele>267.9012843248</ele>
        <time>2026-08-01T16:11:35Z</time>
      </trkpt>
      <trkpt lat="41.40133906071877" lon="-81.73823835979836">
        <ele>267.5913551421</ele>
        <time>2026-08-01T16:12:16Z</time>
      </trkpt>
      <trkpt lat="41.40133838514618" lon="-81.73883294088435">
        <ele>267.2172601151</ele>
        <time>2026-08-01T16:12:57Z</time>
      </trkpt>
      <trkpt lat="41.40134279823830" lon="-81.73943632719340">
        <ele>267.2747631195</ele>
        <time>2026-08-01T16:13:33Z</time>
      </trkpt>
      <trkpt lat="41.40133894181584" lon="-81.74004411368212">
        <ele>266.6609066534</ele>
        <time>2026-08-01T16:14:12Z</time>
      </trkpt>
      <trkpt lat="41.40134755698831" lon="-81.74015447379276">
        <ele>266.5842566704</ele>
        <time>2026-08-01T16:14:24Z</time>
      </trkpt>
    </trkseg>
  </trk>
</gpx>