<?xml version='1.0' encoding='UTF-8'?>
<gpx xmlns="http://www.topografix.com/GPX/1/1" creator="https://gpx.studio" version="1.1">
  <metadata>
    <name>Dog Walk - 2026-03-18 #2</name>
  </metadata>
  <trk>
    <name>Dog Walk - 2026-03-18 #2</name>
    <type>dog walk</type>
    <trkseg>
      <trkpt lat="41.40134614249985" lon="-81.74023649808554">
        <ele>266.5021521675</ele>
        <time>2026-03-18T15:09:05Z</time>
      </trkpt>
      <trkpt lat="41.40133758319731" lon="-81.74083379557428">
        <ele>266.4457582916</ele>
        <time>2026-03-18T15:09:44Z</time>
      </trkpt>
      <trkpt lat="41.40133857622472" lon="-81.74143709154340">
        <ele>265.7165855789</ele>
        <time>2026-03-18T15:10:29Z</time>
      </trkpt>
      <trkpt lat="41.40134410969136" lon="-81.74203023261221">
        <ele>265.1244923151</ele>
        <time>2026-03-18T15:11:05Z</time>
      </trkpt>
      <trkpt lat="41.40135388717500" lon="-81.74240757973820">
        <ele>264.6551554032</ele>
        <time>2026-03-18T15:11:38Z</time>
      </trkpt>
      <trkpt lat="41.40176991602974" lon="-81.74263786753822">
        <ele>264.2311703625</ele>
        <time>2026-03-18T15:12:19Z</time>
      </trkpt>
      <trkpt lat="41.40218801147333" lon="-81.74284500708049">
        <ele>263.5094476719</ele>
        <time>2026-03-18T15:12:48Z</time>
      </trkpt>
      <trkpt lat="41.40221328624110" lon="-81.74285775272962">
        <ele>263.1979759697</ele>
        <time>2026-03-18T15:12:49Z</time>
      </trkpt>
      <trkpt lat="41.40221648520627" lon="-81.74226905905959">
        <ele>264.2121732424</ele>
        <time>2026-03-18T15:13:31Z</time>
      </trkpt>
      <trkpt lat="41.40222312326465" lon="-81.74165976887110">
        <ele>264.7325985189</ele>
        <time>2026-03-18T15:14:13Z</time>
      </trkpt>
      <trkpt lat="41.40221860733016" lon="-81.74106547865799">
        <ele>265.7288251341</ele>
        <time>2026-03-18T15:14:58Z</time>
      </trkpt>
      <trkpt lat="41.40222253776379" lon="-81.74046161589264">
        <ele>265.8886977601</ele>
        <time>2026-03-18T15:15:40Z</time>
      </trkpt>
      <trkpt lat="41.40221625666395" lon="-81.73986428543559">
        <ele>266.3289013303</ele>
        <time>2026-03-18T15:16:28Z</time>
      </trkpt>
      <trkpt lat="41.40222446864859" lon="-81.73927281595614">
        <ele>266.8492480038</ele>
        <time>2026-03-18T15:17:30Z</time>
      </trkpt>
      <trkpt lat="41.40222352326786" lon="-81.73867332516184">
        <ele>267.2974713252</ele>
        <time>2026-03-18T15:18:06Z</time>
      </trkpt>
      <trkpt lat="41.40221888562829" lon="-81.73826101353144">
        <ele>267.0090745519</ele>
        <time>2026-03-18T15:18:34Z</time>
      </trkpt>
      <trkpt lat="41.40176883072262" lon="-81.73826503648272">
        <ele>267.7520938436</ele>
        <time>2026-03-18T15:19:20Z</time>
      </trkpt>
      <trkpt lat="41.40134270694652" lon="-81.73826721311355">
        <ele>267.5298703266</ele>
        <time>2026-03-18T15:19:57Z</time>
      </trkpt>
      <trkpt lat="41.40133560360692" lon="-81.73886896885246">
        <ele>267.4421781898</ele>
        <time>2026-03-18T15:20:32Z</time>
      </trkpt>
      <trkpt lat="41.40134717507371" lon="-81.73946081346521">
        <ele>267.1264420461</ele>
        <time>2026-03-18T15:21:05Z</time>
      </trkpt>
      <trkpt lat="41.40134606816078" lon="-81.74006254287957">
        <ele>266.6622549942</ele>
        <time>2026-03-18T15:21:50Z</time>
      </trkpt>
      <trkpt lat="41.40134570640302" lon="-81.74018702476769">
        <ele>266.6823283623</ele>
        <time>2026-03-18T15:21:58Z</time>
      </trkpt>
    </trkseg>
  </trk>
</gpx>