<?xml version='1.0' encoding='UTF-8'?>
<gpx xmlns="http://www.topografix.com/GPX/1/1" creator="https://gpx.studio" version="1.1">
  <metadata>
    <name>Dog Walk - 2026-09-14 #1</name>
  </metadata>
  <trk>
    <name>Dog Walk - 2026-09-14 #1</name>
    <type>dog walk</type>
    <trkseg>
      <trkpt lat="41.40133207124929" lon="-81.74025450629495">
        <ele>266.4812076667</ele>
        <time>2026-09-14T08:06:03Z</time>
      </trkpt>
      <trkpt lat="41.40133080063174" lon="-81.74025223896197">
        <ele>266.5469034668</ele>
        <time>2026-09-14T08:06:04Z</time>
      </trkpt>
      <trkpt lat="41.40133471682306" lon="-81.74085642248538">
        <ele>266.3684863674</ele>
        <time>2026-09-14T08:06:40Z</time>
      </trkpt>
      <trkpt lat="41.40132903396030" lon="-81.74145403376077">
        <ele>265.8382766451</ele>
        <time>2026-09-14T08:07:17Z</time>
      </trkpt>
      <trkpt lat="41.40133030718013" lon="-81.74205700746353">
        <ele>265.5161703734</ele>
        <time>2026-09-14T08:07:56Z</time>
      </trkpt>
      <trkpt lat="41.40132619073138" lon="-81.74236364837520">
        <ele>264.8358552047</ele>
        <time>2026-09-14T08:08:29Z</time>
      </trkpt>
      <trkpt lat="41.40132226779177" lon="-81.74237721018594">
        <ele>264.8476534463</ele>
        <time>2026-09-14T08:08:31Z</time>
      </trkpt>
      <trkpt lat="41.40090946669999" lon="-81.74217748914678">
        <ele>265.1949977906</ele>
        <time>2026-09-14T08:09:07Z</time>
      </trkpt>
      <trkpt lat="41.40047504683427" lon="-81.74199336224056">
        <ele>264.9657485894</ele>
        <time>2026-09-14T08:09:49Z</time>
      </trkpt>
      <trkpt lat="41.40005183823217" lon="-81.74179412478291">
        <ele>265.5136719169</ele>
        <time>2026-09-14T08:10:22Z</time>
      </trkpt>
      <trkpt lat="41.39962852838752" lon="-81.74159828736124">
        <ele>264.6630564241</ele>
        <time>2026-09-14T08:10:58Z</time>
      </trkpt>
      <trkpt lat="41.39955111480597" lon="-81.74156921183435">
        <ele>264.8789615007</ele>
        <time>2026-09-14T08:11:05Z</time>
      </trkpt>
      <trkpt lat="41.39954171056524" lon="-81.74097818066888">
        <ele>265.3882666439</ele>
        <time>2026-09-14T08:11:47Z</time>
      </trkpt>
      <trkpt lat="41.39954288589757" lon="-81.74037801124386">
        <ele>265.9586632445</ele>
        <time>2026-09-14T08:12:24Z</time>
      </trkpt>
      <trkpt lat="41.39953662463836" lon="-81.73977829494591">
        <ele>266.6819939853</ele>
        <time>2026-09-14T08:12:58Z</time>
      </trkpt>
      <trkpt lat="41.39953929504775" lon="-81.73917186741355">
        <ele>266.6711911728</ele>
        <time>2026-09-14T08:13:31Z</time>
      </trkpt>
      <trkpt lat="41.39953691812678" lon="-81.73857415416248">
        <ele>267.0308044283</ele>
        <time>2026-09-14T08:14:58Z</time>
      </trkpt>
      <trkpt lat="41.39953177623025" lon="-81.73828523219302">
        <ele>266.9261834018</ele>
        <time>2026-09-14T08:15:20Z</time>
      </trkpt>
      <trkpt lat="41.39952601276146" lon="-81.73829829360960">
        <ele>266.9116327304</ele>
        <time>2026-09-14T08:15:21Z</time>
      </trkpt>
      <trkpt lat="41.39997868077283" lon="-81.73829751132222">
        <ele>267.2419158901</ele>
        <time>2026-09-14T08:16:04Z</time>
      </trkpt>
      <trkpt lat="41.40043925536109" lon="-81.73829314298359">
        <ele>267.0768275318</ele>
        <time>2026-09-14T08:16:47Z</time>
      </trkpt>
      <trkpt lat="41.40088400803577" lon="-81.73829805311206">
        <ele>267.2696461718</ele>
        <time>2026-09-14T08:17:20Z</time>
      </trkpt>
      <trkpt lat="41.40132147541341" lon="-81.73830740306215">
        <ele>267.4697412846</ele>
        <time>2026-09-14T08:18:02Z</time>
      </trkpt>
      <trkpt lat="41.40133913133522" lon="-81.73889814982530">
        <ele>267.3278758099</ele>
        <time>2026-09-14T08:18:46Z</time>
      </trkpt>
      <trkpt lat="41.40133506038862" lon="-81.73949814892740">
        <ele>267.0796749975</ele>
        <time>2026-09-14T08:19:20Z</time>
      </trkpt>
      <trkpt lat="41.40133479918819" lon="-81.74009708518896">
        <ele>266.4210544990</ele>
        <time>2026-09-14T08:20:00Z</time>
      </trkpt>
      <trkpt lat="41.40133718799538" lon="-81.74015703890207">
        <ele>266.5350939911</ele>
        <time>2026-09-14T08:20:03Z</time>
      </trkpt>
    </trkseg>
  </trk>
</gpx>