<?xml version='1.0' encoding='UTF-8'?>
<gpx xmlns="http://www.topografix.com/GPX/1/1" creator="https://gpx.studio" version="1.1">
  <metadata>
    <name>Dog Walk - 2026-02-19</name>
  </metadata>
  <trk>
    <name>Dog Walk - 2026-02-19</name>
    <type>dog walk</type>
    <trkseg>
      <trkpt lat="41.40133739539772" lon="-81.74023426628779">
        <ele>266.4452368406</ele>
        <time>2026-02-19T15:18:20Z</time>
      </trkpt>
      <trkpt lat="41.40134156439775" lon="-81.74084208506849">
        <ele>266.2153476732</ele>
        <time>2026-02-19T15:18:59Z</time>
      </trkpt>
      <trkpt lat="41.40134183359759" lon="-81.74142657825981">
        <ele>265.8422787259</ele>
        <time>2026-02-19T15:19:47Z</time>
      </trkpt>
      <trkpt lat="41.40134257080817" lon="-81.74202900528118">
        <ele>265.3433459773</ele>
        <time>2026-02-19T15:20:26Z</time>
      </trkpt>
      <trkpt lat="41.40135228605373" lon="-81.74241487374999">
        <ele>264.6254431149</ele>
        <time>2026-02-19T15:20:54Z</time>
      </trkpt>
      <trkpt lat="41.40176721952990" lon="-81.74262519597887">
        <ele>264.2927502350</ele>
        <time>2026-02-19T15:21:26Z</time>
      </trkpt>
      <trkpt lat="41.40219021307893" lon="-81.74284098785166">
        <ele>263.5481637661</ele>
        <time>2026-02-19T15:22:15Z</time>
      </trkpt>
      <trkpt lat="41.40260646873906" lon="-81.74305397474824">
        <ele>262.9792319543</ele>
        <time>2026-02-19T15:22:51Z</time>
      </trkpt>
      <trkpt lat="41.40302750489897" lon="-81.74327413380611">
        <ele>262.3313685728</ele>
        <time>2026-02-19T15:23:34Z</time>
      </trkpt>
      <trkpt lat="41.40345360892673" lon="-81.74347472164165">
        <ele>261.8784104356</ele>
        <time>2026-02-19T15:24:20Z</time>
      </trkpt>
      <trkpt lat="41.40348365036461" lon="-81.74350835726398">
        <ele>261.7414888677</ele>
        <time>2026-02-19T15:24:24Z</time>
      </trkpt>
      <trkpt lat="41.40359976814253" lon="-81.74352639908707">
        <ele>261.7351935696</ele>
        <time>2026-02-19T15:24:35Z</time>
      </trkpt>
      <trkpt lat="41.40400200633260" lon="-81.74350513339984">
        <ele>260.8525568680</ele>
        <time>2026-02-19T15:25:06Z</time>
      </trkpt>
      <trkpt lat="41.40399321780084" lon="-81.74291765546748">
        <ele>261.7414732349</ele>
        <time>2026-02-19T15:25:37Z</time>
      </trkpt>
      <trkpt lat="41.40399256157929" lon="-81.74230873712484">
        <ele>261.8905756908</ele>
        <time>2026-02-19T15:26:14Z</time>
      </trkpt>
      <trkpt lat="41.40399262974542" lon="-81.74170773344191">
        <ele>262.3821275966</ele>
        <time>2026-02-19T15:26:53Z</time>
      </trkpt>
      <trkpt lat="41.40399401955388" lon="-81.74111483369684">
        <ele>262.8344769862</ele>
        <time>2026-02-19T15:27:41Z</time>
      </trkpt>
      <trkpt lat="41.40398056595549" lon="-81.74050801199627">
        <ele>263.7999616905</ele>
        <time>2026-02-19T15:28:13Z</time>
      </trkpt>
      <trkpt lat="41.40399092430771" lon="-81.73991239247059">
        <ele>264.3747644639</ele>
        <time>2026-02-19T15:28:53Z</time>
      </trkpt>
      <trkpt lat="41.40398639186215" lon="-81.73930851945849">
        <ele>265.0090698263</ele>
        <time>2026-02-19T15:29:46Z</time>
      </trkpt>
      <trkpt lat="41.40398265350426" lon="-81.73878303656990">
        <ele>265.3383759893</ele>
        <time>2026-02-19T15:30:15Z</time>
      </trkpt>
      <trkpt lat="41.40354151696359" lon="-81.73877832040810">
        <ele>265.8032264780</ele>
        <time>2026-02-19T15:30:58Z</time>
      </trkpt>
      <trkpt lat="41.40308567668610" lon="-81.73878096358501">
        <ele>266.0702805019</ele>
        <time>2026-02-19T15:31:37Z</time>
      </trkpt>
      <trkpt lat="41.40263341875519" lon="-81.73877682876218">
        <ele>266.9181702234</ele>
        <time>2026-02-19T15:32:14Z</time>
      </trkpt>
      <trkpt lat="41.40223785159121" lon="-81.73878386916216">
        <ele>267.1850597227</ele>
        <time>2026-02-19T15:32:43Z</time>
      </trkpt>
      <trkpt lat="41.40220412767174" lon="-81.73827995187268">
        <ele>267.1378206119</ele>
        <time>2026-02-19T15:33:14Z</time>
      </trkpt>
      <trkpt lat="41.40176502946937" lon="-81.73827008638411">
        <ele>267.7990798995</ele>
        <time>2026-02-19T15:34:03Z</time>
      </trkpt>
      <trkpt lat="41.40132739683205" lon="-81.73827259958847">
        <ele>267.5063787954</ele>
        <time>2026-02-19T15:34:50Z</time>
      </trkpt>
      <trkpt lat="41.40133375950799" lon="-81.73886259105402">
        <ele>267.5118695713</ele>
        <time>2026-02-19T15:35:27Z</time>
      </trkpt>
      <trkpt lat="41.40132801989700" lon="-81.73946171364341">
        <ele>267.2527566299</ele>
        <time>2026-02-19T15:36:05Z</time>
      </trkpt>
      <trkpt lat="41.40133707450100" lon="-81.74006695761602">
        <ele>266.7564127763</ele>
        <time>2026-02-19T15:36:42Z</time>
      </trkpt>
      <trkpt lat="41.40134017118164" lon="-81.74020031053108">
        <ele>266.7117520580</ele>
        <time>2026-02-19T15:36:53Z</time>
      </trkpt>
    </trkseg>
  </trk>
</gpx>