<?xml version='1.0' encoding='UTF-8'?>
<gpx xmlns="http://www.topografix.com/GPX/1/1" creator="https://gpx.studio" version="1.1">
  <metadata>
    <name>Dog Walk - 2026-04-08 #1</name>
  </metadata>
  <trk>
    <name>Dog Walk - 2026-04-08 #1</name>
    <type>dog walk</type>
    <trkseg>
      <trkpt lat="41.40133372691545" lon="-81.74022454810560">
        <ele>266.4331526434</ele>
        <time>2026-04-08T09:03:24Z</time>
      </trkpt>
      <trkpt lat="41.40133492714223" lon="-81.74081889334248">
        <ele>266.1660461877</ele>
        <time>2026-04-08T09:04:15Z</time>
      </trkpt>
      <trkpt lat="41.40134430322361" lon="-81.74142255751777">
        <ele>265.6937574521</ele>
        <time>2026-04-08T09:04:52Z</time>
      </trkpt>
      <trkpt lat="41.40134546186211" lon="-81.74203540282913">
        <ele>265.1395621045</ele>
        <time>2026-04-08T09:05:41Z</time>
      </trkpt>
      <trkpt lat="41.40134202711739" lon="-81.74241343236891">
        <ele>264.7815040802</ele>
        <time>2026-04-08T09:06:03Z</time>
      </trkpt>
      <trkpt lat="41.40175784722791" lon="-81.74262566699682">
        <ele>264.1861006454</ele>
        <time>2026-04-08T09:06:44Z</time>
      </trkpt>
      <trkpt lat="41.40218559533623" lon="-81.74284233692337">
        <ele>263.6128355902</ele>
        <time>2026-04-08T09:07:25Z</time>
      </trkpt>
      <trkpt lat="41.40260782772101" lon="-81.74306688329422">
        <ele>263.0861676295</ele>
        <time>2026-04-08T09:08:00Z</time>
      </trkpt>
      <trkpt lat="41.40303220077956" lon="-81.74324992398658">
        <ele>262.4849338054</ele>
        <time>2026-04-08T09:08:41Z</time>
      </trkpt>
      <trkpt lat="41.40344783123976" lon="-81.74348653900596">
        <ele>261.8199342485</ele>
        <time>2026-04-08T09:09:21Z</time>
      </trkpt>
      <trkpt lat="41.40349821362241" lon="-81.74350191982934">
        <ele>261.8153172585</ele>
        <time>2026-04-08T09:09:25Z</time>
      </trkpt>
      <trkpt lat="41.40359084721968" lon="-81.74352876777068">
        <ele>261.5763405953</ele>
        <time>2026-04-08T09:09:34Z</time>
      </trkpt>
      <trkpt lat="41.40400023308359" lon="-81.74351170061311">
        <ele>260.3692977615</ele>
        <time>2026-04-08T09:10:03Z</time>
      </trkpt>
      <trkpt lat="41.40399569183600" lon="-81.74291059911874">
        <ele>261.4973185971</ele>
        <time>2026-04-08T09:10:48Z</time>
      </trkpt>
      <trkpt lat="41.40398985642241" lon="-81.74231835616092">
        <ele>262.1566255547</ele>
        <time>2026-04-08T09:11:27Z</time>
      </trkpt>
      <trkpt lat="41.40399063304587" lon="-81.74171219379937">
        <ele>262.5194363655</ele>
        <time>2026-04-08T09:12:07Z</time>
      </trkpt>
      <trkpt lat="41.40399159798324" lon="-81.74111918366741">
        <ele>262.7825127837</ele>
        <time>2026-04-08T09:12:55Z</time>
      </trkpt>
      <trkpt lat="41.40398706595447" lon="-81.74050452725170">
        <ele>263.3620583805</ele>
        <time>2026-04-08T09:13:36Z</time>
      </trkpt>
      <trkpt lat="41.40398957743368" lon="-81.73990932618375">
        <ele>264.2362161210</ele>
        <time>2026-04-08T09:14:07Z</time>
      </trkpt>
      <trkpt lat="41.40398463483383" lon="-81.73931577773462">
        <ele>264.9740486564</ele>
        <time>2026-04-08T09:14:53Z</time>
      </trkpt>
      <trkpt lat="41.40398586744464" lon="-81.73877510185244">
        <ele>265.4089387147</ele>
        <time>2026-04-08T09:15:33Z</time>
      </trkpt>
      <trkpt lat="41.40353697833722" lon="-81.73876989085932">
        <ele>265.8214766896</ele>
        <time>2026-04-08T09:16:14Z</time>
      </trkpt>
      <trkpt lat="41.40308751940439" lon="-81.73877490030810">
        <ele>266.0472846923</ele>
        <time>2026-04-08T09:16:51Z</time>
      </trkpt>
      <trkpt lat="41.40264222399494" lon="-81.73878381200332">
        <ele>266.8059644061</ele>
        <time>2026-04-08T09:17:40Z</time>
      </trkpt>
      <trkpt lat="41.40223006818798" lon="-81.73876760732287">
        <ele>267.0518490766</ele>
        <time>2026-04-08T09:18:17Z</time>
      </trkpt>
      <trkpt lat="41.40221624407114" lon="-81.73827991364453">
        <ele>266.9437239473</ele>
        <time>2026-04-08T09:18:51Z</time>
      </trkpt>
      <trkpt lat="41.40177269888124" lon="-81.73827358526506">
        <ele>267.8532664607</ele>
        <time>2026-04-08T09:19:33Z</time>
      </trkpt>
      <trkpt lat="41.40132226971791" lon="-81.73825827265244">
        <ele>267.4496801579</ele>
        <time>2026-04-08T09:20:09Z</time>
      </trkpt>
      <trkpt lat="41.40133699045109" lon="-81.73887045031938">
        <ele>267.3104459477</ele>
        <time>2026-04-08T09:20:52Z</time>
      </trkpt>
      <trkpt lat="41.40133877323778" lon="-81.73945934121943">
        <ele>267.1543330038</ele>
        <time>2026-04-08T09:21:31Z</time>
      </trkpt>
      <trkpt lat="41.40133872384881" lon="-81.74006497544585">
        <ele>266.5416895950</ele>
        <time>2026-04-08T09:22:04Z</time>
      </trkpt>
      <trkpt lat="41.40133816682852" lon="-81.74021074284506">
        <ele>266.5327731869</ele>
        <time>2026-04-08T09:22:15Z</time>
      </trkpt>
    </trkseg>
  </trk>
</gpx>