<?xml version='1.0' encoding='UTF-8'?>
<gpx xmlns="http://www.topografix.com/GPX/1/1" creator="https://gpx.studio" version="1.1">
  <metadata>
    <name>Dog Walk - 2026-07-31 #2</name>
  </metadata>
  <trk>
    <name>Dog Walk - 2026-07-31 #2</name>
    <type>dog walk</type>
    <trkseg>
      <trkpt lat="41.40132621311880" lon="-81.74025164886267">
        <ele>266.4622232669</ele>
        <time>2026-07-31T12:19:42Z</time>
      </trkpt>
      <trkpt lat="41.40133102397839" lon="-81.74025380653222">
        <ele>266.3471064307</ele>
        <time>2026-07-31T12:19:43Z</time>
      </trkpt>
      <trkpt lat="41.40133184339832" lon="-81.74085438312093">
        <ele>266.2721424029</ele>
        <time>2026-07-31T12:20:19Z</time>
      </trkpt>
      <trkpt lat="41.40132650689815" lon="-81.74145278949283">
        <ele>265.9030270972</ele>
        <time>2026-07-31T12:20:55Z</time>
      </trkpt>
      <trkpt lat="41.40132267953019" lon="-81.74205432113794">
        <ele>265.1913846582</ele>
        <time>2026-07-31T12:21:31Z</time>
      </trkpt>
      <trkpt lat="41.40132271174481" lon="-81.74238004412236">
        <ele>264.7713980065</ele>
        <time>2026-07-31T12:21:56Z</time>
      </trkpt>
      <trkpt lat="41.40132439778665" lon="-81.74236764254540">
        <ele>264.7564101000</ele>
        <time>2026-07-31T12:21:57Z</time>
      </trkpt>
      <trkpt lat="41.40089701042076" lon="-81.74218410804920">
        <ele>264.9867084029</ele>
        <time>2026-07-31T12:22:30Z</time>
      </trkpt>
      <trkpt lat="41.40046831904135" lon="-81.74199545695072">
        <ele>265.2767404165</ele>
        <time>2026-07-31T12:23:17Z</time>
      </trkpt>
      <trkpt lat="41.40005213701711" lon="-81.74180202694605">
        <ele>265.3805922653</ele>
        <time>2026-07-31T12:23:56Z</time>
      </trkpt>
      <trkpt lat="41.39962710009941" lon="-81.74160437737682">
        <ele>264.4715292241</ele>
        <time>2026-07-31T12:24:43Z</time>
      </trkpt>
      <trkpt lat="41.39954568977510" lon="-81.74158548884259">
        <ele>264.9450518426</ele>
        <time>2026-07-31T12:24:49Z</time>
      </trkpt>
      <trkpt lat="41.39954773936447" lon="-81.74097656486339">
        <ele>265.8952693822</ele>
        <time>2026-07-31T12:25:23Z</time>
      </trkpt>
      <trkpt lat="41.39953846864483" lon="-81.74037210574369">
        <ele>266.1854886357</ele>
        <time>2026-07-31T12:26:13Z</time>
      </trkpt>
      <trkpt lat="41.39953723220951" lon="-81.73977103359131">
        <ele>266.6019005596</ele>
        <time>2026-07-31T12:26:53Z</time>
      </trkpt>
      <trkpt lat="41.39953767071714" lon="-81.73916758214094">
        <ele>266.7203148312</ele>
        <time>2026-07-31T12:27:37Z</time>
      </trkpt>
      <trkpt lat="41.39953607884510" lon="-81.73857328094132">
        <ele>266.7392841510</ele>
        <time>2026-07-31T12:28:25Z</time>
      </trkpt>
      <trkpt lat="41.39953274980044" lon="-81.73828970604229">
        <ele>266.9997940053</ele>
        <time>2026-07-31T12:28:45Z</time>
      </trkpt>
      <trkpt lat="41.39953302492570" lon="-81.73829514942197">
        <ele>266.8204096935</ele>
        <time>2026-07-31T12:28:46Z</time>
      </trkpt>
      <trkpt lat="41.39998594106596" lon="-81.73829434697406">
        <ele>267.1414904923</ele>
        <time>2026-07-31T12:29:19Z</time>
      </trkpt>
      <trkpt lat="41.40042919350415" lon="-81.73829099492693">
        <ele>267.0448759635</ele>
        <time>2026-07-31T12:29:57Z</time>
      </trkpt>
      <trkpt lat="41.40087798918700" lon="-81.73830787332015">
        <ele>267.6784706805</ele>
        <time>2026-07-31T12:30:52Z</time>
      </trkpt>
      <trkpt lat="41.40132645823624" lon="-81.73831348247086">
        <ele>267.5532237143</ele>
        <time>2026-07-31T12:31:26Z</time>
      </trkpt>
      <trkpt lat="41.40132400496633" lon="-81.73889467079105">
        <ele>267.4553000334</ele>
        <time>2026-07-31T12:32:10Z</time>
      </trkpt>
      <trkpt lat="41.40133403610399" lon="-81.73950358885956">
        <ele>267.2365823281</ele>
        <time>2026-07-31T12:32:53Z</time>
      </trkpt>
      <trkpt lat="41.40134223816398" lon="-81.74010547434517">
        <ele>266.5408338351</ele>
        <time>2026-07-31T12:33:33Z</time>
      </trkpt>
      <trkpt lat="41.40133913649851" lon="-81.74015099544394">
        <ele>266.3003071051</ele>
        <time>2026-07-31T12:33:36Z</time>
      </trkpt>
    </trkseg>
  </trk>
</gpx>