<?xml version='1.0' encoding='UTF-8'?>
<gpx xmlns="http://www.topografix.com/GPX/1/1" creator="https://gpx.studio" version="1.1">
  <metadata>
    <name>Dog Walk - 2026-07-09 #4</name>
  </metadata>
  <trk>
    <name>Dog Walk - 2026-07-09 #4</name>
    <type>dog walk</type>
    <trkseg>
      <trkpt lat="41.40134182717265" lon="-81.74023833259774">
        <ele>266.4617663285</ele>
        <time>2026-07-09T16:45:55Z</time>
      </trkpt>
      <trkpt lat="41.40134466576073" lon="-81.74083167240028">
        <ele>266.0038433141</ele>
        <time>2026-07-09T16:46:39Z</time>
      </trkpt>
      <trkpt lat="41.40133870524199" lon="-81.74143022258052">
        <ele>265.8540966165</ele>
        <time>2026-07-09T16:47:11Z</time>
      </trkpt>
      <trkpt lat="41.40132991728120" lon="-81.74203124136237">
        <ele>265.3698100757</ele>
        <time>2026-07-09T16:47:54Z</time>
      </trkpt>
      <trkpt lat="41.40132917547338" lon="-81.74239702608396">
        <ele>264.7213556103</ele>
        <time>2026-07-09T16:48:17Z</time>
      </trkpt>
      <trkpt lat="41.40091425496982" lon="-81.74218885809628">
        <ele>265.1935445008</ele>
        <time>2026-07-09T16:48:55Z</time>
      </trkpt>
      <trkpt lat="41.40049079269700" lon="-81.74197058043264">
        <ele>265.4362767042</ele>
        <time>2026-07-09T16:49:34Z</time>
      </trkpt>
      <trkpt lat="41.40045523192909" lon="-81.74194914849227">
        <ele>265.3696967574</ele>
        <time>2026-07-09T16:49:38Z</time>
      </trkpt>
      <trkpt lat="41.40043693703837" lon="-81.74135886204280">
        <ele>266.1042464888</ele>
        <time>2026-07-09T16:50:19Z</time>
      </trkpt>
      <trkpt lat="41.40044611789208" lon="-81.74075403075288">
        <ele>266.4413050974</ele>
        <time>2026-07-09T16:51:08Z</time>
      </trkpt>
      <trkpt lat="41.40043801503302" lon="-81.74014233946008">
        <ele>266.6496109196</ele>
        <time>2026-07-09T16:51:47Z</time>
      </trkpt>
      <trkpt lat="41.40042895574562" lon="-81.73954093495517">
        <ele>267.0230821538</ele>
        <time>2026-07-09T16:52:36Z</time>
      </trkpt>
      <trkpt lat="41.40042197106202" lon="-81.73895039345521">
        <ele>267.1439987070</ele>
        <time>2026-07-09T16:53:08Z</time>
      </trkpt>
      <trkpt lat="41.40042171401679" lon="-81.73836086624283">
        <ele>267.3259027627</ele>
        <time>2026-07-09T16:53:43Z</time>
      </trkpt>
      <trkpt lat="41.40041751744278" lon="-81.73774760939324">
        <ele>267.6634799112</ele>
        <time>2026-07-09T16:54:27Z</time>
      </trkpt>
      <trkpt lat="41.40041596784287" lon="-81.73716520303405">
        <ele>267.9656078090</ele>
        <time>2026-07-09T16:55:04Z</time>
      </trkpt>
      <trkpt lat="41.40040494425079" lon="-81.73656231667206">
        <ele>267.9920614802</ele>
        <time>2026-07-09T16:55:44Z</time>
      </trkpt>
      <trkpt lat="41.40040491896714" lon="-81.73595631098718">
        <ele>268.1366962739</ele>
        <time>2026-07-09T16:56:27Z</time>
      </trkpt>
      <trkpt lat="41.40039586194077" lon="-81.73535550954762">
        <ele>267.6921238687</ele>
        <time>2026-07-09T16:56:56Z</time>
      </trkpt>
      <trkpt lat="41.40039696159225" lon="-81.73475047835620">
        <ele>267.3532938239</ele>
        <time>2026-07-09T16:57:45Z</time>
      </trkpt>
      <trkpt lat="41.40039414962284" lon="-81.73463570654853">
        <ele>267.0715706222</ele>
        <time>2026-07-09T16:57:53Z</time>
      </trkpt>
      <trkpt lat="41.40084443228579" lon="-81.73463509824364">
        <ele>267.3922775552</ele>
        <time>2026-07-09T16:58:28Z</time>
      </trkpt>
      <trkpt lat="41.40128828924606" lon="-81.73462122231024">
        <ele>267.4210156407</ele>
        <time>2026-07-09T16:59:14Z</time>
      </trkpt>
      <trkpt lat="41.40131446343018" lon="-81.73464412941760">
        <ele>267.4424776655</ele>
        <time>2026-07-09T16:59:16Z</time>
      </trkpt>
      <trkpt lat="41.40132235727169" lon="-81.73524039651208">
        <ele>267.9305579044</ele>
        <time>2026-07-09T17:00:04Z</time>
      </trkpt>
      <trkpt lat="41.40132025049738" lon="-81.73582667291720">
        <ele>268.1309538853</ele>
        <time>2026-07-09T17:00:55Z</time>
      </trkpt>
      <trkpt lat="41.40132047933043" lon="-81.73643129574029">
        <ele>267.9361182247</ele>
        <time>2026-07-09T17:01:32Z</time>
      </trkpt>
      <trkpt lat="41.40132081317635" lon="-81.73703278307634">
        <ele>268.1539499803</ele>
        <time>2026-07-09T17:02:08Z</time>
      </trkpt>
      <trkpt lat="41.40132420609053" lon="-81.73763516325573">
        <ele>268.0044746510</ele>
        <time>2026-07-09T17:02:57Z</time>
      </trkpt>
      <trkpt lat="41.40133483304880" lon="-81.73823917030900">
        <ele>267.6652870754</ele>
        <time>2026-07-09T17:03:35Z</time>
      </trkpt>
      <trkpt lat="41.40133946737001" lon="-81.73882942461152">
        <ele>267.5301147202</ele>
        <time>2026-07-09T17:04:18Z</time>
      </trkpt>
      <trkpt lat="41.40134222207322" lon="-81.73943090614206">
        <ele>266.9344763480</ele>
        <time>2026-07-09T17:05:04Z</time>
      </trkpt>
      <trkpt lat="41.40134584320657" lon="-81.74002834188938">
        <ele>266.7452239000</ele>
        <time>2026-07-09T17:05:45Z</time>
      </trkpt>
      <trkpt lat="41.40134701958426" lon="-81.74019743698497">
        <ele>266.4388815049</ele>
        <time>2026-07-09T17:05:58Z</time>
      </trkpt>
    </trkseg>
  </trk>
</gpx>