<?xml version='1.0' encoding='UTF-8'?>
<gpx xmlns="http://www.topografix.com/GPX/1/1" creator="https://gpx.studio" version="1.1">
  <metadata>
    <name>Dog Walk - 2026-06-19 #3</name>
  </metadata>
  <trk>
    <name>Dog Walk - 2026-06-19 #3</name>
    <type>dog walk</type>
    <trkseg>
      <trkpt lat="41.40134003565336" lon="-81.74023699250323">
        <ele>266.4396122121</ele>
        <time>2026-06-19T14:47:37Z</time>
      </trkpt>
      <trkpt lat="41.40135347141389" lon="-81.74082933262214">
        <ele>266.2004088391</ele>
        <time>2026-06-19T14:48:11Z</time>
      </trkpt>
      <trkpt lat="41.40134519588872" lon="-81.74142990792264">
        <ele>265.7245086270</ele>
        <time>2026-06-19T14:48:55Z</time>
      </trkpt>
      <trkpt lat="41.40134920662345" lon="-81.74203780186485">
        <ele>265.1944577555</ele>
        <time>2026-06-19T14:49:41Z</time>
      </trkpt>
      <trkpt lat="41.40134340585637" lon="-81.74241246530273">
        <ele>264.7595937944</ele>
        <time>2026-06-19T14:50:05Z</time>
      </trkpt>
      <trkpt lat="41.40175981532568" lon="-81.74263194877848">
        <ele>264.1212462665</ele>
        <time>2026-06-19T14:50:51Z</time>
      </trkpt>
      <trkpt lat="41.40219108017101" lon="-81.74286112282275">
        <ele>263.4999250371</ele>
        <time>2026-06-19T14:51:32Z</time>
      </trkpt>
      <trkpt lat="41.40222052634950" lon="-81.74287484089001">
        <ele>263.4445378180</ele>
        <time>2026-06-19T14:51:51Z</time>
      </trkpt>
      <trkpt lat="41.40220913636082" lon="-81.74225746267808">
        <ele>264.1663646747</ele>
        <time>2026-06-19T14:52:33Z</time>
      </trkpt>
      <trkpt lat="41.40221411098995" lon="-81.74166369467453">
        <ele>264.5454509304</ele>
        <time>2026-06-19T14:53:04Z</time>
      </trkpt>
      <trkpt lat="41.40220907091818" lon="-81.74106680841699">
        <ele>265.7343056685</ele>
        <time>2026-06-19T14:53:47Z</time>
      </trkpt>
      <trkpt lat="41.40221804060619" lon="-81.74046910216987">
        <ele>266.0628927681</ele>
        <time>2026-06-19T14:54:26Z</time>
      </trkpt>
      <trkpt lat="41.40221378819061" lon="-81.73986187147042">
        <ele>266.4847061451</ele>
        <time>2026-06-19T14:55:11Z</time>
      </trkpt>
      <trkpt lat="41.40220966797129" lon="-81.73927380145489">
        <ele>266.8994149364</ele>
        <time>2026-06-19T14:55:53Z</time>
      </trkpt>
      <trkpt lat="41.40221427311444" lon="-81.73866968042363">
        <ele>267.2466388547</ele>
        <time>2026-06-19T14:56:36Z</time>
      </trkpt>
      <trkpt lat="41.40222281428264" lon="-81.73827452255249">
        <ele>267.1425939434</ele>
        <time>2026-06-19T14:57:06Z</time>
      </trkpt>
      <trkpt lat="41.40176814629637" lon="-81.73826785973466">
        <ele>267.7874755332</ele>
        <time>2026-06-19T14:58:03Z</time>
      </trkpt>
      <trkpt lat="41.40134638941420" lon="-81.73826277470043">
        <ele>267.5331171108</ele>
        <time>2026-06-19T14:58:35Z</time>
      </trkpt>
      <trkpt lat="41.40133747850404" lon="-81.73886657343553">
        <ele>267.2246762934</ele>
        <time>2026-06-19T14:59:19Z</time>
      </trkpt>
      <trkpt lat="41.40134215431973" lon="-81.73946371342538">
        <ele>267.1430899737</ele>
        <time>2026-06-19T14:59:56Z</time>
      </trkpt>
      <trkpt lat="41.40134400821859" lon="-81.74005862922033">
        <ele>266.7170623198</ele>
        <time>2026-06-19T15:00:39Z</time>
      </trkpt>
      <trkpt lat="41.40133439511939" lon="-81.74019541015070">
        <ele>266.5284841690</ele>
        <time>2026-06-19T15:00:46Z</time>
      </trkpt>
    </trkseg>
  </trk>
</gpx>