<?xml version='1.0' encoding='UTF-8'?>
<gpx xmlns="http://www.topografix.com/GPX/1/1" creator="https://gpx.studio" version="1.1">
  <metadata>
    <name>Dog Walk - 2026-05-21 #2</name>
  </metadata>
  <trk>
    <name>Dog Walk - 2026-05-21 #2</name>
    <type>dog walk</type>
    <trkseg>
      <trkpt lat="41.40133392998126" lon="-81.74024722593306">
        <ele>266.5244689418</ele>
        <time>2026-05-21T16:30:06Z</time>
      </trkpt>
      <trkpt lat="41.40132071854972" lon="-81.74083182351792">
        <ele>266.0003514626</ele>
        <time>2026-05-21T16:30:58Z</time>
      </trkpt>
      <trkpt lat="41.40133495444474" lon="-81.74143133201250">
        <ele>265.8102061116</ele>
        <time>2026-05-21T16:31:37Z</time>
      </trkpt>
      <trkpt lat="41.40133561865532" lon="-81.74202737878939">
        <ele>265.4200992685</ele>
        <time>2026-05-21T16:32:13Z</time>
      </trkpt>
      <trkpt lat="41.40132718987993" lon="-81.74238870617646">
        <ele>264.5902772767</ele>
        <time>2026-05-21T16:32:41Z</time>
      </trkpt>
      <trkpt lat="41.40089877859403" lon="-81.74220339596580">
        <ele>265.0424516970</ele>
        <time>2026-05-21T16:33:16Z</time>
      </trkpt>
      <trkpt lat="41.40048255385738" lon="-81.74200299916058">
        <ele>265.3105400893</ele>
        <time>2026-05-21T16:33:54Z</time>
      </trkpt>
      <trkpt lat="41.40006498913331" lon="-81.74181741714096">
        <ele>265.4089798956</ele>
        <time>2026-05-21T16:34:43Z</time>
      </trkpt>
      <trkpt lat="41.39962102904309" lon="-81.74162051638979">
        <ele>264.7326523981</ele>
        <time>2026-05-21T16:35:30Z</time>
      </trkpt>
      <trkpt lat="41.39954048994233" lon="-81.74157125640980">
        <ele>264.9230752496</ele>
        <time>2026-05-21T16:35:38Z</time>
      </trkpt>
      <trkpt lat="41.39953450450920" lon="-81.74097307823475">
        <ele>265.6663366547</ele>
        <time>2026-05-21T16:36:18Z</time>
      </trkpt>
      <trkpt lat="41.39953623216134" lon="-81.74037334504166">
        <ele>265.9749518809</ele>
        <time>2026-05-21T16:36:55Z</time>
      </trkpt>
      <trkpt lat="41.39952210166692" lon="-81.73977050244034">
        <ele>266.6371764981</ele>
        <time>2026-05-21T16:37:46Z</time>
      </trkpt>
      <trkpt lat="41.39953045981250" lon="-81.73917880926506">
        <ele>267.0026977953</ele>
        <time>2026-05-21T16:38:16Z</time>
      </trkpt>
      <trkpt lat="41.39952835597571" lon="-81.73856900029757">
        <ele>267.0606901770</ele>
        <time>2026-05-21T16:39:00Z</time>
      </trkpt>
      <trkpt lat="41.39951704906056" lon="-81.73798016419215">
        <ele>267.1728498044</ele>
        <time>2026-05-21T16:39:30Z</time>
      </trkpt>
      <trkpt lat="41.39953011449750" lon="-81.73737217927409">
        <ele>267.4608580364</ele>
        <time>2026-05-21T16:40:12Z</time>
      </trkpt>
      <trkpt lat="41.39953573351694" lon="-81.73677056392181">
        <ele>267.3182575444</ele>
        <time>2026-05-21T16:41:03Z</time>
      </trkpt>
      <trkpt lat="41.39953494760589" lon="-81.73618006869738">
        <ele>267.5562298180</ele>
        <time>2026-05-21T16:41:56Z</time>
      </trkpt>
      <trkpt lat="41.39952934160247" lon="-81.73558245845642">
        <ele>267.2728235581</ele>
        <time>2026-05-21T16:42:34Z</time>
      </trkpt>
      <trkpt lat="41.39952603389138" lon="-81.73497999149401">
        <ele>267.2299822768</ele>
        <time>2026-05-21T16:43:13Z</time>
      </trkpt>
      <trkpt lat="41.39953438146891" lon="-81.73461653815956">
        <ele>267.1156970868</ele>
        <time>2026-05-21T16:43:38Z</time>
      </trkpt>
      <trkpt lat="41.39997735972089" lon="-81.73461567749247">
        <ele>267.3104236204</ele>
        <time>2026-05-21T16:44:22Z</time>
      </trkpt>
      <trkpt lat="41.40042203970231" lon="-81.73463464252879">
        <ele>267.4706041080</ele>
        <time>2026-05-21T16:45:21Z</time>
      </trkpt>
      <trkpt lat="41.40087533898580" lon="-81.73463205341211">
        <ele>267.2458383208</ele>
        <time>2026-05-21T16:45:57Z</time>
      </trkpt>
      <trkpt lat="41.40131471271582" lon="-81.73464557435035">
        <ele>267.2816686895</ele>
        <time>2026-05-21T16:46:31Z</time>
      </trkpt>
      <trkpt lat="41.40132761361983" lon="-81.73524042964740">
        <ele>268.0399201907</ele>
        <time>2026-05-21T16:47:07Z</time>
      </trkpt>
      <trkpt lat="41.40132544873986" lon="-81.73583491021959">
        <ele>268.4043695554</ele>
        <time>2026-05-21T16:47:42Z</time>
      </trkpt>
      <trkpt lat="41.40131808166390" lon="-81.73643850129277">
        <ele>268.2861969629</ele>
        <time>2026-05-21T16:48:38Z</time>
      </trkpt>
      <trkpt lat="41.40132746664730" lon="-81.73703376920602">
        <ele>268.1777575950</ele>
        <time>2026-05-21T16:49:20Z</time>
      </trkpt>
      <trkpt lat="41.40132175229807" lon="-81.73763437641368">
        <ele>267.6347511699</ele>
        <time>2026-05-21T16:50:00Z</time>
      </trkpt>
      <trkpt lat="41.40132611406379" lon="-81.73824297329922">
        <ele>267.5176871016</ele>
        <time>2026-05-21T16:50:39Z</time>
      </trkpt>
      <trkpt lat="41.40133407554215" lon="-81.73883821782705">
        <ele>267.5955905118</ele>
        <time>2026-05-21T16:51:33Z</time>
      </trkpt>
      <trkpt lat="41.40132824770581" lon="-81.73943137582775">
        <ele>267.1079909789</ele>
        <time>2026-05-21T16:52:11Z</time>
      </trkpt>
      <trkpt lat="41.40133036992447" lon="-81.74003232426763">
        <ele>266.8015221272</ele>
        <time>2026-05-21T16:53:11Z</time>
      </trkpt>
      <trkpt lat="41.40133294173724" lon="-81.74021733017726">
        <ele>266.2554256691</ele>
        <time>2026-05-21T16:53:25Z</time>
      </trkpt>
    </trkseg>
  </trk>
</gpx>