<?xml version='1.0' encoding='UTF-8'?>
<gpx xmlns="http://www.topografix.com/GPX/1/1" creator="https://gpx.studio" version="1.1">
  <metadata>
    <name>Dog Walk - 2026-08-03 #1</name>
  </metadata>
  <trk>
    <name>Dog Walk - 2026-08-03 #1</name>
    <type>dog walk</type>
    <trkseg>
      <trkpt lat="41.40133513992124" lon="-81.74023444815157">
        <ele>266.5339378637</ele>
        <time>2026-08-03T06:38:56Z</time>
      </trkpt>
      <trkpt lat="41.40132765855574" lon="-81.74084130954417">
        <ele>266.1526336245</ele>
        <time>2026-08-03T06:39:33Z</time>
      </trkpt>
      <trkpt lat="41.40133551490297" lon="-81.74143337947842">
        <ele>265.8891813259</ele>
        <time>2026-08-03T06:40:21Z</time>
      </trkpt>
      <trkpt lat="41.40133184854508" lon="-81.74203555785424">
        <ele>265.3461195687</ele>
        <time>2026-08-03T06:41:11Z</time>
      </trkpt>
      <trkpt lat="41.40133747329071" lon="-81.74239424886780">
        <ele>264.9075661670</ele>
        <time>2026-08-03T06:41:42Z</time>
      </trkpt>
      <trkpt lat="41.40090095856377" lon="-81.74219391922118">
        <ele>264.9590839759</ele>
        <time>2026-08-03T06:42:18Z</time>
      </trkpt>
      <trkpt lat="41.40047442897696" lon="-81.74200385709895">
        <ele>265.2614635717</ele>
        <time>2026-08-03T06:42:53Z</time>
      </trkpt>
      <trkpt lat="41.40004832261399" lon="-81.74181671544022">
        <ele>265.4498955593</ele>
        <time>2026-08-03T06:43:33Z</time>
      </trkpt>
      <trkpt lat="41.39962949214361" lon="-81.74161156101991">
        <ele>264.6856914932</ele>
        <time>2026-08-03T06:44:18Z</time>
      </trkpt>
      <trkpt lat="41.39952320475215" lon="-81.74156903138386">
        <ele>264.7304865407</ele>
        <time>2026-08-03T06:44:27Z</time>
      </trkpt>
      <trkpt lat="41.39953778335762" lon="-81.74096428858795">
        <ele>265.4981784023</ele>
        <time>2026-08-03T06:45:09Z</time>
      </trkpt>
      <trkpt lat="41.39953049263183" lon="-81.74036695786722">
        <ele>266.1842499698</ele>
        <time>2026-08-03T06:45:50Z</time>
      </trkpt>
      <trkpt lat="41.39952271500429" lon="-81.73978541661670">
        <ele>266.6690960116</ele>
        <time>2026-08-03T06:46:21Z</time>
      </trkpt>
      <trkpt lat="41.39953707207910" lon="-81.73917109147627">
        <ele>267.1271592179</ele>
        <time>2026-08-03T06:47:06Z</time>
      </trkpt>
      <trkpt lat="41.39952617519729" lon="-81.73858387714370">
        <ele>266.9842979533</ele>
        <time>2026-08-03T06:47:52Z</time>
      </trkpt>
      <trkpt lat="41.39952757156870" lon="-81.73797093230220">
        <ele>266.8812769654</ele>
        <time>2026-08-03T06:48:47Z</time>
      </trkpt>
      <trkpt lat="41.39952470251833" lon="-81.73737431061969">
        <ele>267.3702086475</ele>
        <time>2026-08-03T06:49:40Z</time>
      </trkpt>
      <trkpt lat="41.39953117946602" lon="-81.73677220636191">
        <ele>267.2847510421</ele>
        <time>2026-08-03T06:50:25Z</time>
      </trkpt>
      <trkpt lat="41.39952339764525" lon="-81.73618460833033">
        <ele>267.4269808691</ele>
        <time>2026-08-03T06:50:59Z</time>
      </trkpt>
      <trkpt lat="41.39952357853787" lon="-81.73557597894273">
        <ele>267.3963916107</ele>
        <time>2026-08-03T06:51:56Z</time>
      </trkpt>
      <trkpt lat="41.39952051545883" lon="-81.73498396827591">
        <ele>267.3219962209</ele>
        <time>2026-08-03T06:52:31Z</time>
      </trkpt>
      <trkpt lat="41.39952172987542" lon="-81.73460902390948">
        <ele>267.2327058539</ele>
        <time>2026-08-03T06:52:53Z</time>
      </trkpt>
      <trkpt lat="41.39997401494114" lon="-81.73463357084707">
        <ele>267.0560906318</ele>
        <time>2026-08-03T06:53:33Z</time>
      </trkpt>
      <trkpt lat="41.40043129666054" lon="-81.73463467843128">
        <ele>267.1546390891</ele>
        <time>2026-08-03T06:54:07Z</time>
      </trkpt>
      <trkpt lat="41.40087709898566" lon="-81.73463648851576">
        <ele>267.3782462272</ele>
        <time>2026-08-03T06:54:53Z</time>
      </trkpt>
      <trkpt lat="41.40132416512031" lon="-81.73463881370859">
        <ele>267.2253495823</ele>
        <time>2026-08-03T06:55:28Z</time>
      </trkpt>
      <trkpt lat="41.40131880042555" lon="-81.73524141109795">
        <ele>267.6556549177</ele>
        <time>2026-08-03T06:56:17Z</time>
      </trkpt>
      <trkpt lat="41.40132347396732" lon="-81.73584590714613">
        <ele>268.3071937649</ele>
        <time>2026-08-03T06:57:07Z</time>
      </trkpt>
      <trkpt lat="41.40132901133698" lon="-81.73644085857094">
        <ele>267.9792982248</ele>
        <time>2026-08-03T06:57:53Z</time>
      </trkpt>
      <trkpt lat="41.40132242452194" lon="-81.73704318660036">
        <ele>268.2811223574</ele>
        <time>2026-08-03T06:58:29Z</time>
      </trkpt>
      <trkpt lat="41.40132712816163" lon="-81.73763467261756">
        <ele>267.8758792319</ele>
        <time>2026-08-03T06:59:08Z</time>
      </trkpt>
      <trkpt lat="41.40132657136185" lon="-81.73823151986115">
        <ele>267.5903602371</ele>
        <time>2026-08-03T06:59:54Z</time>
      </trkpt>
      <trkpt lat="41.40132498004616" lon="-81.73884691038013">
        <ele>267.2394514140</ele>
        <time>2026-08-03T07:00:37Z</time>
      </trkpt>
      <trkpt lat="41.40132479814415" lon="-81.73943133364725">
        <ele>267.3650974506</ele>
        <time>2026-08-03T07:01:37Z</time>
      </trkpt>
      <trkpt lat="41.40133242421179" lon="-81.74003816285298">
        <ele>266.6677547514</ele>
        <time>2026-08-03T07:02:08Z</time>
      </trkpt>
      <trkpt lat="41.40132790446598" lon="-81.74022391983799">
        <ele>266.4874814100</ele>
        <time>2026-08-03T07:02:38Z</time>
      </trkpt>
    </trkseg>
  </trk>
</gpx>