<?xml version='1.0' encoding='UTF-8'?>
<gpx xmlns="http://www.topografix.com/GPX/1/1" creator="https://gpx.studio" version="1.1">
  <metadata>
    <name>Dog Walk - 2026-03-25 #3</name>
  </metadata>
  <trk>
    <name>Dog Walk - 2026-03-25 #3</name>
    <type>dog walk</type>
    <trkseg>
      <trkpt lat="41.40134759883897" lon="-81.74023385243888">
        <ele>266.3392913596</ele>
        <time>2026-03-25T17:14:17Z</time>
      </trkpt>
      <trkpt lat="41.40133686850300" lon="-81.74082635769962">
        <ele>266.3169223531</ele>
        <time>2026-03-25T17:14:49Z</time>
      </trkpt>
      <trkpt lat="41.40132567276487" lon="-81.74142865406324">
        <ele>265.7837187993</ele>
        <time>2026-03-25T17:15:38Z</time>
      </trkpt>
      <trkpt lat="41.40133529370491" lon="-81.74202817843438">
        <ele>265.2701894190</ele>
        <time>2026-03-25T17:16:24Z</time>
      </trkpt>
      <trkpt lat="41.40133408517399" lon="-81.74238971815467">
        <ele>264.5189785301</ele>
        <time>2026-03-25T17:16:46Z</time>
      </trkpt>
      <trkpt lat="41.40091364519295" lon="-81.74217254435695">
        <ele>265.0858943717</ele>
        <time>2026-03-25T17:17:46Z</time>
      </trkpt>
      <trkpt lat="41.40048101341318" lon="-81.74197424833203">
        <ele>265.3844147210</ele>
        <time>2026-03-25T17:18:35Z</time>
      </trkpt>
      <trkpt lat="41.40044089400949" lon="-81.74194919869871">
        <ele>265.3600434219</ele>
        <time>2026-03-25T17:18:38Z</time>
      </trkpt>
      <trkpt lat="41.40044303560580" lon="-81.74135144493103">
        <ele>265.8972501976</ele>
        <time>2026-03-25T17:19:28Z</time>
      </trkpt>
      <trkpt lat="41.40044089584175" lon="-81.74075363533309">
        <ele>266.3294130234</ele>
        <time>2026-03-25T17:20:11Z</time>
      </trkpt>
      <trkpt lat="41.40043925216892" lon="-81.74014616509164">
        <ele>266.6500271331</ele>
        <time>2026-03-25T17:20:57Z</time>
      </trkpt>
      <trkpt lat="41.40043460306076" lon="-81.73955376300927">
        <ele>267.0247235517</ele>
        <time>2026-03-25T17:21:33Z</time>
      </trkpt>
      <trkpt lat="41.40042523566766" lon="-81.73893807336533">
        <ele>267.0820739975</ele>
        <time>2026-03-25T17:22:18Z</time>
      </trkpt>
      <trkpt lat="41.40041562652929" lon="-81.73835893652927">
        <ele>267.1566688984</ele>
        <time>2026-03-25T17:22:52Z</time>
      </trkpt>
      <trkpt lat="41.40042289601889" lon="-81.73775725048050">
        <ele>267.7273271329</ele>
        <time>2026-03-25T17:23:26Z</time>
      </trkpt>
      <trkpt lat="41.40042133532062" lon="-81.73714469664813">
        <ele>268.1298268778</ele>
        <time>2026-03-25T17:24:01Z</time>
      </trkpt>
      <trkpt lat="41.40040737018478" lon="-81.73656487578099">
        <ele>268.1307443540</ele>
        <time>2026-03-25T17:24:48Z</time>
      </trkpt>
      <trkpt lat="41.40039862273802" lon="-81.73595400608187">
        <ele>267.9912045480</ele>
        <time>2026-03-25T17:25:48Z</time>
      </trkpt>
      <trkpt lat="41.40039539686713" lon="-81.73535168292237">
        <ele>267.9218006761</ele>
        <time>2026-03-25T17:26:27Z</time>
      </trkpt>
      <trkpt lat="41.40038261295099" lon="-81.73474625430654">
        <ele>267.5653893826</ele>
        <time>2026-03-25T17:27:24Z</time>
      </trkpt>
      <trkpt lat="41.40039514457575" lon="-81.73463401952948">
        <ele>267.2657420666</ele>
        <time>2026-03-25T17:27:31Z</time>
      </trkpt>
      <trkpt lat="41.40083892448545" lon="-81.73462787716990">
        <ele>267.2548892238</ele>
        <time>2026-03-25T17:28:10Z</time>
      </trkpt>
      <trkpt lat="41.40129016867066" lon="-81.73463527143687">
        <ele>267.2660198476</ele>
        <time>2026-03-25T17:28:51Z</time>
      </trkpt>
      <trkpt lat="41.40131685268375" lon="-81.73462938565837">
        <ele>267.2932352522</ele>
        <time>2026-03-25T17:29:11Z</time>
      </trkpt>
      <trkpt lat="41.40132127944386" lon="-81.73522733786140">
        <ele>267.8717482067</ele>
        <time>2026-03-25T17:29:52Z</time>
      </trkpt>
      <trkpt lat="41.40131768591587" lon="-81.73583616547825">
        <ele>268.0560339336</ele>
        <time>2026-03-25T17:30:26Z</time>
      </trkpt>
      <trkpt lat="41.40132418935415" lon="-81.73643345002293">
        <ele>268.3318083505</ele>
        <time>2026-03-25T17:31:03Z</time>
      </trkpt>
      <trkpt lat="41.40132529150331" lon="-81.73702895607991">
        <ele>268.0541956422</ele>
        <time>2026-03-25T17:31:38Z</time>
      </trkpt>
      <trkpt lat="41.40133025431050" lon="-81.73762716012483">
        <ele>268.1059610217</ele>
        <time>2026-03-25T17:32:10Z</time>
      </trkpt>
      <trkpt lat="41.40134029643580" lon="-81.73823503423667">
        <ele>267.5808642782</ele>
        <time>2026-03-25T17:32:57Z</time>
      </trkpt>
      <trkpt lat="41.40133492097751" lon="-81.73883656511175">
        <ele>267.2791978852</ele>
        <time>2026-03-25T17:33:39Z</time>
      </trkpt>
      <trkpt lat="41.40133894131135" lon="-81.73943372219937">
        <ele>267.1923502570</ele>
        <time>2026-03-25T17:34:11Z</time>
      </trkpt>
      <trkpt lat="41.40134463470016" lon="-81.74002050135205">
        <ele>266.7497222519</ele>
        <time>2026-03-25T17:34:45Z</time>
      </trkpt>
      <trkpt lat="41.40134240860030" lon="-81.74020005214712">
        <ele>266.6778947144</ele>
        <time>2026-03-25T17:34:57Z</time>
      </trkpt>
    </trkseg>
  </trk>
</gpx>