<?xml version='1.0' encoding='UTF-8'?>
<gpx xmlns="http://www.topografix.com/GPX/1/1" creator="https://gpx.studio" version="1.1">
  <metadata>
    <name>Dog Walk - 2026-04-30 #3</name>
  </metadata>
  <trk>
    <name>Dog Walk - 2026-04-30 #3</name>
    <type>dog walk</type>
    <trkseg>
      <trkpt lat="41.40134894349242" lon="-81.74023851820650">
        <ele>266.4622798491</ele>
        <time>2026-04-30T14:39:45Z</time>
      </trkpt>
      <trkpt lat="41.40134334879395" lon="-81.74082522949166">
        <ele>266.2246357647</ele>
        <time>2026-04-30T14:40:21Z</time>
      </trkpt>
      <trkpt lat="41.40133385307058" lon="-81.74143035016827">
        <ele>265.9644638965</ele>
        <time>2026-04-30T14:41:02Z</time>
      </trkpt>
      <trkpt lat="41.40134086734654" lon="-81.74203527111467">
        <ele>265.2390823337</ele>
        <time>2026-04-30T14:41:40Z</time>
      </trkpt>
      <trkpt lat="41.40133144060019" lon="-81.74238582116233">
        <ele>264.8099485473</ele>
        <time>2026-04-30T14:42:03Z</time>
      </trkpt>
      <trkpt lat="41.40090792984269" lon="-81.74218026139222">
        <ele>265.1451474521</ele>
        <time>2026-04-30T14:42:48Z</time>
      </trkpt>
      <trkpt lat="41.40048846814926" lon="-81.74197267237679">
        <ele>265.2851775941</ele>
        <time>2026-04-30T14:43:24Z</time>
      </trkpt>
      <trkpt lat="41.40045479433907" lon="-81.74195041339834">
        <ele>265.3209913451</ele>
        <time>2026-04-30T14:43:27Z</time>
      </trkpt>
      <trkpt lat="41.40044170834501" lon="-81.74135383889383">
        <ele>265.8191684915</ele>
        <time>2026-04-30T14:44:06Z</time>
      </trkpt>
      <trkpt lat="41.40043750907736" lon="-81.74075591940634">
        <ele>266.5812668931</ele>
        <time>2026-04-30T14:44:45Z</time>
      </trkpt>
      <trkpt lat="41.40043765298282" lon="-81.74014551557489">
        <ele>266.6597345086</ele>
        <time>2026-04-30T14:45:21Z</time>
      </trkpt>
      <trkpt lat="41.40044044199602" lon="-81.73955153884650">
        <ele>267.0394172800</ele>
        <time>2026-04-30T14:46:22Z</time>
      </trkpt>
      <trkpt lat="41.40042586196603" lon="-81.73895102566701">
        <ele>267.0437816335</ele>
        <time>2026-04-30T14:47:02Z</time>
      </trkpt>
      <trkpt lat="41.40041924557512" lon="-81.73834715853545">
        <ele>267.6450583147</ele>
        <time>2026-04-30T14:47:52Z</time>
      </trkpt>
      <trkpt lat="41.40041400019859" lon="-81.73776111408684">
        <ele>267.6544191604</ele>
        <time>2026-04-30T14:48:25Z</time>
      </trkpt>
      <trkpt lat="41.40041465703963" lon="-81.73714724617611">
        <ele>267.8726504666</ele>
        <time>2026-04-30T14:49:15Z</time>
      </trkpt>
      <trkpt lat="41.40040806460640" lon="-81.73655519296206">
        <ele>268.1849242871</ele>
        <time>2026-04-30T14:49:51Z</time>
      </trkpt>
      <trkpt lat="41.40040451279194" lon="-81.73594659430586">
        <ele>268.1817811024</ele>
        <time>2026-04-30T14:50:30Z</time>
      </trkpt>
      <trkpt lat="41.40040581217311" lon="-81.73535634330119">
        <ele>267.8662771366</ele>
        <time>2026-04-30T14:51:13Z</time>
      </trkpt>
      <trkpt lat="41.40039199385508" lon="-81.73475471593167">
        <ele>267.4547174757</ele>
        <time>2026-04-30T14:51:50Z</time>
      </trkpt>
      <trkpt lat="41.40039567393731" lon="-81.73462351299484">
        <ele>267.3197143205</ele>
        <time>2026-04-30T14:51:57Z</time>
      </trkpt>
      <trkpt lat="41.40084792562099" lon="-81.73462506399626">
        <ele>267.3399376118</ele>
        <time>2026-04-30T14:52:47Z</time>
      </trkpt>
      <trkpt lat="41.40129695633272" lon="-81.73462121735813">
        <ele>267.5033488763</ele>
        <time>2026-04-30T14:53:50Z</time>
      </trkpt>
      <trkpt lat="41.40131928169854" lon="-81.73462598426968">
        <ele>267.3505443050</ele>
        <time>2026-04-30T14:53:53Z</time>
      </trkpt>
      <trkpt lat="41.40131324223535" lon="-81.73523467714504">
        <ele>268.0133308897</ele>
        <time>2026-04-30T14:54:37Z</time>
      </trkpt>
      <trkpt lat="41.40133106134901" lon="-81.73583464503437">
        <ele>268.2631782119</ele>
        <time>2026-04-30T14:55:41Z</time>
      </trkpt>
      <trkpt lat="41.40132361256389" lon="-81.73642408434731">
        <ele>268.0077721944</ele>
        <time>2026-04-30T14:56:19Z</time>
      </trkpt>
      <trkpt lat="41.40132786123885" lon="-81.73703785382342">
        <ele>267.9248830457</ele>
        <time>2026-04-30T14:56:58Z</time>
      </trkpt>
      <trkpt lat="41.40133744943566" lon="-81.73763781826472">
        <ele>267.9184253107</ele>
        <time>2026-04-30T14:57:46Z</time>
      </trkpt>
      <trkpt lat="41.40133228749420" lon="-81.73823049048318">
        <ele>267.4526235688</ele>
        <time>2026-04-30T14:58:33Z</time>
      </trkpt>
      <trkpt lat="41.40134333660467" lon="-81.73883486566530">
        <ele>267.5086919834</ele>
        <time>2026-04-30T14:59:29Z</time>
      </trkpt>
      <trkpt lat="41.40134303799121" lon="-81.73943070990421">
        <ele>266.8745007549</ele>
        <time>2026-04-30T15:00:11Z</time>
      </trkpt>
      <trkpt lat="41.40133757653815" lon="-81.74002574024149">
        <ele>266.7367842091</ele>
        <time>2026-04-30T15:00:56Z</time>
      </trkpt>
      <trkpt lat="41.40134831530318" lon="-81.74019400151637">
        <ele>266.7003465983</ele>
        <time>2026-04-30T15:01:09Z</time>
      </trkpt>
    </trkseg>
  </trk>
</gpx>