<?xml version='1.0' encoding='UTF-8'?>
<gpx xmlns="http://www.topografix.com/GPX/1/1" creator="https://gpx.studio" version="1.1">
  <metadata>
    <name>Dog Walk - 2026-09-08 #2</name>
  </metadata>
  <trk>
    <name>Dog Walk - 2026-09-08 #2</name>
    <type>dog walk</type>
    <trkseg>
      <trkpt lat="41.40133994951083" lon="-81.74022722729522">
        <ele>266.4355451659</ele>
        <time>2026-09-08T13:42:22Z</time>
      </trkpt>
      <trkpt lat="41.40134225490463" lon="-81.74084078963170">
        <ele>266.3258529471</ele>
        <time>2026-09-08T13:42:55Z</time>
      </trkpt>
      <trkpt lat="41.40134533164493" lon="-81.74145314414011">
        <ele>265.6912675491</ele>
        <time>2026-09-08T13:43:34Z</time>
      </trkpt>
      <trkpt lat="41.40135119609464" lon="-81.74203074422728">
        <ele>265.4588938652</ele>
        <time>2026-09-08T13:44:02Z</time>
      </trkpt>
      <trkpt lat="41.40134876184324" lon="-81.74241105995279">
        <ele>264.5795799350</ele>
        <time>2026-09-08T13:44:32Z</time>
      </trkpt>
      <trkpt lat="41.40176258123780" lon="-81.74263329821082">
        <ele>264.0733162164</ele>
        <time>2026-09-08T13:45:13Z</time>
      </trkpt>
      <trkpt lat="41.40218668157830" lon="-81.74284617937118">
        <ele>263.5920365901</ele>
        <time>2026-09-08T13:46:14Z</time>
      </trkpt>
      <trkpt lat="41.40221153023246" lon="-81.74286546327446">
        <ele>263.2706225095</ele>
        <time>2026-09-08T13:46:16Z</time>
      </trkpt>
      <trkpt lat="41.40221569083015" lon="-81.74226796191323">
        <ele>264.2143999876</ele>
        <time>2026-09-08T13:46:56Z</time>
      </trkpt>
      <trkpt lat="41.40222070055178" lon="-81.74167111299913">
        <ele>264.8522780545</ele>
        <time>2026-09-08T13:47:45Z</time>
      </trkpt>
      <trkpt lat="41.40221392122725" lon="-81.74106491452579">
        <ele>265.4779864979</ele>
        <time>2026-09-08T13:48:18Z</time>
      </trkpt>
      <trkpt lat="41.40222547069332" lon="-81.74046704673377">
        <ele>266.2718454894</ele>
        <time>2026-09-08T13:49:17Z</time>
      </trkpt>
      <trkpt lat="41.40221423409092" lon="-81.73987130760474">
        <ele>266.5274347739</ele>
        <time>2026-09-08T13:49:54Z</time>
      </trkpt>
      <trkpt lat="41.40221213518648" lon="-81.73926580505469">
        <ele>266.7066312149</ele>
        <time>2026-09-08T13:50:40Z</time>
      </trkpt>
      <trkpt lat="41.40221293397027" lon="-81.73866856441683">
        <ele>267.0666059600</ele>
        <time>2026-09-08T13:51:18Z</time>
      </trkpt>
      <trkpt lat="41.40221726668361" lon="-81.73827570752580">
        <ele>267.0400252600</ele>
        <time>2026-09-08T13:52:08Z</time>
      </trkpt>
      <trkpt lat="41.40177676143394" lon="-81.73826610639060">
        <ele>267.6313973717</ele>
        <time>2026-09-08T13:52:45Z</time>
      </trkpt>
      <trkpt lat="41.40134284238308" lon="-81.73825860238192">
        <ele>267.4480188289</ele>
        <time>2026-09-08T13:53:24Z</time>
      </trkpt>
      <trkpt lat="41.40134312619132" lon="-81.73885979798256">
        <ele>267.3566156131</ele>
        <time>2026-09-08T13:54:32Z</time>
      </trkpt>
      <trkpt lat="41.40133952518296" lon="-81.73945469591520">
        <ele>267.5731559571</ele>
        <time>2026-09-08T13:55:07Z</time>
      </trkpt>
      <trkpt lat="41.40133969949206" lon="-81.74005695394668">
        <ele>266.6043363079</ele>
        <time>2026-09-08T13:55:36Z</time>
      </trkpt>
      <trkpt lat="41.40133799615644" lon="-81.74019215200039">
        <ele>266.5374365804</ele>
        <time>2026-09-08T13:55:45Z</time>
      </trkpt>
    </trkseg>
  </trk>
</gpx>