<?xml version='1.0' encoding='UTF-8'?>
<gpx xmlns="http://www.topografix.com/GPX/1/1" creator="https://gpx.studio" version="1.1">
  <metadata>
    <name>Dog Walk - 2026-03-21 #2</name>
  </metadata>
  <trk>
    <name>Dog Walk - 2026-03-21 #2</name>
    <type>dog walk</type>
    <trkseg>
      <trkpt lat="41.40134227554811" lon="-81.74022997913796">
        <ele>266.5028134868</ele>
        <time>2026-03-21T09:49:37Z</time>
      </trkpt>
      <trkpt lat="41.40133816325259" lon="-81.74083364306378">
        <ele>266.3718139792</ele>
        <time>2026-03-21T09:50:13Z</time>
      </trkpt>
      <trkpt lat="41.40134675739177" lon="-81.74143708416376">
        <ele>265.7152681668</ele>
        <time>2026-03-21T09:50:50Z</time>
      </trkpt>
      <trkpt lat="41.40134444919919" lon="-81.74203782337369">
        <ele>265.2728451068</ele>
        <time>2026-03-21T09:51:32Z</time>
      </trkpt>
      <trkpt lat="41.40135132238068" lon="-81.74241771771835">
        <ele>264.9287996787</ele>
        <time>2026-03-21T09:51:57Z</time>
      </trkpt>
      <trkpt lat="41.40176851408474" lon="-81.74264026823087">
        <ele>264.2264812805</ele>
        <time>2026-03-21T09:52:47Z</time>
      </trkpt>
      <trkpt lat="41.40219364922350" lon="-81.74286819836090">
        <ele>263.3740757542</ele>
        <time>2026-03-21T09:53:30Z</time>
      </trkpt>
      <trkpt lat="41.40221541800511" lon="-81.74286870868836">
        <ele>263.4312041942</ele>
        <time>2026-03-21T09:53:32Z</time>
      </trkpt>
      <trkpt lat="41.40221720873103" lon="-81.74226559797390">
        <ele>264.0975465895</ele>
        <time>2026-03-21T09:54:08Z</time>
      </trkpt>
      <trkpt lat="41.40222124816302" lon="-81.74166203564802">
        <ele>264.6708895083</ele>
        <time>2026-03-21T09:54:54Z</time>
      </trkpt>
      <trkpt lat="41.40222432403799" lon="-81.74107816975429">
        <ele>265.4770243950</ele>
        <time>2026-03-21T09:55:31Z</time>
      </trkpt>
      <trkpt lat="41.40221725688036" lon="-81.74045954201584">
        <ele>265.9538902988</ele>
        <time>2026-03-21T09:56:03Z</time>
      </trkpt>
      <trkpt lat="41.40222076060810" lon="-81.73986317880706">
        <ele>266.5130856518</ele>
        <time>2026-03-21T09:56:40Z</time>
      </trkpt>
      <trkpt lat="41.40222417574807" lon="-81.73926650272274">
        <ele>267.1216660934</ele>
        <time>2026-03-21T09:57:22Z</time>
      </trkpt>
      <trkpt lat="41.40222803231854" lon="-81.73866362159441">
        <ele>267.3429299522</ele>
        <time>2026-03-21T09:58:03Z</time>
      </trkpt>
      <trkpt lat="41.40221280189936" lon="-81.73827907665726">
        <ele>267.0539868230</ele>
        <time>2026-03-21T09:58:33Z</time>
      </trkpt>
      <trkpt lat="41.40177133353300" lon="-81.73825649171154">
        <ele>267.7954301219</ele>
        <time>2026-03-21T09:59:09Z</time>
      </trkpt>
      <trkpt lat="41.40133334036558" lon="-81.73825239590974">
        <ele>267.5501944161</ele>
        <time>2026-03-21T09:59:55Z</time>
      </trkpt>
      <trkpt lat="41.40133614995057" lon="-81.73886233987297">
        <ele>267.3652998515</ele>
        <time>2026-03-21T10:00:27Z</time>
      </trkpt>
      <trkpt lat="41.40134464730958" lon="-81.73946865042210">
        <ele>267.2691012998</ele>
        <time>2026-03-21T10:01:07Z</time>
      </trkpt>
      <trkpt lat="41.40134585848447" lon="-81.74006196730680">
        <ele>266.5572805981</ele>
        <time>2026-03-21T10:01:50Z</time>
      </trkpt>
      <trkpt lat="41.40133718501195" lon="-81.74018876179014">
        <ele>266.5740051071</ele>
        <time>2026-03-21T10:02:04Z</time>
      </trkpt>
    </trkseg>
  </trk>
</gpx>