<?xml version='1.0' encoding='UTF-8'?>
<gpx xmlns="http://www.topografix.com/GPX/1/1" creator="https://gpx.studio" version="1.1">
  <metadata>
    <name>Dog Walk - 2026-09-08 #1</name>
  </metadata>
  <trk>
    <name>Dog Walk - 2026-09-08 #1</name>
    <type>dog walk</type>
    <trkseg>
      <trkpt lat="41.40133436345465" lon="-81.74022819301850">
        <ele>266.3053483659</ele>
        <time>2026-09-08T07:32:26Z</time>
      </trkpt>
      <trkpt lat="41.40134498187215" lon="-81.74083380548510">
        <ele>266.2716122173</ele>
        <time>2026-09-08T07:33:01Z</time>
      </trkpt>
      <trkpt lat="41.40134729047824" lon="-81.74143121507767">
        <ele>265.7469047614</ele>
        <time>2026-09-08T07:33:43Z</time>
      </trkpt>
      <trkpt lat="41.40134379943946" lon="-81.74203149778205">
        <ele>265.3840132114</ele>
        <time>2026-09-08T07:34:29Z</time>
      </trkpt>
      <trkpt lat="41.40134980939306" lon="-81.74241035627962">
        <ele>264.6091183578</ele>
        <time>2026-09-08T07:34:58Z</time>
      </trkpt>
      <trkpt lat="41.40176701767154" lon="-81.74262295396441">
        <ele>264.0801767707</ele>
        <time>2026-09-08T07:35:43Z</time>
      </trkpt>
      <trkpt lat="41.40219171525566" lon="-81.74283186229592">
        <ele>263.7380876973</ele>
        <time>2026-09-08T07:36:41Z</time>
      </trkpt>
      <trkpt lat="41.40260715668606" lon="-81.74305511574481">
        <ele>262.9402887738</ele>
        <time>2026-09-08T07:37:35Z</time>
      </trkpt>
      <trkpt lat="41.40303104479879" lon="-81.74326604398465">
        <ele>262.4446274699</ele>
        <time>2026-09-08T07:38:17Z</time>
      </trkpt>
      <trkpt lat="41.40345139650162" lon="-81.74347695870296">
        <ele>261.8654002546</ele>
        <time>2026-09-08T07:38:58Z</time>
      </trkpt>
      <trkpt lat="41.40349176209390" lon="-81.74350819112749">
        <ele>261.8401361081</ele>
        <time>2026-09-08T07:39:04Z</time>
      </trkpt>
      <trkpt lat="41.40359583833788" lon="-81.74352622526700">
        <ele>261.8622050621</ele>
        <time>2026-09-08T07:39:13Z</time>
      </trkpt>
      <trkpt lat="41.40399192179241" lon="-81.74350884968372">
        <ele>260.8886992939</ele>
        <time>2026-09-08T07:39:40Z</time>
      </trkpt>
      <trkpt lat="41.40399331524746" lon="-81.74290971512764">
        <ele>261.6214689044</ele>
        <time>2026-09-08T07:40:26Z</time>
      </trkpt>
      <trkpt lat="41.40400273737687" lon="-81.74230697122667">
        <ele>262.1751395800</ele>
        <time>2026-09-08T07:40:59Z</time>
      </trkpt>
      <trkpt lat="41.40398881512709" lon="-81.74171072627792">
        <ele>262.4192087511</ele>
        <time>2026-09-08T07:41:32Z</time>
      </trkpt>
      <trkpt lat="41.40398867600849" lon="-81.74110449706717">
        <ele>263.0812283184</ele>
        <time>2026-09-08T07:42:34Z</time>
      </trkpt>
      <trkpt lat="41.40399273576648" lon="-81.74050053189154">
        <ele>263.4608646516</ele>
        <time>2026-09-08T07:43:30Z</time>
      </trkpt>
      <trkpt lat="41.40398120121905" lon="-81.73991926592913">
        <ele>264.2760426610</ele>
        <time>2026-09-08T07:44:05Z</time>
      </trkpt>
      <trkpt lat="41.40398515684541" lon="-81.73930425184429">
        <ele>265.0204430511</ele>
        <time>2026-09-08T07:44:49Z</time>
      </trkpt>
      <trkpt lat="41.40398288825440" lon="-81.73877933594733">
        <ele>265.4250871769</ele>
        <time>2026-09-08T07:45:22Z</time>
      </trkpt>
      <trkpt lat="41.40354021336613" lon="-81.73876908485973">
        <ele>265.9063830525</ele>
        <time>2026-09-08T07:46:05Z</time>
      </trkpt>
      <trkpt lat="41.40308524288660" lon="-81.73877541737173">
        <ele>266.0070114996</ele>
        <time>2026-09-08T07:47:08Z</time>
      </trkpt>
      <trkpt lat="41.40262905346225" lon="-81.73877204210056">
        <ele>266.7295891779</ele>
        <time>2026-09-08T07:47:55Z</time>
      </trkpt>
      <trkpt lat="41.40223314022892" lon="-81.73876939410752">
        <ele>267.1734092884</ele>
        <time>2026-09-08T07:48:34Z</time>
      </trkpt>
      <trkpt lat="41.40221411695435" lon="-81.73827434393760">
        <ele>267.0961134002</ele>
        <time>2026-09-08T07:49:11Z</time>
      </trkpt>
      <trkpt lat="41.40175981903229" lon="-81.73826686793755">
        <ele>267.8712061953</ele>
        <time>2026-09-08T07:49:45Z</time>
      </trkpt>
      <trkpt lat="41.40133547163278" lon="-81.73827251121725">
        <ele>267.6221386841</ele>
        <time>2026-09-08T07:50:20Z</time>
      </trkpt>
      <trkpt lat="41.40133897283886" lon="-81.73887700674264">
        <ele>267.4191060877</ele>
        <time>2026-09-08T07:51:05Z</time>
      </trkpt>
      <trkpt lat="41.40133710669029" lon="-81.73945950137728">
        <ele>267.3387820923</ele>
        <time>2026-09-08T07:51:43Z</time>
      </trkpt>
      <trkpt lat="41.40133362628453" lon="-81.74005442834556">
        <ele>266.6668482007</ele>
        <time>2026-09-08T07:52:33Z</time>
      </trkpt>
      <trkpt lat="41.40134488072515" lon="-81.74021031370762">
        <ele>266.4147617297</ele>
        <time>2026-09-08T07:52:49Z</time>
      </trkpt>
    </trkseg>
  </trk>
</gpx>