<?xml version='1.0' encoding='UTF-8'?>
<gpx xmlns="http://www.topografix.com/GPX/1/1" creator="https://gpx.studio" version="1.1">
  <metadata>
    <name>Dog Walk - 2026-02-17 #3</name>
  </metadata>
  <trk>
    <name>Dog Walk - 2026-02-17 #3</name>
    <type>dog walk</type>
    <trkseg>
      <trkpt lat="41.40133829544072" lon="-81.74023125521933">
        <ele>266.6799598344</ele>
        <time>2026-02-17T18:19:29Z</time>
      </trkpt>
      <trkpt lat="41.40133903709295" lon="-81.74083310526053">
        <ele>266.2843070215</ele>
        <time>2026-02-17T18:20:07Z</time>
      </trkpt>
      <trkpt lat="41.40134277970375" lon="-81.74142677668775">
        <ele>265.8118795636</ele>
        <time>2026-02-17T18:20:46Z</time>
      </trkpt>
      <trkpt lat="41.40134940792073" lon="-81.74203315746203">
        <ele>265.2166351884</ele>
        <time>2026-02-17T18:21:21Z</time>
      </trkpt>
      <trkpt lat="41.40134422069883" lon="-81.74241014910378">
        <ele>264.8135784037</ele>
        <time>2026-02-17T18:21:50Z</time>
      </trkpt>
      <trkpt lat="41.40177084597892" lon="-81.74262598558276">
        <ele>264.1818637400</ele>
        <time>2026-02-17T18:22:41Z</time>
      </trkpt>
      <trkpt lat="41.40218521729621" lon="-81.74285182739301">
        <ele>263.5026785006</ele>
        <time>2026-02-17T18:23:30Z</time>
      </trkpt>
      <trkpt lat="41.40261164933503" lon="-81.74305409219481">
        <ele>262.9771018937</ele>
        <time>2026-02-17T18:24:07Z</time>
      </trkpt>
      <trkpt lat="41.40302445687308" lon="-81.74325555475382">
        <ele>262.1838890931</ele>
        <time>2026-02-17T18:25:10Z</time>
      </trkpt>
      <trkpt lat="41.40344650831218" lon="-81.74348287906605">
        <ele>261.9436501149</ele>
        <time>2026-02-17T18:25:45Z</time>
      </trkpt>
      <trkpt lat="41.40349791923519" lon="-81.74348326022510">
        <ele>261.7362660047</ele>
        <time>2026-02-17T18:25:50Z</time>
      </trkpt>
      <trkpt lat="41.40359357270271" lon="-81.74352483129266">
        <ele>261.7384761347</ele>
        <time>2026-02-17T18:25:59Z</time>
      </trkpt>
      <trkpt lat="41.40400054782346" lon="-81.74350615249857">
        <ele>260.6774433981</ele>
        <time>2026-02-17T18:26:34Z</time>
      </trkpt>
      <trkpt lat="41.40399616320747" lon="-81.74290619273128">
        <ele>261.4739777688</ele>
        <time>2026-02-17T18:27:18Z</time>
      </trkpt>
      <trkpt lat="41.40399310397677" lon="-81.74231163411153">
        <ele>262.2369552220</ele>
        <time>2026-02-17T18:27:57Z</time>
      </trkpt>
      <trkpt lat="41.40399232945864" lon="-81.74170818925523">
        <ele>262.4044314734</ele>
        <time>2026-02-17T18:28:33Z</time>
      </trkpt>
      <trkpt lat="41.40399525245712" lon="-81.74110242291860">
        <ele>262.7394746240</ele>
        <time>2026-02-17T18:29:17Z</time>
      </trkpt>
      <trkpt lat="41.40398461730506" lon="-81.74050991071600">
        <ele>263.5673961243</ele>
        <time>2026-02-17T18:30:12Z</time>
      </trkpt>
      <trkpt lat="41.40398704948564" lon="-81.73992228029363">
        <ele>264.2576139231</ele>
        <time>2026-02-17T18:30:49Z</time>
      </trkpt>
      <trkpt lat="41.40399183944781" lon="-81.73931087677686">
        <ele>264.8085282066</ele>
        <time>2026-02-17T18:31:36Z</time>
      </trkpt>
      <trkpt lat="41.40398853679427" lon="-81.73877172715274">
        <ele>265.4179034302</ele>
        <time>2026-02-17T18:32:15Z</time>
      </trkpt>
      <trkpt lat="41.40353092105747" lon="-81.73877710538514">
        <ele>265.6545399054</ele>
        <time>2026-02-17T18:32:51Z</time>
      </trkpt>
      <trkpt lat="41.40308296103051" lon="-81.73878537012882">
        <ele>266.4515293463</ele>
        <time>2026-02-17T18:33:40Z</time>
      </trkpt>
      <trkpt lat="41.40264035883197" lon="-81.73876528647558">
        <ele>266.6190811605</ele>
        <time>2026-02-17T18:34:17Z</time>
      </trkpt>
      <trkpt lat="41.40223424363093" lon="-81.73878343777034">
        <ele>267.3123687932</ele>
        <time>2026-02-17T18:34:59Z</time>
      </trkpt>
      <trkpt lat="41.40221117699183" lon="-81.73827979818583">
        <ele>267.1999900611</ele>
        <time>2026-02-17T18:35:31Z</time>
      </trkpt>
      <trkpt lat="41.40176330396805" lon="-81.73826918588088">
        <ele>267.7461731757</ele>
        <time>2026-02-17T18:36:09Z</time>
      </trkpt>
      <trkpt lat="41.40133415676221" lon="-81.73826319677121">
        <ele>267.4909147496</ele>
        <time>2026-02-17T18:36:51Z</time>
      </trkpt>
      <trkpt lat="41.40133888174098" lon="-81.73885758855779">
        <ele>267.3954684085</ele>
        <time>2026-02-17T18:37:41Z</time>
      </trkpt>
      <trkpt lat="41.40133801240322" lon="-81.73946524393951">
        <ele>267.2835679690</ele>
        <time>2026-02-17T18:38:33Z</time>
      </trkpt>
      <trkpt lat="41.40133939410649" lon="-81.74005803297625">
        <ele>266.6884427364</ele>
        <time>2026-02-17T18:39:08Z</time>
      </trkpt>
      <trkpt lat="41.40133915695515" lon="-81.74020728541713">
        <ele>266.5875426070</ele>
        <time>2026-02-17T18:39:19Z</time>
      </trkpt>
    </trkseg>
  </trk>
</gpx>