<?xml version='1.0' encoding='UTF-8'?>
<gpx xmlns="http://www.topografix.com/GPX/1/1" creator="https://gpx.studio" version="1.1">
  <metadata>
    <name>Dog Walk - 2026-04-20 #2</name>
  </metadata>
  <trk>
    <name>Dog Walk - 2026-04-20 #2</name>
    <type>dog walk</type>
    <trkseg>
      <trkpt lat="41.40133876706899" lon="-81.74023399741945">
        <ele>266.4637805285</ele>
        <time>2026-04-20T10:20:25Z</time>
      </trkpt>
      <trkpt lat="41.40134260056623" lon="-81.74083680973915">
        <ele>266.1105053144</ele>
        <time>2026-04-20T10:21:02Z</time>
      </trkpt>
      <trkpt lat="41.40133638833132" lon="-81.74142869241145">
        <ele>265.8003486597</ele>
        <time>2026-04-20T10:21:37Z</time>
      </trkpt>
      <trkpt lat="41.40133343856623" lon="-81.74202479281747">
        <ele>265.3308104005</ele>
        <time>2026-04-20T10:22:10Z</time>
      </trkpt>
      <trkpt lat="41.40132847058819" lon="-81.74238703688239">
        <ele>264.6659294428</ele>
        <time>2026-04-20T10:22:35Z</time>
      </trkpt>
      <trkpt lat="41.40090587178145" lon="-81.74218047025801">
        <ele>265.2499255428</ele>
        <time>2026-04-20T10:23:21Z</time>
      </trkpt>
      <trkpt lat="41.40048202452974" lon="-81.74196501675114">
        <ele>265.3582058174</ele>
        <time>2026-04-20T10:24:28Z</time>
      </trkpt>
      <trkpt lat="41.40045283171739" lon="-81.74194909879692">
        <ele>265.3865705791</ele>
        <time>2026-04-20T10:24:30Z</time>
      </trkpt>
      <trkpt lat="41.40044558275302" lon="-81.74135075839919">
        <ele>266.0538181952</ele>
        <time>2026-04-20T10:25:05Z</time>
      </trkpt>
      <trkpt lat="41.40043690416963" lon="-81.74074920463347">
        <ele>266.1892021052</ele>
        <time>2026-04-20T10:25:56Z</time>
      </trkpt>
      <trkpt lat="41.40043782047344" lon="-81.74014994794459">
        <ele>266.6273225357</ele>
        <time>2026-04-20T10:26:32Z</time>
      </trkpt>
      <trkpt lat="41.40042599557211" lon="-81.73955260564966">
        <ele>266.9751007678</ele>
        <time>2026-04-20T10:27:11Z</time>
      </trkpt>
      <trkpt lat="41.40042335248891" lon="-81.73894607216113">
        <ele>267.1499992407</ele>
        <time>2026-04-20T10:28:02Z</time>
      </trkpt>
      <trkpt lat="41.40042842800497" lon="-81.73834768270250">
        <ele>267.2123617464</ele>
        <time>2026-04-20T10:28:36Z</time>
      </trkpt>
      <trkpt lat="41.40041963233752" lon="-81.73775952560258">
        <ele>267.5101827847</ele>
        <time>2026-04-20T10:29:24Z</time>
      </trkpt>
      <trkpt lat="41.40041230528779" lon="-81.73715575689265">
        <ele>267.6664374042</ele>
        <time>2026-04-20T10:29:57Z</time>
      </trkpt>
      <trkpt lat="41.40039910170633" lon="-81.73655401268852">
        <ele>267.9568381237</ele>
        <time>2026-04-20T10:30:29Z</time>
      </trkpt>
      <trkpt lat="41.40039532466844" lon="-81.73595491992575">
        <ele>268.0026562857</ele>
        <time>2026-04-20T10:31:17Z</time>
      </trkpt>
      <trkpt lat="41.40040779876394" lon="-81.73536590538626">
        <ele>267.9736218472</ele>
        <time>2026-04-20T10:31:51Z</time>
      </trkpt>
      <trkpt lat="41.40039354177219" lon="-81.73475440261255">
        <ele>267.4041424104</ele>
        <time>2026-04-20T10:32:35Z</time>
      </trkpt>
      <trkpt lat="41.40039960602050" lon="-81.73462412118440">
        <ele>267.2106555090</ele>
        <time>2026-04-20T10:32:43Z</time>
      </trkpt>
      <trkpt lat="41.40083370685829" lon="-81.73463742201304">
        <ele>267.2972554095</ele>
        <time>2026-04-20T10:33:33Z</time>
      </trkpt>
      <trkpt lat="41.40130748598830" lon="-81.73463251977333">
        <ele>267.3222363098</ele>
        <time>2026-04-20T10:34:20Z</time>
      </trkpt>
      <trkpt lat="41.40131722027662" lon="-81.73464571723605">
        <ele>267.2997841943</ele>
        <time>2026-04-20T10:34:21Z</time>
      </trkpt>
      <trkpt lat="41.40132980008018" lon="-81.73523242772113">
        <ele>267.8939047888</ele>
        <time>2026-04-20T10:34:57Z</time>
      </trkpt>
      <trkpt lat="41.40131643823001" lon="-81.73583438423815">
        <ele>268.1293147275</ele>
        <time>2026-04-20T10:35:30Z</time>
      </trkpt>
      <trkpt lat="41.40132683340766" lon="-81.73642963282765">
        <ele>268.0513352468</ele>
        <time>2026-04-20T10:36:12Z</time>
      </trkpt>
      <trkpt lat="41.40133932379886" lon="-81.73703760083573">
        <ele>267.8691285247</ele>
        <time>2026-04-20T10:37:03Z</time>
      </trkpt>
      <trkpt lat="41.40134309266190" lon="-81.73762296689749">
        <ele>267.9645137940</ele>
        <time>2026-04-20T10:38:07Z</time>
      </trkpt>
      <trkpt lat="41.40133854879694" lon="-81.73823215594474">
        <ele>267.6125027183</ele>
        <time>2026-04-20T10:38:42Z</time>
      </trkpt>
      <trkpt lat="41.40133807673339" lon="-81.73883426652402">
        <ele>267.3956695562</ele>
        <time>2026-04-20T10:39:23Z</time>
      </trkpt>
      <trkpt lat="41.40133877773781" lon="-81.73943022269309">
        <ele>267.2190477751</ele>
        <time>2026-04-20T10:40:00Z</time>
      </trkpt>
      <trkpt lat="41.40135030760521" lon="-81.74002935253435">
        <ele>266.7405558422</ele>
        <time>2026-04-20T10:40:39Z</time>
      </trkpt>
      <trkpt lat="41.40135144285642" lon="-81.74019063272168">
        <ele>266.4077103949</ele>
        <time>2026-04-20T10:40:51Z</time>
      </trkpt>
    </trkseg>
  </trk>
</gpx>