<?xml version='1.0' encoding='UTF-8'?>
<gpx xmlns="http://www.topografix.com/GPX/1/1" creator="https://gpx.studio" version="1.1">
  <metadata>
    <name>Dog Walk - 2026-09-07 #2</name>
  </metadata>
  <trk>
    <name>Dog Walk - 2026-09-07 #2</name>
    <type>dog walk</type>
    <trkseg>
      <trkpt lat="41.40134025469776" lon="-81.74026399687696">
        <ele>266.4628419745</ele>
        <time>2026-09-07T12:33:37Z</time>
      </trkpt>
      <trkpt lat="41.40132999656662" lon="-81.74025226960525">
        <ele>266.5501061309</ele>
        <time>2026-09-07T12:33:38Z</time>
      </trkpt>
      <trkpt lat="41.40133455606829" lon="-81.74086332675053">
        <ele>266.1664964920</ele>
        <time>2026-09-07T12:34:16Z</time>
      </trkpt>
      <trkpt lat="41.40131964276862" lon="-81.74145920025802">
        <ele>265.7016770486</ele>
        <time>2026-09-07T12:35:03Z</time>
      </trkpt>
      <trkpt lat="41.40132778059039" lon="-81.74205315074235">
        <ele>265.2270316351</ele>
        <time>2026-09-07T12:36:09Z</time>
      </trkpt>
      <trkpt lat="41.40132623457105" lon="-81.74237143738689">
        <ele>264.9659912592</ele>
        <time>2026-09-07T12:36:48Z</time>
      </trkpt>
      <trkpt lat="41.40132493955981" lon="-81.74237791829256">
        <ele>264.8230827755</ele>
        <time>2026-09-07T12:36:55Z</time>
      </trkpt>
      <trkpt lat="41.40089759115897" lon="-81.74217412623771">
        <ele>265.0025200383</ele>
        <time>2026-09-07T12:37:31Z</time>
      </trkpt>
      <trkpt lat="41.40046878884279" lon="-81.74198748447473">
        <ele>265.1952454905</ele>
        <time>2026-09-07T12:38:02Z</time>
      </trkpt>
      <trkpt lat="41.40004687661678" lon="-81.74180052235809">
        <ele>265.3929988651</ele>
        <time>2026-09-07T12:38:46Z</time>
      </trkpt>
      <trkpt lat="41.39962460341543" lon="-81.74160855420213">
        <ele>264.6041960043</ele>
        <time>2026-09-07T12:39:34Z</time>
      </trkpt>
      <trkpt lat="41.39954438084537" lon="-81.74157499386102">
        <ele>264.9588039474</ele>
        <time>2026-09-07T12:39:41Z</time>
      </trkpt>
      <trkpt lat="41.39954580629428" lon="-81.74097577549523">
        <ele>265.4508050156</ele>
        <time>2026-09-07T12:40:12Z</time>
      </trkpt>
      <trkpt lat="41.39954472373675" lon="-81.74036518413479">
        <ele>265.9765079157</ele>
        <time>2026-09-07T12:41:03Z</time>
      </trkpt>
      <trkpt lat="41.39953763014025" lon="-81.73977300429171">
        <ele>266.7440424341</ele>
        <time>2026-09-07T12:41:54Z</time>
      </trkpt>
      <trkpt lat="41.39953670467893" lon="-81.73916871938610">
        <ele>266.8511709174</ele>
        <time>2026-09-07T12:42:34Z</time>
      </trkpt>
      <trkpt lat="41.39954167338438" lon="-81.73857540154383">
        <ele>266.8421646937</ele>
        <time>2026-09-07T12:43:16Z</time>
      </trkpt>
      <trkpt lat="41.39954598546100" lon="-81.73829500763001">
        <ele>266.7111893531</ele>
        <time>2026-09-07T12:43:45Z</time>
      </trkpt>
      <trkpt lat="41.39952592121017" lon="-81.73830357945283">
        <ele>267.1022328421</ele>
        <time>2026-09-07T12:43:47Z</time>
      </trkpt>
      <trkpt lat="41.39997778224165" lon="-81.73829630460352">
        <ele>267.1525441572</ele>
        <time>2026-09-07T12:44:22Z</time>
      </trkpt>
      <trkpt lat="41.40042564132616" lon="-81.73830253689732">
        <ele>267.2575002548</ele>
        <time>2026-09-07T12:45:13Z</time>
      </trkpt>
      <trkpt lat="41.40087747288688" lon="-81.73829705442004">
        <ele>267.3939824673</ele>
        <time>2026-09-07T12:45:49Z</time>
      </trkpt>
      <trkpt lat="41.40132741170463" lon="-81.73829554869292">
        <ele>267.6257128551</ele>
        <time>2026-09-07T12:46:32Z</time>
      </trkpt>
      <trkpt lat="41.40133279790832" lon="-81.73890783262995">
        <ele>267.2597240636</ele>
        <time>2026-09-07T12:47:14Z</time>
      </trkpt>
      <trkpt lat="41.40133299206758" lon="-81.73950329430326">
        <ele>267.0190140711</ele>
        <time>2026-09-07T12:47:47Z</time>
      </trkpt>
      <trkpt lat="41.40134540684334" lon="-81.74010141428352">
        <ele>266.6029855730</ele>
        <time>2026-09-07T12:48:33Z</time>
      </trkpt>
      <trkpt lat="41.40134329714233" lon="-81.74014727157279">
        <ele>266.4020392488</ele>
        <time>2026-09-07T12:48:35Z</time>
      </trkpt>
    </trkseg>
  </trk>
</gpx>