<?xml version='1.0' encoding='UTF-8'?>
<gpx xmlns="http://www.topografix.com/GPX/1/1" creator="https://gpx.studio" version="1.1">
  <metadata>
    <name>Dog Walk - 2026-08-25 #3</name>
  </metadata>
  <trk>
    <name>Dog Walk - 2026-08-25 #3</name>
    <type>dog walk</type>
    <trkseg>
      <trkpt lat="41.40135351252466" lon="-81.74022055715572">
        <ele>266.5450508468</ele>
        <time>2026-08-25T15:16:30Z</time>
      </trkpt>
      <trkpt lat="41.40134258794789" lon="-81.74083442759468">
        <ele>266.0471841560</ele>
        <time>2026-08-25T15:17:21Z</time>
      </trkpt>
      <trkpt lat="41.40132526098235" lon="-81.74143342729155">
        <ele>265.7625935677</ele>
        <time>2026-08-25T15:18:06Z</time>
      </trkpt>
      <trkpt lat="41.40132745480972" lon="-81.74203302642063">
        <ele>265.4870412849</ele>
        <time>2026-08-25T15:18:44Z</time>
      </trkpt>
      <trkpt lat="41.40132701607274" lon="-81.74238283698656">
        <ele>264.8255659143</ele>
        <time>2026-08-25T15:19:07Z</time>
      </trkpt>
      <trkpt lat="41.40091583154657" lon="-81.74218737189432">
        <ele>265.0032845167</ele>
        <time>2026-08-25T15:19:56Z</time>
      </trkpt>
      <trkpt lat="41.40048720659490" lon="-81.74196445236724">
        <ele>265.4734034449</ele>
        <time>2026-08-25T15:20:40Z</time>
      </trkpt>
      <trkpt lat="41.40045107752854" lon="-81.74194836215874">
        <ele>265.3865796954</ele>
        <time>2026-08-25T15:20:43Z</time>
      </trkpt>
      <trkpt lat="41.40045319343181" lon="-81.74134317111084">
        <ele>265.8786851658</ele>
        <time>2026-08-25T15:21:19Z</time>
      </trkpt>
      <trkpt lat="41.40044456676402" lon="-81.74074305279233">
        <ele>266.2225726452</ele>
        <time>2026-08-25T15:21:51Z</time>
      </trkpt>
      <trkpt lat="41.40043256111151" lon="-81.74015550002244">
        <ele>266.7418932419</ele>
        <time>2026-08-25T15:22:34Z</time>
      </trkpt>
      <trkpt lat="41.40042884371069" lon="-81.73955192717301">
        <ele>266.9009422827</ele>
        <time>2026-08-25T15:23:10Z</time>
      </trkpt>
      <trkpt lat="41.40042783562300" lon="-81.73895965508973">
        <ele>267.1981051186</ele>
        <time>2026-08-25T15:23:51Z</time>
      </trkpt>
      <trkpt lat="41.40042306005794" lon="-81.73835715876416">
        <ele>267.1024633875</ele>
        <time>2026-08-25T15:24:43Z</time>
      </trkpt>
      <trkpt lat="41.40041770654379" lon="-81.73775976232763">
        <ele>267.7373678923</ele>
        <time>2026-08-25T15:25:23Z</time>
      </trkpt>
      <trkpt lat="41.40042188327433" lon="-81.73715422271273">
        <ele>268.0521458307</ele>
        <time>2026-08-25T15:26:03Z</time>
      </trkpt>
      <trkpt lat="41.40041331646464" lon="-81.73655628188227">
        <ele>268.0148840363</ele>
        <time>2026-08-25T15:26:39Z</time>
      </trkpt>
      <trkpt lat="41.40040799286221" lon="-81.73594920460172">
        <ele>268.0191908684</ele>
        <time>2026-08-25T15:27:23Z</time>
      </trkpt>
      <trkpt lat="41.40040651833922" lon="-81.73535680516459">
        <ele>267.9271336199</ele>
        <time>2026-08-25T15:28:07Z</time>
      </trkpt>
      <trkpt lat="41.40038988253831" lon="-81.73476111129892">
        <ele>267.4469972911</ele>
        <time>2026-08-25T15:28:48Z</time>
      </trkpt>
      <trkpt lat="41.40039194657216" lon="-81.73462241106816">
        <ele>267.1831013750</ele>
        <time>2026-08-25T15:28:59Z</time>
      </trkpt>
      <trkpt lat="41.40084779905916" lon="-81.73463990735092">
        <ele>267.3793729921</ele>
        <time>2026-08-25T15:29:41Z</time>
      </trkpt>
      <trkpt lat="41.40129797203991" lon="-81.73462477803814">
        <ele>267.2742956204</ele>
        <time>2026-08-25T15:30:37Z</time>
      </trkpt>
      <trkpt lat="41.40131654536667" lon="-81.73464475176914">
        <ele>267.3237003765</ele>
        <time>2026-08-25T15:30:58Z</time>
      </trkpt>
      <trkpt lat="41.40131934856571" lon="-81.73523636010884">
        <ele>268.0862071140</ele>
        <time>2026-08-25T15:31:38Z</time>
      </trkpt>
      <trkpt lat="41.40132478303039" lon="-81.73583182590630">
        <ele>268.1323749205</ele>
        <time>2026-08-25T15:32:07Z</time>
      </trkpt>
      <trkpt lat="41.40133477622211" lon="-81.73642578831046">
        <ele>267.8528671156</ele>
        <time>2026-08-25T15:32:36Z</time>
      </trkpt>
      <trkpt lat="41.40132823052598" lon="-81.73702442832504">
        <ele>268.1558997813</ele>
        <time>2026-08-25T15:33:14Z</time>
      </trkpt>
      <trkpt lat="41.40133646717476" lon="-81.73763396277502">
        <ele>267.9298737092</ele>
        <time>2026-08-25T15:33:54Z</time>
      </trkpt>
      <trkpt lat="41.40134155595571" lon="-81.73823412179111">
        <ele>267.6870129466</ele>
        <time>2026-08-25T15:34:38Z</time>
      </trkpt>
      <trkpt lat="41.40134518656942" lon="-81.73883189059119">
        <ele>267.3253713844</ele>
        <time>2026-08-25T15:35:21Z</time>
      </trkpt>
      <trkpt lat="41.40134481580447" lon="-81.73943806142253">
        <ele>267.3636368192</ele>
        <time>2026-08-25T15:36:00Z</time>
      </trkpt>
      <trkpt lat="41.40133362218361" lon="-81.74003517646987">
        <ele>266.9264403886</ele>
        <time>2026-08-25T15:36:39Z</time>
      </trkpt>
      <trkpt lat="41.40133896887139" lon="-81.74020015198754">
        <ele>266.4993165383</ele>
        <time>2026-08-25T15:36:52Z</time>
      </trkpt>
    </trkseg>
  </trk>
</gpx>