<?xml version='1.0' encoding='UTF-8'?>
<gpx xmlns="http://www.topografix.com/GPX/1/1" creator="https://gpx.studio" version="1.1">
  <metadata>
    <name>Dog Walk - 2026-02-24 #3</name>
  </metadata>
  <trk>
    <name>Dog Walk - 2026-02-24 #3</name>
    <type>dog walk</type>
    <trkseg>
      <trkpt lat="41.40134031263545" lon="-81.74023594322919">
        <ele>266.5233040339</ele>
        <time>2026-02-24T13:45:12Z</time>
      </trkpt>
      <trkpt lat="41.40134803974630" lon="-81.74083426970557">
        <ele>266.1691857935</ele>
        <time>2026-02-24T13:45:58Z</time>
      </trkpt>
      <trkpt lat="41.40134142480381" lon="-81.74142934100423">
        <ele>265.6378293698</ele>
        <time>2026-02-24T13:46:30Z</time>
      </trkpt>
      <trkpt lat="41.40134439777773" lon="-81.74202124018500">
        <ele>265.2022484517</ele>
        <time>2026-02-24T13:47:12Z</time>
      </trkpt>
      <trkpt lat="41.40134891459872" lon="-81.74242575003733">
        <ele>264.8161213655</ele>
        <time>2026-02-24T13:47:35Z</time>
      </trkpt>
      <trkpt lat="41.40177114978832" lon="-81.74262043425854">
        <ele>264.4038451122</ele>
        <time>2026-02-24T13:48:09Z</time>
      </trkpt>
      <trkpt lat="41.40219866110186" lon="-81.74282659874552">
        <ele>263.6752074197</ele>
        <time>2026-02-24T13:48:46Z</time>
      </trkpt>
      <trkpt lat="41.40261878178990" lon="-81.74301323144094">
        <ele>263.0012484487</ele>
        <time>2026-02-24T13:49:19Z</time>
      </trkpt>
      <trkpt lat="41.40305419057842" lon="-81.74321699991701">
        <ele>262.7228384984</ele>
        <time>2026-02-24T13:50:05Z</time>
      </trkpt>
      <trkpt lat="41.40311479002600" lon="-81.74324948174937">
        <ele>262.3202390560</ele>
        <time>2026-02-24T13:50:24Z</time>
      </trkpt>
      <trkpt lat="41.40310809927539" lon="-81.74265548836672">
        <ele>263.0712781575</ele>
        <time>2026-02-24T13:51:11Z</time>
      </trkpt>
      <trkpt lat="41.40311952772999" lon="-81.74204615021858">
        <ele>263.6533178370</ele>
        <time>2026-02-24T13:51:57Z</time>
      </trkpt>
      <trkpt lat="41.40310332822957" lon="-81.74146630786052">
        <ele>264.3194578222</ele>
        <time>2026-02-24T13:52:51Z</time>
      </trkpt>
      <trkpt lat="41.40310760075656" lon="-81.74085442871892">
        <ele>264.8131716802</ele>
        <time>2026-02-24T13:53:30Z</time>
      </trkpt>
      <trkpt lat="41.40310926981681" lon="-81.74025435166584">
        <ele>265.5910378021</ele>
        <time>2026-02-24T13:54:04Z</time>
      </trkpt>
      <trkpt lat="41.40310357562498" lon="-81.73966003796208">
        <ele>265.8225776429</ele>
        <time>2026-02-24T13:54:55Z</time>
      </trkpt>
      <trkpt lat="41.40310451800783" lon="-81.73905709033069">
        <ele>266.4130634937</ele>
        <time>2026-02-24T13:55:39Z</time>
      </trkpt>
      <trkpt lat="41.40308925265678" lon="-81.73879285785121">
        <ele>266.1262566483</ele>
        <time>2026-02-24T13:55:56Z</time>
      </trkpt>
      <trkpt lat="41.40265010254217" lon="-81.73878221084961">
        <ele>266.6798766012</ele>
        <time>2026-02-24T13:56:43Z</time>
      </trkpt>
      <trkpt lat="41.40223560669885" lon="-81.73877664445385">
        <ele>267.1951872736</ele>
        <time>2026-02-24T13:57:23Z</time>
      </trkpt>
      <trkpt lat="41.40222483425244" lon="-81.73817224665467">
        <ele>267.1930215706</ele>
        <time>2026-02-24T13:58:06Z</time>
      </trkpt>
      <trkpt lat="41.40222646616058" lon="-81.73758101107633">
        <ele>267.1035923231</ele>
        <time>2026-02-24T13:58:51Z</time>
      </trkpt>
      <trkpt lat="41.40223208581115" lon="-81.73698497379397">
        <ele>266.9358647536</ele>
        <time>2026-02-24T13:59:24Z</time>
      </trkpt>
      <trkpt lat="41.40222405313079" lon="-81.73637836893326">
        <ele>267.1685913468</ele>
        <time>2026-02-24T14:00:01Z</time>
      </trkpt>
      <trkpt lat="41.40222888620292" lon="-81.73578195413535">
        <ele>266.9764449097</ele>
        <time>2026-02-24T14:00:55Z</time>
      </trkpt>
      <trkpt lat="41.40221972306325" lon="-81.73518095091495">
        <ele>267.3364264220</ele>
        <time>2026-02-24T14:01:37Z</time>
      </trkpt>
      <trkpt lat="41.40222778246674" lon="-81.73466353455207">
        <ele>267.0759059298</ele>
        <time>2026-02-24T14:02:13Z</time>
      </trkpt>
      <trkpt lat="41.40177184039098" lon="-81.73464038199947">
        <ele>267.5131156870</ele>
        <time>2026-02-24T14:02:43Z</time>
      </trkpt>
      <trkpt lat="41.40132556546817" lon="-81.73462846876568">
        <ele>267.1324458949</ele>
        <time>2026-02-24T14:03:37Z</time>
      </trkpt>
      <trkpt lat="41.40131568644323" lon="-81.73464317372881">
        <ele>267.3091688274</ele>
        <time>2026-02-24T14:03:38Z</time>
      </trkpt>
      <trkpt lat="41.40131331937852" lon="-81.73523091616580">
        <ele>268.0110949145</ele>
        <time>2026-02-24T14:04:20Z</time>
      </trkpt>
      <trkpt lat="41.40131496616318" lon="-81.73583200678615">
        <ele>268.1808263197</ele>
        <time>2026-02-24T14:05:02Z</time>
      </trkpt>
      <trkpt lat="41.40132281302795" lon="-81.73642460034714">
        <ele>268.3379796628</ele>
        <time>2026-02-24T14:05:39Z</time>
      </trkpt>
      <trkpt lat="41.40132201615524" lon="-81.73703546676045">
        <ele>268.2227987046</ele>
        <time>2026-02-24T14:06:20Z</time>
      </trkpt>
      <trkpt lat="41.40133601418850" lon="-81.73763654603570">
        <ele>267.8486856250</ele>
        <time>2026-02-24T14:06:52Z</time>
      </trkpt>
      <trkpt lat="41.40133717300692" lon="-81.73823388202814">
        <ele>267.7274607887</ele>
        <time>2026-02-24T14:07:23Z</time>
      </trkpt>
      <trkpt lat="41.40133724812172" lon="-81.73882690979427">
        <ele>267.2824947748</ele>
        <time>2026-02-24T14:08:33Z</time>
      </trkpt>
      <trkpt lat="41.40134574445922" lon="-81.73943571244880">
        <ele>267.0912417549</ele>
        <time>2026-02-24T14:09:17Z</time>
      </trkpt>
      <trkpt lat="41.40134809017859" lon="-81.74002556128529">
        <ele>266.7092026596</ele>
        <time>2026-02-24T14:09:58Z</time>
      </trkpt>
      <trkpt lat="41.40134480033456" lon="-81.74015789660783">
        <ele>266.3828301942</ele>
        <time>2026-02-24T14:10:09Z</time>
      </trkpt>
    </trkseg>
  </trk>
</gpx>