<?xml version='1.0' encoding='UTF-8'?>
<gpx xmlns="http://www.topografix.com/GPX/1/1" creator="https://gpx.studio" version="1.1">
  <metadata>
    <name>Dog Walk - 2026-04-01 #2</name>
  </metadata>
  <trk>
    <name>Dog Walk - 2026-04-01 #2</name>
    <type>dog walk</type>
    <trkseg>
      <trkpt lat="41.40134102364120" lon="-81.74022403964895">
        <ele>266.5412088424</ele>
        <time>2026-04-01T20:06:52Z</time>
      </trkpt>
      <trkpt lat="41.40134376743789" lon="-81.74082441968517">
        <ele>266.0756583903</ele>
        <time>2026-04-01T20:07:30Z</time>
      </trkpt>
      <trkpt lat="41.40134895059401" lon="-81.74142049870723">
        <ele>265.6850779769</ele>
        <time>2026-04-01T20:08:01Z</time>
      </trkpt>
      <trkpt lat="41.40135090989858" lon="-81.74202674667983">
        <ele>265.0467191593</ele>
        <time>2026-04-01T20:08:40Z</time>
      </trkpt>
      <trkpt lat="41.40135370804508" lon="-81.74241704154051">
        <ele>264.6194212702</ele>
        <time>2026-04-01T20:09:04Z</time>
      </trkpt>
      <trkpt lat="41.40176202448965" lon="-81.74262303237103">
        <ele>264.2557681428</ele>
        <time>2026-04-01T20:09:44Z</time>
      </trkpt>
      <trkpt lat="41.40219167287658" lon="-81.74284236558023">
        <ele>263.5818172733</ele>
        <time>2026-04-01T20:10:32Z</time>
      </trkpt>
      <trkpt lat="41.40260642432492" lon="-81.74305132656636">
        <ele>263.0606373979</ele>
        <time>2026-04-01T20:11:15Z</time>
      </trkpt>
      <trkpt lat="41.40303562547788" lon="-81.74325655553996">
        <ele>262.2502615123</ele>
        <time>2026-04-01T20:11:52Z</time>
      </trkpt>
      <trkpt lat="41.40345427518941" lon="-81.74346889629361">
        <ele>261.8782262580</ele>
        <time>2026-04-01T20:12:31Z</time>
      </trkpt>
      <trkpt lat="41.40349108783868" lon="-81.74349710688952">
        <ele>261.8703366803</ele>
        <time>2026-04-01T20:12:35Z</time>
      </trkpt>
      <trkpt lat="41.40358970427467" lon="-81.74352622416583">
        <ele>261.4644497583</ele>
        <time>2026-04-01T20:12:43Z</time>
      </trkpt>
      <trkpt lat="41.40399322118043" lon="-81.74350621992913">
        <ele>260.6101344011</ele>
        <time>2026-04-01T20:13:20Z</time>
      </trkpt>
      <trkpt lat="41.40399229333517" lon="-81.74291739009773">
        <ele>261.5421429840</ele>
        <time>2026-04-01T20:14:00Z</time>
      </trkpt>
      <trkpt lat="41.40399443853086" lon="-81.74231077264231">
        <ele>262.3894673061</ele>
        <time>2026-04-01T20:14:41Z</time>
      </trkpt>
      <trkpt lat="41.40399857796268" lon="-81.74170126960719">
        <ele>262.4860676846</ele>
        <time>2026-04-01T20:15:17Z</time>
      </trkpt>
      <trkpt lat="41.40399421044746" lon="-81.74111164051448">
        <ele>262.8590320582</ele>
        <time>2026-04-01T20:15:51Z</time>
      </trkpt>
      <trkpt lat="41.40399090543313" lon="-81.74050774040448">
        <ele>263.5121822677</ele>
        <time>2026-04-01T20:16:25Z</time>
      </trkpt>
      <trkpt lat="41.40398346716513" lon="-81.73990800825732">
        <ele>264.2665245973</ele>
        <time>2026-04-01T20:17:08Z</time>
      </trkpt>
      <trkpt lat="41.40398903585455" lon="-81.73931787026767">
        <ele>265.1080829280</ele>
        <time>2026-04-01T20:17:43Z</time>
      </trkpt>
      <trkpt lat="41.40398275451129" lon="-81.73876615009289">
        <ele>265.5163869648</ele>
        <time>2026-04-01T20:18:33Z</time>
      </trkpt>
      <trkpt lat="41.40353972868740" lon="-81.73878100854900">
        <ele>265.8621782820</ele>
        <time>2026-04-01T20:19:15Z</time>
      </trkpt>
      <trkpt lat="41.40308636807329" lon="-81.73877532881747">
        <ele>266.3468039162</ele>
        <time>2026-04-01T20:19:58Z</time>
      </trkpt>
      <trkpt lat="41.40263602017607" lon="-81.73877153354219">
        <ele>266.8673376496</ele>
        <time>2026-04-01T20:20:57Z</time>
      </trkpt>
      <trkpt lat="41.40222141586939" lon="-81.73877946459478">
        <ele>267.2016532355</ele>
        <time>2026-04-01T20:21:28Z</time>
      </trkpt>
      <trkpt lat="41.40221400521463" lon="-81.73827920420656">
        <ele>266.9665585035</ele>
        <time>2026-04-01T20:22:04Z</time>
      </trkpt>
      <trkpt lat="41.40176646920965" lon="-81.73826443360694">
        <ele>267.9292454928</ele>
        <time>2026-04-01T20:22:46Z</time>
      </trkpt>
      <trkpt lat="41.40132063513887" lon="-81.73825721343263">
        <ele>267.4707592828</ele>
        <time>2026-04-01T20:23:21Z</time>
      </trkpt>
      <trkpt lat="41.40133990469399" lon="-81.73886951741838">
        <ele>267.3804870534</ele>
        <time>2026-04-01T20:23:57Z</time>
      </trkpt>
      <trkpt lat="41.40134245850386" lon="-81.73947426478202">
        <ele>267.1194066542</ele>
        <time>2026-04-01T20:24:41Z</time>
      </trkpt>
      <trkpt lat="41.40133634338360" lon="-81.74005636483309">
        <ele>266.7289344438</ele>
        <time>2026-04-01T20:25:24Z</time>
      </trkpt>
      <trkpt lat="41.40133736519395" lon="-81.74020146560886">
        <ele>266.3657652713</ele>
        <time>2026-04-01T20:25:51Z</time>
      </trkpt>
    </trkseg>
  </trk>
</gpx>