<?xml version='1.0' encoding='UTF-8'?>
<gpx xmlns="http://www.topografix.com/GPX/1/1" creator="https://gpx.studio" version="1.1">
  <metadata>
    <name>Dog Walk - 2026-06-20 #4</name>
  </metadata>
  <trk>
    <name>Dog Walk - 2026-06-20 #4</name>
    <type>dog walk</type>
    <trkseg>
      <trkpt lat="41.40133441778777" lon="-81.74023228872852">
        <ele>266.3699892172</ele>
        <time>2026-06-20T20:40:47Z</time>
      </trkpt>
      <trkpt lat="41.40133710758357" lon="-81.74082414655022">
        <ele>266.3589737784</ele>
        <time>2026-06-20T20:41:23Z</time>
      </trkpt>
      <trkpt lat="41.40135603039496" lon="-81.74142462901366">
        <ele>265.6530143061</ele>
        <time>2026-06-20T20:42:19Z</time>
      </trkpt>
      <trkpt lat="41.40134992506039" lon="-81.74203329259269">
        <ele>265.4358378644</ele>
        <time>2026-06-20T20:43:03Z</time>
      </trkpt>
      <trkpt lat="41.40135398151565" lon="-81.74240050364079">
        <ele>264.6999463175</ele>
        <time>2026-06-20T20:43:24Z</time>
      </trkpt>
      <trkpt lat="41.40177205751338" lon="-81.74263131471032">
        <ele>264.3366889995</ele>
        <time>2026-06-20T20:44:02Z</time>
      </trkpt>
      <trkpt lat="41.40218384194082" lon="-81.74283259073630">
        <ele>263.4909498378</ele>
        <time>2026-06-20T20:44:46Z</time>
      </trkpt>
      <trkpt lat="41.40261464513372" lon="-81.74304623677223">
        <ele>262.9417152959</ele>
        <time>2026-06-20T20:45:44Z</time>
      </trkpt>
      <trkpt lat="41.40302480435277" lon="-81.74325925572062">
        <ele>262.2817875819</ele>
        <time>2026-06-20T20:46:26Z</time>
      </trkpt>
      <trkpt lat="41.40345476235024" lon="-81.74348485748042">
        <ele>262.0424873226</ele>
        <time>2026-06-20T20:47:05Z</time>
      </trkpt>
      <trkpt lat="41.40349652549294" lon="-81.74350932433951">
        <ele>261.8445377380</ele>
        <time>2026-06-20T20:47:09Z</time>
      </trkpt>
      <trkpt lat="41.40359605176865" lon="-81.74351916623948">
        <ele>261.4729184460</ele>
        <time>2026-06-20T20:47:16Z</time>
      </trkpt>
      <trkpt lat="41.40398963255965" lon="-81.74351079466911">
        <ele>260.7449556960</ele>
        <time>2026-06-20T20:47:45Z</time>
      </trkpt>
      <trkpt lat="41.40398931268157" lon="-81.74290992884225">
        <ele>261.4443205422</ele>
        <time>2026-06-20T20:48:32Z</time>
      </trkpt>
      <trkpt lat="41.40399589008658" lon="-81.74231283207502">
        <ele>261.9844382123</ele>
        <time>2026-06-20T20:49:05Z</time>
      </trkpt>
      <trkpt lat="41.40399749744257" lon="-81.74170593502473">
        <ele>262.4376733075</ele>
        <time>2026-06-20T20:49:38Z</time>
      </trkpt>
      <trkpt lat="41.40399543057484" lon="-81.74111082528290">
        <ele>262.9009807474</ele>
        <time>2026-06-20T20:50:23Z</time>
      </trkpt>
      <trkpt lat="41.40398197971962" lon="-81.74050729192552">
        <ele>263.4955687472</ele>
        <time>2026-06-20T20:51:25Z</time>
      </trkpt>
      <trkpt lat="41.40397987713474" lon="-81.73990580054971">
        <ele>264.4594095929</ele>
        <time>2026-06-20T20:52:08Z</time>
      </trkpt>
      <trkpt lat="41.40398525681798" lon="-81.73930484193548">
        <ele>265.2444612920</ele>
        <time>2026-06-20T20:52:40Z</time>
      </trkpt>
      <trkpt lat="41.40398167637067" lon="-81.73877758774429">
        <ele>265.5687332448</ele>
        <time>2026-06-20T20:53:23Z</time>
      </trkpt>
      <trkpt lat="41.40353217475401" lon="-81.73877447634533">
        <ele>265.8670901160</ele>
        <time>2026-06-20T20:53:58Z</time>
      </trkpt>
      <trkpt lat="41.40307972578726" lon="-81.73877725415724">
        <ele>266.0007119282</ele>
        <time>2026-06-20T20:54:47Z</time>
      </trkpt>
      <trkpt lat="41.40263816045585" lon="-81.73877842383291">
        <ele>266.7526163833</ele>
        <time>2026-06-20T20:55:23Z</time>
      </trkpt>
      <trkpt lat="41.40223024933753" lon="-81.73877426337458">
        <ele>267.3192694050</ele>
        <time>2026-06-20T20:56:40Z</time>
      </trkpt>
      <trkpt lat="41.40222088990826" lon="-81.73827318833162">
        <ele>267.1118097237</ele>
        <time>2026-06-20T20:57:12Z</time>
      </trkpt>
      <trkpt lat="41.40176376423719" lon="-81.73825743898783">
        <ele>267.7947765801</ele>
        <time>2026-06-20T20:57:44Z</time>
      </trkpt>
      <trkpt lat="41.40133861691007" lon="-81.73826809739892">
        <ele>267.6348796558</ele>
        <time>2026-06-20T20:58:21Z</time>
      </trkpt>
      <trkpt lat="41.40133760680069" lon="-81.73887000663596">
        <ele>267.3889697596</ele>
        <time>2026-06-20T20:59:11Z</time>
      </trkpt>
      <trkpt lat="41.40133502068929" lon="-81.73945716415722">
        <ele>267.3019718281</ele>
        <time>2026-06-20T20:59:42Z</time>
      </trkpt>
      <trkpt lat="41.40134342769132" lon="-81.74007406533855">
        <ele>266.5880807585</ele>
        <time>2026-06-20T21:00:14Z</time>
      </trkpt>
      <trkpt lat="41.40133918315948" lon="-81.74020888193760">
        <ele>266.4420974393</ele>
        <time>2026-06-20T21:00:30Z</time>
      </trkpt>
    </trkseg>
  </trk>
</gpx>