<?xml version='1.0' encoding='UTF-8'?>
<gpx xmlns="http://www.topografix.com/GPX/1/1" creator="https://gpx.studio" version="1.1">
  <metadata>
    <name>Dog Walk - 2026-04-07 #1</name>
  </metadata>
  <trk>
    <name>Dog Walk - 2026-04-07 #1</name>
    <type>dog walk</type>
    <trkseg>
      <trkpt lat="41.40135435207998" lon="-81.74022920535617">
        <ele>266.5189009684</ele>
        <time>2026-04-07T07:05:39Z</time>
      </trkpt>
      <trkpt lat="41.40133463356575" lon="-81.74082546751933">
        <ele>266.2903006993</ele>
        <time>2026-04-07T07:06:14Z</time>
      </trkpt>
      <trkpt lat="41.40133017883178" lon="-81.74143775922046">
        <ele>265.9797162853</ele>
        <time>2026-04-07T07:06:53Z</time>
      </trkpt>
      <trkpt lat="41.40133417229423" lon="-81.74202480619429">
        <ele>265.4803881056</ele>
        <time>2026-04-07T07:07:42Z</time>
      </trkpt>
      <trkpt lat="41.40132851862205" lon="-81.74237908702594">
        <ele>264.6963310942</ele>
        <time>2026-04-07T07:08:06Z</time>
      </trkpt>
      <trkpt lat="41.40090639041376" lon="-81.74217537962255">
        <ele>265.3499693032</ele>
        <time>2026-04-07T07:08:53Z</time>
      </trkpt>
      <trkpt lat="41.40048940494562" lon="-81.74196998954730">
        <ele>265.1390646759</ele>
        <time>2026-04-07T07:10:05Z</time>
      </trkpt>
      <trkpt lat="41.40044781909244" lon="-81.74195736376110">
        <ele>265.2103920378</ele>
        <time>2026-04-07T07:10:08Z</time>
      </trkpt>
      <trkpt lat="41.40044874534199" lon="-81.74135642728385">
        <ele>266.0398813498</ele>
        <time>2026-04-07T07:10:46Z</time>
      </trkpt>
      <trkpt lat="41.40044042136516" lon="-81.74074543684880">
        <ele>266.2060024876</ele>
        <time>2026-04-07T07:11:26Z</time>
      </trkpt>
      <trkpt lat="41.40043587685852" lon="-81.74014453737780">
        <ele>266.7477272885</ele>
        <time>2026-04-07T07:12:28Z</time>
      </trkpt>
      <trkpt lat="41.40043375368845" lon="-81.73954755270483">
        <ele>266.9558717498</ele>
        <time>2026-04-07T07:13:11Z</time>
      </trkpt>
      <trkpt lat="41.40043024773676" lon="-81.73894911231612">
        <ele>267.4293811394</ele>
        <time>2026-04-07T07:13:53Z</time>
      </trkpt>
      <trkpt lat="41.40042201901814" lon="-81.73834962325977">
        <ele>267.3572341726</ele>
        <time>2026-04-07T07:14:31Z</time>
      </trkpt>
      <trkpt lat="41.40041770933707" lon="-81.73776226525592">
        <ele>267.6862385675</ele>
        <time>2026-04-07T07:15:06Z</time>
      </trkpt>
      <trkpt lat="41.40041443613447" lon="-81.73715184855888">
        <ele>267.8591693557</ele>
        <time>2026-04-07T07:15:54Z</time>
      </trkpt>
      <trkpt lat="41.40041922236094" lon="-81.73655092683730">
        <ele>267.9120984559</ele>
        <time>2026-04-07T07:17:05Z</time>
      </trkpt>
      <trkpt lat="41.40040371610607" lon="-81.73595448047121">
        <ele>268.0132572193</ele>
        <time>2026-04-07T07:17:42Z</time>
      </trkpt>
      <trkpt lat="41.40039416457569" lon="-81.73535104477389">
        <ele>267.7542577939</ele>
        <time>2026-04-07T07:18:25Z</time>
      </trkpt>
      <trkpt lat="41.40039428178022" lon="-81.73476036441261">
        <ele>267.1944010009</ele>
        <time>2026-04-07T07:18:57Z</time>
      </trkpt>
      <trkpt lat="41.40038905111181" lon="-81.73462632246401">
        <ele>267.2617057722</ele>
        <time>2026-04-07T07:19:11Z</time>
      </trkpt>
      <trkpt lat="41.40084007649518" lon="-81.73463652355217">
        <ele>267.0244890828</ele>
        <time>2026-04-07T07:19:57Z</time>
      </trkpt>
      <trkpt lat="41.40129200350934" lon="-81.73463799194498">
        <ele>267.2872851028</ele>
        <time>2026-04-07T07:20:53Z</time>
      </trkpt>
      <trkpt lat="41.40132541987602" lon="-81.73463918277672">
        <ele>267.1586243362</ele>
        <time>2026-04-07T07:20:55Z</time>
      </trkpt>
      <trkpt lat="41.40132922815265" lon="-81.73522754362546">
        <ele>268.0221878576</ele>
        <time>2026-04-07T07:21:46Z</time>
      </trkpt>
      <trkpt lat="41.40133064353097" lon="-81.73583115430441">
        <ele>268.2974994169</ele>
        <time>2026-04-07T07:22:21Z</time>
      </trkpt>
      <trkpt lat="41.40133193967001" lon="-81.73643248113318">
        <ele>268.1433677545</ele>
        <time>2026-04-07T07:23:14Z</time>
      </trkpt>
      <trkpt lat="41.40132558070337" lon="-81.73704087541681">
        <ele>268.0724141484</ele>
        <time>2026-04-07T07:24:06Z</time>
      </trkpt>
      <trkpt lat="41.40132999315226" lon="-81.73763542236820">
        <ele>267.9147976499</ele>
        <time>2026-04-07T07:24:59Z</time>
      </trkpt>
      <trkpt lat="41.40134719851967" lon="-81.73823480657258">
        <ele>267.6936597614</ele>
        <time>2026-04-07T07:25:35Z</time>
      </trkpt>
      <trkpt lat="41.40133958782673" lon="-81.73883389404855">
        <ele>267.4251220920</ele>
        <time>2026-04-07T07:26:12Z</time>
      </trkpt>
      <trkpt lat="41.40133968650049" lon="-81.73943712084059">
        <ele>267.1452278949</ele>
        <time>2026-04-07T07:26:55Z</time>
      </trkpt>
      <trkpt lat="41.40134625141138" lon="-81.74002822333490">
        <ele>266.6714006011</ele>
        <time>2026-04-07T07:27:34Z</time>
      </trkpt>
      <trkpt lat="41.40135297017354" lon="-81.74018894333497">
        <ele>266.6209052488</ele>
        <time>2026-04-07T07:27:45Z</time>
      </trkpt>
    </trkseg>
  </trk>
</gpx>