<?xml version='1.0' encoding='UTF-8'?>
<gpx xmlns="http://www.topografix.com/GPX/1/1" creator="https://gpx.studio" version="1.1">
  <metadata>
    <name>Dog Walk - 2026-08-05 #2</name>
  </metadata>
  <trk>
    <name>Dog Walk - 2026-08-05 #2</name>
    <type>dog walk</type>
    <trkseg>
      <trkpt lat="41.40133573529198" lon="-81.74023755465744">
        <ele>266.5852893910</ele>
        <time>2026-08-05T15:21:26Z</time>
      </trkpt>
      <trkpt lat="41.40133516008677" lon="-81.74083101439646">
        <ele>266.3032825016</ele>
        <time>2026-08-05T15:22:03Z</time>
      </trkpt>
      <trkpt lat="41.40133243520253" lon="-81.74143133759310">
        <ele>265.6829298168</ele>
        <time>2026-08-05T15:22:43Z</time>
      </trkpt>
      <trkpt lat="41.40133526161208" lon="-81.74203672608299">
        <ele>265.3931751841</ele>
        <time>2026-08-05T15:23:32Z</time>
      </trkpt>
      <trkpt lat="41.40132278054647" lon="-81.74239302878784">
        <ele>264.8781278505</ele>
        <time>2026-08-05T15:24:01Z</time>
      </trkpt>
      <trkpt lat="41.40090413802685" lon="-81.74220265924708">
        <ele>265.2213721523</ele>
        <time>2026-08-05T15:24:44Z</time>
      </trkpt>
      <trkpt lat="41.40047754481145" lon="-81.74200548568808">
        <ele>265.2642558774</ele>
        <time>2026-08-05T15:25:36Z</time>
      </trkpt>
      <trkpt lat="41.40005753341931" lon="-81.74180738937275">
        <ele>265.5502627274</ele>
        <time>2026-08-05T15:26:20Z</time>
      </trkpt>
      <trkpt lat="41.39962638795276" lon="-81.74162039549476">
        <ele>264.5786041176</ele>
        <time>2026-08-05T15:27:05Z</time>
      </trkpt>
      <trkpt lat="41.39953280043572" lon="-81.74156959409918">
        <ele>264.8135816227</ele>
        <time>2026-08-05T15:27:14Z</time>
      </trkpt>
      <trkpt lat="41.39952723302865" lon="-81.74097543137502">
        <ele>265.6015425181</ele>
        <time>2026-08-05T15:27:54Z</time>
      </trkpt>
      <trkpt lat="41.39953344911167" lon="-81.74037422250575">
        <ele>266.2237994234</ele>
        <time>2026-08-05T15:28:31Z</time>
      </trkpt>
      <trkpt lat="41.39953593097375" lon="-81.73978097359591">
        <ele>266.7132994556</ele>
        <time>2026-08-05T15:29:21Z</time>
      </trkpt>
      <trkpt lat="41.39953063677014" lon="-81.73917392510336">
        <ele>266.8439141604</ele>
        <time>2026-08-05T15:29:55Z</time>
      </trkpt>
      <trkpt lat="41.39953070115445" lon="-81.73857852600440">
        <ele>266.8553387393</ele>
        <time>2026-08-05T15:30:41Z</time>
      </trkpt>
      <trkpt lat="41.39953391561507" lon="-81.73797228231278">
        <ele>267.0173246447</ele>
        <time>2026-08-05T15:31:24Z</time>
      </trkpt>
      <trkpt lat="41.39953095907565" lon="-81.73738163054048">
        <ele>267.2679939680</ele>
        <time>2026-08-05T15:32:00Z</time>
      </trkpt>
      <trkpt lat="41.39952858885946" lon="-81.73677537259564">
        <ele>267.4086164519</ele>
        <time>2026-08-05T15:32:42Z</time>
      </trkpt>
      <trkpt lat="41.39953042569649" lon="-81.73618613108864">
        <ele>267.6824214054</ele>
        <time>2026-08-05T15:33:26Z</time>
      </trkpt>
      <trkpt lat="41.39953289514520" lon="-81.73558088779673">
        <ele>267.3191742348</ele>
        <time>2026-08-05T15:34:21Z</time>
      </trkpt>
      <trkpt lat="41.39952407511404" lon="-81.73497932133697">
        <ele>267.3382120633</ele>
        <time>2026-08-05T15:34:57Z</time>
      </trkpt>
      <trkpt lat="41.39952424184471" lon="-81.73461989063540">
        <ele>267.1439393348</ele>
        <time>2026-08-05T15:35:27Z</time>
      </trkpt>
      <trkpt lat="41.39997652612035" lon="-81.73462220419080">
        <ele>266.9948123396</ele>
        <time>2026-08-05T15:36:11Z</time>
      </trkpt>
      <trkpt lat="41.40042592588600" lon="-81.73463133410982">
        <ele>267.3774839064</ele>
        <time>2026-08-05T15:36:57Z</time>
      </trkpt>
      <trkpt lat="41.40087641257567" lon="-81.73463335251706">
        <ele>267.3356465582</ele>
        <time>2026-08-05T15:38:00Z</time>
      </trkpt>
      <trkpt lat="41.40131758903039" lon="-81.73464132454787">
        <ele>267.2947261178</ele>
        <time>2026-08-05T15:38:42Z</time>
      </trkpt>
      <trkpt lat="41.40131881607009" lon="-81.73523414335376">
        <ele>267.9746021307</ele>
        <time>2026-08-05T15:39:26Z</time>
      </trkpt>
      <trkpt lat="41.40132089142332" lon="-81.73583840129552">
        <ele>268.2233475262</ele>
        <time>2026-08-05T15:39:59Z</time>
      </trkpt>
      <trkpt lat="41.40131717618544" lon="-81.73644026387697">
        <ele>268.0949420152</ele>
        <time>2026-08-05T15:40:41Z</time>
      </trkpt>
      <trkpt lat="41.40132612160089" lon="-81.73705030346702">
        <ele>267.8170442855</ele>
        <time>2026-08-05T15:41:21Z</time>
      </trkpt>
      <trkpt lat="41.40132401567512" lon="-81.73763765494984">
        <ele>267.9550283464</ele>
        <time>2026-08-05T15:42:14Z</time>
      </trkpt>
      <trkpt lat="41.40133223847809" lon="-81.73823411930643">
        <ele>267.6117622355</ele>
        <time>2026-08-05T15:42:49Z</time>
      </trkpt>
      <trkpt lat="41.40133305350314" lon="-81.73884232432910">
        <ele>267.2994486864</ele>
        <time>2026-08-05T15:43:47Z</time>
      </trkpt>
      <trkpt lat="41.40132394339540" lon="-81.73944138499188">
        <ele>267.2824383793</ele>
        <time>2026-08-05T15:44:39Z</time>
      </trkpt>
      <trkpt lat="41.40132534305904" lon="-81.74003374195071">
        <ele>266.6171135955</ele>
        <time>2026-08-05T15:45:11Z</time>
      </trkpt>
      <trkpt lat="41.40132427439657" lon="-81.74022361655403">
        <ele>266.4265783920</ele>
        <time>2026-08-05T15:45:22Z</time>
      </trkpt>
    </trkseg>
  </trk>
</gpx>