<?xml version='1.0' encoding='UTF-8'?>
<gpx xmlns="http://www.topografix.com/GPX/1/1" creator="https://gpx.studio" version="1.1">
  <metadata>
    <name>Dog Walk - 2026-04-22 #2</name>
  </metadata>
  <trk>
    <name>Dog Walk - 2026-04-22 #2</name>
    <type>dog walk</type>
    <trkseg>
      <trkpt lat="41.40133532385639" lon="-81.74024180973197">
        <ele>266.5477124264</ele>
        <time>2026-04-22T16:16:53Z</time>
      </trkpt>
      <trkpt lat="41.40133227103251" lon="-81.74083666466731">
        <ele>266.4556636712</ele>
        <time>2026-04-22T16:17:28Z</time>
      </trkpt>
      <trkpt lat="41.40133221510192" lon="-81.74144395064511">
        <ele>265.6375034598</ele>
        <time>2026-04-22T16:18:08Z</time>
      </trkpt>
      <trkpt lat="41.40132549093032" lon="-81.74202949184217">
        <ele>265.3251035768</ele>
        <time>2026-04-22T16:18:55Z</time>
      </trkpt>
      <trkpt lat="41.40133207568662" lon="-81.74239262043956">
        <ele>264.8020816183</ele>
        <time>2026-04-22T16:19:23Z</time>
      </trkpt>
      <trkpt lat="41.40090085827811" lon="-81.74220321097238">
        <ele>265.2016473359</ele>
        <time>2026-04-22T16:20:09Z</time>
      </trkpt>
      <trkpt lat="41.40047695525608" lon="-81.74200185138606">
        <ele>265.2251257939</ele>
        <time>2026-04-22T16:20:57Z</time>
      </trkpt>
      <trkpt lat="41.40005652068955" lon="-81.74180222035677">
        <ele>265.2885619691</ele>
        <time>2026-04-22T16:21:45Z</time>
      </trkpt>
      <trkpt lat="41.39963022881740" lon="-81.74162478573957">
        <ele>264.7067384253</ele>
        <time>2026-04-22T16:22:20Z</time>
      </trkpt>
      <trkpt lat="41.39953327766711" lon="-81.74156896953987">
        <ele>264.5838701330</ele>
        <time>2026-04-22T16:22:29Z</time>
      </trkpt>
      <trkpt lat="41.39953511568519" lon="-81.74097272253267">
        <ele>265.6101167107</ele>
        <time>2026-04-22T16:23:22Z</time>
      </trkpt>
      <trkpt lat="41.39953390660705" lon="-81.74037370161375">
        <ele>265.9994474288</ele>
        <time>2026-04-22T16:24:12Z</time>
      </trkpt>
      <trkpt lat="41.39952893122413" lon="-81.73978238474034">
        <ele>266.4472595692</ele>
        <time>2026-04-22T16:24:51Z</time>
      </trkpt>
      <trkpt lat="41.39953133512645" lon="-81.73917064189799">
        <ele>266.7283758716</ele>
        <time>2026-04-22T16:25:38Z</time>
      </trkpt>
      <trkpt lat="41.39953531172486" lon="-81.73857675387303">
        <ele>267.0088073622</ele>
        <time>2026-04-22T16:26:11Z</time>
      </trkpt>
      <trkpt lat="41.39952748220690" lon="-81.73798270444595">
        <ele>267.0560381568</ele>
        <time>2026-04-22T16:26:52Z</time>
      </trkpt>
      <trkpt lat="41.39953718348027" lon="-81.73737233521952">
        <ele>267.4447268141</ele>
        <time>2026-04-22T16:27:34Z</time>
      </trkpt>
      <trkpt lat="41.39953610540253" lon="-81.73677305132615">
        <ele>267.3612667564</ele>
        <time>2026-04-22T16:28:22Z</time>
      </trkpt>
      <trkpt lat="41.39952313700984" lon="-81.73617945514094">
        <ele>267.5732651832</ele>
        <time>2026-04-22T16:29:05Z</time>
      </trkpt>
      <trkpt lat="41.39952546775302" lon="-81.73557427163425">
        <ele>267.4992455686</ele>
        <time>2026-04-22T16:29:38Z</time>
      </trkpt>
      <trkpt lat="41.39953032089316" lon="-81.73498420599311">
        <ele>267.1727615371</ele>
        <time>2026-04-22T16:30:19Z</time>
      </trkpt>
      <trkpt lat="41.39952380927513" lon="-81.73461341168507">
        <ele>267.1930536130</ele>
        <time>2026-04-22T16:30:41Z</time>
      </trkpt>
      <trkpt lat="41.39996913350698" lon="-81.73460661685564">
        <ele>267.2873901821</ele>
        <time>2026-04-22T16:31:13Z</time>
      </trkpt>
      <trkpt lat="41.40042547860540" lon="-81.73462339963753">
        <ele>267.3895621381</ele>
        <time>2026-04-22T16:31:49Z</time>
      </trkpt>
      <trkpt lat="41.40086881483974" lon="-81.73464104380001">
        <ele>267.3355851653</ele>
        <time>2026-04-22T16:32:29Z</time>
      </trkpt>
      <trkpt lat="41.40132420742655" lon="-81.73464844265965">
        <ele>267.3516217809</ele>
        <time>2026-04-22T16:33:15Z</time>
      </trkpt>
      <trkpt lat="41.40132093003380" lon="-81.73523818568320">
        <ele>268.0573660526</ele>
        <time>2026-04-22T16:33:53Z</time>
      </trkpt>
      <trkpt lat="41.40132552139853" lon="-81.73583457986035">
        <ele>268.3033972887</ele>
        <time>2026-04-22T16:34:39Z</time>
      </trkpt>
      <trkpt lat="41.40132246481308" lon="-81.73643138238772">
        <ele>268.4124089973</ele>
        <time>2026-04-22T16:35:20Z</time>
      </trkpt>
      <trkpt lat="41.40132641024258" lon="-81.73703567411775">
        <ele>268.0052916915</ele>
        <time>2026-04-22T16:35:55Z</time>
      </trkpt>
      <trkpt lat="41.40133136754773" lon="-81.73763822135062">
        <ele>268.0036014166</ele>
        <time>2026-04-22T16:36:26Z</time>
      </trkpt>
      <trkpt lat="41.40132475481755" lon="-81.73824005931250">
        <ele>267.6098687911</ele>
        <time>2026-04-22T16:37:12Z</time>
      </trkpt>
      <trkpt lat="41.40132443118861" lon="-81.73884075895602">
        <ele>267.4605996276</ele>
        <time>2026-04-22T16:37:45Z</time>
      </trkpt>
      <trkpt lat="41.40133285900065" lon="-81.73942981466217">
        <ele>267.2604295411</ele>
        <time>2026-04-22T16:38:24Z</time>
      </trkpt>
      <trkpt lat="41.40133283704536" lon="-81.74003650220077">
        <ele>266.6069913740</ele>
        <time>2026-04-22T16:39:22Z</time>
      </trkpt>
      <trkpt lat="41.40133519345029" lon="-81.74021449881515">
        <ele>266.6018085610</ele>
        <time>2026-04-22T16:39:36Z</time>
      </trkpt>
    </trkseg>
  </trk>
</gpx>