<?xml version='1.0' encoding='UTF-8'?>
<gpx xmlns="http://www.topografix.com/GPX/1/1" creator="https://gpx.studio" version="1.1">
  <metadata>
    <name>Dog Walk - 2026-03-10 #1</name>
  </metadata>
  <trk>
    <name>Dog Walk - 2026-03-10 #1</name>
    <type>dog walk</type>
    <trkseg>
      <trkpt lat="41.40134121537044" lon="-81.74025599514660">
        <ele>266.3065457697</ele>
        <time>2026-03-10T11:13:42Z</time>
      </trkpt>
      <trkpt lat="41.40133886195770" lon="-81.74025288573839">
        <ele>266.5842231730</ele>
        <time>2026-03-10T11:13:43Z</time>
      </trkpt>
      <trkpt lat="41.40133019430858" lon="-81.74084919811312">
        <ele>266.2060876821</ele>
        <time>2026-03-10T11:14:19Z</time>
      </trkpt>
      <trkpt lat="41.40132488886363" lon="-81.74145420358465">
        <ele>265.5534197706</ele>
        <time>2026-03-10T11:14:57Z</time>
      </trkpt>
      <trkpt lat="41.40132837646330" lon="-81.74205131218118">
        <ele>265.4557158021</ele>
        <time>2026-03-10T11:15:28Z</time>
      </trkpt>
      <trkpt lat="41.40132299306681" lon="-81.74238334248884">
        <ele>264.8468363596</ele>
        <time>2026-03-10T11:15:49Z</time>
      </trkpt>
      <trkpt lat="41.40132517211357" lon="-81.74237095542389">
        <ele>264.8792980205</ele>
        <time>2026-03-10T11:15:50Z</time>
      </trkpt>
      <trkpt lat="41.40089955861756" lon="-81.74217951272546">
        <ele>265.2851256976</ele>
        <time>2026-03-10T11:16:32Z</time>
      </trkpt>
      <trkpt lat="41.40047589893233" lon="-81.74200131173404">
        <ele>265.2548805991</ele>
        <time>2026-03-10T11:17:03Z</time>
      </trkpt>
      <trkpt lat="41.40004881472316" lon="-81.74180318506949">
        <ele>265.4791742628</ele>
        <time>2026-03-10T11:17:39Z</time>
      </trkpt>
      <trkpt lat="41.39961718191655" lon="-81.74161719636760">
        <ele>264.9817920488</ele>
        <time>2026-03-10T11:18:40Z</time>
      </trkpt>
      <trkpt lat="41.39955164288314" lon="-81.74157931041529">
        <ele>265.0647529785</ele>
        <time>2026-03-10T11:19:02Z</time>
      </trkpt>
      <trkpt lat="41.39954816854447" lon="-81.74098517548990">
        <ele>265.4703152000</ele>
        <time>2026-03-10T11:19:42Z</time>
      </trkpt>
      <trkpt lat="41.39954874826304" lon="-81.74036278743668">
        <ele>266.2377256970</ele>
        <time>2026-03-10T11:20:26Z</time>
      </trkpt>
      <trkpt lat="41.39954121321165" lon="-81.73977805078236">
        <ele>266.6967990379</ele>
        <time>2026-03-10T11:21:07Z</time>
      </trkpt>
      <trkpt lat="41.39953391054603" lon="-81.73918173895119">
        <ele>266.8376487241</ele>
        <time>2026-03-10T11:21:47Z</time>
      </trkpt>
      <trkpt lat="41.39952962438295" lon="-81.73856875512021">
        <ele>266.7774054772</ele>
        <time>2026-03-10T11:22:19Z</time>
      </trkpt>
      <trkpt lat="41.39953872160979" lon="-81.73829855856710">
        <ele>266.9162426900</ele>
        <time>2026-03-10T11:22:37Z</time>
      </trkpt>
      <trkpt lat="41.39953561555191" lon="-81.73829425811780">
        <ele>266.8661699901</ele>
        <time>2026-03-10T11:22:38Z</time>
      </trkpt>
      <trkpt lat="41.39998722367101" lon="-81.73830334514219">
        <ele>267.1395785140</ele>
        <time>2026-03-10T11:23:13Z</time>
      </trkpt>
      <trkpt lat="41.40042873337588" lon="-81.73830015326772">
        <ele>267.0950260801</ele>
        <time>2026-03-10T11:23:48Z</time>
      </trkpt>
      <trkpt lat="41.40088579668279" lon="-81.73829492884630">
        <ele>267.4644335989</ele>
        <time>2026-03-10T11:24:26Z</time>
      </trkpt>
      <trkpt lat="41.40132713970944" lon="-81.73830529550698">
        <ele>267.5804922715</ele>
        <time>2026-03-10T11:25:02Z</time>
      </trkpt>
      <trkpt lat="41.40133370544331" lon="-81.73890697438890">
        <ele>267.1298709587</ele>
        <time>2026-03-10T11:25:45Z</time>
      </trkpt>
      <trkpt lat="41.40133736794847" lon="-81.73949833544393">
        <ele>267.2111646231</ele>
        <time>2026-03-10T11:26:19Z</time>
      </trkpt>
      <trkpt lat="41.40134248973876" lon="-81.74009466419081">
        <ele>266.7202120621</ele>
        <time>2026-03-10T11:27:11Z</time>
      </trkpt>
      <trkpt lat="41.40134084952224" lon="-81.74016915066035">
        <ele>266.6517017977</ele>
        <time>2026-03-10T11:27:27Z</time>
      </trkpt>
    </trkseg>
  </trk>
</gpx>