<?xml version='1.0' encoding='UTF-8'?>
<gpx xmlns="http://www.topografix.com/GPX/1/1" creator="https://gpx.studio" version="1.1">
  <metadata>
    <name>Dog Walk - 2026-03-20 #2</name>
  </metadata>
  <trk>
    <name>Dog Walk - 2026-03-20 #2</name>
    <type>dog walk</type>
    <trkseg>
      <trkpt lat="41.40133673679901" lon="-81.74025115529358">
        <ele>266.5860231612</ele>
        <time>2026-03-20T10:38:53Z</time>
      </trkpt>
      <trkpt lat="41.40133291173674" lon="-81.74026268751342">
        <ele>266.4385978200</ele>
        <time>2026-03-20T10:38:54Z</time>
      </trkpt>
      <trkpt lat="41.40132861035325" lon="-81.74085295000769">
        <ele>266.0925845407</ele>
        <time>2026-03-20T10:39:38Z</time>
      </trkpt>
      <trkpt lat="41.40132912071600" lon="-81.74144966672131">
        <ele>265.8483537810</ele>
        <time>2026-03-20T10:40:21Z</time>
      </trkpt>
      <trkpt lat="41.40132359025714" lon="-81.74205888785495">
        <ele>265.3657019901</ele>
        <time>2026-03-20T10:41:01Z</time>
      </trkpt>
      <trkpt lat="41.40132304454932" lon="-81.74238211218797">
        <ele>264.6551251687</ele>
        <time>2026-03-20T10:41:21Z</time>
      </trkpt>
      <trkpt lat="41.40132961522524" lon="-81.74238812043244">
        <ele>264.8319724054</ele>
        <time>2026-03-20T10:41:22Z</time>
      </trkpt>
      <trkpt lat="41.40089914618473" lon="-81.74218994808928">
        <ele>265.0392293911</ele>
        <time>2026-03-20T10:42:01Z</time>
      </trkpt>
      <trkpt lat="41.40047317463711" lon="-81.74199640673758">
        <ele>265.1656134072</ele>
        <time>2026-03-20T10:42:38Z</time>
      </trkpt>
      <trkpt lat="41.40004749062118" lon="-81.74179930708402">
        <ele>265.3323974920</ele>
        <time>2026-03-20T10:43:30Z</time>
      </trkpt>
      <trkpt lat="41.39962542380617" lon="-81.74160635428559">
        <ele>264.7073843262</ele>
        <time>2026-03-20T10:44:14Z</time>
      </trkpt>
      <trkpt lat="41.39954614820148" lon="-81.74157059127178">
        <ele>264.8782578735</ele>
        <time>2026-03-20T10:44:31Z</time>
      </trkpt>
      <trkpt lat="41.39954249620556" lon="-81.74097250125376">
        <ele>265.5354729274</ele>
        <time>2026-03-20T10:45:09Z</time>
      </trkpt>
      <trkpt lat="41.39953910769298" lon="-81.74037611897826">
        <ele>266.0529451840</ele>
        <time>2026-03-20T10:45:44Z</time>
      </trkpt>
      <trkpt lat="41.39954116579343" lon="-81.73977013611805">
        <ele>266.4686298173</ele>
        <time>2026-03-20T10:46:29Z</time>
      </trkpt>
      <trkpt lat="41.39953984580069" lon="-81.73916736721154">
        <ele>266.7934075952</ele>
        <time>2026-03-20T10:47:07Z</time>
      </trkpt>
      <trkpt lat="41.39953002385629" lon="-81.73857409292462">
        <ele>266.8456339746</ele>
        <time>2026-03-20T10:47:57Z</time>
      </trkpt>
      <trkpt lat="41.39953664031047" lon="-81.73830162677177">
        <ele>266.8274563563</ele>
        <time>2026-03-20T10:48:12Z</time>
      </trkpt>
      <trkpt lat="41.39953678411215" lon="-81.73828960151343">
        <ele>266.7408957106</ele>
        <time>2026-03-20T10:48:13Z</time>
      </trkpt>
      <trkpt lat="41.39998338226682" lon="-81.73830529221360">
        <ele>267.0472711428</ele>
        <time>2026-03-20T10:48:55Z</time>
      </trkpt>
      <trkpt lat="41.40043691293842" lon="-81.73829940995380">
        <ele>267.3666310042</ele>
        <time>2026-03-20T10:49:40Z</time>
      </trkpt>
      <trkpt lat="41.40087675677933" lon="-81.73830195262786">
        <ele>267.5203983143</ele>
        <time>2026-03-20T10:50:17Z</time>
      </trkpt>
      <trkpt lat="41.40133559725174" lon="-81.73829455232378">
        <ele>267.4170734268</ele>
        <time>2026-03-20T10:51:21Z</time>
      </trkpt>
      <trkpt lat="41.40132836405715" lon="-81.73890488118511">
        <ele>267.2496972940</ele>
        <time>2026-03-20T10:51:57Z</time>
      </trkpt>
      <trkpt lat="41.40133421343877" lon="-81.73949717136657">
        <ele>267.0953675267</ele>
        <time>2026-03-20T10:52:36Z</time>
      </trkpt>
      <trkpt lat="41.40134295748027" lon="-81.74010212509236">
        <ele>266.4996182350</ele>
        <time>2026-03-20T10:53:26Z</time>
      </trkpt>
      <trkpt lat="41.40134300650229" lon="-81.74015377230940">
        <ele>266.4446235124</ele>
        <time>2026-03-20T10:53:30Z</time>
      </trkpt>
    </trkseg>
  </trk>
</gpx>