<?xml version='1.0' encoding='UTF-8'?>
<gpx xmlns="http://www.topografix.com/GPX/1/1" creator="https://gpx.studio" version="1.1">
  <metadata>
    <name>Dog Walk - 2026-03-04</name>
  </metadata>
  <trk>
    <name>Dog Walk - 2026-03-04</name>
    <type>dog walk</type>
    <trkseg>
      <trkpt lat="41.40133782565848" lon="-81.74025458602857">
        <ele>266.5740948752</ele>
        <time>2026-03-04T16:33:48Z</time>
      </trkpt>
      <trkpt lat="41.40133791114616" lon="-81.74026461039382">
        <ele>266.4684693216</ele>
        <time>2026-03-04T16:33:49Z</time>
      </trkpt>
      <trkpt lat="41.40132609987564" lon="-81.74084865600132">
        <ele>266.1992721627</ele>
        <time>2026-03-04T16:34:36Z</time>
      </trkpt>
      <trkpt lat="41.40132278805457" lon="-81.74145307090916">
        <ele>265.5777907380</ele>
        <time>2026-03-04T16:35:27Z</time>
      </trkpt>
      <trkpt lat="41.40132772137881" lon="-81.74205230421398">
        <ele>265.3114456860</ele>
        <time>2026-03-04T16:36:00Z</time>
      </trkpt>
      <trkpt lat="41.40133151987933" lon="-81.74236855670097">
        <ele>264.6784933167</ele>
        <time>2026-03-04T16:36:32Z</time>
      </trkpt>
      <trkpt lat="41.40132432894803" lon="-81.74237438960053">
        <ele>264.4857585541</ele>
        <time>2026-03-04T16:36:33Z</time>
      </trkpt>
      <trkpt lat="41.40089315290579" lon="-81.74217503236193">
        <ele>265.1836484792</ele>
        <time>2026-03-04T16:37:19Z</time>
      </trkpt>
      <trkpt lat="41.40047777982114" lon="-81.74198904591577">
        <ele>265.3522501657</ele>
        <time>2026-03-04T16:38:04Z</time>
      </trkpt>
      <trkpt lat="41.40004803311398" lon="-81.74180646165851">
        <ele>265.5253335713</ele>
        <time>2026-03-04T16:38:40Z</time>
      </trkpt>
      <trkpt lat="41.39961821494281" lon="-81.74160562961700">
        <ele>264.6616722150</ele>
        <time>2026-03-04T16:39:26Z</time>
      </trkpt>
      <trkpt lat="41.39954713621821" lon="-81.74156846583227">
        <ele>264.7613213549</ele>
        <time>2026-03-04T16:39:33Z</time>
      </trkpt>
      <trkpt lat="41.39954412274203" lon="-81.74097070203236">
        <ele>265.7530580577</ele>
        <time>2026-03-04T16:40:04Z</time>
      </trkpt>
      <trkpt lat="41.39954471789482" lon="-81.74036020018664">
        <ele>266.0625888375</ele>
        <time>2026-03-04T16:40:53Z</time>
      </trkpt>
      <trkpt lat="41.39953894109752" lon="-81.73976538730916">
        <ele>266.7586522179</ele>
        <time>2026-03-04T16:41:29Z</time>
      </trkpt>
      <trkpt lat="41.39953664751188" lon="-81.73917936685481">
        <ele>266.8112175149</ele>
        <time>2026-03-04T16:42:12Z</time>
      </trkpt>
      <trkpt lat="41.39954327346354" lon="-81.73857201058216">
        <ele>266.8267339054</ele>
        <time>2026-03-04T16:42:42Z</time>
      </trkpt>
      <trkpt lat="41.39952915438992" lon="-81.73829845355394">
        <ele>266.7353468708</ele>
        <time>2026-03-04T16:43:00Z</time>
      </trkpt>
      <trkpt lat="41.39952911574630" lon="-81.73829591787550">
        <ele>266.8573866227</ele>
        <time>2026-03-04T16:43:01Z</time>
      </trkpt>
      <trkpt lat="41.39998723590294" lon="-81.73828978721737">
        <ele>266.9062879283</ele>
        <time>2026-03-04T16:43:38Z</time>
      </trkpt>
      <trkpt lat="41.40043426399000" lon="-81.73830377115263">
        <ele>267.3000656134</ele>
        <time>2026-03-04T16:44:17Z</time>
      </trkpt>
      <trkpt lat="41.40088173750827" lon="-81.73829675430891">
        <ele>267.4583469365</ele>
        <time>2026-03-04T16:44:55Z</time>
      </trkpt>
      <trkpt lat="41.40131427003301" lon="-81.73830493028377">
        <ele>267.2923042233</ele>
        <time>2026-03-04T16:45:29Z</time>
      </trkpt>
      <trkpt lat="41.40132981418698" lon="-81.73890437459265">
        <ele>267.3768529521</ele>
        <time>2026-03-04T16:46:03Z</time>
      </trkpt>
      <trkpt lat="41.40133985585672" lon="-81.73950276114724">
        <ele>267.4012438836</ele>
        <time>2026-03-04T16:46:43Z</time>
      </trkpt>
      <trkpt lat="41.40134324693470" lon="-81.74010275735196">
        <ele>266.8013743682</ele>
        <time>2026-03-04T16:47:21Z</time>
      </trkpt>
      <trkpt lat="41.40134471652016" lon="-81.74014222594167">
        <ele>266.3214437177</ele>
        <time>2026-03-04T16:47:24Z</time>
      </trkpt>
    </trkseg>
  </trk>
</gpx>