<?xml version='1.0' encoding='UTF-8'?>
<gpx xmlns="http://www.topografix.com/GPX/1/1" creator="https://gpx.studio" version="1.1">
  <metadata>
    <name>Dog Walk - 2026-06-28 #2</name>
  </metadata>
  <trk>
    <name>Dog Walk - 2026-06-28 #2</name>
    <type>dog walk</type>
    <trkseg>
      <trkpt lat="41.40134404204225" lon="-81.74024322153545">
        <ele>266.3795010238</ele>
        <time>2026-06-28T18:42:07Z</time>
      </trkpt>
      <trkpt lat="41.40133687081364" lon="-81.74083850521171">
        <ele>266.0328045254</ele>
        <time>2026-06-28T18:42:47Z</time>
      </trkpt>
      <trkpt lat="41.40134433339330" lon="-81.74143444975465">
        <ele>265.6992314668</ele>
        <time>2026-06-28T18:43:29Z</time>
      </trkpt>
      <trkpt lat="41.40133607987006" lon="-81.74203485054770">
        <ele>265.3021644220</ele>
        <time>2026-06-28T18:44:24Z</time>
      </trkpt>
      <trkpt lat="41.40134574991071" lon="-81.74242238037522">
        <ele>264.7842531480</ele>
        <time>2026-06-28T18:44:53Z</time>
      </trkpt>
      <trkpt lat="41.40177139658699" lon="-81.74263411764238">
        <ele>264.1320381517</ele>
        <time>2026-06-28T18:45:35Z</time>
      </trkpt>
      <trkpt lat="41.40218878747740" lon="-81.74285392908403">
        <ele>263.5445203979</ele>
        <time>2026-06-28T18:46:09Z</time>
      </trkpt>
      <trkpt lat="41.40222354762710" lon="-81.74285960163547">
        <ele>263.4666976514</ele>
        <time>2026-06-28T18:46:12Z</time>
      </trkpt>
      <trkpt lat="41.40221147062478" lon="-81.74227157831797">
        <ele>264.4857775999</ele>
        <time>2026-06-28T18:46:53Z</time>
      </trkpt>
      <trkpt lat="41.40221582152753" lon="-81.74166944516359">
        <ele>264.6091578768</ele>
        <time>2026-06-28T18:47:37Z</time>
      </trkpt>
      <trkpt lat="41.40222462726467" lon="-81.74108039101716">
        <ele>265.5818622298</ele>
        <time>2026-06-28T18:48:19Z</time>
      </trkpt>
      <trkpt lat="41.40222062850881" lon="-81.74046434720323">
        <ele>266.0477020520</ele>
        <time>2026-06-28T18:48:54Z</time>
      </trkpt>
      <trkpt lat="41.40221777278453" lon="-81.73986370053287">
        <ele>266.5987684573</ele>
        <time>2026-06-28T18:49:37Z</time>
      </trkpt>
      <trkpt lat="41.40222637570361" lon="-81.73927031404884">
        <ele>267.0144668366</ele>
        <time>2026-06-28T18:50:22Z</time>
      </trkpt>
      <trkpt lat="41.40221905567923" lon="-81.73866653388188">
        <ele>267.2952146690</ele>
        <time>2026-06-28T18:51:05Z</time>
      </trkpt>
      <trkpt lat="41.40222324065145" lon="-81.73826906608430">
        <ele>267.1187956662</ele>
        <time>2026-06-28T18:51:28Z</time>
      </trkpt>
      <trkpt lat="41.40176946126643" lon="-81.73826105125929">
        <ele>267.7617620437</ele>
        <time>2026-06-28T18:52:06Z</time>
      </trkpt>
      <trkpt lat="41.40133780921148" lon="-81.73827219773982">
        <ele>267.7566439653</ele>
        <time>2026-06-28T18:52:40Z</time>
      </trkpt>
      <trkpt lat="41.40134083988225" lon="-81.73886191676530">
        <ele>267.4975818613</ele>
        <time>2026-06-28T18:53:32Z</time>
      </trkpt>
      <trkpt lat="41.40133706180371" lon="-81.73945863194275">
        <ele>267.1314798427</ele>
        <time>2026-06-28T18:54:07Z</time>
      </trkpt>
      <trkpt lat="41.40134426902081" lon="-81.74006097702657">
        <ele>266.6521582110</ele>
        <time>2026-06-28T18:54:37Z</time>
      </trkpt>
      <trkpt lat="41.40133844175101" lon="-81.74018736405074">
        <ele>266.6456516037</ele>
        <time>2026-06-28T18:54:49Z</time>
      </trkpt>
    </trkseg>
  </trk>
</gpx>