<?xml version='1.0' encoding='UTF-8'?>
<gpx xmlns="http://www.topografix.com/GPX/1/1" creator="https://gpx.studio" version="1.1">
  <metadata>
    <name>Dog Walk - 2026-03-01</name>
  </metadata>
  <trk>
    <name>Dog Walk - 2026-03-01</name>
    <type>dog walk</type>
    <trkseg>
      <trkpt lat="41.40132987198934" lon="-81.74025881059498">
        <ele>266.5093520586</ele>
        <time>2026-03-01T13:40:54Z</time>
      </trkpt>
      <trkpt lat="41.40133507852212" lon="-81.74025069879458">
        <ele>266.3638254477</ele>
        <time>2026-03-01T13:40:55Z</time>
      </trkpt>
      <trkpt lat="41.40133002450101" lon="-81.74086024449934">
        <ele>266.3867129056</ele>
        <time>2026-03-01T13:41:30Z</time>
      </trkpt>
      <trkpt lat="41.40132966084294" lon="-81.74145562113802">
        <ele>265.9619137998</ele>
        <time>2026-03-01T13:42:04Z</time>
      </trkpt>
      <trkpt lat="41.40132282635244" lon="-81.74205477920168">
        <ele>265.3506226230</ele>
        <time>2026-03-01T13:42:52Z</time>
      </trkpt>
      <trkpt lat="41.40131944383289" lon="-81.74237582372616">
        <ele>264.7975861682</ele>
        <time>2026-03-01T13:43:11Z</time>
      </trkpt>
      <trkpt lat="41.40132337132854" lon="-81.74238660207713">
        <ele>264.8217666316</ele>
        <time>2026-03-01T13:43:13Z</time>
      </trkpt>
      <trkpt lat="41.40089599732030" lon="-81.74217875506717">
        <ele>265.1911925565</ele>
        <time>2026-03-01T13:43:58Z</time>
      </trkpt>
      <trkpt lat="41.40047210966974" lon="-81.74199367827231">
        <ele>264.9539417819</ele>
        <time>2026-03-01T13:44:39Z</time>
      </trkpt>
      <trkpt lat="41.40004145222033" lon="-81.74179779912858">
        <ele>265.2314336336</ele>
        <time>2026-03-01T13:45:14Z</time>
      </trkpt>
      <trkpt lat="41.39962170847556" lon="-81.74161135780777">
        <ele>264.8262928584</ele>
        <time>2026-03-01T13:45:52Z</time>
      </trkpt>
      <trkpt lat="41.39954561370956" lon="-81.74157125042160">
        <ele>264.6576850899</ele>
        <time>2026-03-01T13:45:59Z</time>
      </trkpt>
      <trkpt lat="41.39953538607023" lon="-81.74097684507070">
        <ele>265.5839276512</ele>
        <time>2026-03-01T13:46:37Z</time>
      </trkpt>
      <trkpt lat="41.39953227553279" lon="-81.74036942746642">
        <ele>266.1165599389</ele>
        <time>2026-03-01T13:47:21Z</time>
      </trkpt>
      <trkpt lat="41.39954843814508" lon="-81.73978406988888">
        <ele>266.6017237139</ele>
        <time>2026-03-01T13:47:58Z</time>
      </trkpt>
      <trkpt lat="41.39953573863155" lon="-81.73916548445825">
        <ele>266.8790020306</ele>
        <time>2026-03-01T13:48:41Z</time>
      </trkpt>
      <trkpt lat="41.39953640330798" lon="-81.73857463115152">
        <ele>266.9954321990</ele>
        <time>2026-03-01T13:49:22Z</time>
      </trkpt>
      <trkpt lat="41.39954034664458" lon="-81.73829343933065">
        <ele>267.0829673799</ele>
        <time>2026-03-01T13:49:42Z</time>
      </trkpt>
      <trkpt lat="41.39953467207905" lon="-81.73829485540564">
        <ele>266.9592793409</ele>
        <time>2026-03-01T13:49:43Z</time>
      </trkpt>
      <trkpt lat="41.39998857442418" lon="-81.73830339783470">
        <ele>267.1654875822</ele>
        <time>2026-03-01T13:50:27Z</time>
      </trkpt>
      <trkpt lat="41.40043617517923" lon="-81.73830592547303">
        <ele>267.1567568987</ele>
        <time>2026-03-01T13:51:00Z</time>
      </trkpt>
      <trkpt lat="41.40088066352055" lon="-81.73830318099134">
        <ele>267.3651661168</ele>
        <time>2026-03-01T13:52:07Z</time>
      </trkpt>
      <trkpt lat="41.40133021989752" lon="-81.73830860187567">
        <ele>267.5456544753</ele>
        <time>2026-03-01T13:52:41Z</time>
      </trkpt>
      <trkpt lat="41.40132603470361" lon="-81.73890468062149">
        <ele>267.2122770216</ele>
        <time>2026-03-01T13:53:21Z</time>
      </trkpt>
      <trkpt lat="41.40132745470910" lon="-81.73949756882060">
        <ele>267.1268957979</ele>
        <time>2026-03-01T13:54:06Z</time>
      </trkpt>
      <trkpt lat="41.40133516009752" lon="-81.74011316101061">
        <ele>266.7968284355</ele>
        <time>2026-03-01T13:54:51Z</time>
      </trkpt>
      <trkpt lat="41.40133823656875" lon="-81.74016062522810">
        <ele>266.4693178893</ele>
        <time>2026-03-01T13:54:54Z</time>
      </trkpt>
    </trkseg>
  </trk>
</gpx>