<?xml version='1.0' encoding='UTF-8'?>
<gpx xmlns="http://www.topografix.com/GPX/1/1" creator="https://gpx.studio" version="1.1">
  <metadata>
    <name>Dog Walk - 2026-08-30 #2</name>
  </metadata>
  <trk>
    <name>Dog Walk - 2026-08-30 #2</name>
    <type>dog walk</type>
    <trkseg>
      <trkpt lat="41.40133312508362" lon="-81.74023515461857">
        <ele>266.4797638316</ele>
        <time>2026-08-30T09:38:17Z</time>
      </trkpt>
      <trkpt lat="41.40132756698203" lon="-81.74083711007307">
        <ele>266.3295070065</ele>
        <time>2026-08-30T09:39:01Z</time>
      </trkpt>
      <trkpt lat="41.40133227863775" lon="-81.74143735766862">
        <ele>265.6402341431</ele>
        <time>2026-08-30T09:39:48Z</time>
      </trkpt>
      <trkpt lat="41.40132399614214" lon="-81.74203276375270">
        <ele>265.5285893457</ele>
        <time>2026-08-30T09:40:26Z</time>
      </trkpt>
      <trkpt lat="41.40132319253561" lon="-81.74239562410966">
        <ele>264.7820086658</ele>
        <time>2026-08-30T09:40:51Z</time>
      </trkpt>
      <trkpt lat="41.40091069676670" lon="-81.74219983182311">
        <ele>265.3081172243</ele>
        <time>2026-08-30T09:41:29Z</time>
      </trkpt>
      <trkpt lat="41.40047452366604" lon="-81.74201137131698">
        <ele>265.4344916751</ele>
        <time>2026-08-30T09:42:06Z</time>
      </trkpt>
      <trkpt lat="41.40005462871486" lon="-81.74180846080235">
        <ele>265.4116609698</ele>
        <time>2026-08-30T09:43:01Z</time>
      </trkpt>
      <trkpt lat="41.39962232987035" lon="-81.74161148132268">
        <ele>264.9296298217</ele>
        <time>2026-08-30T09:43:41Z</time>
      </trkpt>
      <trkpt lat="41.39954036861808" lon="-81.74156807990316">
        <ele>264.7233766016</ele>
        <time>2026-08-30T09:43:48Z</time>
      </trkpt>
      <trkpt lat="41.39953420488222" lon="-81.74097739397429">
        <ele>265.6152083175</ele>
        <time>2026-08-30T09:44:30Z</time>
      </trkpt>
      <trkpt lat="41.39953483228927" lon="-81.74036970910144">
        <ele>266.0317788423</ele>
        <time>2026-08-30T09:45:07Z</time>
      </trkpt>
      <trkpt lat="41.39953387993926" lon="-81.73977657166671">
        <ele>266.4866970706</ele>
        <time>2026-08-30T09:45:49Z</time>
      </trkpt>
      <trkpt lat="41.39953184644475" lon="-81.73917285929367">
        <ele>266.7528121139</ele>
        <time>2026-08-30T09:46:24Z</time>
      </trkpt>
      <trkpt lat="41.39953661876766" lon="-81.73857827858450">
        <ele>266.7252556026</ele>
        <time>2026-08-30T09:47:01Z</time>
      </trkpt>
      <trkpt lat="41.39952960776548" lon="-81.73797878927199">
        <ele>267.1088356246</ele>
        <time>2026-08-30T09:47:40Z</time>
      </trkpt>
      <trkpt lat="41.39952440457669" lon="-81.73736757666671">
        <ele>267.2347962678</ele>
        <time>2026-08-30T09:48:18Z</time>
      </trkpt>
      <trkpt lat="41.39952735363246" lon="-81.73678425460371">
        <ele>267.4505640550</ele>
        <time>2026-08-30T09:49:00Z</time>
      </trkpt>
      <trkpt lat="41.39952608060448" lon="-81.73618029435109">
        <ele>267.6265835645</ele>
        <time>2026-08-30T09:49:40Z</time>
      </trkpt>
      <trkpt lat="41.39952033523571" lon="-81.73557560369930">
        <ele>267.3083676614</ele>
        <time>2026-08-30T09:50:21Z</time>
      </trkpt>
      <trkpt lat="41.39953469921836" lon="-81.73497097103132">
        <ele>267.2386354915</ele>
        <time>2026-08-30T09:51:09Z</time>
      </trkpt>
      <trkpt lat="41.39952688285869" lon="-81.73461234789598">
        <ele>267.0297968880</ele>
        <time>2026-08-30T09:51:33Z</time>
      </trkpt>
      <trkpt lat="41.39997120258889" lon="-81.73461306760557">
        <ele>267.3025173496</ele>
        <time>2026-08-30T09:52:18Z</time>
      </trkpt>
      <trkpt lat="41.40042011239088" lon="-81.73463173836366">
        <ele>267.1849949054</ele>
        <time>2026-08-30T09:52:52Z</time>
      </trkpt>
      <trkpt lat="41.40088416864095" lon="-81.73463685034517">
        <ele>267.2769097457</ele>
        <time>2026-08-30T09:53:53Z</time>
      </trkpt>
      <trkpt lat="41.40131454248052" lon="-81.73463760456934">
        <ele>267.2149095121</ele>
        <time>2026-08-30T09:54:24Z</time>
      </trkpt>
      <trkpt lat="41.40131592745011" lon="-81.73524598769578">
        <ele>267.8150573384</ele>
        <time>2026-08-30T09:55:03Z</time>
      </trkpt>
      <trkpt lat="41.40132987001154" lon="-81.73583933024916">
        <ele>268.1411134389</ele>
        <time>2026-08-30T09:55:44Z</time>
      </trkpt>
      <trkpt lat="41.40131703983007" lon="-81.73644023131364">
        <ele>268.1429926420</ele>
        <time>2026-08-30T09:56:50Z</time>
      </trkpt>
      <trkpt lat="41.40132887489438" lon="-81.73703972835631">
        <ele>267.8309908840</ele>
        <time>2026-08-30T09:57:24Z</time>
      </trkpt>
      <trkpt lat="41.40132532718390" lon="-81.73763682948574">
        <ele>267.8790597756</ele>
        <time>2026-08-30T09:57:57Z</time>
      </trkpt>
      <trkpt lat="41.40133057037421" lon="-81.73824180072825">
        <ele>267.5943064309</ele>
        <time>2026-08-30T09:58:40Z</time>
      </trkpt>
      <trkpt lat="41.40132467141333" lon="-81.73883556864752">
        <ele>267.4991538088</ele>
        <time>2026-08-30T09:59:17Z</time>
      </trkpt>
      <trkpt lat="41.40132526468526" lon="-81.73943067723781">
        <ele>267.1967094088</ele>
        <time>2026-08-30T09:59:55Z</time>
      </trkpt>
      <trkpt lat="41.40133765706027" lon="-81.74003831402194">
        <ele>266.6829176590</ele>
        <time>2026-08-30T10:00:36Z</time>
      </trkpt>
      <trkpt lat="41.40134047058920" lon="-81.74021046388347">
        <ele>266.2724210537</ele>
        <time>2026-08-30T10:00:53Z</time>
      </trkpt>
    </trkseg>
  </trk>
</gpx>