<?xml version='1.0' encoding='UTF-8'?>
<gpx xmlns="http://www.topografix.com/GPX/1/1" creator="https://gpx.studio" version="1.1">
  <metadata>
    <name>Dog Walk - 2026-03-23 #4</name>
  </metadata>
  <trk>
    <name>Dog Walk - 2026-03-23 #4</name>
    <type>dog walk</type>
    <trkseg>
      <trkpt lat="41.40132169949976" lon="-81.74025916684273">
        <ele>266.4977330152</ele>
        <time>2026-03-23T19:37:17Z</time>
      </trkpt>
      <trkpt lat="41.40132809106683" lon="-81.74024911776779">
        <ele>266.4372361932</ele>
        <time>2026-03-23T19:37:18Z</time>
      </trkpt>
      <trkpt lat="41.40132509755114" lon="-81.74085521493538">
        <ele>266.1835019878</ele>
        <time>2026-03-23T19:37:58Z</time>
      </trkpt>
      <trkpt lat="41.40132847210626" lon="-81.74145286888191">
        <ele>265.7083032871</ele>
        <time>2026-03-23T19:38:32Z</time>
      </trkpt>
      <trkpt lat="41.40132468680341" lon="-81.74205912688296">
        <ele>265.5005085291</ele>
        <time>2026-03-23T19:39:05Z</time>
      </trkpt>
      <trkpt lat="41.40132596135769" lon="-81.74238649362205">
        <ele>264.7133819136</ele>
        <time>2026-03-23T19:39:29Z</time>
      </trkpt>
      <trkpt lat="41.40132607943343" lon="-81.74237757732303">
        <ele>264.5986313735</ele>
        <time>2026-03-23T19:39:30Z</time>
      </trkpt>
      <trkpt lat="41.40090192306948" lon="-81.74218992601872">
        <ele>265.0378718298</ele>
        <time>2026-03-23T19:40:19Z</time>
      </trkpt>
      <trkpt lat="41.40047087878027" lon="-81.74198961132879">
        <ele>265.1815535147</ele>
        <time>2026-03-23T19:40:56Z</time>
      </trkpt>
      <trkpt lat="41.40004108131841" lon="-81.74179826143677">
        <ele>265.4438559902</ele>
        <time>2026-03-23T19:41:36Z</time>
      </trkpt>
      <trkpt lat="41.39962471555258" lon="-81.74159578606080">
        <ele>264.6575555385</ele>
        <time>2026-03-23T19:42:06Z</time>
      </trkpt>
      <trkpt lat="41.39953797501434" lon="-81.74157915589441">
        <ele>264.8920263172</ele>
        <time>2026-03-23T19:42:13Z</time>
      </trkpt>
      <trkpt lat="41.39954054524321" lon="-81.74097145025414">
        <ele>265.6816234708</ele>
        <time>2026-03-23T19:42:58Z</time>
      </trkpt>
      <trkpt lat="41.39953859104141" lon="-81.74037823538296">
        <ele>266.2262883592</ele>
        <time>2026-03-23T19:43:35Z</time>
      </trkpt>
      <trkpt lat="41.39954204663566" lon="-81.73976338480412">
        <ele>266.4957123584</ele>
        <time>2026-03-23T19:44:24Z</time>
      </trkpt>
      <trkpt lat="41.39953826873953" lon="-81.73917387927042">
        <ele>266.9036407886</ele>
        <time>2026-03-23T19:45:08Z</time>
      </trkpt>
      <trkpt lat="41.39955093814557" lon="-81.73857214631848">
        <ele>266.8908498488</ele>
        <time>2026-03-23T19:45:51Z</time>
      </trkpt>
      <trkpt lat="41.39953255112196" lon="-81.73829524827505">
        <ele>266.8865011392</ele>
        <time>2026-03-23T19:46:06Z</time>
      </trkpt>
      <trkpt lat="41.39953287234014" lon="-81.73828655595750">
        <ele>267.0149425168</ele>
        <time>2026-03-23T19:46:07Z</time>
      </trkpt>
      <trkpt lat="41.39998468289438" lon="-81.73829735861842">
        <ele>267.1200636628</ele>
        <time>2026-03-23T19:47:09Z</time>
      </trkpt>
      <trkpt lat="41.40042890007776" lon="-81.73829929911587">
        <ele>267.0521946274</ele>
        <time>2026-03-23T19:47:47Z</time>
      </trkpt>
      <trkpt lat="41.40088225987933" lon="-81.73830967235024">
        <ele>267.3911690494</ele>
        <time>2026-03-23T19:48:19Z</time>
      </trkpt>
      <trkpt lat="41.40132554185043" lon="-81.73830414257844">
        <ele>267.3823232255</ele>
        <time>2026-03-23T19:48:55Z</time>
      </trkpt>
      <trkpt lat="41.40132287166994" lon="-81.73890432146557">
        <ele>267.3745946875</ele>
        <time>2026-03-23T19:49:28Z</time>
      </trkpt>
      <trkpt lat="41.40133866683362" lon="-81.73950562554700">
        <ele>267.2944069733</ele>
        <time>2026-03-23T19:50:16Z</time>
      </trkpt>
      <trkpt lat="41.40133176140218" lon="-81.74009616709756">
        <ele>266.4901318723</ele>
        <time>2026-03-23T19:51:03Z</time>
      </trkpt>
      <trkpt lat="41.40134318557341" lon="-81.74015074958101">
        <ele>266.4882491184</ele>
        <time>2026-03-23T19:51:06Z</time>
      </trkpt>
    </trkseg>
  </trk>
</gpx>