<?xml version='1.0' encoding='UTF-8'?>
<gpx xmlns="http://www.topografix.com/GPX/1/1" creator="https://gpx.studio" version="1.1">
  <metadata>
    <name>Dog Walk - 2026-07-27 #4</name>
  </metadata>
  <trk>
    <name>Dog Walk - 2026-07-27 #4</name>
    <type>dog walk</type>
    <trkseg>
      <trkpt lat="41.40133666749739" lon="-81.74024981457600">
        <ele>266.5165557981</ele>
        <time>2026-07-27T19:55:45Z</time>
      </trkpt>
      <trkpt lat="41.40134078220801" lon="-81.74084125993667">
        <ele>266.4539249263</ele>
        <time>2026-07-27T19:56:21Z</time>
      </trkpt>
      <trkpt lat="41.40134397984564" lon="-81.74144112784789">
        <ele>265.8615751579</ele>
        <time>2026-07-27T19:56:53Z</time>
      </trkpt>
      <trkpt lat="41.40134717921505" lon="-81.74203880870043">
        <ele>265.4264535449</ele>
        <time>2026-07-27T19:57:22Z</time>
      </trkpt>
      <trkpt lat="41.40134584740317" lon="-81.74242097909553">
        <ele>264.8524150346</ele>
        <time>2026-07-27T19:57:44Z</time>
      </trkpt>
      <trkpt lat="41.40177259307332" lon="-81.74262095475866">
        <ele>264.5296997867</ele>
        <time>2026-07-27T19:58:24Z</time>
      </trkpt>
      <trkpt lat="41.40219406623454" lon="-81.74281755543431">
        <ele>263.5617972015</ele>
        <time>2026-07-27T19:59:06Z</time>
      </trkpt>
      <trkpt lat="41.40262051900140" lon="-81.74301463375427">
        <ele>263.3030612437</ele>
        <time>2026-07-27T19:59:53Z</time>
      </trkpt>
      <trkpt lat="41.40303672367272" lon="-81.74321208750794">
        <ele>262.6594017559</ele>
        <time>2026-07-27T20:00:29Z</time>
      </trkpt>
      <trkpt lat="41.40311898568018" lon="-81.74325675377780">
        <ele>262.3436834691</ele>
        <time>2026-07-27T20:00:36Z</time>
      </trkpt>
      <trkpt lat="41.40311399843365" lon="-81.74265909601459">
        <ele>262.8055742122</ele>
        <time>2026-07-27T20:01:29Z</time>
      </trkpt>
      <trkpt lat="41.40311121675308" lon="-81.74205762459428">
        <ele>263.7248905048</ele>
        <time>2026-07-27T20:02:24Z</time>
      </trkpt>
      <trkpt lat="41.40310224823718" lon="-81.74145633394762">
        <ele>264.0611971168</ele>
        <time>2026-07-27T20:02:59Z</time>
      </trkpt>
      <trkpt lat="41.40310484240658" lon="-81.74085004345869">
        <ele>264.7732162233</ele>
        <time>2026-07-27T20:03:43Z</time>
      </trkpt>
      <trkpt lat="41.40310974913272" lon="-81.74025474548347">
        <ele>265.2851052223</ele>
        <time>2026-07-27T20:04:25Z</time>
      </trkpt>
      <trkpt lat="41.40309935273496" lon="-81.73964380827850">
        <ele>265.8395767553</ele>
        <time>2026-07-27T20:05:11Z</time>
      </trkpt>
      <trkpt lat="41.40309605720557" lon="-81.73905921681670">
        <ele>266.3661476776</ele>
        <time>2026-07-27T20:06:38Z</time>
      </trkpt>
      <trkpt lat="41.40310525260968" lon="-81.73879543502321">
        <ele>266.0640419174</ele>
        <time>2026-07-27T20:06:59Z</time>
      </trkpt>
      <trkpt lat="41.40264394551473" lon="-81.73878499282095">
        <ele>266.6793138296</ele>
        <time>2026-07-27T20:07:47Z</time>
      </trkpt>
      <trkpt lat="41.40223220145182" lon="-81.73877864217850">
        <ele>267.1646687471</ele>
        <time>2026-07-27T20:08:25Z</time>
      </trkpt>
      <trkpt lat="41.40223434357186" lon="-81.73817438364833">
        <ele>267.0122213146</ele>
        <time>2026-07-27T20:09:27Z</time>
      </trkpt>
      <trkpt lat="41.40223060736719" lon="-81.73757844812494">
        <ele>266.8193540380</ele>
        <time>2026-07-27T20:10:19Z</time>
      </trkpt>
      <trkpt lat="41.40222598590780" lon="-81.73698362617571">
        <ele>267.0819046899</ele>
        <time>2026-07-27T20:10:56Z</time>
      </trkpt>
      <trkpt lat="41.40222538397929" lon="-81.73636579490167">
        <ele>267.2442345888</ele>
        <time>2026-07-27T20:11:31Z</time>
      </trkpt>
      <trkpt lat="41.40222753127646" lon="-81.73577504677375">
        <ele>267.2241196380</ele>
        <time>2026-07-27T20:12:08Z</time>
      </trkpt>
      <trkpt lat="41.40221871966602" lon="-81.73517986134655">
        <ele>267.2130165976</ele>
        <time>2026-07-27T20:12:49Z</time>
      </trkpt>
      <trkpt lat="41.40222064876807" lon="-81.73464998065120">
        <ele>267.0046016663</ele>
        <time>2026-07-27T20:13:29Z</time>
      </trkpt>
      <trkpt lat="41.40176848983278" lon="-81.73464856572430">
        <ele>267.1683988486</ele>
        <time>2026-07-27T20:14:22Z</time>
      </trkpt>
      <trkpt lat="41.40133040329909" lon="-81.73463627159472">
        <ele>267.2421892871</ele>
        <time>2026-07-27T20:14:54Z</time>
      </trkpt>
      <trkpt lat="41.40131121738270" lon="-81.73462981533562">
        <ele>267.4386859818</ele>
        <time>2026-07-27T20:14:55Z</time>
      </trkpt>
      <trkpt lat="41.40132123100056" lon="-81.73523518746173">
        <ele>267.8141575170</ele>
        <time>2026-07-27T20:15:36Z</time>
      </trkpt>
      <trkpt lat="41.40132616221456" lon="-81.73583057540118">
        <ele>268.3578169601</ele>
        <time>2026-07-27T20:16:13Z</time>
      </trkpt>
      <trkpt lat="41.40131735152358" lon="-81.73642750233985">
        <ele>268.2528183169</ele>
        <time>2026-07-27T20:17:01Z</time>
      </trkpt>
      <trkpt lat="41.40133220539478" lon="-81.73703137576059">
        <ele>267.9228835974</ele>
        <time>2026-07-27T20:17:50Z</time>
      </trkpt>
      <trkpt lat="41.40133143296710" lon="-81.73763585368208">
        <ele>268.0768446998</ele>
        <time>2026-07-27T20:18:54Z</time>
      </trkpt>
      <trkpt lat="41.40132971070948" lon="-81.73822886710376">
        <ele>267.5206394670</ele>
        <time>2026-07-27T20:19:29Z</time>
      </trkpt>
      <trkpt lat="41.40133740431380" lon="-81.73883063973513">
        <ele>267.1784608281</ele>
        <time>2026-07-27T20:20:05Z</time>
      </trkpt>
      <trkpt lat="41.40134168887417" lon="-81.73943199054182">
        <ele>267.2695932576</ele>
        <time>2026-07-27T20:20:39Z</time>
      </trkpt>
      <trkpt lat="41.40134682365873" lon="-81.74004081917791">
        <ele>266.6504996676</ele>
        <time>2026-07-27T20:21:15Z</time>
      </trkpt>
      <trkpt lat="41.40134034087859" lon="-81.74015661531230">
        <ele>266.5253396576</ele>
        <time>2026-07-27T20:21:23Z</time>
      </trkpt>
    </trkseg>
  </trk>
</gpx>