<?xml version='1.0' encoding='UTF-8'?>
<gpx xmlns="http://www.topografix.com/GPX/1/1" creator="https://gpx.studio" version="1.1">
  <metadata>
    <name>Dog Walk - 2026-05-01 #2</name>
  </metadata>
  <trk>
    <name>Dog Walk - 2026-05-01 #2</name>
    <type>dog walk</type>
    <trkseg>
      <trkpt lat="41.40132892724896" lon="-81.74026368446307">
        <ele>266.5564323258</ele>
        <time>2026-05-01T10:40:45Z</time>
      </trkpt>
      <trkpt lat="41.40132298755963" lon="-81.74026274611083">
        <ele>266.6584645415</ele>
        <time>2026-05-01T10:40:46Z</time>
      </trkpt>
      <trkpt lat="41.40133571587364" lon="-81.74084934881861">
        <ele>266.1651725919</ele>
        <time>2026-05-01T10:41:52Z</time>
      </trkpt>
      <trkpt lat="41.40133610317731" lon="-81.74145873981870">
        <ele>265.5887419407</ele>
        <time>2026-05-01T10:42:25Z</time>
      </trkpt>
      <trkpt lat="41.40131948098348" lon="-81.74206612323896">
        <ele>265.3727721782</ele>
        <time>2026-05-01T10:43:01Z</time>
      </trkpt>
      <trkpt lat="41.40132458562496" lon="-81.74238280253255">
        <ele>264.7758045834</ele>
        <time>2026-05-01T10:43:21Z</time>
      </trkpt>
      <trkpt lat="41.40132630699036" lon="-81.74238240060734">
        <ele>264.7736017635</ele>
        <time>2026-05-01T10:43:22Z</time>
      </trkpt>
      <trkpt lat="41.40089260100436" lon="-81.74218989451141">
        <ele>265.0529092433</ele>
        <time>2026-05-01T10:44:02Z</time>
      </trkpt>
      <trkpt lat="41.40048205289848" lon="-81.74200363396564">
        <ele>265.1699263527</ele>
        <time>2026-05-01T10:45:01Z</time>
      </trkpt>
      <trkpt lat="41.40004554085873" lon="-81.74179792920395">
        <ele>265.5841267642</ele>
        <time>2026-05-01T10:45:30Z</time>
      </trkpt>
      <trkpt lat="41.39962133212870" lon="-81.74160074008758">
        <ele>264.7597330175</ele>
        <time>2026-05-01T10:46:06Z</time>
      </trkpt>
      <trkpt lat="41.39955063800500" lon="-81.74156384384619">
        <ele>264.7922243376</ele>
        <time>2026-05-01T10:46:12Z</time>
      </trkpt>
      <trkpt lat="41.39953845623468" lon="-81.74097798644381">
        <ele>265.5173285483</ele>
        <time>2026-05-01T10:47:00Z</time>
      </trkpt>
      <trkpt lat="41.39954276205857" lon="-81.74036974964980">
        <ele>266.0788466031</ele>
        <time>2026-05-01T10:47:47Z</time>
      </trkpt>
      <trkpt lat="41.39953406291556" lon="-81.73976772867660">
        <ele>266.4290618384</ele>
        <time>2026-05-01T10:48:25Z</time>
      </trkpt>
      <trkpt lat="41.39952933494208" lon="-81.73916667569800">
        <ele>266.8333019511</ele>
        <time>2026-05-01T10:49:03Z</time>
      </trkpt>
      <trkpt lat="41.39953421137440" lon="-81.73857602490959">
        <ele>266.9791879496</ele>
        <time>2026-05-01T10:50:22Z</time>
      </trkpt>
      <trkpt lat="41.39953332294007" lon="-81.73829484613451">
        <ele>267.0841829588</ele>
        <time>2026-05-01T10:50:43Z</time>
      </trkpt>
      <trkpt lat="41.39953446337579" lon="-81.73830468997519">
        <ele>266.9643221317</ele>
        <time>2026-05-01T10:50:44Z</time>
      </trkpt>
      <trkpt lat="41.39997964459114" lon="-81.73829428459602">
        <ele>267.1110024605</ele>
        <time>2026-05-01T10:51:32Z</time>
      </trkpt>
      <trkpt lat="41.40042935279749" lon="-81.73829292824608">
        <ele>267.3176115814</ele>
        <time>2026-05-01T10:52:10Z</time>
      </trkpt>
      <trkpt lat="41.40088765156285" lon="-81.73830282430637">
        <ele>267.3844363468</ele>
        <time>2026-05-01T10:52:47Z</time>
      </trkpt>
      <trkpt lat="41.40132931756046" lon="-81.73831376163891">
        <ele>267.4200150358</ele>
        <time>2026-05-01T10:53:23Z</time>
      </trkpt>
      <trkpt lat="41.40133325891257" lon="-81.73889404448761">
        <ele>267.2894463685</ele>
        <time>2026-05-01T10:54:10Z</time>
      </trkpt>
      <trkpt lat="41.40134002922029" lon="-81.73950742747159">
        <ele>266.9687515004</ele>
        <time>2026-05-01T10:54:57Z</time>
      </trkpt>
      <trkpt lat="41.40133757243189" lon="-81.74010601146158">
        <ele>266.6681340425</ele>
        <time>2026-05-01T10:55:49Z</time>
      </trkpt>
      <trkpt lat="41.40133043029787" lon="-81.74015463179336">
        <ele>266.4287304176</ele>
        <time>2026-05-01T10:55:52Z</time>
      </trkpt>
    </trkseg>
  </trk>
</gpx>