<?xml version='1.0' encoding='UTF-8'?>
<gpx xmlns="http://www.topografix.com/GPX/1/1" creator="https://gpx.studio" version="1.1">
  <metadata>
    <name>Dog Walk - 2026-08-26</name>
  </metadata>
  <trk>
    <name>Dog Walk - 2026-08-26</name>
    <type>dog walk</type>
    <trkseg>
      <trkpt lat="41.40133381533082" lon="-81.74026334620279">
        <ele>266.2306414235</ele>
        <time>2026-08-26T10:25:46Z</time>
      </trkpt>
      <trkpt lat="41.40133209475840" lon="-81.74025516396031">
        <ele>266.5237905613</ele>
        <time>2026-08-26T10:25:47Z</time>
      </trkpt>
      <trkpt lat="41.40132765137037" lon="-81.74086217022933">
        <ele>266.3321536292</ele>
        <time>2026-08-26T10:26:32Z</time>
      </trkpt>
      <trkpt lat="41.40133036274779" lon="-81.74144601943912">
        <ele>265.8902939607</ele>
        <time>2026-08-26T10:27:22Z</time>
      </trkpt>
      <trkpt lat="41.40132533906490" lon="-81.74205721410384">
        <ele>265.5619843280</ele>
        <time>2026-08-26T10:27:58Z</time>
      </trkpt>
      <trkpt lat="41.40132688831683" lon="-81.74237578387493">
        <ele>264.8829736283</ele>
        <time>2026-08-26T10:28:22Z</time>
      </trkpt>
      <trkpt lat="41.40132376143922" lon="-81.74238075627294">
        <ele>264.8726145056</ele>
        <time>2026-08-26T10:28:23Z</time>
      </trkpt>
      <trkpt lat="41.40089614832449" lon="-81.74218353270896">
        <ele>265.1095660810</ele>
        <time>2026-08-26T10:29:05Z</time>
      </trkpt>
      <trkpt lat="41.40047564584747" lon="-81.74199205848511">
        <ele>265.1318447306</ele>
        <time>2026-08-26T10:29:54Z</time>
      </trkpt>
      <trkpt lat="41.40004948249322" lon="-81.74180620551228">
        <ele>265.6065895766</ele>
        <time>2026-08-26T10:30:34Z</time>
      </trkpt>
      <trkpt lat="41.39962514430030" lon="-81.74160212964944">
        <ele>264.8864832207</ele>
        <time>2026-08-26T10:31:04Z</time>
      </trkpt>
      <trkpt lat="41.39955616315099" lon="-81.74156993279213">
        <ele>264.9300754182</ele>
        <time>2026-08-26T10:31:10Z</time>
      </trkpt>
      <trkpt lat="41.39954342440776" lon="-81.74098255385721">
        <ele>265.7287059574</ele>
        <time>2026-08-26T10:31:53Z</time>
      </trkpt>
      <trkpt lat="41.39954293877004" lon="-81.74036682278310">
        <ele>266.1828836652</ele>
        <time>2026-08-26T10:32:46Z</time>
      </trkpt>
      <trkpt lat="41.39954570709330" lon="-81.73976679550663">
        <ele>266.6148372043</ele>
        <time>2026-08-26T10:33:19Z</time>
      </trkpt>
      <trkpt lat="41.39954311535045" lon="-81.73917736555370">
        <ele>266.9053899435</ele>
        <time>2026-08-26T10:33:59Z</time>
      </trkpt>
      <trkpt lat="41.39953386010242" lon="-81.73856873079616">
        <ele>267.1744369209</ele>
        <time>2026-08-26T10:34:40Z</time>
      </trkpt>
      <trkpt lat="41.39953719518352" lon="-81.73829540837660">
        <ele>266.8858745480</ele>
        <time>2026-08-26T10:34:58Z</time>
      </trkpt>
      <trkpt lat="41.39953389499276" lon="-81.73829671749716">
        <ele>266.8329822419</ele>
        <time>2026-08-26T10:34:59Z</time>
      </trkpt>
      <trkpt lat="41.39999184616571" lon="-81.73830158676279">
        <ele>267.2229070272</ele>
        <time>2026-08-26T10:35:44Z</time>
      </trkpt>
      <trkpt lat="41.40043506468001" lon="-81.73830311307607">
        <ele>267.2306848387</ele>
        <time>2026-08-26T10:36:20Z</time>
      </trkpt>
      <trkpt lat="41.40088680488500" lon="-81.73830534865650">
        <ele>267.3504573639</ele>
        <time>2026-08-26T10:36:54Z</time>
      </trkpt>
      <trkpt lat="41.40131170646701" lon="-81.73831726570801">
        <ele>267.5401195436</ele>
        <time>2026-08-26T10:37:33Z</time>
      </trkpt>
      <trkpt lat="41.40132957557712" lon="-81.73890263615361">
        <ele>267.5145292428</ele>
        <time>2026-08-26T10:38:03Z</time>
      </trkpt>
      <trkpt lat="41.40132879900739" lon="-81.73950780948255">
        <ele>267.1176550964</ele>
        <time>2026-08-26T10:38:35Z</time>
      </trkpt>
      <trkpt lat="41.40134028199427" lon="-81.74009485054815">
        <ele>266.4900865264</ele>
        <time>2026-08-26T10:39:14Z</time>
      </trkpt>
      <trkpt lat="41.40134142761524" lon="-81.74015304067846">
        <ele>266.6215554542</ele>
        <time>2026-08-26T10:39:18Z</time>
      </trkpt>
    </trkseg>
  </trk>
</gpx>