<?xml version='1.0' encoding='UTF-8'?>
<gpx xmlns="http://www.topografix.com/GPX/1/1" creator="https://gpx.studio" version="1.1">
  <metadata>
    <name>Dog Walk - 2026-05-07 #2</name>
  </metadata>
  <trk>
    <name>Dog Walk - 2026-05-07 #2</name>
    <type>dog walk</type>
    <trkseg>
      <trkpt lat="41.40133428759211" lon="-81.74025140042076">
        <ele>266.5166721030</ele>
        <time>2026-05-07T12:42:23Z</time>
      </trkpt>
      <trkpt lat="41.40132671541432" lon="-81.74025541009148">
        <ele>266.5097759198</ele>
        <time>2026-05-07T12:42:24Z</time>
      </trkpt>
      <trkpt lat="41.40132800724940" lon="-81.74085601369089">
        <ele>266.1582199832</ele>
        <time>2026-05-07T12:43:08Z</time>
      </trkpt>
      <trkpt lat="41.40132640338873" lon="-81.74144853210416">
        <ele>265.9632506488</ele>
        <time>2026-05-07T12:44:01Z</time>
      </trkpt>
      <trkpt lat="41.40132712712314" lon="-81.74205267271800">
        <ele>265.3809290339</ele>
        <time>2026-05-07T12:44:44Z</time>
      </trkpt>
      <trkpt lat="41.40131968299534" lon="-81.74237616956768">
        <ele>264.4884901560</ele>
        <time>2026-05-07T12:45:06Z</time>
      </trkpt>
      <trkpt lat="41.40133304699740" lon="-81.74238565796725">
        <ele>264.7814311703</ele>
        <time>2026-05-07T12:45:07Z</time>
      </trkpt>
      <trkpt lat="41.40090346701397" lon="-81.74217754240468">
        <ele>265.1059551523</ele>
        <time>2026-05-07T12:45:42Z</time>
      </trkpt>
      <trkpt lat="41.40047005396001" lon="-81.74199667996838">
        <ele>265.2082173273</ele>
        <time>2026-05-07T12:46:33Z</time>
      </trkpt>
      <trkpt lat="41.40004270936674" lon="-81.74180078652356">
        <ele>265.4173445306</ele>
        <time>2026-05-07T12:47:40Z</time>
      </trkpt>
      <trkpt lat="41.39962451908331" lon="-81.74160415975801">
        <ele>264.7077112168</ele>
        <time>2026-05-07T12:48:23Z</time>
      </trkpt>
      <trkpt lat="41.39954098094247" lon="-81.74157691507033">
        <ele>264.7319493563</ele>
        <time>2026-05-07T12:48:30Z</time>
      </trkpt>
      <trkpt lat="41.39954335313053" lon="-81.74097279415966">
        <ele>265.7415542428</ele>
        <time>2026-05-07T12:49:13Z</time>
      </trkpt>
      <trkpt lat="41.39954068265430" lon="-81.74037262230654">
        <ele>266.1269160231</ele>
        <time>2026-05-07T12:49:52Z</time>
      </trkpt>
      <trkpt lat="41.39953152795412" lon="-81.73977484101631">
        <ele>266.5074804054</ele>
        <time>2026-05-07T12:50:44Z</time>
      </trkpt>
      <trkpt lat="41.39954300864505" lon="-81.73917570915226">
        <ele>266.6300351574</ele>
        <time>2026-05-07T12:51:32Z</time>
      </trkpt>
      <trkpt lat="41.39953608983121" lon="-81.73857310598916">
        <ele>266.9488948980</ele>
        <time>2026-05-07T12:52:22Z</time>
      </trkpt>
      <trkpt lat="41.39953517241705" lon="-81.73829035147841">
        <ele>267.0509520272</ele>
        <time>2026-05-07T12:52:40Z</time>
      </trkpt>
      <trkpt lat="41.39953086809724" lon="-81.73829956007039">
        <ele>266.7321362975</ele>
        <time>2026-05-07T12:52:41Z</time>
      </trkpt>
      <trkpt lat="41.39998215843813" lon="-81.73830161804199">
        <ele>267.2120307471</ele>
        <time>2026-05-07T12:53:19Z</time>
      </trkpt>
      <trkpt lat="41.40043661840510" lon="-81.73829299739806">
        <ele>267.2254359603</ele>
        <time>2026-05-07T12:53:52Z</time>
      </trkpt>
      <trkpt lat="41.40088912578016" lon="-81.73830118619587">
        <ele>267.3041992184</ele>
        <time>2026-05-07T12:54:32Z</time>
      </trkpt>
      <trkpt lat="41.40133328606640" lon="-81.73830185932034">
        <ele>267.4607553914</ele>
        <time>2026-05-07T12:55:23Z</time>
      </trkpt>
      <trkpt lat="41.40132977800722" lon="-81.73891182270916">
        <ele>267.2061929305</ele>
        <time>2026-05-07T12:55:54Z</time>
      </trkpt>
      <trkpt lat="41.40132824148283" lon="-81.73950474238752">
        <ele>267.1395389220</ele>
        <time>2026-05-07T12:56:42Z</time>
      </trkpt>
      <trkpt lat="41.40133171015109" lon="-81.74009620949052">
        <ele>266.8321499809</ele>
        <time>2026-05-07T12:57:35Z</time>
      </trkpt>
      <trkpt lat="41.40134365833563" lon="-81.74015983342606">
        <ele>266.6145396627</ele>
        <time>2026-05-07T12:57:39Z</time>
      </trkpt>
    </trkseg>
  </trk>
</gpx>