<?xml version='1.0' encoding='UTF-8'?>
<gpx xmlns="http://www.topografix.com/GPX/1/1" creator="https://gpx.studio" version="1.1">
  <metadata>
    <name>Dog Walk - 2026-08-25 #4</name>
  </metadata>
  <trk>
    <name>Dog Walk - 2026-08-25 #4</name>
    <type>dog walk</type>
    <trkseg>
      <trkpt lat="41.40134134509638" lon="-81.74024661343040">
        <ele>266.4878283500</ele>
        <time>2026-08-25T18:33:34Z</time>
      </trkpt>
      <trkpt lat="41.40134821391532" lon="-81.74083530032716">
        <ele>266.0439607433</ele>
        <time>2026-08-25T18:34:12Z</time>
      </trkpt>
      <trkpt lat="41.40133600422077" lon="-81.74143311730374">
        <ele>265.8040625881</ele>
        <time>2026-08-25T18:34:53Z</time>
      </trkpt>
      <trkpt lat="41.40134561040980" lon="-81.74202119865909">
        <ele>265.1424678869</ele>
        <time>2026-08-25T18:35:34Z</time>
      </trkpt>
      <trkpt lat="41.40135159767439" lon="-81.74241955856476">
        <ele>264.5648441346</ele>
        <time>2026-08-25T18:36:04Z</time>
      </trkpt>
      <trkpt lat="41.40177840063784" lon="-81.74263959533764">
        <ele>264.2909062946</ele>
        <time>2026-08-25T18:36:50Z</time>
      </trkpt>
      <trkpt lat="41.40219074742401" lon="-81.74285067833040">
        <ele>263.2881094389</ele>
        <time>2026-08-25T18:37:30Z</time>
      </trkpt>
      <trkpt lat="41.40221216145699" lon="-81.74285582705062">
        <ele>263.4710718024</ele>
        <time>2026-08-25T18:37:32Z</time>
      </trkpt>
      <trkpt lat="41.40222630562977" lon="-81.74225872246915">
        <ele>264.0704880183</ele>
        <time>2026-08-25T18:38:12Z</time>
      </trkpt>
      <trkpt lat="41.40222023246610" lon="-81.74165925207527">
        <ele>264.7209927299</ele>
        <time>2026-08-25T18:38:46Z</time>
      </trkpt>
      <trkpt lat="41.40221323392505" lon="-81.74105546087607">
        <ele>265.6521871002</ele>
        <time>2026-08-25T18:39:26Z</time>
      </trkpt>
      <trkpt lat="41.40221418650045" lon="-81.74045922902754">
        <ele>266.0798594547</ele>
        <time>2026-08-25T18:39:59Z</time>
      </trkpt>
      <trkpt lat="41.40221638133506" lon="-81.73986870652834">
        <ele>266.6144232927</ele>
        <time>2026-08-25T18:40:38Z</time>
      </trkpt>
      <trkpt lat="41.40222244734620" lon="-81.73927178132132">
        <ele>266.8235273429</ele>
        <time>2026-08-25T18:41:12Z</time>
      </trkpt>
      <trkpt lat="41.40222158168090" lon="-81.73865670045690">
        <ele>267.2232274199</ele>
        <time>2026-08-25T18:41:58Z</time>
      </trkpt>
      <trkpt lat="41.40220870841086" lon="-81.73825911980180">
        <ele>267.0318331140</ele>
        <time>2026-08-25T18:42:29Z</time>
      </trkpt>
      <trkpt lat="41.40176512285466" lon="-81.73826928185528">
        <ele>267.8615548255</ele>
        <time>2026-08-25T18:43:16Z</time>
      </trkpt>
      <trkpt lat="41.40133655631767" lon="-81.73825895023334">
        <ele>267.5755253833</ele>
        <time>2026-08-25T18:43:52Z</time>
      </trkpt>
      <trkpt lat="41.40134731542645" lon="-81.73885734903686">
        <ele>267.5982496622</ele>
        <time>2026-08-25T18:44:47Z</time>
      </trkpt>
      <trkpt lat="41.40133866049529" lon="-81.73945946496242">
        <ele>266.9281189036</ele>
        <time>2026-08-25T18:45:19Z</time>
      </trkpt>
      <trkpt lat="41.40134569339907" lon="-81.74005985039420">
        <ele>266.6083840879</ele>
        <time>2026-08-25T18:46:01Z</time>
      </trkpt>
      <trkpt lat="41.40134083536424" lon="-81.74020425261935">
        <ele>266.4368987967</ele>
        <time>2026-08-25T18:46:11Z</time>
      </trkpt>
    </trkseg>
  </trk>
</gpx>