<?xml version='1.0' encoding='UTF-8'?>
<gpx xmlns="http://www.topografix.com/GPX/1/1" creator="https://gpx.studio" version="1.1">
  <metadata>
    <name>Dog Walk - 2026-05-30 #3</name>
  </metadata>
  <trk>
    <name>Dog Walk - 2026-05-30 #3</name>
    <type>dog walk</type>
    <trkseg>
      <trkpt lat="41.40133616961246" lon="-81.74023702793210">
        <ele>266.6131890245</ele>
        <time>2026-05-30T14:42:01Z</time>
      </trkpt>
      <trkpt lat="41.40134285704190" lon="-81.74083460257694">
        <ele>266.0924062362</ele>
        <time>2026-05-30T14:42:32Z</time>
      </trkpt>
      <trkpt lat="41.40134266973082" lon="-81.74143218810843">
        <ele>265.7722411063</ele>
        <time>2026-05-30T14:43:10Z</time>
      </trkpt>
      <trkpt lat="41.40135491614442" lon="-81.74204065678715">
        <ele>265.2189843026</ele>
        <time>2026-05-30T14:43:49Z</time>
      </trkpt>
      <trkpt lat="41.40135428869885" lon="-81.74242368689600">
        <ele>264.7144012042</ele>
        <time>2026-05-30T14:44:14Z</time>
      </trkpt>
      <trkpt lat="41.40176375492328" lon="-81.74263596426266">
        <ele>264.3844999138</ele>
        <time>2026-05-30T14:44:57Z</time>
      </trkpt>
      <trkpt lat="41.40218702932424" lon="-81.74285136566240">
        <ele>263.7067244026</ele>
        <time>2026-05-30T14:45:31Z</time>
      </trkpt>
      <trkpt lat="41.40222429137738" lon="-81.74285838686926">
        <ele>263.4644755799</ele>
        <time>2026-05-30T14:45:33Z</time>
      </trkpt>
      <trkpt lat="41.40220863586948" lon="-81.74226271559050">
        <ele>264.0509415346</ele>
        <time>2026-05-30T14:46:14Z</time>
      </trkpt>
      <trkpt lat="41.40220826878279" lon="-81.74166778281042">
        <ele>264.7659450717</ele>
        <time>2026-05-30T14:46:57Z</time>
      </trkpt>
      <trkpt lat="41.40220915186455" lon="-81.74106300974476">
        <ele>265.6648068623</ele>
        <time>2026-05-30T14:47:40Z</time>
      </trkpt>
      <trkpt lat="41.40221656654754" lon="-81.74047076278001">
        <ele>266.0994393530</ele>
        <time>2026-05-30T14:48:28Z</time>
      </trkpt>
      <trkpt lat="41.40220622636197" lon="-81.73986621933273">
        <ele>266.6356135561</ele>
        <time>2026-05-30T14:49:01Z</time>
      </trkpt>
      <trkpt lat="41.40222713618534" lon="-81.73926697155871">
        <ele>266.7925804418</ele>
        <time>2026-05-30T14:49:37Z</time>
      </trkpt>
      <trkpt lat="41.40222841035038" lon="-81.73866919675017">
        <ele>267.3520289486</ele>
        <time>2026-05-30T14:50:08Z</time>
      </trkpt>
      <trkpt lat="41.40221899839792" lon="-81.73826886487456">
        <ele>266.9190524245</ele>
        <time>2026-05-30T14:50:31Z</time>
      </trkpt>
      <trkpt lat="41.40177437917409" lon="-81.73826589156161">
        <ele>267.7880043919</ele>
        <time>2026-05-30T14:51:10Z</time>
      </trkpt>
      <trkpt lat="41.40133758050900" lon="-81.73825784208904">
        <ele>267.5785631041</ele>
        <time>2026-05-30T14:51:58Z</time>
      </trkpt>
      <trkpt lat="41.40134696350036" lon="-81.73886328571997">
        <ele>267.4352158147</ele>
        <time>2026-05-30T14:52:43Z</time>
      </trkpt>
      <trkpt lat="41.40134814738263" lon="-81.73945722979535">
        <ele>267.5486529976</ele>
        <time>2026-05-30T14:53:24Z</time>
      </trkpt>
      <trkpt lat="41.40133470426991" lon="-81.74006305136797">
        <ele>266.5781755921</ele>
        <time>2026-05-30T14:54:00Z</time>
      </trkpt>
      <trkpt lat="41.40134005707677" lon="-81.74019324343547">
        <ele>266.5834288133</ele>
        <time>2026-05-30T14:54:09Z</time>
      </trkpt>
    </trkseg>
  </trk>
</gpx>