<?xml version='1.0' encoding='UTF-8'?>
<gpx xmlns="http://www.topografix.com/GPX/1/1" creator="https://gpx.studio" version="1.1">
  <metadata>
    <name>Dog Walk - 2026-02-13 #2</name>
  </metadata>
  <trk>
    <name>Dog Walk - 2026-02-13 #2</name>
    <type>dog walk</type>
    <trkseg>
      <trkpt lat="41.40134004821131" lon="-81.74024494064861">
        <ele>266.7955085624</ele>
        <time>2026-02-13T12:48:02Z</time>
      </trkpt>
      <trkpt lat="41.40134228453853" lon="-81.74025451428129">
        <ele>266.2356000847</ele>
        <time>2026-02-13T12:48:03Z</time>
      </trkpt>
      <trkpt lat="41.40132626259287" lon="-81.74086553845855">
        <ele>266.1585592089</ele>
        <time>2026-02-13T12:48:47Z</time>
      </trkpt>
      <trkpt lat="41.40133581531990" lon="-81.74145655643808">
        <ele>265.5802885515</ele>
        <time>2026-02-13T12:49:24Z</time>
      </trkpt>
      <trkpt lat="41.40132383135676" lon="-81.74204644135935">
        <ele>265.2081671599</ele>
        <time>2026-02-13T12:50:03Z</time>
      </trkpt>
      <trkpt lat="41.40131764383762" lon="-81.74238606373677">
        <ele>264.9492063165</ele>
        <time>2026-02-13T12:50:27Z</time>
      </trkpt>
      <trkpt lat="41.40132745519661" lon="-81.74237581681494">
        <ele>264.9145601057</ele>
        <time>2026-02-13T12:50:28Z</time>
      </trkpt>
      <trkpt lat="41.40089360235558" lon="-81.74218945989308">
        <ele>265.1670643825</ele>
        <time>2026-02-13T12:51:07Z</time>
      </trkpt>
      <trkpt lat="41.40046459074212" lon="-81.74198842713973">
        <ele>265.4524610147</ele>
        <time>2026-02-13T12:51:43Z</time>
      </trkpt>
      <trkpt lat="41.40004852058289" lon="-81.74180307349928">
        <ele>265.5982078173</ele>
        <time>2026-02-13T12:52:30Z</time>
      </trkpt>
      <trkpt lat="41.39961778960812" lon="-81.74161459228596">
        <ele>264.8324940515</ele>
        <time>2026-02-13T12:53:08Z</time>
      </trkpt>
      <trkpt lat="41.39954234657928" lon="-81.74157331617998">
        <ele>264.9954107596</ele>
        <time>2026-02-13T12:53:14Z</time>
      </trkpt>
      <trkpt lat="41.39954568624319" lon="-81.74097375733453">
        <ele>265.8280053013</ele>
        <time>2026-02-13T12:53:59Z</time>
      </trkpt>
      <trkpt lat="41.39953853507735" lon="-81.74037411870209">
        <ele>266.1471096963</ele>
        <time>2026-02-13T12:54:39Z</time>
      </trkpt>
      <trkpt lat="41.39954864987324" lon="-81.73976671930238">
        <ele>266.6256223083</ele>
        <time>2026-02-13T12:55:23Z</time>
      </trkpt>
      <trkpt lat="41.39953352552533" lon="-81.73917333659416">
        <ele>266.9619839474</ele>
        <time>2026-02-13T12:56:06Z</time>
      </trkpt>
      <trkpt lat="41.39952718750736" lon="-81.73856623791154">
        <ele>266.5356744393</ele>
        <time>2026-02-13T12:57:06Z</time>
      </trkpt>
      <trkpt lat="41.39952615199751" lon="-81.73829778063983">
        <ele>267.0496861320</ele>
        <time>2026-02-13T12:57:32Z</time>
      </trkpt>
      <trkpt lat="41.39954096032704" lon="-81.73829518607553">
        <ele>267.1073764761</ele>
        <time>2026-02-13T12:57:33Z</time>
      </trkpt>
      <trkpt lat="41.39998418283787" lon="-81.73830191763837">
        <ele>267.0594491291</ele>
        <time>2026-02-13T12:58:08Z</time>
      </trkpt>
      <trkpt lat="41.40043191429817" lon="-81.73829804336374">
        <ele>267.0436200500</ele>
        <time>2026-02-13T12:58:44Z</time>
      </trkpt>
      <trkpt lat="41.40087886562031" lon="-81.73829465323749">
        <ele>267.4690417991</ele>
        <time>2026-02-13T12:59:20Z</time>
      </trkpt>
      <trkpt lat="41.40132717096336" lon="-81.73830385588590">
        <ele>267.4073082358</ele>
        <time>2026-02-13T12:59:49Z</time>
      </trkpt>
      <trkpt lat="41.40132823931894" lon="-81.73890080390088">
        <ele>267.3210252672</ele>
        <time>2026-02-13T13:00:23Z</time>
      </trkpt>
      <trkpt lat="41.40133749693346" lon="-81.73950614648251">
        <ele>267.2342336466</ele>
        <time>2026-02-13T13:01:20Z</time>
      </trkpt>
      <trkpt lat="41.40133517743467" lon="-81.74010431813056">
        <ele>266.4554484446</ele>
        <time>2026-02-13T13:01:54Z</time>
      </trkpt>
      <trkpt lat="41.40133950359840" lon="-81.74015358841825">
        <ele>266.3665131415</ele>
        <time>2026-02-13T13:01:57Z</time>
      </trkpt>
    </trkseg>
  </trk>
</gpx>