<?xml version='1.0' encoding='UTF-8'?>
<gpx xmlns="http://www.topografix.com/GPX/1/1" creator="https://gpx.studio" version="1.1">
  <metadata>
    <name>Dog Walk - 2026-05-16 #3</name>
  </metadata>
  <trk>
    <name>Dog Walk - 2026-05-16 #3</name>
    <type>dog walk</type>
    <trkseg>
      <trkpt lat="41.40134101057217" lon="-81.74022854587950">
        <ele>266.5927686782</ele>
        <time>2026-05-16T14:07:58Z</time>
      </trkpt>
      <trkpt lat="41.40133811595090" lon="-81.74084133850812">
        <ele>266.1917955365</ele>
        <time>2026-05-16T14:08:35Z</time>
      </trkpt>
      <trkpt lat="41.40134181071733" lon="-81.74142681136884">
        <ele>265.8274004308</ele>
        <time>2026-05-16T14:09:30Z</time>
      </trkpt>
      <trkpt lat="41.40134081767396" lon="-81.74203257090494">
        <ele>265.3898047464</ele>
        <time>2026-05-16T14:10:17Z</time>
      </trkpt>
      <trkpt lat="41.40132920435816" lon="-81.74239030362553">
        <ele>264.9255311408</ele>
        <time>2026-05-16T14:10:46Z</time>
      </trkpt>
      <trkpt lat="41.40090929451385" lon="-81.74217843287114">
        <ele>265.2250580592</ele>
        <time>2026-05-16T14:11:15Z</time>
      </trkpt>
      <trkpt lat="41.40048751828996" lon="-81.74197342765632">
        <ele>265.2771546927</ele>
        <time>2026-05-16T14:12:00Z</time>
      </trkpt>
      <trkpt lat="41.40044516375646" lon="-81.74195015675859">
        <ele>265.2131259410</ele>
        <time>2026-05-16T14:12:04Z</time>
      </trkpt>
      <trkpt lat="41.40045111106350" lon="-81.74134266271489">
        <ele>266.1358033096</ele>
        <time>2026-05-16T14:12:58Z</time>
      </trkpt>
      <trkpt lat="41.40043998003628" lon="-81.74075385480556">
        <ele>266.5735901456</ele>
        <time>2026-05-16T14:13:39Z</time>
      </trkpt>
      <trkpt lat="41.40043336372683" lon="-81.74014716910814">
        <ele>266.7086933350</ele>
        <time>2026-05-16T14:14:36Z</time>
      </trkpt>
      <trkpt lat="41.40042772290576" lon="-81.73955174129060">
        <ele>267.0281282152</ele>
        <time>2026-05-16T14:15:10Z</time>
      </trkpt>
      <trkpt lat="41.40043151303876" lon="-81.73894720551168">
        <ele>267.1385911225</ele>
        <time>2026-05-16T14:15:43Z</time>
      </trkpt>
      <trkpt lat="41.40042386696150" lon="-81.73835318472348">
        <ele>267.2541722284</ele>
        <time>2026-05-16T14:16:34Z</time>
      </trkpt>
      <trkpt lat="41.40041984482977" lon="-81.73775071216149">
        <ele>267.6367129675</ele>
        <time>2026-05-16T14:17:16Z</time>
      </trkpt>
      <trkpt lat="41.40041534539845" lon="-81.73714762346377">
        <ele>267.9079460897</ele>
        <time>2026-05-16T14:17:56Z</time>
      </trkpt>
      <trkpt lat="41.40041674841510" lon="-81.73655257663209">
        <ele>268.0104135054</ele>
        <time>2026-05-16T14:18:35Z</time>
      </trkpt>
      <trkpt lat="41.40040875488741" lon="-81.73595833998552">
        <ele>268.1040733523</ele>
        <time>2026-05-16T14:19:16Z</time>
      </trkpt>
      <trkpt lat="41.40039291778697" lon="-81.73534932947173">
        <ele>267.6643676138</ele>
        <time>2026-05-16T14:19:52Z</time>
      </trkpt>
      <trkpt lat="41.40039187630957" lon="-81.73475423791061">
        <ele>267.2878983735</ele>
        <time>2026-05-16T14:20:25Z</time>
      </trkpt>
      <trkpt lat="41.40038934216521" lon="-81.73462465564064">
        <ele>267.1184254121</ele>
        <time>2026-05-16T14:20:35Z</time>
      </trkpt>
      <trkpt lat="41.40084795491159" lon="-81.73464294832422">
        <ele>267.1779872125</ele>
        <time>2026-05-16T14:21:36Z</time>
      </trkpt>
      <trkpt lat="41.40128974822236" lon="-81.73463953401857">
        <ele>267.1133552324</ele>
        <time>2026-05-16T14:22:23Z</time>
      </trkpt>
      <trkpt lat="41.40131806446165" lon="-81.73463702922722">
        <ele>267.4515677061</ele>
        <time>2026-05-16T14:22:25Z</time>
      </trkpt>
      <trkpt lat="41.40133363677741" lon="-81.73523824906775">
        <ele>267.7900569693</ele>
        <time>2026-05-16T14:23:05Z</time>
      </trkpt>
      <trkpt lat="41.40132249160211" lon="-81.73583303222549">
        <ele>268.1329669534</ele>
        <time>2026-05-16T14:23:47Z</time>
      </trkpt>
      <trkpt lat="41.40133173275156" lon="-81.73643563481336">
        <ele>268.2381148680</ele>
        <time>2026-05-16T14:24:51Z</time>
      </trkpt>
      <trkpt lat="41.40133330758399" lon="-81.73702868403160">
        <ele>268.2339369864</ele>
        <time>2026-05-16T14:25:32Z</time>
      </trkpt>
      <trkpt lat="41.40133154287768" lon="-81.73762552656011">
        <ele>268.0380171797</ele>
        <time>2026-05-16T14:26:20Z</time>
      </trkpt>
      <trkpt lat="41.40134131114828" lon="-81.73822372135291">
        <ele>267.3349821464</ele>
        <time>2026-05-16T14:27:12Z</time>
      </trkpt>
      <trkpt lat="41.40134250590130" lon="-81.73882736699743">
        <ele>267.1293668535</ele>
        <time>2026-05-16T14:27:50Z</time>
      </trkpt>
      <trkpt lat="41.40134504711982" lon="-81.73943385711129">
        <ele>267.2175636097</ele>
        <time>2026-05-16T14:28:36Z</time>
      </trkpt>
      <trkpt lat="41.40135151033862" lon="-81.74002495000342">
        <ele>266.6664861914</ele>
        <time>2026-05-16T14:29:17Z</time>
      </trkpt>
      <trkpt lat="41.40135018124938" lon="-81.74019036783871">
        <ele>266.2289594123</ele>
        <time>2026-05-16T14:29:28Z</time>
      </trkpt>
    </trkseg>
  </trk>
</gpx>