<?xml version='1.0' encoding='UTF-8'?>
<gpx xmlns="http://www.topografix.com/GPX/1/1" creator="https://gpx.studio" version="1.1">
  <metadata>
    <name>Dog Walk - 2026-06-10 #3</name>
  </metadata>
  <trk>
    <name>Dog Walk - 2026-06-10 #3</name>
    <type>dog walk</type>
    <trkseg>
      <trkpt lat="41.40132801530212" lon="-81.74023395227528">
        <ele>266.7285193046</ele>
        <time>2026-06-10T14:34:04Z</time>
      </trkpt>
      <trkpt lat="41.40133534417698" lon="-81.74083212342747">
        <ele>266.4533336852</ele>
        <time>2026-06-10T14:34:38Z</time>
      </trkpt>
      <trkpt lat="41.40132846793116" lon="-81.74143772517476">
        <ele>265.9697621738</ele>
        <time>2026-06-10T14:35:22Z</time>
      </trkpt>
      <trkpt lat="41.40133340267995" lon="-81.74203861002627">
        <ele>265.4828048742</ele>
        <time>2026-06-10T14:36:08Z</time>
      </trkpt>
      <trkpt lat="41.40132560377468" lon="-81.74239321393317">
        <ele>264.6445013528</ele>
        <time>2026-06-10T14:36:29Z</time>
      </trkpt>
      <trkpt lat="41.40090269704530" lon="-81.74219271730433">
        <ele>265.1383233888</ele>
        <time>2026-06-10T14:37:04Z</time>
      </trkpt>
      <trkpt lat="41.40047743683427" lon="-81.74200549994421">
        <ele>265.3577624063</ele>
        <time>2026-06-10T14:37:51Z</time>
      </trkpt>
      <trkpt lat="41.40004926295166" lon="-81.74181084790294">
        <ele>265.3678560330</ele>
        <time>2026-06-10T14:38:32Z</time>
      </trkpt>
      <trkpt lat="41.39962672345631" lon="-81.74160954879093">
        <ele>264.5484183522</ele>
        <time>2026-06-10T14:39:02Z</time>
      </trkpt>
      <trkpt lat="41.39953238493761" lon="-81.74157574733077">
        <ele>264.7937110190</ele>
        <time>2026-06-10T14:39:10Z</time>
      </trkpt>
      <trkpt lat="41.39953417321232" lon="-81.74097754580052">
        <ele>265.7823803779</ele>
        <time>2026-06-10T14:39:52Z</time>
      </trkpt>
      <trkpt lat="41.39953398213873" lon="-81.74036757846919">
        <ele>266.2461595286</ele>
        <time>2026-06-10T14:40:34Z</time>
      </trkpt>
      <trkpt lat="41.39953080256912" lon="-81.73977336499600">
        <ele>266.5402945821</ele>
        <time>2026-06-10T14:41:21Z</time>
      </trkpt>
      <trkpt lat="41.39953279179780" lon="-81.73916963929065">
        <ele>266.8553634576</ele>
        <time>2026-06-10T14:42:09Z</time>
      </trkpt>
      <trkpt lat="41.39953291655763" lon="-81.73856799030634">
        <ele>266.9916631762</ele>
        <time>2026-06-10T14:42:47Z</time>
      </trkpt>
      <trkpt lat="41.39953169607672" lon="-81.73797477960925">
        <ele>267.3061115838</ele>
        <time>2026-06-10T14:43:29Z</time>
      </trkpt>
      <trkpt lat="41.39952338519443" lon="-81.73737067590615">
        <ele>267.1334386097</ele>
        <time>2026-06-10T14:44:08Z</time>
      </trkpt>
      <trkpt lat="41.39952868096302" lon="-81.73677329179492">
        <ele>267.1896299629</ele>
        <time>2026-06-10T14:44:50Z</time>
      </trkpt>
      <trkpt lat="41.39953207564577" lon="-81.73617506001372">
        <ele>267.5074258007</ele>
        <time>2026-06-10T14:45:42Z</time>
      </trkpt>
      <trkpt lat="41.39952777820851" lon="-81.73557687637779">
        <ele>267.3000139941</ele>
        <time>2026-06-10T14:46:22Z</time>
      </trkpt>
      <trkpt lat="41.39952925171819" lon="-81.73498111307424">
        <ele>267.2147435157</ele>
        <time>2026-06-10T14:47:15Z</time>
      </trkpt>
      <trkpt lat="41.39953343439212" lon="-81.73461970358622">
        <ele>267.1611692587</ele>
        <time>2026-06-10T14:47:37Z</time>
      </trkpt>
      <trkpt lat="41.39997586944439" lon="-81.73461334910400">
        <ele>267.3907165320</ele>
        <time>2026-06-10T14:48:12Z</time>
      </trkpt>
      <trkpt lat="41.40042198093004" lon="-81.73462808639553">
        <ele>267.1419196681</ele>
        <time>2026-06-10T14:48:52Z</time>
      </trkpt>
      <trkpt lat="41.40087863661749" lon="-81.73462831942577">
        <ele>267.1587570272</ele>
        <time>2026-06-10T14:49:45Z</time>
      </trkpt>
      <trkpt lat="41.40131620595876" lon="-81.73464299566226">
        <ele>267.4453982308</ele>
        <time>2026-06-10T14:50:20Z</time>
      </trkpt>
      <trkpt lat="41.40131754428974" lon="-81.73523354391467">
        <ele>267.7243079499</ele>
        <time>2026-06-10T14:51:20Z</time>
      </trkpt>
      <trkpt lat="41.40132006659466" lon="-81.73584365032661">
        <ele>268.2543533881</ele>
        <time>2026-06-10T14:52:00Z</time>
      </trkpt>
      <trkpt lat="41.40132181805112" lon="-81.73642626171515">
        <ele>268.3914864452</ele>
        <time>2026-06-10T14:52:42Z</time>
      </trkpt>
      <trkpt lat="41.40131941919053" lon="-81.73703341259007">
        <ele>268.1025019890</ele>
        <time>2026-06-10T14:53:29Z</time>
      </trkpt>
      <trkpt lat="41.40132382876829" lon="-81.73763471601345">
        <ele>267.9088579837</ele>
        <time>2026-06-10T14:54:16Z</time>
      </trkpt>
      <trkpt lat="41.40131829553633" lon="-81.73823999933589">
        <ele>267.6033984698</ele>
        <time>2026-06-10T14:55:01Z</time>
      </trkpt>
      <trkpt lat="41.40132832378700" lon="-81.73884302552631">
        <ele>267.3307026813</ele>
        <time>2026-06-10T14:55:46Z</time>
      </trkpt>
      <trkpt lat="41.40132999976417" lon="-81.73943207266910">
        <ele>267.4213145966</ele>
        <time>2026-06-10T14:56:28Z</time>
      </trkpt>
      <trkpt lat="41.40133668334002" lon="-81.74003058658766">
        <ele>266.6381666436</ele>
        <time>2026-06-10T14:57:05Z</time>
      </trkpt>
      <trkpt lat="41.40132518281813" lon="-81.74022397157988">
        <ele>266.5504062786</ele>
        <time>2026-06-10T14:57:18Z</time>
      </trkpt>
    </trkseg>
  </trk>
</gpx>