<?xml version='1.0' encoding='UTF-8'?>
<gpx xmlns="http://www.topografix.com/GPX/1/1" creator="https://gpx.studio" version="1.1">
  <metadata>
    <name>Dog Walk - 2026-03-23 #3</name>
  </metadata>
  <trk>
    <name>Dog Walk - 2026-03-23 #3</name>
    <type>dog walk</type>
    <trkseg>
      <trkpt lat="41.40133671094863" lon="-81.74025218351480">
        <ele>266.3158594452</ele>
        <time>2026-03-23T16:14:17Z</time>
      </trkpt>
      <trkpt lat="41.40132705856080" lon="-81.74025433368502">
        <ele>266.6069253780</ele>
        <time>2026-03-23T16:14:18Z</time>
      </trkpt>
      <trkpt lat="41.40132846977235" lon="-81.74085613209843">
        <ele>266.3193173578</ele>
        <time>2026-03-23T16:15:01Z</time>
      </trkpt>
      <trkpt lat="41.40133247239641" lon="-81.74145775333480">
        <ele>265.8447319212</ele>
        <time>2026-03-23T16:15:39Z</time>
      </trkpt>
      <trkpt lat="41.40133723474676" lon="-81.74206327872035">
        <ele>265.2469935949</ele>
        <time>2026-03-23T16:16:19Z</time>
      </trkpt>
      <trkpt lat="41.40132441276329" lon="-81.74237924656295">
        <ele>264.6404107467</ele>
        <time>2026-03-23T16:16:38Z</time>
      </trkpt>
      <trkpt lat="41.40132740088808" lon="-81.74237404171460">
        <ele>264.9083733360</ele>
        <time>2026-03-23T16:16:39Z</time>
      </trkpt>
      <trkpt lat="41.40089987149484" lon="-81.74218302329183">
        <ele>265.3033760726</ele>
        <time>2026-03-23T16:17:53Z</time>
      </trkpt>
      <trkpt lat="41.40047293123103" lon="-81.74198994303534">
        <ele>265.2073446368</ele>
        <time>2026-03-23T16:18:33Z</time>
      </trkpt>
      <trkpt lat="41.40004147541923" lon="-81.74180501683452">
        <ele>265.3253149033</ele>
        <time>2026-03-23T16:19:20Z</time>
      </trkpt>
      <trkpt lat="41.39961718393792" lon="-81.74160496836471">
        <ele>264.7443085827</ele>
        <time>2026-03-23T16:19:58Z</time>
      </trkpt>
      <trkpt lat="41.39954627377175" lon="-81.74156753498377">
        <ele>264.8305888032</ele>
        <time>2026-03-23T16:20:05Z</time>
      </trkpt>
      <trkpt lat="41.39953950905315" lon="-81.74097453180511">
        <ele>265.8108616300</ele>
        <time>2026-03-23T16:20:38Z</time>
      </trkpt>
      <trkpt lat="41.39954048626177" lon="-81.74036705072631">
        <ele>266.0676239557</ele>
        <time>2026-03-23T16:21:18Z</time>
      </trkpt>
      <trkpt lat="41.39954912336519" lon="-81.73976505493636">
        <ele>266.6604628848</ele>
        <time>2026-03-23T16:21:58Z</time>
      </trkpt>
      <trkpt lat="41.39953584449952" lon="-81.73916910716375">
        <ele>266.7732571875</ele>
        <time>2026-03-23T16:22:49Z</time>
      </trkpt>
      <trkpt lat="41.39953551689072" lon="-81.73857958171294">
        <ele>266.8360882966</ele>
        <time>2026-03-23T16:23:36Z</time>
      </trkpt>
      <trkpt lat="41.39952961358792" lon="-81.73829144726569">
        <ele>266.9195931757</ele>
        <time>2026-03-23T16:23:58Z</time>
      </trkpt>
      <trkpt lat="41.39953388937298" lon="-81.73828840503208">
        <ele>266.8569580249</ele>
        <time>2026-03-23T16:23:59Z</time>
      </trkpt>
      <trkpt lat="41.39997797641518" lon="-81.73830805789763">
        <ele>267.0347778251</ele>
        <time>2026-03-23T16:24:57Z</time>
      </trkpt>
      <trkpt lat="41.40042978075671" lon="-81.73829653822067">
        <ele>267.3539612663</ele>
        <time>2026-03-23T16:25:48Z</time>
      </trkpt>
      <trkpt lat="41.40088486474986" lon="-81.73829628668332">
        <ele>267.6158611595</ele>
        <time>2026-03-23T16:26:23Z</time>
      </trkpt>
      <trkpt lat="41.40132753917170" lon="-81.73830717465513">
        <ele>267.5601405862</ele>
        <time>2026-03-23T16:27:09Z</time>
      </trkpt>
      <trkpt lat="41.40133384013287" lon="-81.73889874038679">
        <ele>267.3170901161</ele>
        <time>2026-03-23T16:27:49Z</time>
      </trkpt>
      <trkpt lat="41.40133224581597" lon="-81.73950764040113">
        <ele>267.0976020924</ele>
        <time>2026-03-23T16:28:21Z</time>
      </trkpt>
      <trkpt lat="41.40133513812302" lon="-81.74009588137301">
        <ele>266.4950348702</ele>
        <time>2026-03-23T16:28:59Z</time>
      </trkpt>
      <trkpt lat="41.40133466454649" lon="-81.74015858555040">
        <ele>266.4635326691</ele>
        <time>2026-03-23T16:29:03Z</time>
      </trkpt>
    </trkseg>
  </trk>
</gpx>