<?xml version='1.0' encoding='UTF-8'?>
<gpx xmlns="http://www.topografix.com/GPX/1/1" creator="https://gpx.studio" version="1.1">
  <metadata>
    <name>Dog Walk - 2026-05-12 #1</name>
  </metadata>
  <trk>
    <name>Dog Walk - 2026-05-12 #1</name>
    <type>dog walk</type>
    <trkseg>
      <trkpt lat="41.40134186777032" lon="-81.74022794982164">
        <ele>266.4647765279</ele>
        <time>2026-05-12T08:25:14Z</time>
      </trkpt>
      <trkpt lat="41.40134315603260" lon="-81.74083342933500">
        <ele>266.0733671661</ele>
        <time>2026-05-12T08:25:54Z</time>
      </trkpt>
      <trkpt lat="41.40133437702447" lon="-81.74142842269562">
        <ele>265.9187426119</ele>
        <time>2026-05-12T08:26:28Z</time>
      </trkpt>
      <trkpt lat="41.40133804646123" lon="-81.74202907569251">
        <ele>265.2496019607</ele>
        <time>2026-05-12T08:27:15Z</time>
      </trkpt>
      <trkpt lat="41.40132495685410" lon="-81.74238002909674">
        <ele>264.5919769612</ele>
        <time>2026-05-12T08:27:56Z</time>
      </trkpt>
      <trkpt lat="41.40091042711021" lon="-81.74217986282873">
        <ele>265.3268456487</ele>
        <time>2026-05-12T08:28:34Z</time>
      </trkpt>
      <trkpt lat="41.40048289889719" lon="-81.74197180556229">
        <ele>265.1132547608</ele>
        <time>2026-05-12T08:29:13Z</time>
      </trkpt>
      <trkpt lat="41.40045248362772" lon="-81.74195853682997">
        <ele>265.4748899914</ele>
        <time>2026-05-12T08:29:16Z</time>
      </trkpt>
      <trkpt lat="41.40044293950893" lon="-81.74134795516665">
        <ele>266.0393504459</ele>
        <time>2026-05-12T08:29:59Z</time>
      </trkpt>
      <trkpt lat="41.40044005981630" lon="-81.74074906726486">
        <ele>266.3407623900</ele>
        <time>2026-05-12T08:30:30Z</time>
      </trkpt>
      <trkpt lat="41.40042724419641" lon="-81.74015765858191">
        <ele>266.8845675015</ele>
        <time>2026-05-12T08:31:05Z</time>
      </trkpt>
      <trkpt lat="41.40043043027286" lon="-81.73955721867603">
        <ele>266.9395678659</ele>
        <time>2026-05-12T08:32:08Z</time>
      </trkpt>
      <trkpt lat="41.40042836348073" lon="-81.73894545698238">
        <ele>267.1640995369</ele>
        <time>2026-05-12T08:32:55Z</time>
      </trkpt>
      <trkpt lat="41.40042721817332" lon="-81.73834496502964">
        <ele>267.3679745003</ele>
        <time>2026-05-12T08:33:30Z</time>
      </trkpt>
      <trkpt lat="41.40042774688446" lon="-81.73775131104277">
        <ele>267.5412207514</ele>
        <time>2026-05-12T08:34:23Z</time>
      </trkpt>
      <trkpt lat="41.40041949272354" lon="-81.73715270527568">
        <ele>268.0654456855</ele>
        <time>2026-05-12T08:35:04Z</time>
      </trkpt>
      <trkpt lat="41.40041144709001" lon="-81.73655371035777">
        <ele>268.0823309876</ele>
        <time>2026-05-12T08:35:47Z</time>
      </trkpt>
      <trkpt lat="41.40040430080909" lon="-81.73595850917508">
        <ele>267.9248896687</ele>
        <time>2026-05-12T08:36:28Z</time>
      </trkpt>
      <trkpt lat="41.40039959805027" lon="-81.73535693110811">
        <ele>267.7432152035</ele>
        <time>2026-05-12T08:37:17Z</time>
      </trkpt>
      <trkpt lat="41.40039899246461" lon="-81.73475131764469">
        <ele>267.1825601676</ele>
        <time>2026-05-12T08:37:48Z</time>
      </trkpt>
      <trkpt lat="41.40038903257759" lon="-81.73464059074860">
        <ele>267.2545413865</ele>
        <time>2026-05-12T08:37:54Z</time>
      </trkpt>
      <trkpt lat="41.40084256129898" lon="-81.73463391259378">
        <ele>267.2405575628</ele>
        <time>2026-05-12T08:38:32Z</time>
      </trkpt>
      <trkpt lat="41.40129565047593" lon="-81.73462825209670">
        <ele>267.3389092780</ele>
        <time>2026-05-12T08:39:09Z</time>
      </trkpt>
      <trkpt lat="41.40131253901369" lon="-81.73462732804902">
        <ele>267.4069680945</ele>
        <time>2026-05-12T08:39:10Z</time>
      </trkpt>
      <trkpt lat="41.40131472206416" lon="-81.73523459679312">
        <ele>267.9088337554</ele>
        <time>2026-05-12T08:39:51Z</time>
      </trkpt>
      <trkpt lat="41.40132185796863" lon="-81.73583301136621">
        <ele>268.3393245224</ele>
        <time>2026-05-12T08:40:32Z</time>
      </trkpt>
      <trkpt lat="41.40132508075661" lon="-81.73643878500361">
        <ele>268.3622884847</ele>
        <time>2026-05-12T08:41:14Z</time>
      </trkpt>
      <trkpt lat="41.40132985154875" lon="-81.73703361015069">
        <ele>268.0497297718</ele>
        <time>2026-05-12T08:41:53Z</time>
      </trkpt>
      <trkpt lat="41.40132703356498" lon="-81.73763194590111">
        <ele>268.1808327713</ele>
        <time>2026-05-12T08:42:39Z</time>
      </trkpt>
      <trkpt lat="41.40133972342942" lon="-81.73823519285965">
        <ele>267.4158969706</ele>
        <time>2026-05-12T08:43:23Z</time>
      </trkpt>
      <trkpt lat="41.40133198836428" lon="-81.73883164556378">
        <ele>267.2649551413</ele>
        <time>2026-05-12T08:44:07Z</time>
      </trkpt>
      <trkpt lat="41.40134328746564" lon="-81.73943545442694">
        <ele>267.0938450802</ele>
        <time>2026-05-12T08:44:40Z</time>
      </trkpt>
      <trkpt lat="41.40134803234398" lon="-81.74002026719181">
        <ele>266.7303623941</ele>
        <time>2026-05-12T08:45:32Z</time>
      </trkpt>
      <trkpt lat="41.40134853558896" lon="-81.74019413896866">
        <ele>266.3253090671</ele>
        <time>2026-05-12T08:45:46Z</time>
      </trkpt>
    </trkseg>
  </trk>
</gpx>