<?xml version='1.0' encoding='UTF-8'?>
<gpx xmlns="http://www.topografix.com/GPX/1/1" creator="https://gpx.studio" version="1.1">
  <metadata>
    <name>Dog Walk - 2026-08-22 #4</name>
  </metadata>
  <trk>
    <name>Dog Walk - 2026-08-22 #4</name>
    <type>dog walk</type>
    <trkseg>
      <trkpt lat="41.40133783659449" lon="-81.74022579390704">
        <ele>266.4311030896</ele>
        <time>2026-08-22T20:06:59Z</time>
      </trkpt>
      <trkpt lat="41.40134403409962" lon="-81.74083099994158">
        <ele>265.9713443333</ele>
        <time>2026-08-22T20:07:35Z</time>
      </trkpt>
      <trkpt lat="41.40134053407802" lon="-81.74142480103608">
        <ele>265.7773144301</ele>
        <time>2026-08-22T20:08:17Z</time>
      </trkpt>
      <trkpt lat="41.40134718681696" lon="-81.74202106245730">
        <ele>265.1495517615</ele>
        <time>2026-08-22T20:08:53Z</time>
      </trkpt>
      <trkpt lat="41.40134803775518" lon="-81.74241879812385">
        <ele>264.6132957233</ele>
        <time>2026-08-22T20:09:40Z</time>
      </trkpt>
      <trkpt lat="41.40177650824025" lon="-81.74261899883045">
        <ele>264.2175670243</ele>
        <time>2026-08-22T20:10:29Z</time>
      </trkpt>
      <trkpt lat="41.40219095903294" lon="-81.74283898859829">
        <ele>263.5688347832</ele>
        <time>2026-08-22T20:11:09Z</time>
      </trkpt>
      <trkpt lat="41.40261122088067" lon="-81.74305767663802">
        <ele>262.9129597580</ele>
        <time>2026-08-22T20:11:46Z</time>
      </trkpt>
      <trkpt lat="41.40303057766568" lon="-81.74326659910589">
        <ele>262.1967742631</ele>
        <time>2026-08-22T20:12:20Z</time>
      </trkpt>
      <trkpt lat="41.40345773066655" lon="-81.74348020368376">
        <ele>261.9871071383</ele>
        <time>2026-08-22T20:12:58Z</time>
      </trkpt>
      <trkpt lat="41.40349777650759" lon="-81.74349441987742">
        <ele>261.8483583447</ele>
        <time>2026-08-22T20:13:02Z</time>
      </trkpt>
      <trkpt lat="41.40359695008200" lon="-81.74351975764206">
        <ele>261.6638781282</ele>
        <time>2026-08-22T20:13:15Z</time>
      </trkpt>
      <trkpt lat="41.40398609087183" lon="-81.74350405842937">
        <ele>260.8158613637</ele>
        <time>2026-08-22T20:13:45Z</time>
      </trkpt>
      <trkpt lat="41.40399647489394" lon="-81.74290289525204">
        <ele>261.6800499578</ele>
        <time>2026-08-22T20:14:30Z</time>
      </trkpt>
      <trkpt lat="41.40399939957966" lon="-81.74230629667866">
        <ele>261.9732743100</ele>
        <time>2026-08-22T20:15:06Z</time>
      </trkpt>
      <trkpt lat="41.40398482838366" lon="-81.74170710817349">
        <ele>262.4734950345</ele>
        <time>2026-08-22T20:15:40Z</time>
      </trkpt>
      <trkpt lat="41.40399333256100" lon="-81.74110514216294">
        <ele>263.0519886299</ele>
        <time>2026-08-22T20:16:26Z</time>
      </trkpt>
      <trkpt lat="41.40399671715575" lon="-81.74050475914801">
        <ele>263.6173896676</ele>
        <time>2026-08-22T20:17:16Z</time>
      </trkpt>
      <trkpt lat="41.40398894753002" lon="-81.73990335722736">
        <ele>264.2645990251</ele>
        <time>2026-08-22T20:18:20Z</time>
      </trkpt>
      <trkpt lat="41.40399123516715" lon="-81.73930698743013">
        <ele>265.1787275335</ele>
        <time>2026-08-22T20:19:02Z</time>
      </trkpt>
      <trkpt lat="41.40398162540089" lon="-81.73878334224935">
        <ele>265.4812257477</ele>
        <time>2026-08-22T20:19:43Z</time>
      </trkpt>
      <trkpt lat="41.40353970187646" lon="-81.73878209500975">
        <ele>265.8554078161</ele>
        <time>2026-08-22T20:20:39Z</time>
      </trkpt>
      <trkpt lat="41.40308227026753" lon="-81.73877313955211">
        <ele>266.3058824848</ele>
        <time>2026-08-22T20:21:20Z</time>
      </trkpt>
      <trkpt lat="41.40263797722539" lon="-81.73877567195422">
        <ele>266.7759778649</ele>
        <time>2026-08-22T20:22:09Z</time>
      </trkpt>
      <trkpt lat="41.40223262821615" lon="-81.73877853376716">
        <ele>267.1985466831</ele>
        <time>2026-08-22T20:22:41Z</time>
      </trkpt>
      <trkpt lat="41.40222833254673" lon="-81.73827543586208">
        <ele>267.2229602965</ele>
        <time>2026-08-22T20:23:14Z</time>
      </trkpt>
      <trkpt lat="41.40176987025153" lon="-81.73826253482753">
        <ele>267.6029351243</ele>
        <time>2026-08-22T20:23:52Z</time>
      </trkpt>
      <trkpt lat="41.40133354421854" lon="-81.73827033731880">
        <ele>267.5972941998</ele>
        <time>2026-08-22T20:24:27Z</time>
      </trkpt>
      <trkpt lat="41.40133777571466" lon="-81.73886626612625">
        <ele>267.5908861726</ele>
        <time>2026-08-22T20:25:05Z</time>
      </trkpt>
      <trkpt lat="41.40133543254426" lon="-81.73946338772531">
        <ele>267.2644520532</ele>
        <time>2026-08-22T20:25:42Z</time>
      </trkpt>
      <trkpt lat="41.40133215257173" lon="-81.74006689666554">
        <ele>266.8896039258</ele>
        <time>2026-08-22T20:26:22Z</time>
      </trkpt>
      <trkpt lat="41.40133763850107" lon="-81.74020784415987">
        <ele>266.4670804969</ele>
        <time>2026-08-22T20:26:30Z</time>
      </trkpt>
    </trkseg>
  </trk>
</gpx>