<?xml version='1.0' encoding='UTF-8'?>
<gpx xmlns="http://www.topografix.com/GPX/1/1" creator="https://gpx.studio" version="1.1">
  <metadata>
    <name>Dog Walk - 2026-03-29 #2</name>
  </metadata>
  <trk>
    <name>Dog Walk - 2026-03-29 #2</name>
    <type>dog walk</type>
    <trkseg>
      <trkpt lat="41.40133703544169" lon="-81.74023537606013">
        <ele>266.5179165192</ele>
        <time>2026-03-29T09:42:06Z</time>
      </trkpt>
      <trkpt lat="41.40133534893281" lon="-81.74083597706431">
        <ele>266.1473004166</ele>
        <time>2026-03-29T09:42:47Z</time>
      </trkpt>
      <trkpt lat="41.40133693171859" lon="-81.74143000477045">
        <ele>265.7763429110</ele>
        <time>2026-03-29T09:43:23Z</time>
      </trkpt>
      <trkpt lat="41.40135064384645" lon="-81.74204716544938">
        <ele>265.1779707238</ele>
        <time>2026-03-29T09:44:17Z</time>
      </trkpt>
      <trkpt lat="41.40134852034736" lon="-81.74241283237207">
        <ele>264.5044134366</ele>
        <time>2026-03-29T09:44:40Z</time>
      </trkpt>
      <trkpt lat="41.40178029512823" lon="-81.74261238649115">
        <ele>264.3855634267</ele>
        <time>2026-03-29T09:45:23Z</time>
      </trkpt>
      <trkpt lat="41.40220061207335" lon="-81.74280932453225">
        <ele>263.7150834199</ele>
        <time>2026-03-29T09:45:59Z</time>
      </trkpt>
      <trkpt lat="41.40262402244420" lon="-81.74301924469569">
        <ele>263.1889144773</ele>
        <time>2026-03-29T09:46:36Z</time>
      </trkpt>
      <trkpt lat="41.40304009737226" lon="-81.74320928166347">
        <ele>262.5674300468</ele>
        <time>2026-03-29T09:47:17Z</time>
      </trkpt>
      <trkpt lat="41.40311173224604" lon="-81.74324477836601">
        <ele>262.5456641774</ele>
        <time>2026-03-29T09:47:23Z</time>
      </trkpt>
      <trkpt lat="41.40311908019056" lon="-81.74265314045901">
        <ele>263.2880512952</ele>
        <time>2026-03-29T09:47:59Z</time>
      </trkpt>
      <trkpt lat="41.40312411890587" lon="-81.74204288580832">
        <ele>263.7045129341</ele>
        <time>2026-03-29T09:48:45Z</time>
      </trkpt>
      <trkpt lat="41.40310021039890" lon="-81.74146187439779">
        <ele>264.2021116923</ele>
        <time>2026-03-29T09:49:25Z</time>
      </trkpt>
      <trkpt lat="41.40310753331787" lon="-81.74086145701723">
        <ele>264.6038341503</ele>
        <time>2026-03-29T09:50:05Z</time>
      </trkpt>
      <trkpt lat="41.40311397075121" lon="-81.74025458165063">
        <ele>265.3097558876</ele>
        <time>2026-03-29T09:50:43Z</time>
      </trkpt>
      <trkpt lat="41.40309816450949" lon="-81.73965266983751">
        <ele>265.8397592126</ele>
        <time>2026-03-29T09:51:20Z</time>
      </trkpt>
      <trkpt lat="41.40309955718236" lon="-81.73904383781976">
        <ele>265.9927712686</ele>
        <time>2026-03-29T09:52:09Z</time>
      </trkpt>
      <trkpt lat="41.40309889789210" lon="-81.73878875473828">
        <ele>266.1590075827</ele>
        <time>2026-03-29T09:52:29Z</time>
      </trkpt>
      <trkpt lat="41.40265226732630" lon="-81.73878585886168">
        <ele>266.9314338006</ele>
        <time>2026-03-29T09:53:06Z</time>
      </trkpt>
      <trkpt lat="41.40223106579396" lon="-81.73877759419196">
        <ele>266.8189669250</ele>
        <time>2026-03-29T09:53:41Z</time>
      </trkpt>
      <trkpt lat="41.40223114900986" lon="-81.73818342142505">
        <ele>267.1773000940</ele>
        <time>2026-03-29T09:54:35Z</time>
      </trkpt>
      <trkpt lat="41.40223419520837" lon="-81.73757519043744">
        <ele>267.2399679568</ele>
        <time>2026-03-29T09:55:11Z</time>
      </trkpt>
      <trkpt lat="41.40223147670994" lon="-81.73697697769799">
        <ele>267.2889177615</ele>
        <time>2026-03-29T09:55:54Z</time>
      </trkpt>
      <trkpt lat="41.40223113126634" lon="-81.73639288470615">
        <ele>267.2200516901</ele>
        <time>2026-03-29T09:56:34Z</time>
      </trkpt>
      <trkpt lat="41.40222448634422" lon="-81.73577626645263">
        <ele>267.2130849152</ele>
        <time>2026-03-29T09:57:20Z</time>
      </trkpt>
      <trkpt lat="41.40222403614949" lon="-81.73518610490611">
        <ele>267.1101594412</ele>
        <time>2026-03-29T09:57:56Z</time>
      </trkpt>
      <trkpt lat="41.40222374191907" lon="-81.73465677219603">
        <ele>266.8583392379</ele>
        <time>2026-03-29T09:58:32Z</time>
      </trkpt>
      <trkpt lat="41.40177041530681" lon="-81.73463537830163">
        <ele>266.9956855109</ele>
        <time>2026-03-29T09:59:20Z</time>
      </trkpt>
      <trkpt lat="41.40133124706911" lon="-81.73464293719836">
        <ele>267.2972877238</ele>
        <time>2026-03-29T10:00:00Z</time>
      </trkpt>
      <trkpt lat="41.40130431038826" lon="-81.73464349349813">
        <ele>267.4309368540</ele>
        <time>2026-03-29T10:00:02Z</time>
      </trkpt>
      <trkpt lat="41.40131131631853" lon="-81.73523269072037">
        <ele>267.8165716101</ele>
        <time>2026-03-29T10:00:42Z</time>
      </trkpt>
      <trkpt lat="41.40131153030467" lon="-81.73582879774939">
        <ele>268.2481807200</ele>
        <time>2026-03-29T10:01:19Z</time>
      </trkpt>
      <trkpt lat="41.40132652513314" lon="-81.73643934741192">
        <ele>268.0980332560</ele>
        <time>2026-03-29T10:01:55Z</time>
      </trkpt>
      <trkpt lat="41.40133688344925" lon="-81.73702586028581">
        <ele>267.9451714859</ele>
        <time>2026-03-29T10:02:53Z</time>
      </trkpt>
      <trkpt lat="41.40132478440061" lon="-81.73763578976744">
        <ele>267.8156270792</ele>
        <time>2026-03-29T10:03:24Z</time>
      </trkpt>
      <trkpt lat="41.40133233685595" lon="-81.73823300789756">
        <ele>267.4393398927</ele>
        <time>2026-03-29T10:04:07Z</time>
      </trkpt>
      <trkpt lat="41.40134669642147" lon="-81.73883941874070">
        <ele>267.3313471901</ele>
        <time>2026-03-29T10:04:46Z</time>
      </trkpt>
      <trkpt lat="41.40133793594634" lon="-81.73942847625825">
        <ele>267.0156766138</ele>
        <time>2026-03-29T10:05:24Z</time>
      </trkpt>
      <trkpt lat="41.40134096410899" lon="-81.74003715761474">
        <ele>266.7569802593</ele>
        <time>2026-03-29T10:06:18Z</time>
      </trkpt>
      <trkpt lat="41.40134150615740" lon="-81.74015937993417">
        <ele>266.3038033433</ele>
        <time>2026-03-29T10:06:25Z</time>
      </trkpt>
    </trkseg>
  </trk>
</gpx>