<?xml version='1.0' encoding='UTF-8'?>
<gpx xmlns="http://www.topografix.com/GPX/1/1" creator="https://gpx.studio" version="1.1">
  <metadata>
    <name>Dog Walk - 2026-07-02 #2</name>
  </metadata>
  <trk>
    <name>Dog Walk - 2026-07-02 #2</name>
    <type>dog walk</type>
    <trkseg>
      <trkpt lat="41.40133821760367" lon="-81.74022998276263">
        <ele>266.4667929825</ele>
        <time>2026-07-02T13:04:54Z</time>
      </trkpt>
      <trkpt lat="41.40134343604214" lon="-81.74082608050497">
        <ele>266.3837997224</ele>
        <time>2026-07-02T13:05:43Z</time>
      </trkpt>
      <trkpt lat="41.40134500221706" lon="-81.74143720710579">
        <ele>265.6737239681</ele>
        <time>2026-07-02T13:06:31Z</time>
      </trkpt>
      <trkpt lat="41.40134113271755" lon="-81.74202670925310">
        <ele>265.3668076293</ele>
        <time>2026-07-02T13:07:03Z</time>
      </trkpt>
      <trkpt lat="41.40134015211300" lon="-81.74241556724310">
        <ele>264.7431492626</ele>
        <time>2026-07-02T13:07:33Z</time>
      </trkpt>
      <trkpt lat="41.40176058844302" lon="-81.74262957893670">
        <ele>264.3366267178</ele>
        <time>2026-07-02T13:08:16Z</time>
      </trkpt>
      <trkpt lat="41.40218491448304" lon="-81.74284690173347">
        <ele>263.6223385202</ele>
        <time>2026-07-02T13:08:53Z</time>
      </trkpt>
      <trkpt lat="41.40260704698081" lon="-81.74306167220514">
        <ele>263.0502462179</ele>
        <time>2026-07-02T13:09:30Z</time>
      </trkpt>
      <trkpt lat="41.40301967980581" lon="-81.74326437892336">
        <ele>262.4699320745</ele>
        <time>2026-07-02T13:10:05Z</time>
      </trkpt>
      <trkpt lat="41.40345182643362" lon="-81.74347696922904">
        <ele>261.7912243338</ele>
        <time>2026-07-02T13:10:52Z</time>
      </trkpt>
      <trkpt lat="41.40348786391568" lon="-81.74349501974832">
        <ele>261.5047566743</ele>
        <time>2026-07-02T13:10:55Z</time>
      </trkpt>
      <trkpt lat="41.40360065165495" lon="-81.74352785306441">
        <ele>261.6353241702</ele>
        <time>2026-07-02T13:11:08Z</time>
      </trkpt>
      <trkpt lat="41.40399623329502" lon="-81.74350410068051">
        <ele>260.7798896607</ele>
        <time>2026-07-02T13:11:43Z</time>
      </trkpt>
      <trkpt lat="41.40399401595953" lon="-81.74291297128400">
        <ele>261.4204107063</ele>
        <time>2026-07-02T13:12:26Z</time>
      </trkpt>
      <trkpt lat="41.40399406645093" lon="-81.74231177071570">
        <ele>261.9785519168</ele>
        <time>2026-07-02T13:13:10Z</time>
      </trkpt>
      <trkpt lat="41.40399132375903" lon="-81.74171211835652">
        <ele>262.5868747470</ele>
        <time>2026-07-02T13:13:50Z</time>
      </trkpt>
      <trkpt lat="41.40398837810812" lon="-81.74111745850402">
        <ele>262.9557272084</ele>
        <time>2026-07-02T13:14:34Z</time>
      </trkpt>
      <trkpt lat="41.40399249430354" lon="-81.74052051388099">
        <ele>263.3418730467</ele>
        <time>2026-07-02T13:15:25Z</time>
      </trkpt>
      <trkpt lat="41.40399312514800" lon="-81.73991036834640">
        <ele>264.2747822118</ele>
        <time>2026-07-02T13:16:16Z</time>
      </trkpt>
      <trkpt lat="41.40398885370217" lon="-81.73930583732299">
        <ele>265.0347374182</ele>
        <time>2026-07-02T13:17:00Z</time>
      </trkpt>
      <trkpt lat="41.40398522576209" lon="-81.73877421717647">
        <ele>265.4369285644</ele>
        <time>2026-07-02T13:17:29Z</time>
      </trkpt>
      <trkpt lat="41.40354069167797" lon="-81.73877677160370">
        <ele>266.0384698625</ele>
        <time>2026-07-02T13:18:28Z</time>
      </trkpt>
      <trkpt lat="41.40308658649087" lon="-81.73877473444837">
        <ele>266.2082070896</ele>
        <time>2026-07-02T13:19:25Z</time>
      </trkpt>
      <trkpt lat="41.40263370381817" lon="-81.73877356071048">
        <ele>266.6491475544</ele>
        <time>2026-07-02T13:20:02Z</time>
      </trkpt>
      <trkpt lat="41.40222894854518" lon="-81.73877238086503">
        <ele>266.8781001384</ele>
        <time>2026-07-02T13:20:50Z</time>
      </trkpt>
      <trkpt lat="41.40221939824206" lon="-81.73827844600400">
        <ele>267.2393821660</ele>
        <time>2026-07-02T13:21:37Z</time>
      </trkpt>
      <trkpt lat="41.40176671976637" lon="-81.73827657735589">
        <ele>267.9000912911</ele>
        <time>2026-07-02T13:22:28Z</time>
      </trkpt>
      <trkpt lat="41.40133357006371" lon="-81.73826528662312">
        <ele>267.8317679510</ele>
        <time>2026-07-02T13:23:17Z</time>
      </trkpt>
      <trkpt lat="41.40133156143664" lon="-81.73886791963623">
        <ele>267.4137703266</ele>
        <time>2026-07-02T13:24:14Z</time>
      </trkpt>
      <trkpt lat="41.40133471068140" lon="-81.73945814171954">
        <ele>267.2341672110</ele>
        <time>2026-07-02T13:24:45Z</time>
      </trkpt>
      <trkpt lat="41.40132798696217" lon="-81.74006756539129">
        <ele>266.6690280073</ele>
        <time>2026-07-02T13:25:29Z</time>
      </trkpt>
      <trkpt lat="41.40133385303736" lon="-81.74020738292948">
        <ele>266.5618201026</ele>
        <time>2026-07-02T13:25:38Z</time>
      </trkpt>
    </trkseg>
  </trk>
</gpx>