<?xml version='1.0' encoding='UTF-8'?>
<gpx xmlns="http://www.topografix.com/GPX/1/1" creator="https://gpx.studio" version="1.1">
  <metadata>
    <name>Dog Walk - 2026-03-19 #3</name>
  </metadata>
  <trk>
    <name>Dog Walk - 2026-03-19 #3</name>
    <type>dog walk</type>
    <trkseg>
      <trkpt lat="41.40135009296721" lon="-81.74023675998339">
        <ele>266.6463562937</ele>
        <time>2026-03-19T15:27:55Z</time>
      </trkpt>
      <trkpt lat="41.40133743584487" lon="-81.74083844523393">
        <ele>266.1731779155</ele>
        <time>2026-03-19T15:28:32Z</time>
      </trkpt>
      <trkpt lat="41.40134619354618" lon="-81.74143705962803">
        <ele>265.7918044052</ele>
        <time>2026-03-19T15:29:11Z</time>
      </trkpt>
      <trkpt lat="41.40134609906137" lon="-81.74202260888165">
        <ele>265.4752164159</ele>
        <time>2026-03-19T15:29:48Z</time>
      </trkpt>
      <trkpt lat="41.40134996149327" lon="-81.74241395877540">
        <ele>264.5909614558</ele>
        <time>2026-03-19T15:30:11Z</time>
      </trkpt>
      <trkpt lat="41.40176841540240" lon="-81.74261946204153">
        <ele>264.3217108085</ele>
        <time>2026-03-19T15:30:48Z</time>
      </trkpt>
      <trkpt lat="41.40219445732905" lon="-81.74282198684458">
        <ele>263.6460015430</ele>
        <time>2026-03-19T15:31:47Z</time>
      </trkpt>
      <trkpt lat="41.40261332848885" lon="-81.74302003552795">
        <ele>263.0105277452</ele>
        <time>2026-03-19T15:32:30Z</time>
      </trkpt>
      <trkpt lat="41.40304407367808" lon="-81.74322559959431">
        <ele>262.4599451837</ele>
        <time>2026-03-19T15:33:10Z</time>
      </trkpt>
      <trkpt lat="41.40312564649787" lon="-81.74325567164684">
        <ele>262.4015711095</ele>
        <time>2026-03-19T15:33:18Z</time>
      </trkpt>
      <trkpt lat="41.40311782958421" lon="-81.74265740418090">
        <ele>263.1630022513</ele>
        <time>2026-03-19T15:33:57Z</time>
      </trkpt>
      <trkpt lat="41.40311301299842" lon="-81.74205453233964">
        <ele>263.8141251458</ele>
        <time>2026-03-19T15:34:52Z</time>
      </trkpt>
      <trkpt lat="41.40310740587731" lon="-81.74144175508088">
        <ele>264.3202847548</ele>
        <time>2026-03-19T15:35:33Z</time>
      </trkpt>
      <trkpt lat="41.40311024188214" lon="-81.74084979092574">
        <ele>264.7039038485</ele>
        <time>2026-03-19T15:36:17Z</time>
      </trkpt>
      <trkpt lat="41.40310641120306" lon="-81.74025879998702">
        <ele>265.3082626258</ele>
        <time>2026-03-19T15:36:54Z</time>
      </trkpt>
      <trkpt lat="41.40310881119728" lon="-81.73966525592054">
        <ele>265.7060397109</ele>
        <time>2026-03-19T15:37:29Z</time>
      </trkpt>
      <trkpt lat="41.40309902143515" lon="-81.73905562156307">
        <ele>266.2098629705</ele>
        <time>2026-03-19T15:38:01Z</time>
      </trkpt>
      <trkpt lat="41.40309990841234" lon="-81.73877839939112">
        <ele>266.3021439954</ele>
        <time>2026-03-19T15:38:28Z</time>
      </trkpt>
      <trkpt lat="41.40263995848933" lon="-81.73878203108382">
        <ele>266.8120495090</ele>
        <time>2026-03-19T15:39:19Z</time>
      </trkpt>
      <trkpt lat="41.40223357481445" lon="-81.73877126476991">
        <ele>267.3383951219</ele>
        <time>2026-03-19T15:39:53Z</time>
      </trkpt>
      <trkpt lat="41.40222768860025" lon="-81.73817505046873">
        <ele>266.8341925094</ele>
        <time>2026-03-19T15:40:28Z</time>
      </trkpt>
      <trkpt lat="41.40222598158264" lon="-81.73757928917630">
        <ele>267.0677525191</ele>
        <time>2026-03-19T15:41:16Z</time>
      </trkpt>
      <trkpt lat="41.40222611339818" lon="-81.73697462900009">
        <ele>267.2195342771</ele>
        <time>2026-03-19T15:41:59Z</time>
      </trkpt>
      <trkpt lat="41.40222682761104" lon="-81.73637528615509">
        <ele>267.0176862670</ele>
        <time>2026-03-19T15:42:47Z</time>
      </trkpt>
      <trkpt lat="41.40222584933867" lon="-81.73578482868299">
        <ele>267.3880743956</ele>
        <time>2026-03-19T15:43:29Z</time>
      </trkpt>
      <trkpt lat="41.40222199232635" lon="-81.73518116948848">
        <ele>267.1798819827</ele>
        <time>2026-03-19T15:44:01Z</time>
      </trkpt>
      <trkpt lat="41.40222556247100" lon="-81.73465844273848">
        <ele>267.0210678375</ele>
        <time>2026-03-19T15:44:33Z</time>
      </trkpt>
      <trkpt lat="41.40177308990076" lon="-81.73464023361467">
        <ele>267.2473823277</ele>
        <time>2026-03-19T15:45:30Z</time>
      </trkpt>
      <trkpt lat="41.40132417093250" lon="-81.73463457518579">
        <ele>267.3935414120</ele>
        <time>2026-03-19T15:46:22Z</time>
      </trkpt>
      <trkpt lat="41.40131401458934" lon="-81.73462623261587">
        <ele>267.4129592705</ele>
        <time>2026-03-19T15:46:23Z</time>
      </trkpt>
      <trkpt lat="41.40132265349133" lon="-81.73524093172145">
        <ele>267.8173040878</ele>
        <time>2026-03-19T15:47:08Z</time>
      </trkpt>
      <trkpt lat="41.40131998353703" lon="-81.73584679339783">
        <ele>268.3664629392</ele>
        <time>2026-03-19T15:47:47Z</time>
      </trkpt>
      <trkpt lat="41.40132478040289" lon="-81.73643429868454">
        <ele>268.1036892950</ele>
        <time>2026-03-19T15:48:36Z</time>
      </trkpt>
      <trkpt lat="41.40132530654058" lon="-81.73704295896177">
        <ele>268.0050315765</ele>
        <time>2026-03-19T15:49:24Z</time>
      </trkpt>
      <trkpt lat="41.40133164949269" lon="-81.73763569283517">
        <ele>267.9521617043</ele>
        <time>2026-03-19T15:50:06Z</time>
      </trkpt>
      <trkpt lat="41.40133799441363" lon="-81.73823289086386">
        <ele>267.7298680893</ele>
        <time>2026-03-19T15:50:51Z</time>
      </trkpt>
      <trkpt lat="41.40133857287962" lon="-81.73882988472754">
        <ele>267.3717718501</ele>
        <time>2026-03-19T15:51:37Z</time>
      </trkpt>
      <trkpt lat="41.40134538179812" lon="-81.73943242589385">
        <ele>267.2141166390</ele>
        <time>2026-03-19T15:52:10Z</time>
      </trkpt>
      <trkpt lat="41.40133670144058" lon="-81.74003350700309">
        <ele>266.6607833666</ele>
        <time>2026-03-19T15:53:02Z</time>
      </trkpt>
      <trkpt lat="41.40134195474121" lon="-81.74016211554093">
        <ele>266.4590329684</ele>
        <time>2026-03-19T15:53:23Z</time>
      </trkpt>
    </trkseg>
  </trk>
</gpx>