<?xml version='1.0' encoding='UTF-8'?>
<gpx xmlns="http://www.topografix.com/GPX/1/1" creator="https://gpx.studio" version="1.1">
  <metadata>
    <name>Dog Walk - 2026-08-08 #5</name>
  </metadata>
  <trk>
    <name>Dog Walk - 2026-08-08 #5</name>
    <type>dog walk</type>
    <trkseg>
      <trkpt lat="41.40133835161770" lon="-81.74022491844460">
        <ele>266.4188891191</ele>
        <time>2026-08-08T20:30:54Z</time>
      </trkpt>
      <trkpt lat="41.40133571266165" lon="-81.74083518881999">
        <ele>266.3046797399</ele>
        <time>2026-08-08T20:31:45Z</time>
      </trkpt>
      <trkpt lat="41.40134301008818" lon="-81.74144272290542">
        <ele>265.4862274484</ele>
        <time>2026-08-08T20:32:30Z</time>
      </trkpt>
      <trkpt lat="41.40134818168048" lon="-81.74203205427736">
        <ele>265.2051654509</ele>
        <time>2026-08-08T20:33:15Z</time>
      </trkpt>
      <trkpt lat="41.40135186940051" lon="-81.74242150918995">
        <ele>264.6839666937</ele>
        <time>2026-08-08T20:33:37Z</time>
      </trkpt>
      <trkpt lat="41.40177399780283" lon="-81.74262562369853">
        <ele>264.2994860746</ele>
        <time>2026-08-08T20:34:28Z</time>
      </trkpt>
      <trkpt lat="41.40218858419440" lon="-81.74283768159944">
        <ele>263.4375334253</ele>
        <time>2026-08-08T20:35:15Z</time>
      </trkpt>
      <trkpt lat="41.40261111598385" lon="-81.74305001893839">
        <ele>263.1087425940</ele>
        <time>2026-08-08T20:35:57Z</time>
      </trkpt>
      <trkpt lat="41.40302862085837" lon="-81.74326088845706">
        <ele>262.4008860225</ele>
        <time>2026-08-08T20:36:45Z</time>
      </trkpt>
      <trkpt lat="41.40345002625953" lon="-81.74348048023617">
        <ele>261.9811730317</ele>
        <time>2026-08-08T20:37:20Z</time>
      </trkpt>
      <trkpt lat="41.40349190039531" lon="-81.74349512791768">
        <ele>261.8504829161</ele>
        <time>2026-08-08T20:37:24Z</time>
      </trkpt>
      <trkpt lat="41.40360841310383" lon="-81.74352454910881">
        <ele>261.5983076521</ele>
        <time>2026-08-08T20:37:35Z</time>
      </trkpt>
      <trkpt lat="41.40399897852866" lon="-81.74351303123839">
        <ele>260.7718888289</ele>
        <time>2026-08-08T20:38:07Z</time>
      </trkpt>
      <trkpt lat="41.40399930611931" lon="-81.74291535890670">
        <ele>261.5206105944</ele>
        <time>2026-08-08T20:38:52Z</time>
      </trkpt>
      <trkpt lat="41.40399711934062" lon="-81.74230847240899">
        <ele>261.9968656598</ele>
        <time>2026-08-08T20:39:33Z</time>
      </trkpt>
      <trkpt lat="41.40399193451477" lon="-81.74170979957830">
        <ele>262.5071954964</ele>
        <time>2026-08-08T20:40:20Z</time>
      </trkpt>
      <trkpt lat="41.40398191727661" lon="-81.74111184676400">
        <ele>263.0553142931</ele>
        <time>2026-08-08T20:40:59Z</time>
      </trkpt>
      <trkpt lat="41.40397949931089" lon="-81.74051139144041">
        <ele>263.8521622837</ele>
        <time>2026-08-08T20:41:42Z</time>
      </trkpt>
      <trkpt lat="41.40398850399129" lon="-81.73991169857713">
        <ele>264.2221007549</ele>
        <time>2026-08-08T20:42:20Z</time>
      </trkpt>
      <trkpt lat="41.40398972974139" lon="-81.73931399867544">
        <ele>265.0372349852</ele>
        <time>2026-08-08T20:42:58Z</time>
      </trkpt>
      <trkpt lat="41.40397697834673" lon="-81.73878232709926">
        <ele>265.5390374828</ele>
        <time>2026-08-08T20:43:30Z</time>
      </trkpt>
      <trkpt lat="41.40353943077373" lon="-81.73877398311288">
        <ele>265.8705179708</ele>
        <time>2026-08-08T20:44:20Z</time>
      </trkpt>
      <trkpt lat="41.40309237723590" lon="-81.73877743205642">
        <ele>265.8998388545</ele>
        <time>2026-08-08T20:44:56Z</time>
      </trkpt>
      <trkpt lat="41.40263143856022" lon="-81.73878044944571">
        <ele>266.8800616148</ele>
        <time>2026-08-08T20:45:42Z</time>
      </trkpt>
      <trkpt lat="41.40222628346034" lon="-81.73877995915446">
        <ele>267.1831794650</ele>
        <time>2026-08-08T20:46:22Z</time>
      </trkpt>
      <trkpt lat="41.40221566405510" lon="-81.73827338592820">
        <ele>266.9416953571</ele>
        <time>2026-08-08T20:47:05Z</time>
      </trkpt>
      <trkpt lat="41.40176405382541" lon="-81.73827514069633">
        <ele>267.7544662236</ele>
        <time>2026-08-08T20:47:37Z</time>
      </trkpt>
      <trkpt lat="41.40132751039248" lon="-81.73825879455762">
        <ele>267.4313257131</ele>
        <time>2026-08-08T20:48:07Z</time>
      </trkpt>
      <trkpt lat="41.40134032366890" lon="-81.73886687408827">
        <ele>267.5106942241</ele>
        <time>2026-08-08T20:48:53Z</time>
      </trkpt>
      <trkpt lat="41.40133432442013" lon="-81.73946031021750">
        <ele>267.1956501315</ele>
        <time>2026-08-08T20:49:23Z</time>
      </trkpt>
      <trkpt lat="41.40134620315087" lon="-81.74006456313441">
        <ele>266.8189208884</ele>
        <time>2026-08-08T20:49:58Z</time>
      </trkpt>
      <trkpt lat="41.40134605454843" lon="-81.74020536443602">
        <ele>266.4040444504</ele>
        <time>2026-08-08T20:50:11Z</time>
      </trkpt>
    </trkseg>
  </trk>
</gpx>