<?xml version='1.0' encoding='UTF-8'?>
<gpx xmlns="http://www.topografix.com/GPX/1/1" creator="https://gpx.studio" version="1.1">
  <metadata>
    <name>Dog Walk - 2026-05-06</name>
  </metadata>
  <trk>
    <name>Dog Walk - 2026-05-06</name>
    <type>dog walk</type>
    <trkseg>
      <trkpt lat="41.40134147216668" lon="-81.74022984913630">
        <ele>266.4943985783</ele>
        <time>2026-05-06T10:38:55Z</time>
      </trkpt>
      <trkpt lat="41.40133602733439" lon="-81.74083261071323">
        <ele>266.2828408367</ele>
        <time>2026-05-06T10:39:30Z</time>
      </trkpt>
      <trkpt lat="41.40133676426008" lon="-81.74143701318069">
        <ele>265.9822496245</ele>
        <time>2026-05-06T10:40:06Z</time>
      </trkpt>
      <trkpt lat="41.40132372883112" lon="-81.74203434764526">
        <ele>265.5009152762</ele>
        <time>2026-05-06T10:40:48Z</time>
      </trkpt>
      <trkpt lat="41.40133107096347" lon="-81.74238988184028">
        <ele>264.5558445539</ele>
        <time>2026-05-06T10:41:13Z</time>
      </trkpt>
      <trkpt lat="41.40091069023189" lon="-81.74218118391272">
        <ele>265.3771742102</ele>
        <time>2026-05-06T10:42:11Z</time>
      </trkpt>
      <trkpt lat="41.40048284258359" lon="-81.74197311162560">
        <ele>265.3207878838</ele>
        <time>2026-05-06T10:42:58Z</time>
      </trkpt>
      <trkpt lat="41.40045236334354" lon="-81.74195787088964">
        <ele>265.3839564026</ele>
        <time>2026-05-06T10:43:00Z</time>
      </trkpt>
      <trkpt lat="41.40044225237789" lon="-81.74135161623498">
        <ele>266.1567412790</ele>
        <time>2026-05-06T10:44:00Z</time>
      </trkpt>
      <trkpt lat="41.40044242817237" lon="-81.74074655802399">
        <ele>266.3663313964</ele>
        <time>2026-05-06T10:44:53Z</time>
      </trkpt>
      <trkpt lat="41.40043276741492" lon="-81.74014809972637">
        <ele>266.4359141148</ele>
        <time>2026-05-06T10:45:42Z</time>
      </trkpt>
      <trkpt lat="41.40043234280402" lon="-81.73956764734493">
        <ele>267.0480213008</ele>
        <time>2026-05-06T10:46:27Z</time>
      </trkpt>
      <trkpt lat="41.40042945531386" lon="-81.73895032006331">
        <ele>267.0145761230</ele>
        <time>2026-05-06T10:47:01Z</time>
      </trkpt>
      <trkpt lat="41.40042189186416" lon="-81.73834587994330">
        <ele>267.3709627235</ele>
        <time>2026-05-06T10:47:44Z</time>
      </trkpt>
      <trkpt lat="41.40041911293767" lon="-81.73774568647997">
        <ele>267.7679383677</ele>
        <time>2026-05-06T10:48:20Z</time>
      </trkpt>
      <trkpt lat="41.40041674735209" lon="-81.73715113977184">
        <ele>267.8982901192</ele>
        <time>2026-05-06T10:49:01Z</time>
      </trkpt>
      <trkpt lat="41.40040975756483" lon="-81.73655802320633">
        <ele>267.9122436673</ele>
        <time>2026-05-06T10:49:48Z</time>
      </trkpt>
      <trkpt lat="41.40041234936552" lon="-81.73594947958001">
        <ele>268.0387081227</ele>
        <time>2026-05-06T10:50:29Z</time>
      </trkpt>
      <trkpt lat="41.40040745280554" lon="-81.73534713749176">
        <ele>267.8895266419</ele>
        <time>2026-05-06T10:51:02Z</time>
      </trkpt>
      <trkpt lat="41.40039940596928" lon="-81.73475531368572">
        <ele>267.2874431370</ele>
        <time>2026-05-06T10:51:47Z</time>
      </trkpt>
      <trkpt lat="41.40039507568845" lon="-81.73462481974366">
        <ele>267.2562734362</ele>
        <time>2026-05-06T10:51:55Z</time>
      </trkpt>
      <trkpt lat="41.40083885445758" lon="-81.73462682349549">
        <ele>267.4027774370</ele>
        <time>2026-05-06T10:52:40Z</time>
      </trkpt>
      <trkpt lat="41.40129037426939" lon="-81.73463761104129">
        <ele>267.3450678673</ele>
        <time>2026-05-06T10:53:21Z</time>
      </trkpt>
      <trkpt lat="41.40131813534110" lon="-81.73464407077449">
        <ele>267.6298566745</ele>
        <time>2026-05-06T10:53:24Z</time>
      </trkpt>
      <trkpt lat="41.40132278182157" lon="-81.73523507001848">
        <ele>268.0050940022</ele>
        <time>2026-05-06T10:54:09Z</time>
      </trkpt>
      <trkpt lat="41.40133107234168" lon="-81.73583572147217">
        <ele>268.3558572695</ele>
        <time>2026-05-06T10:54:42Z</time>
      </trkpt>
      <trkpt lat="41.40132826058779" lon="-81.73643984613189">
        <ele>268.1636371726</ele>
        <time>2026-05-06T10:55:15Z</time>
      </trkpt>
      <trkpt lat="41.40133172432587" lon="-81.73703070041539">
        <ele>268.1006375791</ele>
        <time>2026-05-06T10:56:02Z</time>
      </trkpt>
      <trkpt lat="41.40133816311096" lon="-81.73763493845780">
        <ele>268.0169810299</ele>
        <time>2026-05-06T10:56:40Z</time>
      </trkpt>
      <trkpt lat="41.40133375852967" lon="-81.73822699999771">
        <ele>267.7846614919</ele>
        <time>2026-05-06T10:57:34Z</time>
      </trkpt>
      <trkpt lat="41.40134706735623" lon="-81.73883718457304">
        <ele>267.4119071060</ele>
        <time>2026-05-06T10:58:18Z</time>
      </trkpt>
      <trkpt lat="41.40134306294553" lon="-81.73943331653909">
        <ele>267.2145801751</ele>
        <time>2026-05-06T10:59:02Z</time>
      </trkpt>
      <trkpt lat="41.40133940420021" lon="-81.74003178440394">
        <ele>266.5824657757</ele>
        <time>2026-05-06T10:59:36Z</time>
      </trkpt>
      <trkpt lat="41.40134515083709" lon="-81.74020250946111">
        <ele>266.5737748644</ele>
        <time>2026-05-06T10:59:47Z</time>
      </trkpt>
    </trkseg>
  </trk>
</gpx>