<?xml version='1.0' encoding='UTF-8'?>
<gpx xmlns="http://www.topografix.com/GPX/1/1" creator="https://gpx.studio" version="1.1">
  <metadata>
    <name>Dog Walk - 2026-06-26 #1</name>
  </metadata>
  <trk>
    <name>Dog Walk - 2026-06-26 #1</name>
    <type>dog walk</type>
    <trkseg>
      <trkpt lat="41.40133850853184" lon="-81.74023623382148">
        <ele>266.3125408154</ele>
        <time>2026-06-26T06:36:23Z</time>
      </trkpt>
      <trkpt lat="41.40134152223165" lon="-81.74084793694934">
        <ele>266.3288907739</ele>
        <time>2026-06-26T06:37:03Z</time>
      </trkpt>
      <trkpt lat="41.40134497200562" lon="-81.74143543767373">
        <ele>265.7598056698</ele>
        <time>2026-06-26T06:37:34Z</time>
      </trkpt>
      <trkpt lat="41.40133810011484" lon="-81.74203098007041">
        <ele>265.2583734718</ele>
        <time>2026-06-26T06:38:20Z</time>
      </trkpt>
      <trkpt lat="41.40135059636985" lon="-81.74241982067721">
        <ele>264.6656280545</ele>
        <time>2026-06-26T06:38:43Z</time>
      </trkpt>
      <trkpt lat="41.40177357053838" lon="-81.74261977723036">
        <ele>264.4144167367</ele>
        <time>2026-06-26T06:39:14Z</time>
      </trkpt>
      <trkpt lat="41.40220332989995" lon="-81.74282051195986">
        <ele>263.5210838413</ele>
        <time>2026-06-26T06:40:11Z</time>
      </trkpt>
      <trkpt lat="41.40262031973445" lon="-81.74301582001125">
        <ele>263.1196687082</ele>
        <time>2026-06-26T06:40:49Z</time>
      </trkpt>
      <trkpt lat="41.40304419248197" lon="-81.74322120262755">
        <ele>262.6663385852</ele>
        <time>2026-06-26T06:41:50Z</time>
      </trkpt>
      <trkpt lat="41.40311306828004" lon="-81.74325445260010">
        <ele>262.3471227500</ele>
        <time>2026-06-26T06:41:57Z</time>
      </trkpt>
      <trkpt lat="41.40311682075443" lon="-81.74264829079259">
        <ele>263.0369433121</ele>
        <time>2026-06-26T06:42:55Z</time>
      </trkpt>
      <trkpt lat="41.40310956943017" lon="-81.74206048193432">
        <ele>263.6147935059</ele>
        <time>2026-06-26T06:43:41Z</time>
      </trkpt>
      <trkpt lat="41.40310411822688" lon="-81.74146224676714">
        <ele>264.1333572495</ele>
        <time>2026-06-26T06:44:21Z</time>
      </trkpt>
      <trkpt lat="41.40309559646421" lon="-81.74086166457373">
        <ele>264.6192379742</ele>
        <time>2026-06-26T06:45:09Z</time>
      </trkpt>
      <trkpt lat="41.40310756658099" lon="-81.74025750489083">
        <ele>265.6138361756</ele>
        <time>2026-06-26T06:45:57Z</time>
      </trkpt>
      <trkpt lat="41.40310787980515" lon="-81.73965484791302">
        <ele>265.8752539039</ele>
        <time>2026-06-26T06:46:36Z</time>
      </trkpt>
      <trkpt lat="41.40310347802064" lon="-81.73905960172289">
        <ele>266.1750933313</ele>
        <time>2026-06-26T06:47:14Z</time>
      </trkpt>
      <trkpt lat="41.40309163845193" lon="-81.73878809753312">
        <ele>266.0655205359</ele>
        <time>2026-06-26T06:47:31Z</time>
      </trkpt>
      <trkpt lat="41.40265296306433" lon="-81.73879335138859">
        <ele>266.8188134356</ele>
        <time>2026-06-26T06:48:09Z</time>
      </trkpt>
      <trkpt lat="41.40222671492328" lon="-81.73878551472168">
        <ele>267.2860033701</ele>
        <time>2026-06-26T06:48:52Z</time>
      </trkpt>
      <trkpt lat="41.40223015984107" lon="-81.73817818512661">
        <ele>267.0650652770</ele>
        <time>2026-06-26T06:49:30Z</time>
      </trkpt>
      <trkpt lat="41.40222591639091" lon="-81.73759064024438">
        <ele>267.2174191895</ele>
        <time>2026-06-26T06:50:17Z</time>
      </trkpt>
      <trkpt lat="41.40222897973332" lon="-81.73698195515766">
        <ele>267.1862930670</ele>
        <time>2026-06-26T06:51:02Z</time>
      </trkpt>
      <trkpt lat="41.40222518212171" lon="-81.73638333392704">
        <ele>267.0981732002</ele>
        <time>2026-06-26T06:51:37Z</time>
      </trkpt>
      <trkpt lat="41.40222219770584" lon="-81.73577560299671">
        <ele>267.3532444721</ele>
        <time>2026-06-26T06:52:22Z</time>
      </trkpt>
      <trkpt lat="41.40221705282249" lon="-81.73518327247790">
        <ele>267.2450097013</ele>
        <time>2026-06-26T06:52:58Z</time>
      </trkpt>
      <trkpt lat="41.40221818717204" lon="-81.73465703760409">
        <ele>267.0013927593</ele>
        <time>2026-06-26T06:53:37Z</time>
      </trkpt>
      <trkpt lat="41.40176927551446" lon="-81.73464046551278">
        <ele>267.3508791848</ele>
        <time>2026-06-26T06:54:17Z</time>
      </trkpt>
      <trkpt lat="41.40132110040675" lon="-81.73463181508322">
        <ele>267.3202922690</ele>
        <time>2026-06-26T06:55:18Z</time>
      </trkpt>
      <trkpt lat="41.40132105165492" lon="-81.73463798075400">
        <ele>267.3216539746</ele>
        <time>2026-06-26T06:55:19Z</time>
      </trkpt>
      <trkpt lat="41.40132117428445" lon="-81.73523822795738">
        <ele>267.8309286575</ele>
        <time>2026-06-26T06:55:57Z</time>
      </trkpt>
      <trkpt lat="41.40131740527861" lon="-81.73584033151681">
        <ele>268.2814370164</ele>
        <time>2026-06-26T06:56:30Z</time>
      </trkpt>
      <trkpt lat="41.40133234140478" lon="-81.73643426789835">
        <ele>268.0037246387</ele>
        <time>2026-06-26T06:57:23Z</time>
      </trkpt>
      <trkpt lat="41.40132896768817" lon="-81.73704083106475">
        <ele>267.9702398258</ele>
        <time>2026-06-26T06:58:21Z</time>
      </trkpt>
      <trkpt lat="41.40133072208438" lon="-81.73763584216786">
        <ele>267.8263886254</ele>
        <time>2026-06-26T06:58:59Z</time>
      </trkpt>
      <trkpt lat="41.40133581534102" lon="-81.73822731930959">
        <ele>267.4950721688</ele>
        <time>2026-06-26T06:59:41Z</time>
      </trkpt>
      <trkpt lat="41.40134741884908" lon="-81.73883415774516">
        <ele>267.4377514004</ele>
        <time>2026-06-26T07:00:23Z</time>
      </trkpt>
      <trkpt lat="41.40134239613931" lon="-81.73942922495826">
        <ele>267.2840899096</ele>
        <time>2026-06-26T07:00:54Z</time>
      </trkpt>
      <trkpt lat="41.40134799941128" lon="-81.74002885179317">
        <ele>266.6533939206</ele>
        <time>2026-06-26T07:01:38Z</time>
      </trkpt>
      <trkpt lat="41.40135149288537" lon="-81.74015488264034">
        <ele>266.5829883922</ele>
        <time>2026-06-26T07:01:47Z</time>
      </trkpt>
    </trkseg>
  </trk>
</gpx>