<?xml version='1.0' encoding='UTF-8'?>
<gpx xmlns="http://www.topografix.com/GPX/1/1" creator="https://gpx.studio" version="1.1">
  <metadata>
    <name>Dog Walk - 2026-04-30 #2</name>
  </metadata>
  <trk>
    <name>Dog Walk - 2026-04-30 #2</name>
    <type>dog walk</type>
    <trkseg>
      <trkpt lat="41.40134764494103" lon="-81.74023085285165">
        <ele>266.4321155224</ele>
        <time>2026-04-30T11:01:49Z</time>
      </trkpt>
      <trkpt lat="41.40133224798181" lon="-81.74084526458184">
        <ele>266.1939568786</ele>
        <time>2026-04-30T11:02:37Z</time>
      </trkpt>
      <trkpt lat="41.40133886376222" lon="-81.74142893803814">
        <ele>265.7903812511</ele>
        <time>2026-04-30T11:03:36Z</time>
      </trkpt>
      <trkpt lat="41.40135240659210" lon="-81.74204172886954">
        <ele>265.0505037918</ele>
        <time>2026-04-30T11:04:10Z</time>
      </trkpt>
      <trkpt lat="41.40133715531852" lon="-81.74242312548347">
        <ele>264.7477923891</ele>
        <time>2026-04-30T11:04:33Z</time>
      </trkpt>
      <trkpt lat="41.40176423275628" lon="-81.74263617717006">
        <ele>264.3822073124</ele>
        <time>2026-04-30T11:05:07Z</time>
      </trkpt>
      <trkpt lat="41.40218336436886" lon="-81.74285175830445">
        <ele>263.4034145378</ele>
        <time>2026-04-30T11:05:51Z</time>
      </trkpt>
      <trkpt lat="41.40222309815920" lon="-81.74286413601972">
        <ele>263.4061913495</ele>
        <time>2026-04-30T11:05:54Z</time>
      </trkpt>
      <trkpt lat="41.40222020122200" lon="-81.74226078130548">
        <ele>264.0324381871</ele>
        <time>2026-04-30T11:06:40Z</time>
      </trkpt>
      <trkpt lat="41.40221788222627" lon="-81.74166254212179">
        <ele>264.5521995101</ele>
        <time>2026-04-30T11:07:17Z</time>
      </trkpt>
      <trkpt lat="41.40221188037669" lon="-81.74106449420985">
        <ele>265.5836995684</ele>
        <time>2026-04-30T11:07:48Z</time>
      </trkpt>
      <trkpt lat="41.40222862515576" lon="-81.74046442396055">
        <ele>265.9496311554</ele>
        <time>2026-04-30T11:08:50Z</time>
      </trkpt>
      <trkpt lat="41.40222279825839" lon="-81.73986649264266">
        <ele>266.5982782044</ele>
        <time>2026-04-30T11:09:50Z</time>
      </trkpt>
      <trkpt lat="41.40222048189139" lon="-81.73927157289972">
        <ele>267.0799615899</ele>
        <time>2026-04-30T11:10:22Z</time>
      </trkpt>
      <trkpt lat="41.40222078210781" lon="-81.73867472728620">
        <ele>267.1400885316</ele>
        <time>2026-04-30T11:11:04Z</time>
      </trkpt>
      <trkpt lat="41.40222031541535" lon="-81.73826131328626">
        <ele>266.9696383752</ele>
        <time>2026-04-30T11:11:26Z</time>
      </trkpt>
      <trkpt lat="41.40177249336224" lon="-81.73826211309078">
        <ele>267.7820128817</ele>
        <time>2026-04-30T11:12:05Z</time>
      </trkpt>
      <trkpt lat="41.40133160130875" lon="-81.73825860102312">
        <ele>267.3776284149</ele>
        <time>2026-04-30T11:13:06Z</time>
      </trkpt>
      <trkpt lat="41.40134456972225" lon="-81.73885419697125">
        <ele>267.1253626195</ele>
        <time>2026-04-30T11:13:49Z</time>
      </trkpt>
      <trkpt lat="41.40134241064846" lon="-81.73946460234160">
        <ele>267.1423073275</ele>
        <time>2026-04-30T11:14:31Z</time>
      </trkpt>
      <trkpt lat="41.40133297806891" lon="-81.74005950917561">
        <ele>266.5217582316</ele>
        <time>2026-04-30T11:15:21Z</time>
      </trkpt>
      <trkpt lat="41.40133672931788" lon="-81.74019544385951">
        <ele>266.4725878084</ele>
        <time>2026-04-30T11:15:29Z</time>
      </trkpt>
    </trkseg>
  </trk>
</gpx>