<?xml version='1.0' encoding='UTF-8'?>
<gpx xmlns="http://www.topografix.com/GPX/1/1" creator="https://gpx.studio" version="1.1">
  <metadata>
    <name>Dog Walk - 2026-08-08 #2</name>
  </metadata>
  <trk>
    <name>Dog Walk - 2026-08-08 #2</name>
    <type>dog walk</type>
    <trkseg>
      <trkpt lat="41.40133357460885" lon="-81.74025081738195">
        <ele>266.4831896585</ele>
        <time>2026-08-08T10:03:52Z</time>
      </trkpt>
      <trkpt lat="41.40133157277616" lon="-81.74026234074077">
        <ele>266.3414673518</ele>
        <time>2026-08-08T10:03:53Z</time>
      </trkpt>
      <trkpt lat="41.40132549170104" lon="-81.74085321772885">
        <ele>266.1675308280</ele>
        <time>2026-08-08T10:04:31Z</time>
      </trkpt>
      <trkpt lat="41.40132590621801" lon="-81.74145075172108">
        <ele>265.7847727911</ele>
        <time>2026-08-08T10:05:05Z</time>
      </trkpt>
      <trkpt lat="41.40132360743437" lon="-81.74204942701984">
        <ele>265.4901077942</ele>
        <time>2026-08-08T10:05:42Z</time>
      </trkpt>
      <trkpt lat="41.40132929335817" lon="-81.74235989388447">
        <ele>264.8636387087</ele>
        <time>2026-08-08T10:06:13Z</time>
      </trkpt>
      <trkpt lat="41.40132499246646" lon="-81.74237551309096">
        <ele>264.8137484408</ele>
        <time>2026-08-08T10:06:14Z</time>
      </trkpt>
      <trkpt lat="41.40089434722538" lon="-81.74219616318260">
        <ele>264.9877839862</ele>
        <time>2026-08-08T10:07:00Z</time>
      </trkpt>
      <trkpt lat="41.40047353147358" lon="-81.74199302696694">
        <ele>265.2103437109</ele>
        <time>2026-08-08T10:07:39Z</time>
      </trkpt>
      <trkpt lat="41.40005085634086" lon="-81.74180226475723">
        <ele>265.4461459605</ele>
        <time>2026-08-08T10:08:23Z</time>
      </trkpt>
      <trkpt lat="41.39961953008908" lon="-81.74160251265536">
        <ele>264.6803454147</ele>
        <time>2026-08-08T10:09:04Z</time>
      </trkpt>
      <trkpt lat="41.39954965859846" lon="-81.74156738759199">
        <ele>264.6378884033</ele>
        <time>2026-08-08T10:09:10Z</time>
      </trkpt>
      <trkpt lat="41.39954327099222" lon="-81.74097012534290">
        <ele>265.7500884346</ele>
        <time>2026-08-08T10:09:45Z</time>
      </trkpt>
      <trkpt lat="41.39954383088764" lon="-81.74037208424913">
        <ele>266.2245182362</ele>
        <time>2026-08-08T10:10:35Z</time>
      </trkpt>
      <trkpt lat="41.39954239329514" lon="-81.73977355304906">
        <ele>266.6210823803</ele>
        <time>2026-08-08T10:11:26Z</time>
      </trkpt>
      <trkpt lat="41.39953655920021" lon="-81.73916543591778">
        <ele>266.9479718064</ele>
        <time>2026-08-08T10:12:17Z</time>
      </trkpt>
      <trkpt lat="41.39953983896055" lon="-81.73858637754222">
        <ele>266.9475157409</ele>
        <time>2026-08-08T10:13:03Z</time>
      </trkpt>
      <trkpt lat="41.39953447226502" lon="-81.73830139115718">
        <ele>266.8604172743</ele>
        <time>2026-08-08T10:13:26Z</time>
      </trkpt>
      <trkpt lat="41.39953713921157" lon="-81.73829486042172">
        <ele>266.8317303374</ele>
        <time>2026-08-08T10:13:27Z</time>
      </trkpt>
      <trkpt lat="41.39998128718776" lon="-81.73829654344446">
        <ele>267.1207357835</ele>
        <time>2026-08-08T10:14:17Z</time>
      </trkpt>
      <trkpt lat="41.40043274301284" lon="-81.73829046619697">
        <ele>267.2165010225</ele>
        <time>2026-08-08T10:14:45Z</time>
      </trkpt>
      <trkpt lat="41.40088236929645" lon="-81.73829628695100">
        <ele>267.4551460790</ele>
        <time>2026-08-08T10:15:25Z</time>
      </trkpt>
      <trkpt lat="41.40131775316755" lon="-81.73830324289924">
        <ele>267.5485759999</ele>
        <time>2026-08-08T10:15:57Z</time>
      </trkpt>
      <trkpt lat="41.40133022548588" lon="-81.73890114304909">
        <ele>267.5921620224</ele>
        <time>2026-08-08T10:16:48Z</time>
      </trkpt>
      <trkpt lat="41.40133704386865" lon="-81.73950227858106">
        <ele>266.9961703127</ele>
        <time>2026-08-08T10:17:36Z</time>
      </trkpt>
      <trkpt lat="41.40134656405281" lon="-81.74011054297554">
        <ele>266.6042778570</ele>
        <time>2026-08-08T10:18:06Z</time>
      </trkpt>
      <trkpt lat="41.40134693127626" lon="-81.74014955114234">
        <ele>266.6732910415</ele>
        <time>2026-08-08T10:18:09Z</time>
      </trkpt>
    </trkseg>
  </trk>
</gpx>