<?xml version='1.0' encoding='UTF-8'?>
<gpx xmlns="http://www.topografix.com/GPX/1/1" creator="https://gpx.studio" version="1.1">
  <metadata>
    <name>Dog Walk - 2026-03-24 #3</name>
  </metadata>
  <trk>
    <name>Dog Walk - 2026-03-24 #3</name>
    <type>dog walk</type>
    <trkseg>
      <trkpt lat="41.40133807362615" lon="-81.74022161819413">
        <ele>266.6064901280</ele>
        <time>2026-03-24T14:44:52Z</time>
      </trkpt>
      <trkpt lat="41.40133121203320" lon="-81.74084105308309">
        <ele>266.3574436175</ele>
        <time>2026-03-24T14:45:40Z</time>
      </trkpt>
      <trkpt lat="41.40133114116426" lon="-81.74142666655236">
        <ele>265.7540235513</ele>
        <time>2026-03-24T14:46:35Z</time>
      </trkpt>
      <trkpt lat="41.40133994915220" lon="-81.74203237053015">
        <ele>265.4090008595</ele>
        <time>2026-03-24T14:47:20Z</time>
      </trkpt>
      <trkpt lat="41.40132584598663" lon="-81.74239359466996">
        <ele>264.5974802458</ele>
        <time>2026-03-24T14:47:42Z</time>
      </trkpt>
      <trkpt lat="41.40090880035511" lon="-81.74217751621282">
        <ele>265.0328508723</ele>
        <time>2026-03-24T14:48:32Z</time>
      </trkpt>
      <trkpt lat="41.40048634401867" lon="-81.74195841428507">
        <ele>265.2936520898</ele>
        <time>2026-03-24T14:49:03Z</time>
      </trkpt>
      <trkpt lat="41.40045045140869" lon="-81.74193948818402">
        <ele>265.2452705759</ele>
        <time>2026-03-24T14:49:06Z</time>
      </trkpt>
      <trkpt lat="41.40044574150456" lon="-81.74134923680184">
        <ele>265.9986685214</ele>
        <time>2026-03-24T14:49:41Z</time>
      </trkpt>
      <trkpt lat="41.40043953311039" lon="-81.74074993812853">
        <ele>266.3753912542</ele>
        <time>2026-03-24T14:50:25Z</time>
      </trkpt>
      <trkpt lat="41.40043792536284" lon="-81.74014375549832">
        <ele>266.9373882513</ele>
        <time>2026-03-24T14:51:06Z</time>
      </trkpt>
      <trkpt lat="41.40043399502693" lon="-81.73954342067697">
        <ele>266.9226811342</ele>
        <time>2026-03-24T14:51:38Z</time>
      </trkpt>
      <trkpt lat="41.40042749158560" lon="-81.73895007520299">
        <ele>267.2761383204</ele>
        <time>2026-03-24T14:52:20Z</time>
      </trkpt>
      <trkpt lat="41.40042572966969" lon="-81.73835232487721">
        <ele>267.2727212125</ele>
        <time>2026-03-24T14:52:56Z</time>
      </trkpt>
      <trkpt lat="41.40042267810222" lon="-81.73774879022055">
        <ele>267.5409380287</ele>
        <time>2026-03-24T14:53:35Z</time>
      </trkpt>
      <trkpt lat="41.40041396372297" lon="-81.73715914226921">
        <ele>268.0859540118</ele>
        <time>2026-03-24T14:54:25Z</time>
      </trkpt>
      <trkpt lat="41.40041291779120" lon="-81.73655290733718">
        <ele>268.1091599119</ele>
        <time>2026-03-24T14:55:02Z</time>
      </trkpt>
      <trkpt lat="41.40040129920897" lon="-81.73595278724218">
        <ele>267.9199387155</ele>
        <time>2026-03-24T14:55:39Z</time>
      </trkpt>
      <trkpt lat="41.40039844752852" lon="-81.73534181026112">
        <ele>267.9025909203</ele>
        <time>2026-03-24T14:56:15Z</time>
      </trkpt>
      <trkpt lat="41.40039956918793" lon="-81.73475847788497">
        <ele>267.3447515267</ele>
        <time>2026-03-24T14:56:45Z</time>
      </trkpt>
      <trkpt lat="41.40039241258440" lon="-81.73462512179447">
        <ele>267.1404274092</ele>
        <time>2026-03-24T14:56:54Z</time>
      </trkpt>
      <trkpt lat="41.40083936559274" lon="-81.73464024999934">
        <ele>267.3263127192</ele>
        <time>2026-03-24T14:57:37Z</time>
      </trkpt>
      <trkpt lat="41.40129653536096" lon="-81.73462883573099">
        <ele>267.0131925930</ele>
        <time>2026-03-24T14:58:11Z</time>
      </trkpt>
      <trkpt lat="41.40131979574018" lon="-81.73463968908777">
        <ele>267.6568725559</ele>
        <time>2026-03-24T14:58:13Z</time>
      </trkpt>
      <trkpt lat="41.40131640888519" lon="-81.73523299412547">
        <ele>267.9145230184</ele>
        <time>2026-03-24T14:58:47Z</time>
      </trkpt>
      <trkpt lat="41.40132294832691" lon="-81.73583311972236">
        <ele>268.2984823286</ele>
        <time>2026-03-24T14:59:27Z</time>
      </trkpt>
      <trkpt lat="41.40132809193759" lon="-81.73643922874913">
        <ele>268.1485504148</ele>
        <time>2026-03-24T15:00:21Z</time>
      </trkpt>
      <trkpt lat="41.40133446148879" lon="-81.73703731411257">
        <ele>268.1213930049</ele>
        <time>2026-03-24T15:01:00Z</time>
      </trkpt>
      <trkpt lat="41.40133408116507" lon="-81.73763392911744">
        <ele>267.8106680416</ele>
        <time>2026-03-24T15:01:54Z</time>
      </trkpt>
      <trkpt lat="41.40133682465589" lon="-81.73821971476313">
        <ele>267.6042835317</ele>
        <time>2026-03-24T15:03:14Z</time>
      </trkpt>
      <trkpt lat="41.40133758614974" lon="-81.73883101496001">
        <ele>267.1174094081</ele>
        <time>2026-03-24T15:03:56Z</time>
      </trkpt>
      <trkpt lat="41.40133480402061" lon="-81.73942793394794">
        <ele>267.3273527885</ele>
        <time>2026-03-24T15:04:53Z</time>
      </trkpt>
      <trkpt lat="41.40134486667851" lon="-81.74002997735340">
        <ele>266.6181217431</ele>
        <time>2026-03-24T15:05:29Z</time>
      </trkpt>
      <trkpt lat="41.40134503421744" lon="-81.74019548957331">
        <ele>266.5641951496</ele>
        <time>2026-03-24T15:05:41Z</time>
      </trkpt>
    </trkseg>
  </trk>
</gpx>