<?xml version='1.0' encoding='UTF-8'?>
<gpx xmlns="http://www.topografix.com/GPX/1/1" creator="https://gpx.studio" version="1.1">
  <metadata>
    <name>Dog Walk - 2026-03-19 #1</name>
  </metadata>
  <trk>
    <name>Dog Walk - 2026-03-19 #1</name>
    <type>dog walk</type>
    <trkseg>
      <trkpt lat="41.40133856965877" lon="-81.74023572230909">
        <ele>266.3887403862</ele>
        <time>2026-03-19T06:49:24Z</time>
      </trkpt>
      <trkpt lat="41.40133391391831" lon="-81.74083658690735">
        <ele>266.4296623550</ele>
        <time>2026-03-19T06:50:12Z</time>
      </trkpt>
      <trkpt lat="41.40134424177167" lon="-81.74144195383813">
        <ele>265.7197520132</ele>
        <time>2026-03-19T06:50:49Z</time>
      </trkpt>
      <trkpt lat="41.40134561717333" lon="-81.74203637501293">
        <ele>265.2515910149</ele>
        <time>2026-03-19T06:51:36Z</time>
      </trkpt>
      <trkpt lat="41.40135755178265" lon="-81.74242748334353">
        <ele>264.8621050311</ele>
        <time>2026-03-19T06:51:59Z</time>
      </trkpt>
      <trkpt lat="41.40177116811385" lon="-81.74262238919768">
        <ele>264.2005046059</ele>
        <time>2026-03-19T06:52:34Z</time>
      </trkpt>
      <trkpt lat="41.40219870194861" lon="-81.74281786825433">
        <ele>263.3597900001</ele>
        <time>2026-03-19T06:53:07Z</time>
      </trkpt>
      <trkpt lat="41.40261343069567" lon="-81.74302255043605">
        <ele>263.1104240785</ele>
        <time>2026-03-19T06:53:45Z</time>
      </trkpt>
      <trkpt lat="41.40304327581515" lon="-81.74321883870955">
        <ele>262.4101921447</ele>
        <time>2026-03-19T06:54:33Z</time>
      </trkpt>
      <trkpt lat="41.40311600113507" lon="-81.74325700201969">
        <ele>262.3761555663</ele>
        <time>2026-03-19T06:54:39Z</time>
      </trkpt>
      <trkpt lat="41.40311226382629" lon="-81.74265118275773">
        <ele>263.3941085674</ele>
        <time>2026-03-19T06:55:19Z</time>
      </trkpt>
      <trkpt lat="41.40310982922710" lon="-81.74205337324032">
        <ele>263.6468712817</ele>
        <time>2026-03-19T06:56:07Z</time>
      </trkpt>
      <trkpt lat="41.40310979315559" lon="-81.74145306652309">
        <ele>264.4488076908</ele>
        <time>2026-03-19T06:56:48Z</time>
      </trkpt>
      <trkpt lat="41.40311625959632" lon="-81.74085622044242">
        <ele>264.7637461825</ele>
        <time>2026-03-19T06:57:32Z</time>
      </trkpt>
      <trkpt lat="41.40310760078393" lon="-81.74024932771431">
        <ele>265.2736807524</ele>
        <time>2026-03-19T06:58:12Z</time>
      </trkpt>
      <trkpt lat="41.40309801475821" lon="-81.73965939216761">
        <ele>265.8077126470</ele>
        <time>2026-03-19T06:58:51Z</time>
      </trkpt>
      <trkpt lat="41.40309648644156" lon="-81.73905733351303">
        <ele>266.2015278562</ele>
        <time>2026-03-19T06:59:25Z</time>
      </trkpt>
      <trkpt lat="41.40310152814924" lon="-81.73878307594778">
        <ele>266.1689109665</ele>
        <time>2026-03-19T06:59:41Z</time>
      </trkpt>
      <trkpt lat="41.40264452534943" lon="-81.73878436492191">
        <ele>266.8245397021</ele>
        <time>2026-03-19T07:00:21Z</time>
      </trkpt>
      <trkpt lat="41.40223451463665" lon="-81.73877585067930">
        <ele>267.1146951845</ele>
        <time>2026-03-19T07:01:01Z</time>
      </trkpt>
      <trkpt lat="41.40222925087068" lon="-81.73817393964516">
        <ele>267.0249000152</ele>
        <time>2026-03-19T07:01:46Z</time>
      </trkpt>
      <trkpt lat="41.40223389906416" lon="-81.73758330214783">
        <ele>267.0780439234</ele>
        <time>2026-03-19T07:02:31Z</time>
      </trkpt>
      <trkpt lat="41.40223031217915" lon="-81.73698920798761">
        <ele>267.2626779701</ele>
        <time>2026-03-19T07:03:25Z</time>
      </trkpt>
      <trkpt lat="41.40222640938062" lon="-81.73638978699637">
        <ele>267.1244677100</ele>
        <time>2026-03-19T07:04:11Z</time>
      </trkpt>
      <trkpt lat="41.40222579652484" lon="-81.73577841941558">
        <ele>267.1357926719</ele>
        <time>2026-03-19T07:04:58Z</time>
      </trkpt>
      <trkpt lat="41.40222460629617" lon="-81.73518276476698">
        <ele>267.2198502813</ele>
        <time>2026-03-19T07:05:41Z</time>
      </trkpt>
      <trkpt lat="41.40222820543669" lon="-81.73465354394403">
        <ele>267.1260731374</ele>
        <time>2026-03-19T07:06:35Z</time>
      </trkpt>
      <trkpt lat="41.40177847887109" lon="-81.73463841530511">
        <ele>267.3105769846</ele>
        <time>2026-03-19T07:07:24Z</time>
      </trkpt>
      <trkpt lat="41.40132523213089" lon="-81.73463804059875">
        <ele>267.2492611461</ele>
        <time>2026-03-19T07:08:14Z</time>
      </trkpt>
      <trkpt lat="41.40131524262778" lon="-81.73462703300910">
        <ele>267.3270820030</ele>
        <time>2026-03-19T07:08:15Z</time>
      </trkpt>
      <trkpt lat="41.40131526291083" lon="-81.73523296216300">
        <ele>267.9017257006</ele>
        <time>2026-03-19T07:08:55Z</time>
      </trkpt>
      <trkpt lat="41.40132356277100" lon="-81.73583985182401">
        <ele>268.2750881392</ele>
        <time>2026-03-19T07:09:40Z</time>
      </trkpt>
      <trkpt lat="41.40132396031613" lon="-81.73644369884612">
        <ele>267.9216522718</ele>
        <time>2026-03-19T07:10:35Z</time>
      </trkpt>
      <trkpt lat="41.40132766088059" lon="-81.73703253231245">
        <ele>267.9780255707</ele>
        <time>2026-03-19T07:11:10Z</time>
      </trkpt>
      <trkpt lat="41.40133067801079" lon="-81.73762666982392">
        <ele>267.9178973499</ele>
        <time>2026-03-19T07:11:47Z</time>
      </trkpt>
      <trkpt lat="41.40134235572460" lon="-81.73824098139964">
        <ele>267.5593459740</ele>
        <time>2026-03-19T07:12:42Z</time>
      </trkpt>
      <trkpt lat="41.40134259743937" lon="-81.73882913607075">
        <ele>267.2230929296</ele>
        <time>2026-03-19T07:13:27Z</time>
      </trkpt>
      <trkpt lat="41.40133724249515" lon="-81.73943135904049">
        <ele>267.0940555300</ele>
        <time>2026-03-19T07:14:11Z</time>
      </trkpt>
      <trkpt lat="41.40134558918657" lon="-81.74003847003318">
        <ele>266.7837845851</ele>
        <time>2026-03-19T07:14:50Z</time>
      </trkpt>
      <trkpt lat="41.40135238044945" lon="-81.74016115683945">
        <ele>266.3283121881</ele>
        <time>2026-03-19T07:15:00Z</time>
      </trkpt>
    </trkseg>
  </trk>
</gpx>