<?xml version='1.0' encoding='UTF-8'?>
<gpx xmlns="http://www.topografix.com/GPX/1/1" creator="https://gpx.studio" version="1.1">
  <metadata>
    <name>Dog Walk - 2026-08-04 #1</name>
  </metadata>
  <trk>
    <name>Dog Walk - 2026-08-04 #1</name>
    <type>dog walk</type>
    <trkseg>
      <trkpt lat="41.40134221961875" lon="-81.74022480284187">
        <ele>266.5181871085</ele>
        <time>2026-08-04T09:17:04Z</time>
      </trkpt>
      <trkpt lat="41.40134045403289" lon="-81.74082744614597">
        <ele>266.2545147088</ele>
        <time>2026-08-04T09:17:43Z</time>
      </trkpt>
      <trkpt lat="41.40133992666104" lon="-81.74142107181609">
        <ele>265.5246430696</ele>
        <time>2026-08-04T09:18:32Z</time>
      </trkpt>
      <trkpt lat="41.40132378297120" lon="-81.74202526011405">
        <ele>265.1198939491</ele>
        <time>2026-08-04T09:19:15Z</time>
      </trkpt>
      <trkpt lat="41.40133076887909" lon="-81.74239003259066">
        <ele>264.8187805926</ele>
        <time>2026-08-04T09:19:39Z</time>
      </trkpt>
      <trkpt lat="41.40091164902660" lon="-81.74217196055305">
        <ele>265.1913602235</ele>
        <time>2026-08-04T09:20:14Z</time>
      </trkpt>
      <trkpt lat="41.40048494397063" lon="-81.74196738780932">
        <ele>265.4184187826</ele>
        <time>2026-08-04T09:20:58Z</time>
      </trkpt>
      <trkpt lat="41.40045260131572" lon="-81.74195056035656">
        <ele>265.2673896864</ele>
        <time>2026-08-04T09:21:02Z</time>
      </trkpt>
      <trkpt lat="41.40043769272697" lon="-81.74133717627082">
        <ele>265.9794775734</ele>
        <time>2026-08-04T09:21:51Z</time>
      </trkpt>
      <trkpt lat="41.40043734744373" lon="-81.74075884951186">
        <ele>266.2885230274</ele>
        <time>2026-08-04T09:22:33Z</time>
      </trkpt>
      <trkpt lat="41.40043365479532" lon="-81.74015477530139">
        <ele>266.6463926446</ele>
        <time>2026-08-04T09:23:15Z</time>
      </trkpt>
      <trkpt lat="41.40043235750692" lon="-81.73954785815583">
        <ele>267.0364020735</ele>
        <time>2026-08-04T09:24:21Z</time>
      </trkpt>
      <trkpt lat="41.40042513474710" lon="-81.73895899406385">
        <ele>267.1637726436</ele>
        <time>2026-08-04T09:25:02Z</time>
      </trkpt>
      <trkpt lat="41.40042731487805" lon="-81.73834526751500">
        <ele>267.1359503038</ele>
        <time>2026-08-04T09:25:46Z</time>
      </trkpt>
      <trkpt lat="41.40041143415948" lon="-81.73775788241639">
        <ele>267.7427508998</ele>
        <time>2026-08-04T09:26:23Z</time>
      </trkpt>
      <trkpt lat="41.40041968491960" lon="-81.73716684809028">
        <ele>267.8611492462</ele>
        <time>2026-08-04T09:27:04Z</time>
      </trkpt>
      <trkpt lat="41.40040716608569" lon="-81.73655702245279">
        <ele>268.0798432968</ele>
        <time>2026-08-04T09:27:53Z</time>
      </trkpt>
      <trkpt lat="41.40041087481283" lon="-81.73595404818940">
        <ele>268.0993883326</ele>
        <time>2026-08-04T09:28:38Z</time>
      </trkpt>
      <trkpt lat="41.40040016396232" lon="-81.73535218656075">
        <ele>267.6370159240</ele>
        <time>2026-08-04T09:29:12Z</time>
      </trkpt>
      <trkpt lat="41.40039008437438" lon="-81.73477216850689">
        <ele>267.4688636530</ele>
        <time>2026-08-04T09:29:51Z</time>
      </trkpt>
      <trkpt lat="41.40039096456868" lon="-81.73462739112735">
        <ele>267.2568747424</ele>
        <time>2026-08-04T09:29:59Z</time>
      </trkpt>
      <trkpt lat="41.40085215738136" lon="-81.73463054461375">
        <ele>267.2402916068</ele>
        <time>2026-08-04T09:30:42Z</time>
      </trkpt>
      <trkpt lat="41.40128299911139" lon="-81.73463307627152">
        <ele>267.2938373346</ele>
        <time>2026-08-04T09:31:17Z</time>
      </trkpt>
      <trkpt lat="41.40132163747374" lon="-81.73463012706978">
        <ele>267.2058628378</ele>
        <time>2026-08-04T09:31:22Z</time>
      </trkpt>
      <trkpt lat="41.40132760712770" lon="-81.73523349405730">
        <ele>267.9790805722</ele>
        <time>2026-08-04T09:31:55Z</time>
      </trkpt>
      <trkpt lat="41.40132276824529" lon="-81.73583705863992">
        <ele>268.3168549762</ele>
        <time>2026-08-04T09:32:36Z</time>
      </trkpt>
      <trkpt lat="41.40132515387879" lon="-81.73643303740533">
        <ele>268.0317224199</ele>
        <time>2026-08-04T09:33:23Z</time>
      </trkpt>
      <trkpt lat="41.40133521396514" lon="-81.73703415499627">
        <ele>267.9895902812</ele>
        <time>2026-08-04T09:34:09Z</time>
      </trkpt>
      <trkpt lat="41.40132966638111" lon="-81.73763591356784">
        <ele>267.7821163670</ele>
        <time>2026-08-04T09:34:43Z</time>
      </trkpt>
      <trkpt lat="41.40134033126154" lon="-81.73822925639605">
        <ele>267.6208158857</ele>
        <time>2026-08-04T09:35:25Z</time>
      </trkpt>
      <trkpt lat="41.40133406778691" lon="-81.73883755276134">
        <ele>267.4529962291</ele>
        <time>2026-08-04T09:36:05Z</time>
      </trkpt>
      <trkpt lat="41.40134002473945" lon="-81.73942288883511">
        <ele>267.2911273725</ele>
        <time>2026-08-04T09:36:49Z</time>
      </trkpt>
      <trkpt lat="41.40134548940062" lon="-81.74003834785117">
        <ele>266.6383411459</ele>
        <time>2026-08-04T09:37:28Z</time>
      </trkpt>
      <trkpt lat="41.40134579212136" lon="-81.74019744148706">
        <ele>266.5231139226</ele>
        <time>2026-08-04T09:37:38Z</time>
      </trkpt>
    </trkseg>
  </trk>
</gpx>