<?xml version='1.0' encoding='UTF-8'?>
<gpx xmlns="http://www.topografix.com/GPX/1/1" creator="https://gpx.studio" version="1.1">
  <metadata>
    <name>Dog Walk - 2026-04-11</name>
  </metadata>
  <trk>
    <name>Dog Walk - 2026-04-11</name>
    <type>dog walk</type>
    <trkseg>
      <trkpt lat="41.40133363900535" lon="-81.74024880029103">
        <ele>266.4077259536</ele>
        <time>2026-04-11T09:00:16Z</time>
      </trkpt>
      <trkpt lat="41.40133049623700" lon="-81.74026271911551">
        <ele>266.4633674240</ele>
        <time>2026-04-11T09:00:17Z</time>
      </trkpt>
      <trkpt lat="41.40133258450457" lon="-81.74086386782368">
        <ele>266.1926661405</ele>
        <time>2026-04-11T09:01:08Z</time>
      </trkpt>
      <trkpt lat="41.40132661622665" lon="-81.74146228681926">
        <ele>265.8343657940</ele>
        <time>2026-04-11T09:01:43Z</time>
      </trkpt>
      <trkpt lat="41.40133161759338" lon="-81.74204752357869">
        <ele>265.4521350879</ele>
        <time>2026-04-11T09:02:18Z</time>
      </trkpt>
      <trkpt lat="41.40132595362196" lon="-81.74237594754769">
        <ele>264.8044868852</ele>
        <time>2026-04-11T09:02:43Z</time>
      </trkpt>
      <trkpt lat="41.40132464046529" lon="-81.74237329015503">
        <ele>264.6764603828</ele>
        <time>2026-04-11T09:02:44Z</time>
      </trkpt>
      <trkpt lat="41.40089877247171" lon="-81.74218037457571">
        <ele>265.1851994185</ele>
        <time>2026-04-11T09:03:22Z</time>
      </trkpt>
      <trkpt lat="41.40047543084018" lon="-81.74198933593787">
        <ele>265.3869593702</ele>
        <time>2026-04-11T09:03:57Z</time>
      </trkpt>
      <trkpt lat="41.40004394010554" lon="-81.74180054725379">
        <ele>265.5365584378</ele>
        <time>2026-04-11T09:04:51Z</time>
      </trkpt>
      <trkpt lat="41.39961798061432" lon="-81.74162149392940">
        <ele>264.7379319490</ele>
        <time>2026-04-11T09:05:31Z</time>
      </trkpt>
      <trkpt lat="41.39954765826502" lon="-81.74157401435586">
        <ele>264.6331576439</ele>
        <time>2026-04-11T09:05:39Z</time>
      </trkpt>
      <trkpt lat="41.39954801713986" lon="-81.74097472466698">
        <ele>265.6201075357</ele>
        <time>2026-04-11T09:06:16Z</time>
      </trkpt>
      <trkpt lat="41.39954085573450" lon="-81.74037445054184">
        <ele>266.1468656727</ele>
        <time>2026-04-11T09:07:05Z</time>
      </trkpt>
      <trkpt lat="41.39954314379384" lon="-81.73978371377027">
        <ele>266.5548156001</ele>
        <time>2026-04-11T09:07:40Z</time>
      </trkpt>
      <trkpt lat="41.39953651372454" lon="-81.73917071380863">
        <ele>267.0046753060</ele>
        <time>2026-04-11T09:08:31Z</time>
      </trkpt>
      <trkpt lat="41.39952478886743" lon="-81.73856672024769">
        <ele>267.1004162840</ele>
        <time>2026-04-11T09:09:03Z</time>
      </trkpt>
      <trkpt lat="41.39954191720336" lon="-81.73829584200242">
        <ele>266.9477182839</ele>
        <time>2026-04-11T09:09:26Z</time>
      </trkpt>
      <trkpt lat="41.39953119166208" lon="-81.73829096571492">
        <ele>266.8834398022</ele>
        <time>2026-04-11T09:09:27Z</time>
      </trkpt>
      <trkpt lat="41.39998384828213" lon="-81.73829773535967">
        <ele>267.2615027796</ele>
        <time>2026-04-11T09:10:08Z</time>
      </trkpt>
      <trkpt lat="41.40043137992949" lon="-81.73830665966453">
        <ele>267.3800006918</ele>
        <time>2026-04-11T09:10:44Z</time>
      </trkpt>
      <trkpt lat="41.40087636559581" lon="-81.73830125447900">
        <ele>267.6007813691</ele>
        <time>2026-04-11T09:11:21Z</time>
      </trkpt>
      <trkpt lat="41.40132786477896" lon="-81.73830720869260">
        <ele>267.2788347904</ele>
        <time>2026-04-11T09:11:53Z</time>
      </trkpt>
      <trkpt lat="41.40132661542171" lon="-81.73890466078576">
        <ele>267.4245342665</ele>
        <time>2026-04-11T09:12:39Z</time>
      </trkpt>
      <trkpt lat="41.40133977643413" lon="-81.73951363245270">
        <ele>267.1205225184</ele>
        <time>2026-04-11T09:13:28Z</time>
      </trkpt>
      <trkpt lat="41.40134078283933" lon="-81.74010036895943">
        <ele>266.3834460744</ele>
        <time>2026-04-11T09:14:12Z</time>
      </trkpt>
      <trkpt lat="41.40134994711072" lon="-81.74016397261039">
        <ele>266.6896851323</ele>
        <time>2026-04-11T09:14:18Z</time>
      </trkpt>
    </trkseg>
  </trk>
</gpx>