<?xml version='1.0' encoding='UTF-8'?>
<gpx xmlns="http://www.topografix.com/GPX/1/1" creator="https://gpx.studio" version="1.1">
  <metadata>
    <name>Dog Walk - 2026-09-03 #2</name>
  </metadata>
  <trk>
    <name>Dog Walk - 2026-09-03 #2</name>
    <type>dog walk</type>
    <trkseg>
      <trkpt lat="41.40132909604380" lon="-81.74025449473419">
        <ele>266.5554199258</ele>
        <time>2026-09-03T17:40:53Z</time>
      </trkpt>
      <trkpt lat="41.40133355114390" lon="-81.74025030214129">
        <ele>266.8074609154</ele>
        <time>2026-09-03T17:40:54Z</time>
      </trkpt>
      <trkpt lat="41.40133666795752" lon="-81.74086144004006">
        <ele>266.0348677443</ele>
        <time>2026-09-03T17:41:47Z</time>
      </trkpt>
      <trkpt lat="41.40133272566752" lon="-81.74146329891482">
        <ele>265.7248039751</ele>
        <time>2026-09-03T17:42:30Z</time>
      </trkpt>
      <trkpt lat="41.40132749473707" lon="-81.74206181392393">
        <ele>265.4615864127</ele>
        <time>2026-09-03T17:43:09Z</time>
      </trkpt>
      <trkpt lat="41.40133058117093" lon="-81.74237497488301">
        <ele>264.7048255215</ele>
        <time>2026-09-03T17:43:34Z</time>
      </trkpt>
      <trkpt lat="41.40132505430473" lon="-81.74238218654831">
        <ele>264.7901427424</ele>
        <time>2026-09-03T17:43:35Z</time>
      </trkpt>
      <trkpt lat="41.40089553791561" lon="-81.74218800103687">
        <ele>265.3150203837</ele>
        <time>2026-09-03T17:44:48Z</time>
      </trkpt>
      <trkpt lat="41.40048075030409" lon="-81.74199515763492">
        <ele>265.2304138544</ele>
        <time>2026-09-03T17:45:44Z</time>
      </trkpt>
      <trkpt lat="41.40005244104631" lon="-81.74179936540820">
        <ele>265.3879016084</ele>
        <time>2026-09-03T17:46:26Z</time>
      </trkpt>
      <trkpt lat="41.39961890630229" lon="-81.74160434548222">
        <ele>264.5608633716</ele>
        <time>2026-09-03T17:47:03Z</time>
      </trkpt>
      <trkpt lat="41.39954228966038" lon="-81.74157810121937">
        <ele>264.7902617672</ele>
        <time>2026-09-03T17:47:09Z</time>
      </trkpt>
      <trkpt lat="41.39953897532973" lon="-81.74097226627519">
        <ele>265.7871358134</ele>
        <time>2026-09-03T17:47:59Z</time>
      </trkpt>
      <trkpt lat="41.39953752313217" lon="-81.74037308786794">
        <ele>266.1088981522</ele>
        <time>2026-09-03T17:48:44Z</time>
      </trkpt>
      <trkpt lat="41.39953771158498" lon="-81.73976821224737">
        <ele>266.6438200351</ele>
        <time>2026-09-03T17:49:21Z</time>
      </trkpt>
      <trkpt lat="41.39953834262678" lon="-81.73916953795934">
        <ele>266.8104275795</ele>
        <time>2026-09-03T17:50:01Z</time>
      </trkpt>
      <trkpt lat="41.39953343193903" lon="-81.73857692841352">
        <ele>266.7590398464</ele>
        <time>2026-09-03T17:50:59Z</time>
      </trkpt>
      <trkpt lat="41.39953624338205" lon="-81.73829346597562">
        <ele>266.9543240276</ele>
        <time>2026-09-03T17:51:17Z</time>
      </trkpt>
      <trkpt lat="41.39953102258605" lon="-81.73828873162311">
        <ele>266.9410777364</ele>
        <time>2026-09-03T17:51:18Z</time>
      </trkpt>
      <trkpt lat="41.39999224712778" lon="-81.73829406882382">
        <ele>267.0555414302</ele>
        <time>2026-09-03T17:52:04Z</time>
      </trkpt>
      <trkpt lat="41.40043818783241" lon="-81.73830185481292">
        <ele>266.9053128150</ele>
        <time>2026-09-03T17:52:41Z</time>
      </trkpt>
      <trkpt lat="41.40088713463223" lon="-81.73829415994403">
        <ele>267.4246364316</ele>
        <time>2026-09-03T17:53:19Z</time>
      </trkpt>
      <trkpt lat="41.40132340691805" lon="-81.73830078024019">
        <ele>267.4183859535</ele>
        <time>2026-09-03T17:53:52Z</time>
      </trkpt>
      <trkpt lat="41.40132643482190" lon="-81.73889626737282">
        <ele>267.4180724971</ele>
        <time>2026-09-03T17:54:33Z</time>
      </trkpt>
      <trkpt lat="41.40133449339412" lon="-81.73949940155133">
        <ele>267.1122013222</ele>
        <time>2026-09-03T17:55:16Z</time>
      </trkpt>
      <trkpt lat="41.40134344412736" lon="-81.74009367356578">
        <ele>266.7848848681</ele>
        <time>2026-09-03T17:55:59Z</time>
      </trkpt>
      <trkpt lat="41.40134287340425" lon="-81.74015664170349">
        <ele>266.5943790839</ele>
        <time>2026-09-03T17:56:04Z</time>
      </trkpt>
    </trkseg>
  </trk>
</gpx>