<?xml version='1.0' encoding='UTF-8'?>
<gpx xmlns="http://www.topografix.com/GPX/1/1" creator="https://gpx.studio" version="1.1">
  <metadata>
    <name>Dog Walk - 2026-06-20 #3</name>
  </metadata>
  <trk>
    <name>Dog Walk - 2026-06-20 #3</name>
    <type>dog walk</type>
    <trkseg>
      <trkpt lat="41.40134681997048" lon="-81.74023221371819">
        <ele>266.4821669636</ele>
        <time>2026-06-20T15:29:23Z</time>
      </trkpt>
      <trkpt lat="41.40134912911333" lon="-81.74083513367457">
        <ele>266.2612361705</ele>
        <time>2026-06-20T15:29:58Z</time>
      </trkpt>
      <trkpt lat="41.40134204143960" lon="-81.74143543279082">
        <ele>265.6384123353</ele>
        <time>2026-06-20T15:30:38Z</time>
      </trkpt>
      <trkpt lat="41.40134700871954" lon="-81.74202980502851">
        <ele>265.2756436096</ele>
        <time>2026-06-20T15:31:26Z</time>
      </trkpt>
      <trkpt lat="41.40134417128012" lon="-81.74242442786260">
        <ele>264.6152506444</ele>
        <time>2026-06-20T15:32:01Z</time>
      </trkpt>
      <trkpt lat="41.40176192065420" lon="-81.74263150809894">
        <ele>264.2777515867</ele>
        <time>2026-06-20T15:32:45Z</time>
      </trkpt>
      <trkpt lat="41.40218634064239" lon="-81.74285040312353">
        <ele>263.2956196402</ele>
        <time>2026-06-20T15:33:18Z</time>
      </trkpt>
      <trkpt lat="41.40220880195682" lon="-81.74285948108441">
        <ele>263.3282069799</ele>
        <time>2026-06-20T15:33:20Z</time>
      </trkpt>
      <trkpt lat="41.40222009749162" lon="-81.74226158963175">
        <ele>264.0258113297</ele>
        <time>2026-06-20T15:33:55Z</time>
      </trkpt>
      <trkpt lat="41.40222257136183" lon="-81.74166233975200">
        <ele>264.8798941483</ele>
        <time>2026-06-20T15:34:30Z</time>
      </trkpt>
      <trkpt lat="41.40222513320662" lon="-81.74106554571654">
        <ele>265.5545325903</ele>
        <time>2026-06-20T15:35:03Z</time>
      </trkpt>
      <trkpt lat="41.40221961478535" lon="-81.74046616499312">
        <ele>265.8659571045</ele>
        <time>2026-06-20T15:35:37Z</time>
      </trkpt>
      <trkpt lat="41.40222198274256" lon="-81.73986464292540">
        <ele>266.3993608192</ele>
        <time>2026-06-20T15:36:11Z</time>
      </trkpt>
      <trkpt lat="41.40222194880895" lon="-81.73926835358800">
        <ele>266.8658216857</ele>
        <time>2026-06-20T15:36:58Z</time>
      </trkpt>
      <trkpt lat="41.40221392256946" lon="-81.73866565133525">
        <ele>267.1076199052</ele>
        <time>2026-06-20T15:37:40Z</time>
      </trkpt>
      <trkpt lat="41.40222351982353" lon="-81.73827015533814">
        <ele>267.2921274093</ele>
        <time>2026-06-20T15:38:03Z</time>
      </trkpt>
      <trkpt lat="41.40177028140050" lon="-81.73826729916027">
        <ele>267.6538930295</ele>
        <time>2026-06-20T15:38:42Z</time>
      </trkpt>
      <trkpt lat="41.40134608573189" lon="-81.73826731258356">
        <ele>267.3672342301</ele>
        <time>2026-06-20T15:39:19Z</time>
      </trkpt>
      <trkpt lat="41.40133075419521" lon="-81.73886874472231">
        <ele>267.5580316792</ele>
        <time>2026-06-20T15:39:53Z</time>
      </trkpt>
      <trkpt lat="41.40134229321524" lon="-81.73945960737770">
        <ele>267.1813146466</ele>
        <time>2026-06-20T15:40:33Z</time>
      </trkpt>
      <trkpt lat="41.40134731185034" lon="-81.74006352423129">
        <ele>266.7508903791</ele>
        <time>2026-06-20T15:41:14Z</time>
      </trkpt>
      <trkpt lat="41.40133871514622" lon="-81.74017688125173">
        <ele>266.5247177006</ele>
        <time>2026-06-20T15:41:21Z</time>
      </trkpt>
    </trkseg>
  </trk>
</gpx>