<?xml version='1.0' encoding='UTF-8'?>
<gpx xmlns="http://www.topografix.com/GPX/1/1" creator="https://gpx.studio" version="1.1">
  <metadata>
    <name>Dog Walk - 2026-05-12 #3</name>
  </metadata>
  <trk>
    <name>Dog Walk - 2026-05-12 #3</name>
    <type>dog walk</type>
    <trkseg>
      <trkpt lat="41.40134818048331" lon="-81.74022820529650">
        <ele>266.8004874276</ele>
        <time>2026-05-12T14:39:03Z</time>
      </trkpt>
      <trkpt lat="41.40133571955809" lon="-81.74083147069554">
        <ele>266.1022564700</ele>
        <time>2026-05-12T14:39:48Z</time>
      </trkpt>
      <trkpt lat="41.40134155864366" lon="-81.74141974117205">
        <ele>265.6892540580</ele>
        <time>2026-05-12T14:40:24Z</time>
      </trkpt>
      <trkpt lat="41.40133631057321" lon="-81.74201518420766">
        <ele>265.1504313747</ele>
        <time>2026-05-12T14:40:56Z</time>
      </trkpt>
      <trkpt lat="41.40133550997108" lon="-81.74239664990621">
        <ele>264.8010633733</ele>
        <time>2026-05-12T14:41:16Z</time>
      </trkpt>
      <trkpt lat="41.40090024560607" lon="-81.74217374090725">
        <ele>265.1263564926</ele>
        <time>2026-05-12T14:42:15Z</time>
      </trkpt>
      <trkpt lat="41.40049155496451" lon="-81.74195979630518">
        <ele>265.2101438742</ele>
        <time>2026-05-12T14:42:56Z</time>
      </trkpt>
      <trkpt lat="41.40045182369575" lon="-81.74194605289374">
        <ele>265.4111160023</ele>
        <time>2026-05-12T14:42:59Z</time>
      </trkpt>
      <trkpt lat="41.40044725468915" lon="-81.74135894169162">
        <ele>265.9064138469</ele>
        <time>2026-05-12T14:43:47Z</time>
      </trkpt>
      <trkpt lat="41.40043842958264" lon="-81.74074917388900">
        <ele>266.2533690854</ele>
        <time>2026-05-12T14:44:36Z</time>
      </trkpt>
      <trkpt lat="41.40043478935048" lon="-81.74016178748843">
        <ele>266.8000693338</ele>
        <time>2026-05-12T14:45:22Z</time>
      </trkpt>
      <trkpt lat="41.40042711118738" lon="-81.73954891346007">
        <ele>266.9000748750</ele>
        <time>2026-05-12T14:46:04Z</time>
      </trkpt>
      <trkpt lat="41.40042267348158" lon="-81.73894994328145">
        <ele>267.2888525520</ele>
        <time>2026-05-12T14:46:35Z</time>
      </trkpt>
      <trkpt lat="41.40042069329245" lon="-81.73835990902147">
        <ele>267.1946115546</ele>
        <time>2026-05-12T14:47:19Z</time>
      </trkpt>
      <trkpt lat="41.40042389511704" lon="-81.73774697475301">
        <ele>267.6853403425</ele>
        <time>2026-05-12T14:48:07Z</time>
      </trkpt>
      <trkpt lat="41.40042310270004" lon="-81.73715497244801">
        <ele>268.2420759671</ele>
        <time>2026-05-12T14:48:40Z</time>
      </trkpt>
      <trkpt lat="41.40040838717668" lon="-81.73655590955906">
        <ele>268.0692051149</ele>
        <time>2026-05-12T14:49:19Z</time>
      </trkpt>
      <trkpt lat="41.40039997437813" lon="-81.73595737056669">
        <ele>268.0243346867</ele>
        <time>2026-05-12T14:49:57Z</time>
      </trkpt>
      <trkpt lat="41.40040106157972" lon="-81.73535384680889">
        <ele>267.6654343307</ele>
        <time>2026-05-12T14:50:29Z</time>
      </trkpt>
      <trkpt lat="41.40039282048429" lon="-81.73475490229826">
        <ele>267.3759857844</ele>
        <time>2026-05-12T14:51:09Z</time>
      </trkpt>
      <trkpt lat="41.40039315464839" lon="-81.73462680711741">
        <ele>267.3836541498</ele>
        <time>2026-05-12T14:51:18Z</time>
      </trkpt>
      <trkpt lat="41.40084266880247" lon="-81.73463273480452">
        <ele>267.3324393878</ele>
        <time>2026-05-12T14:51:45Z</time>
      </trkpt>
      <trkpt lat="41.40129857874706" lon="-81.73463424005369">
        <ele>267.4173399313</ele>
        <time>2026-05-12T14:52:30Z</time>
      </trkpt>
      <trkpt lat="41.40132350411302" lon="-81.73463490489732">
        <ele>267.4701027754</ele>
        <time>2026-05-12T14:52:32Z</time>
      </trkpt>
      <trkpt lat="41.40131931097348" lon="-81.73523458053116">
        <ele>267.8927543802</ele>
        <time>2026-05-12T14:53:21Z</time>
      </trkpt>
      <trkpt lat="41.40131971452797" lon="-81.73583238882262">
        <ele>268.1217170720</ele>
        <time>2026-05-12T14:53:48Z</time>
      </trkpt>
      <trkpt lat="41.40132839758624" lon="-81.73643586691438">
        <ele>268.2568780639</ele>
        <time>2026-05-12T14:54:33Z</time>
      </trkpt>
      <trkpt lat="41.40133261578618" lon="-81.73703081060961">
        <ele>268.2478870830</ele>
        <time>2026-05-12T14:55:12Z</time>
      </trkpt>
      <trkpt lat="41.40133235581364" lon="-81.73762796272199">
        <ele>267.8495687879</ele>
        <time>2026-05-12T14:56:04Z</time>
      </trkpt>
      <trkpt lat="41.40133308204618" lon="-81.73823697230016">
        <ele>267.5764419478</ele>
        <time>2026-05-12T14:56:54Z</time>
      </trkpt>
      <trkpt lat="41.40133533728845" lon="-81.73883565719990">
        <ele>267.2901344236</ele>
        <time>2026-05-12T14:57:35Z</time>
      </trkpt>
      <trkpt lat="41.40134505521383" lon="-81.73942770348455">
        <ele>267.0336226451</ele>
        <time>2026-05-12T14:58:27Z</time>
      </trkpt>
      <trkpt lat="41.40133485476047" lon="-81.74002352126034">
        <ele>266.7053507263</ele>
        <time>2026-05-12T14:59:40Z</time>
      </trkpt>
      <trkpt lat="41.40134812463537" lon="-81.74019533954656">
        <ele>266.4160795888</ele>
        <time>2026-05-12T14:59:51Z</time>
      </trkpt>
    </trkseg>
  </trk>
</gpx>