<?xml version='1.0' encoding='UTF-8'?>
<gpx xmlns="http://www.topografix.com/GPX/1/1" creator="https://gpx.studio" version="1.1">
  <metadata>
    <name>Dog Walk - 2026-04-03 #1</name>
  </metadata>
  <trk>
    <name>Dog Walk - 2026-04-03 #1</name>
    <type>dog walk</type>
    <trkseg>
      <trkpt lat="41.40132941039564" lon="-81.74023030897146">
        <ele>266.5096981638</ele>
        <time>2026-04-03T08:40:32Z</time>
      </trkpt>
      <trkpt lat="41.40133158722296" lon="-81.74083860785730">
        <ele>266.1158522530</ele>
        <time>2026-04-03T08:41:15Z</time>
      </trkpt>
      <trkpt lat="41.40134156761699" lon="-81.74143819437737">
        <ele>265.8159110327</ele>
        <time>2026-04-03T08:41:55Z</time>
      </trkpt>
      <trkpt lat="41.40133379474577" lon="-81.74203566012172">
        <ele>265.2552305743</ele>
        <time>2026-04-03T08:42:48Z</time>
      </trkpt>
      <trkpt lat="41.40132982434773" lon="-81.74239480471049">
        <ele>264.9412020527</ele>
        <time>2026-04-03T08:43:09Z</time>
      </trkpt>
      <trkpt lat="41.40090185868812" lon="-81.74219982584081">
        <ele>264.9532360921</ele>
        <time>2026-04-03T08:43:43Z</time>
      </trkpt>
      <trkpt lat="41.40048000748056" lon="-81.74201441000244">
        <ele>265.3279600451</ele>
        <time>2026-04-03T08:44:25Z</time>
      </trkpt>
      <trkpt lat="41.40005077652334" lon="-81.74180976394445">
        <ele>265.4015302888</ele>
        <time>2026-04-03T08:45:05Z</time>
      </trkpt>
      <trkpt lat="41.39963858671175" lon="-81.74161958132194">
        <ele>264.6255672741</ele>
        <time>2026-04-03T08:45:53Z</time>
      </trkpt>
      <trkpt lat="41.39954070714064" lon="-81.74157609596881">
        <ele>264.8367823405</ele>
        <time>2026-04-03T08:46:02Z</time>
      </trkpt>
      <trkpt lat="41.39953788739309" lon="-81.74096748053337">
        <ele>265.8004194249</ele>
        <time>2026-04-03T08:46:52Z</time>
      </trkpt>
      <trkpt lat="41.39952905059977" lon="-81.74037536819003">
        <ele>266.0829374393</ele>
        <time>2026-04-03T08:47:32Z</time>
      </trkpt>
      <trkpt lat="41.39953989123977" lon="-81.73977917786459">
        <ele>266.5907785257</ele>
        <time>2026-04-03T08:48:20Z</time>
      </trkpt>
      <trkpt lat="41.39952869989608" lon="-81.73917772908719">
        <ele>266.8664788889</ele>
        <time>2026-04-03T08:49:12Z</time>
      </trkpt>
      <trkpt lat="41.39952518260525" lon="-81.73857877725716">
        <ele>267.0056294505</ele>
        <time>2026-04-03T08:49:45Z</time>
      </trkpt>
      <trkpt lat="41.39951953222900" lon="-81.73797688617566">
        <ele>266.9106138915</ele>
        <time>2026-04-03T08:50:23Z</time>
      </trkpt>
      <trkpt lat="41.39953333761019" lon="-81.73738422696304">
        <ele>267.4556554646</ele>
        <time>2026-04-03T08:51:01Z</time>
      </trkpt>
      <trkpt lat="41.39952524570234" lon="-81.73677427001344">
        <ele>267.4514853721</ele>
        <time>2026-04-03T08:51:51Z</time>
      </trkpt>
      <trkpt lat="41.39952123394595" lon="-81.73617779845937">
        <ele>267.3421015607</ele>
        <time>2026-04-03T08:52:34Z</time>
      </trkpt>
      <trkpt lat="41.39952821103019" lon="-81.73557971994397">
        <ele>267.2389193874</ele>
        <time>2026-04-03T08:53:28Z</time>
      </trkpt>
      <trkpt lat="41.39952498510127" lon="-81.73496896273031">
        <ele>267.0533758485</ele>
        <time>2026-04-03T08:54:10Z</time>
      </trkpt>
      <trkpt lat="41.39952687520115" lon="-81.73461726673681">
        <ele>266.9744332905</ele>
        <time>2026-04-03T08:54:30Z</time>
      </trkpt>
      <trkpt lat="41.39997483653134" lon="-81.73461745946500">
        <ele>267.2059412182</ele>
        <time>2026-04-03T08:55:08Z</time>
      </trkpt>
      <trkpt lat="41.40042123093233" lon="-81.73463363459729">
        <ele>267.4278312004</ele>
        <time>2026-04-03T08:55:45Z</time>
      </trkpt>
      <trkpt lat="41.40087141153646" lon="-81.73463755052599">
        <ele>267.2572490819</ele>
        <time>2026-04-03T08:56:18Z</time>
      </trkpt>
      <trkpt lat="41.40131634926647" lon="-81.73463901267178">
        <ele>267.3167892774</ele>
        <time>2026-04-03T08:56:51Z</time>
      </trkpt>
      <trkpt lat="41.40132119875947" lon="-81.73524208650743">
        <ele>267.7144250874</ele>
        <time>2026-04-03T08:57:29Z</time>
      </trkpt>
      <trkpt lat="41.40132806446870" lon="-81.73584063699734">
        <ele>268.3547927174</ele>
        <time>2026-04-03T08:58:05Z</time>
      </trkpt>
      <trkpt lat="41.40132975921595" lon="-81.73643195858789">
        <ele>268.1147204733</ele>
        <time>2026-04-03T08:58:48Z</time>
      </trkpt>
      <trkpt lat="41.40132267104596" lon="-81.73703149353925">
        <ele>268.1264440665</ele>
        <time>2026-04-03T08:59:20Z</time>
      </trkpt>
      <trkpt lat="41.40132713902084" lon="-81.73763332348334">
        <ele>267.9290329999</ele>
        <time>2026-04-03T09:00:12Z</time>
      </trkpt>
      <trkpt lat="41.40133078857880" lon="-81.73824109862669">
        <ele>267.5285292067</ele>
        <time>2026-04-03T09:00:57Z</time>
      </trkpt>
      <trkpt lat="41.40132689061825" lon="-81.73884041413518">
        <ele>267.4067818952</ele>
        <time>2026-04-03T09:01:56Z</time>
      </trkpt>
      <trkpt lat="41.40132868275181" lon="-81.73942842306714">
        <ele>267.2109425974</ele>
        <time>2026-04-03T09:02:41Z</time>
      </trkpt>
      <trkpt lat="41.40132437281101" lon="-81.74003699209686">
        <ele>266.6775613997</ele>
        <time>2026-04-03T09:03:24Z</time>
      </trkpt>
      <trkpt lat="41.40134025910815" lon="-81.74022476949396">
        <ele>266.6180908132</ele>
        <time>2026-04-03T09:03:34Z</time>
      </trkpt>
    </trkseg>
  </trk>
</gpx>