<?xml version='1.0' encoding='UTF-8'?>
<gpx xmlns="http://www.topografix.com/GPX/1/1" creator="https://gpx.studio" version="1.1">
  <metadata>
    <name>Dog Walk - 2026-08-27 #4</name>
  </metadata>
  <trk>
    <name>Dog Walk - 2026-08-27 #4</name>
    <type>dog walk</type>
    <trkseg>
      <trkpt lat="41.40133553894153" lon="-81.74022932313970">
        <ele>266.6339694431</ele>
        <time>2026-08-27T18:22:50Z</time>
      </trkpt>
      <trkpt lat="41.40133820556980" lon="-81.74082585405264">
        <ele>266.2280050470</ele>
        <time>2026-08-27T18:23:46Z</time>
      </trkpt>
      <trkpt lat="41.40133952305369" lon="-81.74142318864845">
        <ele>265.6519922543</ele>
        <time>2026-08-27T18:24:18Z</time>
      </trkpt>
      <trkpt lat="41.40134623198274" lon="-81.74203104250267">
        <ele>265.5984145850</ele>
        <time>2026-08-27T18:25:07Z</time>
      </trkpt>
      <trkpt lat="41.40134914914871" lon="-81.74241495925492">
        <ele>264.7435352220</ele>
        <time>2026-08-27T18:25:29Z</time>
      </trkpt>
      <trkpt lat="41.40176469969742" lon="-81.74261875384627">
        <ele>264.2150307107</ele>
        <time>2026-08-27T18:26:04Z</time>
      </trkpt>
      <trkpt lat="41.40219315382934" lon="-81.74283608171328">
        <ele>263.4732032630</ele>
        <time>2026-08-27T18:26:39Z</time>
      </trkpt>
      <trkpt lat="41.40260576400516" lon="-81.74306138457440">
        <ele>262.9889088447</ele>
        <time>2026-08-27T18:27:18Z</time>
      </trkpt>
      <trkpt lat="41.40304137046346" lon="-81.74326702759143">
        <ele>262.3194067911</ele>
        <time>2026-08-27T18:28:06Z</time>
      </trkpt>
      <trkpt lat="41.40344984364117" lon="-81.74348089162976">
        <ele>261.9027961622</ele>
        <time>2026-08-27T18:29:05Z</time>
      </trkpt>
      <trkpt lat="41.40349417443032" lon="-81.74350339427961">
        <ele>261.8841740861</ele>
        <time>2026-08-27T18:29:10Z</time>
      </trkpt>
      <trkpt lat="41.40359718042056" lon="-81.74351611469474">
        <ele>261.8249333237</ele>
        <time>2026-08-27T18:29:18Z</time>
      </trkpt>
      <trkpt lat="41.40399211410393" lon="-81.74350075239931">
        <ele>260.5315339316</ele>
        <time>2026-08-27T18:29:47Z</time>
      </trkpt>
      <trkpt lat="41.40399632599489" lon="-81.74290046145464">
        <ele>261.6214249358</ele>
        <time>2026-08-27T18:30:20Z</time>
      </trkpt>
      <trkpt lat="41.40399334517810" lon="-81.74230818790092">
        <ele>262.0707697693</ele>
        <time>2026-08-27T18:30:52Z</time>
      </trkpt>
      <trkpt lat="41.40398992988039" lon="-81.74171517755269">
        <ele>262.7099233524</ele>
        <time>2026-08-27T18:31:27Z</time>
      </trkpt>
      <trkpt lat="41.40398910508789" lon="-81.74112245324626">
        <ele>262.8014944770</ele>
        <time>2026-08-27T18:32:05Z</time>
      </trkpt>
      <trkpt lat="41.40398814915972" lon="-81.74051301263412">
        <ele>263.4852261196</ele>
        <time>2026-08-27T18:33:14Z</time>
      </trkpt>
      <trkpt lat="41.40398810983874" lon="-81.73990510086473">
        <ele>264.0579127863</ele>
        <time>2026-08-27T18:34:02Z</time>
      </trkpt>
      <trkpt lat="41.40398742708900" lon="-81.73930168099986">
        <ele>264.7873300036</ele>
        <time>2026-08-27T18:34:40Z</time>
      </trkpt>
      <trkpt lat="41.40398976229586" lon="-81.73877472759783">
        <ele>265.3660238271</ele>
        <time>2026-08-27T18:35:06Z</time>
      </trkpt>
      <trkpt lat="41.40354034812277" lon="-81.73877432924910">
        <ele>265.9626931734</ele>
        <time>2026-08-27T18:35:52Z</time>
      </trkpt>
      <trkpt lat="41.40309479298536" lon="-81.73877257652674">
        <ele>266.2892785680</ele>
        <time>2026-08-27T18:36:18Z</time>
      </trkpt>
      <trkpt lat="41.40263260028134" lon="-81.73877169211588">
        <ele>266.7836987140</ele>
        <time>2026-08-27T18:37:07Z</time>
      </trkpt>
      <trkpt lat="41.40222764160185" lon="-81.73877280603584">
        <ele>266.9879194026</ele>
        <time>2026-08-27T18:37:52Z</time>
      </trkpt>
      <trkpt lat="41.40221644733396" lon="-81.73827837097778">
        <ele>267.1363020021</ele>
        <time>2026-08-27T18:38:26Z</time>
      </trkpt>
      <trkpt lat="41.40176834549189" lon="-81.73825948084693">
        <ele>267.9555041048</ele>
        <time>2026-08-27T18:39:11Z</time>
      </trkpt>
      <trkpt lat="41.40134037384009" lon="-81.73826339375502">
        <ele>267.6927082092</ele>
        <time>2026-08-27T18:39:50Z</time>
      </trkpt>
      <trkpt lat="41.40133566613076" lon="-81.73886566508615">
        <ele>267.3757477144</ele>
        <time>2026-08-27T18:40:26Z</time>
      </trkpt>
      <trkpt lat="41.40133920566664" lon="-81.73946265501453">
        <ele>267.0394216182</ele>
        <time>2026-08-27T18:41:11Z</time>
      </trkpt>
      <trkpt lat="41.40133886420156" lon="-81.74006134599510">
        <ele>266.4875374371</ele>
        <time>2026-08-27T18:41:49Z</time>
      </trkpt>
      <trkpt lat="41.40134132823414" lon="-81.74019934672090">
        <ele>266.4588189571</ele>
        <time>2026-08-27T18:42:15Z</time>
      </trkpt>
    </trkseg>
  </trk>
</gpx>