<?xml version='1.0' encoding='UTF-8'?>
<gpx xmlns="http://www.topografix.com/GPX/1/1" creator="https://gpx.studio" version="1.1">
  <metadata>
    <name>Dog Walk - 2026-08-04 #2</name>
  </metadata>
  <trk>
    <name>Dog Walk - 2026-08-04 #2</name>
    <type>dog walk</type>
    <trkseg>
      <trkpt lat="41.40134079132308" lon="-81.74023447369353">
        <ele>266.5321773763</ele>
        <time>2026-08-04T11:02:09Z</time>
      </trkpt>
      <trkpt lat="41.40133622933588" lon="-81.74083630355697">
        <ele>266.2102124776</ele>
        <time>2026-08-04T11:02:49Z</time>
      </trkpt>
      <trkpt lat="41.40134542481723" lon="-81.74143868487586">
        <ele>266.0394700220</ele>
        <time>2026-08-04T11:03:28Z</time>
      </trkpt>
      <trkpt lat="41.40134705651140" lon="-81.74203841247073">
        <ele>265.1489887087</ele>
        <time>2026-08-04T11:04:05Z</time>
      </trkpt>
      <trkpt lat="41.40134291330043" lon="-81.74241782179010">
        <ele>264.8500421131</ele>
        <time>2026-08-04T11:04:33Z</time>
      </trkpt>
      <trkpt lat="41.40177359435036" lon="-81.74262674613320">
        <ele>264.3808989263</ele>
        <time>2026-08-04T11:05:12Z</time>
      </trkpt>
      <trkpt lat="41.40220305655666" lon="-81.74281499691176">
        <ele>263.5644082392</ele>
        <time>2026-08-04T11:05:54Z</time>
      </trkpt>
      <trkpt lat="41.40262455661687" lon="-81.74302264302061">
        <ele>263.0914690026</ele>
        <time>2026-08-04T11:06:29Z</time>
      </trkpt>
      <trkpt lat="41.40304403692620" lon="-81.74322067358150">
        <ele>262.4195361051</ele>
        <time>2026-08-04T11:07:15Z</time>
      </trkpt>
      <trkpt lat="41.40312550542129" lon="-81.74326033072295">
        <ele>262.2862821410</ele>
        <time>2026-08-04T11:07:23Z</time>
      </trkpt>
      <trkpt lat="41.40310723797820" lon="-81.74266207898980">
        <ele>263.1691909804</ele>
        <time>2026-08-04T11:08:08Z</time>
      </trkpt>
      <trkpt lat="41.40310975035461" lon="-81.74204580821113">
        <ele>263.6168182120</ele>
        <time>2026-08-04T11:08:55Z</time>
      </trkpt>
      <trkpt lat="41.40310742006202" lon="-81.74144766799947">
        <ele>264.0760882629</ele>
        <time>2026-08-04T11:09:37Z</time>
      </trkpt>
      <trkpt lat="41.40310864493255" lon="-81.74084965966884">
        <ele>264.8235775118</ele>
        <time>2026-08-04T11:10:25Z</time>
      </trkpt>
      <trkpt lat="41.40310235275617" lon="-81.74025496227723">
        <ele>265.4332284812</ele>
        <time>2026-08-04T11:11:18Z</time>
      </trkpt>
      <trkpt lat="41.40310060928376" lon="-81.73965236752200">
        <ele>266.0263825733</ele>
        <time>2026-08-04T11:11:58Z</time>
      </trkpt>
      <trkpt lat="41.40310438038296" lon="-81.73905168832081">
        <ele>266.2413652984</ele>
        <time>2026-08-04T11:12:39Z</time>
      </trkpt>
      <trkpt lat="41.40309953185511" lon="-81.73878772115204">
        <ele>266.3146833676</ele>
        <time>2026-08-04T11:12:59Z</time>
      </trkpt>
      <trkpt lat="41.40265100310421" lon="-81.73878824388341">
        <ele>266.8801269228</ele>
        <time>2026-08-04T11:13:37Z</time>
      </trkpt>
      <trkpt lat="41.40223048315054" lon="-81.73877980629292">
        <ele>267.0225519796</ele>
        <time>2026-08-04T11:14:15Z</time>
      </trkpt>
      <trkpt lat="41.40223574132797" lon="-81.73817698415068">
        <ele>266.9731241411</ele>
        <time>2026-08-04T11:14:54Z</time>
      </trkpt>
      <trkpt lat="41.40222798102440" lon="-81.73758204097537">
        <ele>267.0723005053</ele>
        <time>2026-08-04T11:15:31Z</time>
      </trkpt>
      <trkpt lat="41.40222485792628" lon="-81.73698189034623">
        <ele>267.1012718069</ele>
        <time>2026-08-04T11:16:20Z</time>
      </trkpt>
      <trkpt lat="41.40222115486402" lon="-81.73637661027746">
        <ele>267.3032450467</ele>
        <time>2026-08-04T11:17:12Z</time>
      </trkpt>
      <trkpt lat="41.40222304420887" lon="-81.73578112234203">
        <ele>267.3567306935</ele>
        <time>2026-08-04T11:17:45Z</time>
      </trkpt>
      <trkpt lat="41.40221734653264" lon="-81.73518479595269">
        <ele>267.2112084073</ele>
        <time>2026-08-04T11:18:40Z</time>
      </trkpt>
      <trkpt lat="41.40222424135179" lon="-81.73465344731582">
        <ele>267.0913785899</ele>
        <time>2026-08-04T11:19:13Z</time>
      </trkpt>
      <trkpt lat="41.40177482804312" lon="-81.73464166472694">
        <ele>267.2091921736</ele>
        <time>2026-08-04T11:19:48Z</time>
      </trkpt>
      <trkpt lat="41.40133102317893" lon="-81.73464476527261">
        <ele>267.2497463047</ele>
        <time>2026-08-04T11:20:40Z</time>
      </trkpt>
      <trkpt lat="41.40130428339334" lon="-81.73463921884729">
        <ele>267.4123501643</ele>
        <time>2026-08-04T11:20:43Z</time>
      </trkpt>
      <trkpt lat="41.40131249549282" lon="-81.73524188894072">
        <ele>267.8859216750</ele>
        <time>2026-08-04T11:21:21Z</time>
      </trkpt>
      <trkpt lat="41.40131938418659" lon="-81.73582953549017">
        <ele>268.2126869175</ele>
        <time>2026-08-04T11:21:52Z</time>
      </trkpt>
      <trkpt lat="41.40132658387034" lon="-81.73642553683059">
        <ele>268.3288265184</ele>
        <time>2026-08-04T11:22:23Z</time>
      </trkpt>
      <trkpt lat="41.40133240612318" lon="-81.73704367548444">
        <ele>268.0374086976</ele>
        <time>2026-08-04T11:23:13Z</time>
      </trkpt>
      <trkpt lat="41.40133311421089" lon="-81.73763987321692">
        <ele>267.8913630380</ele>
        <time>2026-08-04T11:23:57Z</time>
      </trkpt>
      <trkpt lat="41.40132987752816" lon="-81.73823058817469">
        <ele>267.5996097065</ele>
        <time>2026-08-04T11:24:38Z</time>
      </trkpt>
      <trkpt lat="41.40133479674159" lon="-81.73882547562717">
        <ele>267.3401540138</ele>
        <time>2026-08-04T11:25:24Z</time>
      </trkpt>
      <trkpt lat="41.40134566302952" lon="-81.73942770809761">
        <ele>267.2313331397</ele>
        <time>2026-08-04T11:26:08Z</time>
      </trkpt>
      <trkpt lat="41.40134375838441" lon="-81.74003373395333">
        <ele>266.8430156283</ele>
        <time>2026-08-04T11:26:42Z</time>
      </trkpt>
      <trkpt lat="41.40134273698393" lon="-81.74016149045782">
        <ele>266.3512478949</ele>
        <time>2026-08-04T11:26:50Z</time>
      </trkpt>
    </trkseg>
  </trk>
</gpx>