<?xml version='1.0' encoding='UTF-8'?>
<gpx xmlns="http://www.topografix.com/GPX/1/1" creator="https://gpx.studio" version="1.1">
  <metadata>
    <name>Dog Walk - 2026-08-22 #2</name>
  </metadata>
  <trk>
    <name>Dog Walk - 2026-08-22 #2</name>
    <type>dog walk</type>
    <trkseg>
      <trkpt lat="41.40133774618088" lon="-81.74025326130430">
        <ele>266.4880397736</ele>
        <time>2026-08-22T11:58:18Z</time>
      </trkpt>
      <trkpt lat="41.40134281838418" lon="-81.74083199804579">
        <ele>266.1424591675</ele>
        <time>2026-08-22T11:59:00Z</time>
      </trkpt>
      <trkpt lat="41.40134361309382" lon="-81.74143869195925">
        <ele>265.6764533101</ele>
        <time>2026-08-22T11:59:42Z</time>
      </trkpt>
      <trkpt lat="41.40135086409052" lon="-81.74203815250362">
        <ele>265.4854136446</ele>
        <time>2026-08-22T12:00:17Z</time>
      </trkpt>
      <trkpt lat="41.40135070888788" lon="-81.74242018286552">
        <ele>264.1862746521</ele>
        <time>2026-08-22T12:00:51Z</time>
      </trkpt>
      <trkpt lat="41.40176573021041" lon="-81.74263459775935">
        <ele>264.2756982408</ele>
        <time>2026-08-22T12:01:33Z</time>
      </trkpt>
      <trkpt lat="41.40218441033403" lon="-81.74284698511606">
        <ele>263.4749034636</ele>
        <time>2026-08-22T12:02:07Z</time>
      </trkpt>
      <trkpt lat="41.40221799327275" lon="-81.74286565959447">
        <ele>263.3707831024</ele>
        <time>2026-08-22T12:02:10Z</time>
      </trkpt>
      <trkpt lat="41.40221862395918" lon="-81.74227960427477">
        <ele>264.3438872289</ele>
        <time>2026-08-22T12:02:55Z</time>
      </trkpt>
      <trkpt lat="41.40221845559484" lon="-81.74166856609037">
        <ele>264.7910219043</ele>
        <time>2026-08-22T12:03:52Z</time>
      </trkpt>
      <trkpt lat="41.40221553651490" lon="-81.74106715500560">
        <ele>265.4179320881</ele>
        <time>2026-08-22T12:04:31Z</time>
      </trkpt>
      <trkpt lat="41.40222092433412" lon="-81.74046610764971">
        <ele>266.0847592724</ele>
        <time>2026-08-22T12:05:09Z</time>
      </trkpt>
      <trkpt lat="41.40221700214951" lon="-81.73986157234302">
        <ele>266.5974744210</ele>
        <time>2026-08-22T12:05:46Z</time>
      </trkpt>
      <trkpt lat="41.40221533684571" lon="-81.73927786156314">
        <ele>266.9744360797</ele>
        <time>2026-08-22T12:06:20Z</time>
      </trkpt>
      <trkpt lat="41.40221771400959" lon="-81.73866103874710">
        <ele>267.1847461264</ele>
        <time>2026-08-22T12:07:05Z</time>
      </trkpt>
      <trkpt lat="41.40221998485890" lon="-81.73827892198155">
        <ele>266.9319906293</ele>
        <time>2026-08-22T12:07:38Z</time>
      </trkpt>
      <trkpt lat="41.40177289303891" lon="-81.73826989244907">
        <ele>267.7033851576</ele>
        <time>2026-08-22T12:08:10Z</time>
      </trkpt>
      <trkpt lat="41.40133939656163" lon="-81.73826825113757">
        <ele>267.3179108756</ele>
        <time>2026-08-22T12:08:44Z</time>
      </trkpt>
      <trkpt lat="41.40134056012752" lon="-81.73886262785832">
        <ele>267.3506205300</ele>
        <time>2026-08-22T12:09:31Z</time>
      </trkpt>
      <trkpt lat="41.40134251484533" lon="-81.73946592242046">
        <ele>267.0911433462</ele>
        <time>2026-08-22T12:10:02Z</time>
      </trkpt>
      <trkpt lat="41.40134501999525" lon="-81.74005388264486">
        <ele>266.6439315809</ele>
        <time>2026-08-22T12:10:47Z</time>
      </trkpt>
      <trkpt lat="41.40134164606071" lon="-81.74018903424263">
        <ele>266.5907383467</ele>
        <time>2026-08-22T12:11:17Z</time>
      </trkpt>
    </trkseg>
  </trk>
</gpx>