<?xml version='1.0' encoding='UTF-8'?>
<gpx xmlns="http://www.topografix.com/GPX/1/1" creator="https://gpx.studio" version="1.1">
  <metadata>
    <name>Dog Walk - 2026-04-09 #2</name>
  </metadata>
  <trk>
    <name>Dog Walk - 2026-04-09 #2</name>
    <type>dog walk</type>
    <trkseg>
      <trkpt lat="41.40134017097757" lon="-81.74022965319600">
        <ele>266.4454085074</ele>
        <time>2026-04-09T13:06:36Z</time>
      </trkpt>
      <trkpt lat="41.40133721829163" lon="-81.74083021266915">
        <ele>266.1759808882</ele>
        <time>2026-04-09T13:07:09Z</time>
      </trkpt>
      <trkpt lat="41.40133392487892" lon="-81.74142971466712">
        <ele>265.9841021059</ele>
        <time>2026-04-09T13:07:48Z</time>
      </trkpt>
      <trkpt lat="41.40132360204944" lon="-81.74202614857400">
        <ele>265.3500116218</ele>
        <time>2026-04-09T13:08:40Z</time>
      </trkpt>
      <trkpt lat="41.40133179896207" lon="-81.74239046836176">
        <ele>264.9466142026</ele>
        <time>2026-04-09T13:09:07Z</time>
      </trkpt>
      <trkpt lat="41.40090787749210" lon="-81.74216165878704">
        <ele>265.0853320349</ele>
        <time>2026-04-09T13:09:49Z</time>
      </trkpt>
      <trkpt lat="41.40048139420482" lon="-81.74197224847762">
        <ele>265.3477621575</ele>
        <time>2026-04-09T13:10:26Z</time>
      </trkpt>
      <trkpt lat="41.40046008384965" lon="-81.74195168766533">
        <ele>265.3564737508</ele>
        <time>2026-04-09T13:10:28Z</time>
      </trkpt>
      <trkpt lat="41.40044240674506" lon="-81.74134897158761">
        <ele>265.9235256396</ele>
        <time>2026-04-09T13:11:11Z</time>
      </trkpt>
      <trkpt lat="41.40044339292038" lon="-81.74074869472543">
        <ele>266.4258812571</ele>
        <time>2026-04-09T13:11:51Z</time>
      </trkpt>
      <trkpt lat="41.40043636761879" lon="-81.74015139075559">
        <ele>266.8348155443</ele>
        <time>2026-04-09T13:12:34Z</time>
      </trkpt>
      <trkpt lat="41.40043870153836" lon="-81.73956280228994">
        <ele>266.7961970727</ele>
        <time>2026-04-09T13:13:16Z</time>
      </trkpt>
      <trkpt lat="41.40043609067831" lon="-81.73895462846225">
        <ele>267.0409562166</ele>
        <time>2026-04-09T13:14:00Z</time>
      </trkpt>
      <trkpt lat="41.40043273234055" lon="-81.73835844430532">
        <ele>267.1264574876</ele>
        <time>2026-04-09T13:14:54Z</time>
      </trkpt>
      <trkpt lat="41.40041659417347" lon="-81.73774798839825">
        <ele>267.5079855409</ele>
        <time>2026-04-09T13:15:35Z</time>
      </trkpt>
      <trkpt lat="41.40040924395173" lon="-81.73716037199752">
        <ele>268.2581466220</ele>
        <time>2026-04-09T13:16:13Z</time>
      </trkpt>
      <trkpt lat="41.40041160060154" lon="-81.73655914980145">
        <ele>268.2845349735</ele>
        <time>2026-04-09T13:16:45Z</time>
      </trkpt>
      <trkpt lat="41.40039949102321" lon="-81.73595876770860">
        <ele>267.9723551201</ele>
        <time>2026-04-09T13:17:33Z</time>
      </trkpt>
      <trkpt lat="41.40040313829532" lon="-81.73535571111913">
        <ele>267.6093049393</ele>
        <time>2026-04-09T13:18:10Z</time>
      </trkpt>
      <trkpt lat="41.40039674464686" lon="-81.73475506607268">
        <ele>267.3070089051</ele>
        <time>2026-04-09T13:18:49Z</time>
      </trkpt>
      <trkpt lat="41.40039737168784" lon="-81.73462541155720">
        <ele>267.3631973669</ele>
        <time>2026-04-09T13:18:57Z</time>
      </trkpt>
      <trkpt lat="41.40084230763812" lon="-81.73462487614042">
        <ele>267.2948705325</ele>
        <time>2026-04-09T13:19:35Z</time>
      </trkpt>
      <trkpt lat="41.40128856960617" lon="-81.73463136901714">
        <ele>267.2058064378</ele>
        <time>2026-04-09T13:20:06Z</time>
      </trkpt>
      <trkpt lat="41.40131497039235" lon="-81.73463630830028">
        <ele>267.5334691812</ele>
        <time>2026-04-09T13:20:08Z</time>
      </trkpt>
      <trkpt lat="41.40131959182284" lon="-81.73522253389670">
        <ele>267.8411043362</ele>
        <time>2026-04-09T13:20:39Z</time>
      </trkpt>
      <trkpt lat="41.40133264410461" lon="-81.73583435009739">
        <ele>268.3084653429</ele>
        <time>2026-04-09T13:21:28Z</time>
      </trkpt>
      <trkpt lat="41.40133045866940" lon="-81.73643541581218">
        <ele>268.3138565385</ele>
        <time>2026-04-09T13:22:22Z</time>
      </trkpt>
      <trkpt lat="41.40133682640711" lon="-81.73703707430474">
        <ele>268.0655696912</ele>
        <time>2026-04-09T13:22:59Z</time>
      </trkpt>
      <trkpt lat="41.40133777062314" lon="-81.73763417066844">
        <ele>267.8636018287</ele>
        <time>2026-04-09T13:23:35Z</time>
      </trkpt>
      <trkpt lat="41.40132949412024" lon="-81.73822814348638">
        <ele>267.4207141207</ele>
        <time>2026-04-09T13:24:11Z</time>
      </trkpt>
      <trkpt lat="41.40134215840911" lon="-81.73882127566999">
        <ele>267.5872289605</ele>
        <time>2026-04-09T13:24:55Z</time>
      </trkpt>
      <trkpt lat="41.40134637314069" lon="-81.73942895046410">
        <ele>267.1657303693</ele>
        <time>2026-04-09T13:25:31Z</time>
      </trkpt>
      <trkpt lat="41.40134618469042" lon="-81.74002864709492">
        <ele>266.5724262804</ele>
        <time>2026-04-09T13:26:10Z</time>
      </trkpt>
      <trkpt lat="41.40134668722500" lon="-81.74019899630395">
        <ele>266.6997149851</ele>
        <time>2026-04-09T13:26:21Z</time>
      </trkpt>
    </trkseg>
  </trk>
</gpx>