<?xml version='1.0' encoding='UTF-8'?>
<gpx xmlns="http://www.topografix.com/GPX/1/1" creator="https://gpx.studio" version="1.1">
  <metadata>
    <name>Dog Walk - 2026-09-04 #1</name>
  </metadata>
  <trk>
    <name>Dog Walk - 2026-09-04 #1</name>
    <type>dog walk</type>
    <trkseg>
      <trkpt lat="41.40133988926673" lon="-81.74022485848430">
        <ele>266.5503829894</ele>
        <time>2026-09-04T09:35:16Z</time>
      </trkpt>
      <trkpt lat="41.40133644598037" lon="-81.74083686782525">
        <ele>266.0904222463</ele>
        <time>2026-09-04T09:35:57Z</time>
      </trkpt>
      <trkpt lat="41.40134440248704" lon="-81.74142589105313">
        <ele>265.8498266699</ele>
        <time>2026-09-04T09:36:33Z</time>
      </trkpt>
      <trkpt lat="41.40134034693077" lon="-81.74202394585328">
        <ele>265.3732344840</ele>
        <time>2026-09-04T09:37:24Z</time>
      </trkpt>
      <trkpt lat="41.40134819223083" lon="-81.74240832869813">
        <ele>264.7045628878</ele>
        <time>2026-09-04T09:37:57Z</time>
      </trkpt>
      <trkpt lat="41.40176982857373" lon="-81.74263756569476">
        <ele>264.3974392888</ele>
        <time>2026-09-04T09:38:49Z</time>
      </trkpt>
      <trkpt lat="41.40218443491771" lon="-81.74285090018057">
        <ele>263.5384729462</ele>
        <time>2026-09-04T09:39:39Z</time>
      </trkpt>
      <trkpt lat="41.40261485008062" lon="-81.74305651423045">
        <ele>262.9068662369</ele>
        <time>2026-09-04T09:40:17Z</time>
      </trkpt>
      <trkpt lat="41.40303371060155" lon="-81.74327463696575">
        <ele>262.2940527398</ele>
        <time>2026-09-04T09:40:56Z</time>
      </trkpt>
      <trkpt lat="41.40344661189800" lon="-81.74348042668645">
        <ele>261.8608689503</ele>
        <time>2026-09-04T09:41:46Z</time>
      </trkpt>
      <trkpt lat="41.40349049324335" lon="-81.74349809699302">
        <ele>261.8476351428</ele>
        <time>2026-09-04T09:41:50Z</time>
      </trkpt>
      <trkpt lat="41.40359948552558" lon="-81.74352566880098">
        <ele>261.8397287050</ele>
        <time>2026-09-04T09:42:01Z</time>
      </trkpt>
      <trkpt lat="41.40399409746705" lon="-81.74350940102615">
        <ele>260.8086692857</ele>
        <time>2026-09-04T09:42:38Z</time>
      </trkpt>
      <trkpt lat="41.40400066199373" lon="-81.74291041969830">
        <ele>261.5948934728</ele>
        <time>2026-09-04T09:43:43Z</time>
      </trkpt>
      <trkpt lat="41.40398655926486" lon="-81.74230763139848">
        <ele>262.0452873322</ele>
        <time>2026-09-04T09:44:25Z</time>
      </trkpt>
      <trkpt lat="41.40398460966520" lon="-81.74171151973458">
        <ele>262.4534704966</ele>
        <time>2026-09-04T09:44:58Z</time>
      </trkpt>
      <trkpt lat="41.40399202746965" lon="-81.74112401516214">
        <ele>262.8658230734</ele>
        <time>2026-09-04T09:45:36Z</time>
      </trkpt>
      <trkpt lat="41.40399603491834" lon="-81.74050496703956">
        <ele>263.6528337401</ele>
        <time>2026-09-04T09:46:22Z</time>
      </trkpt>
      <trkpt lat="41.40398555514440" lon="-81.73991029539327">
        <ele>264.4008675742</ele>
        <time>2026-09-04T09:47:11Z</time>
      </trkpt>
      <trkpt lat="41.40398416791628" lon="-81.73931155842234">
        <ele>264.8242334439</ele>
        <time>2026-09-04T09:47:44Z</time>
      </trkpt>
      <trkpt lat="41.40398523962350" lon="-81.73877534003424">
        <ele>265.3127423752</ele>
        <time>2026-09-04T09:48:24Z</time>
      </trkpt>
      <trkpt lat="41.40353155167055" lon="-81.73878235886968">
        <ele>265.8115176489</ele>
        <time>2026-09-04T09:49:02Z</time>
      </trkpt>
      <trkpt lat="41.40309122181010" lon="-81.73877265041999">
        <ele>266.0841536317</ele>
        <time>2026-09-04T09:49:55Z</time>
      </trkpt>
      <trkpt lat="41.40263261577277" lon="-81.73877903393647">
        <ele>266.6931064317</ele>
        <time>2026-09-04T09:50:33Z</time>
      </trkpt>
      <trkpt lat="41.40222639950113" lon="-81.73877824513906">
        <ele>267.0109345139</ele>
        <time>2026-09-04T09:51:08Z</time>
      </trkpt>
      <trkpt lat="41.40221419667569" lon="-81.73827088102117">
        <ele>267.1149137724</ele>
        <time>2026-09-04T09:51:51Z</time>
      </trkpt>
      <trkpt lat="41.40176504649261" lon="-81.73827178834418">
        <ele>267.6774876118</ele>
        <time>2026-09-04T09:52:34Z</time>
      </trkpt>
      <trkpt lat="41.40132424684095" lon="-81.73826123156512">
        <ele>267.5194854233</ele>
        <time>2026-09-04T09:53:23Z</time>
      </trkpt>
      <trkpt lat="41.40133839554629" lon="-81.73885786291649">
        <ele>267.0825996441</ele>
        <time>2026-09-04T09:54:00Z</time>
      </trkpt>
      <trkpt lat="41.40133974571782" lon="-81.73947142945603">
        <ele>266.9395396811</ele>
        <time>2026-09-04T09:54:42Z</time>
      </trkpt>
      <trkpt lat="41.40133450860233" lon="-81.74005516439763">
        <ele>266.6063515912</ele>
        <time>2026-09-04T09:55:14Z</time>
      </trkpt>
      <trkpt lat="41.40133514686068" lon="-81.74020593774028">
        <ele>266.5363058410</ele>
        <time>2026-09-04T09:55:25Z</time>
      </trkpt>
    </trkseg>
  </trk>
</gpx>