<?xml version='1.0' encoding='UTF-8'?>
<gpx xmlns="http://www.topografix.com/GPX/1/1" creator="https://gpx.studio" version="1.1">
  <metadata>
    <name>Dog Walk - 2026-05-08 #4</name>
  </metadata>
  <trk>
    <name>Dog Walk - 2026-05-08 #4</name>
    <type>dog walk</type>
    <trkseg>
      <trkpt lat="41.40134119870353" lon="-81.74022855153578">
        <ele>266.4655523137</ele>
        <time>2026-05-08T18:39:41Z</time>
      </trkpt>
      <trkpt lat="41.40134252902958" lon="-81.74083917686906">
        <ele>266.1434645571</ele>
        <time>2026-05-08T18:40:17Z</time>
      </trkpt>
      <trkpt lat="41.40133750614798" lon="-81.74142974203293">
        <ele>265.7438885696</ele>
        <time>2026-05-08T18:40:55Z</time>
      </trkpt>
      <trkpt lat="41.40132986190142" lon="-81.74202618494024">
        <ele>265.3935926177</ele>
        <time>2026-05-08T18:41:52Z</time>
      </trkpt>
      <trkpt lat="41.40133245748056" lon="-81.74238316075514">
        <ele>264.8673347565</ele>
        <time>2026-05-08T18:42:18Z</time>
      </trkpt>
      <trkpt lat="41.40089958050586" lon="-81.74217241144956">
        <ele>265.2073141953</ele>
        <time>2026-05-08T18:43:00Z</time>
      </trkpt>
      <trkpt lat="41.40048765113060" lon="-81.74195772004188">
        <ele>265.3147190654</ele>
        <time>2026-05-08T18:43:50Z</time>
      </trkpt>
      <trkpt lat="41.40044971813316" lon="-81.74196232692334">
        <ele>265.2508258722</ele>
        <time>2026-05-08T18:43:53Z</time>
      </trkpt>
      <trkpt lat="41.40044142406547" lon="-81.74134820201961">
        <ele>266.0702843616</ele>
        <time>2026-05-08T18:44:33Z</time>
      </trkpt>
      <trkpt lat="41.40043973923783" lon="-81.74075574555508">
        <ele>266.3947610481</ele>
        <time>2026-05-08T18:45:09Z</time>
      </trkpt>
      <trkpt lat="41.40044009045459" lon="-81.74015382315515">
        <ele>266.6540363508</ele>
        <time>2026-05-08T18:45:59Z</time>
      </trkpt>
      <trkpt lat="41.40043035780446" lon="-81.73955427189411">
        <ele>266.9561606462</ele>
        <time>2026-05-08T18:46:34Z</time>
      </trkpt>
      <trkpt lat="41.40042032195743" lon="-81.73895342563331">
        <ele>267.2406275841</ele>
        <time>2026-05-08T18:47:38Z</time>
      </trkpt>
      <trkpt lat="41.40042111169875" lon="-81.73835498465185">
        <ele>267.3513486879</ele>
        <time>2026-05-08T18:48:21Z</time>
      </trkpt>
      <trkpt lat="41.40042057416721" lon="-81.73774235098458">
        <ele>267.6484030833</ele>
        <time>2026-05-08T18:49:12Z</time>
      </trkpt>
      <trkpt lat="41.40041405839908" lon="-81.73715620664973">
        <ele>268.0426906521</ele>
        <time>2026-05-08T18:50:05Z</time>
      </trkpt>
      <trkpt lat="41.40040386170523" lon="-81.73655671609900">
        <ele>267.9473186349</ele>
        <time>2026-05-08T18:50:38Z</time>
      </trkpt>
      <trkpt lat="41.40040491003482" lon="-81.73595568715699">
        <ele>267.9972250619</ele>
        <time>2026-05-08T18:51:34Z</time>
      </trkpt>
      <trkpt lat="41.40040076117204" lon="-81.73534979921584">
        <ele>267.7801426781</ele>
        <time>2026-05-08T18:52:18Z</time>
      </trkpt>
      <trkpt lat="41.40038565382181" lon="-81.73474575761541">
        <ele>267.2343912693</ele>
        <time>2026-05-08T18:52:56Z</time>
      </trkpt>
      <trkpt lat="41.40039157154059" lon="-81.73463077053010">
        <ele>267.7037652289</ele>
        <time>2026-05-08T18:53:02Z</time>
      </trkpt>
      <trkpt lat="41.40083734407946" lon="-81.73463475661096">
        <ele>267.1611036957</ele>
        <time>2026-05-08T18:53:36Z</time>
      </trkpt>
      <trkpt lat="41.40128648305549" lon="-81.73463882387217">
        <ele>267.3022717621</ele>
        <time>2026-05-08T18:54:12Z</time>
      </trkpt>
      <trkpt lat="41.40131630082665" lon="-81.73462572465746">
        <ele>267.4072729607</ele>
        <time>2026-05-08T18:54:19Z</time>
      </trkpt>
      <trkpt lat="41.40131609243863" lon="-81.73523251045061">
        <ele>268.0426973192</ele>
        <time>2026-05-08T18:55:01Z</time>
      </trkpt>
      <trkpt lat="41.40132343056998" lon="-81.73583370644386">
        <ele>268.2424791968</ele>
        <time>2026-05-08T18:55:37Z</time>
      </trkpt>
      <trkpt lat="41.40132460512458" lon="-81.73642584231868">
        <ele>268.2481840733</ele>
        <time>2026-05-08T18:56:21Z</time>
      </trkpt>
      <trkpt lat="41.40134085273832" lon="-81.73703964844516">
        <ele>267.8308764829</ele>
        <time>2026-05-08T18:56:56Z</time>
      </trkpt>
      <trkpt lat="41.40133763695584" lon="-81.73762528964778">
        <ele>267.7670262652</ele>
        <time>2026-05-08T18:57:37Z</time>
      </trkpt>
      <trkpt lat="41.40134205000977" lon="-81.73823006258840">
        <ele>267.6754009644</ele>
        <time>2026-05-08T18:58:11Z</time>
      </trkpt>
      <trkpt lat="41.40133896352235" lon="-81.73883249060249">
        <ele>267.3215626534</ele>
        <time>2026-05-08T18:58:59Z</time>
      </trkpt>
      <trkpt lat="41.40133648882902" lon="-81.73942414778514">
        <ele>267.1800183088</ele>
        <time>2026-05-08T18:59:31Z</time>
      </trkpt>
      <trkpt lat="41.40135119753294" lon="-81.74002649454751">
        <ele>266.7374192512</ele>
        <time>2026-05-08T19:00:10Z</time>
      </trkpt>
      <trkpt lat="41.40133742317641" lon="-81.74019067388699">
        <ele>266.2907491027</ele>
        <time>2026-05-08T19:00:20Z</time>
      </trkpt>
    </trkseg>
  </trk>
</gpx>