<?xml version='1.0' encoding='UTF-8'?>
<gpx xmlns="http://www.topografix.com/GPX/1/1" creator="https://gpx.studio" version="1.1">
  <metadata>
    <name>Dog Walk - 2026-06-14 #2</name>
  </metadata>
  <trk>
    <name>Dog Walk - 2026-06-14 #2</name>
    <type>dog walk</type>
    <trkseg>
      <trkpt lat="41.40134679256840" lon="-81.74022384749675">
        <ele>266.4531184228</ele>
        <time>2026-06-14T13:11:52Z</time>
      </trkpt>
      <trkpt lat="41.40133743987049" lon="-81.74082767800543">
        <ele>266.1225569737</ele>
        <time>2026-06-14T13:12:37Z</time>
      </trkpt>
      <trkpt lat="41.40133237710697" lon="-81.74142721775011">
        <ele>265.7914799019</ele>
        <time>2026-06-14T13:13:24Z</time>
      </trkpt>
      <trkpt lat="41.40134064194270" lon="-81.74202099859066">
        <ele>265.5324954831</ele>
        <time>2026-06-14T13:14:04Z</time>
      </trkpt>
      <trkpt lat="41.40133235171071" lon="-81.74238320493077">
        <ele>264.9056916696</ele>
        <time>2026-06-14T13:14:38Z</time>
      </trkpt>
      <trkpt lat="41.40090710099300" lon="-81.74217112546491">
        <ele>265.2148166731</ele>
        <time>2026-06-14T13:15:13Z</time>
      </trkpt>
      <trkpt lat="41.40048535678568" lon="-81.74197167154149">
        <ele>265.1515826121</ele>
        <time>2026-06-14T13:15:55Z</time>
      </trkpt>
      <trkpt lat="41.40044930551779" lon="-81.74194793751437">
        <ele>265.3091727015</ele>
        <time>2026-06-14T13:15:58Z</time>
      </trkpt>
      <trkpt lat="41.40043695733036" lon="-81.74135288337912">
        <ele>266.0976209055</ele>
        <time>2026-06-14T13:16:49Z</time>
      </trkpt>
      <trkpt lat="41.40044411613680" lon="-81.74074753198934">
        <ele>266.4907696906</ele>
        <time>2026-06-14T13:17:29Z</time>
      </trkpt>
      <trkpt lat="41.40043360824497" lon="-81.74015480901444">
        <ele>266.8944834155</ele>
        <time>2026-06-14T13:17:59Z</time>
      </trkpt>
      <trkpt lat="41.40043054519183" lon="-81.73955880812201">
        <ele>267.0101623845</ele>
        <time>2026-06-14T13:18:32Z</time>
      </trkpt>
      <trkpt lat="41.40042902377997" lon="-81.73895261511807">
        <ele>267.0927002191</ele>
        <time>2026-06-14T13:19:08Z</time>
      </trkpt>
      <trkpt lat="41.40042414773335" lon="-81.73835505376444">
        <ele>267.1530375535</ele>
        <time>2026-06-14T13:19:46Z</time>
      </trkpt>
      <trkpt lat="41.40041890951213" lon="-81.73775328709455">
        <ele>267.6404229605</ele>
        <time>2026-06-14T13:20:20Z</time>
      </trkpt>
      <trkpt lat="41.40041378236656" lon="-81.73714782197059">
        <ele>268.1395658415</ele>
        <time>2026-06-14T13:21:08Z</time>
      </trkpt>
      <trkpt lat="41.40041105584944" lon="-81.73655061408589">
        <ele>267.9967887653</ele>
        <time>2026-06-14T13:21:51Z</time>
      </trkpt>
      <trkpt lat="41.40040229916244" lon="-81.73594369539259">
        <ele>268.0127571818</ele>
        <time>2026-06-14T13:22:34Z</time>
      </trkpt>
      <trkpt lat="41.40039384002621" lon="-81.73535646585148">
        <ele>267.7194590694</ele>
        <time>2026-06-14T13:23:20Z</time>
      </trkpt>
      <trkpt lat="41.40040114904841" lon="-81.73475313986592">
        <ele>267.4131258983</ele>
        <time>2026-06-14T13:23:53Z</time>
      </trkpt>
      <trkpt lat="41.40039128356088" lon="-81.73462613875802">
        <ele>267.2153936836</ele>
        <time>2026-06-14T13:24:19Z</time>
      </trkpt>
      <trkpt lat="41.40084431186224" lon="-81.73463471525054">
        <ele>267.4286680557</ele>
        <time>2026-06-14T13:25:01Z</time>
      </trkpt>
      <trkpt lat="41.40129331007552" lon="-81.73464127141423">
        <ele>267.3055706015</ele>
        <time>2026-06-14T13:25:50Z</time>
      </trkpt>
      <trkpt lat="41.40132435268530" lon="-81.73462482995046">
        <ele>267.1261584642</ele>
        <time>2026-06-14T13:25:53Z</time>
      </trkpt>
      <trkpt lat="41.40132287529713" lon="-81.73523050062403">
        <ele>267.8348841467</ele>
        <time>2026-06-14T13:26:26Z</time>
      </trkpt>
      <trkpt lat="41.40132945488035" lon="-81.73582865212471">
        <ele>268.2379268272</ele>
        <time>2026-06-14T13:27:06Z</time>
      </trkpt>
      <trkpt lat="41.40132527412612" lon="-81.73642681190178">
        <ele>268.2102829340</ele>
        <time>2026-06-14T13:27:43Z</time>
      </trkpt>
      <trkpt lat="41.40133637296879" lon="-81.73703218191763">
        <ele>267.9413304404</ele>
        <time>2026-06-14T13:28:21Z</time>
      </trkpt>
      <trkpt lat="41.40133465257401" lon="-81.73762522499911">
        <ele>267.8483158789</ele>
        <time>2026-06-14T13:29:10Z</time>
      </trkpt>
      <trkpt lat="41.40133508209429" lon="-81.73823611552005">
        <ele>267.5716124066</ele>
        <time>2026-06-14T13:29:52Z</time>
      </trkpt>
      <trkpt lat="41.40133410811733" lon="-81.73883737164439">
        <ele>267.4551449225</ele>
        <time>2026-06-14T13:30:27Z</time>
      </trkpt>
      <trkpt lat="41.40134130934873" lon="-81.73942477040647">
        <ele>267.1453791423</ele>
        <time>2026-06-14T13:30:59Z</time>
      </trkpt>
      <trkpt lat="41.40135076466979" lon="-81.74003537550816">
        <ele>266.7435714743</ele>
        <time>2026-06-14T13:31:50Z</time>
      </trkpt>
      <trkpt lat="41.40134623155073" lon="-81.74019863176508">
        <ele>266.4863826568</ele>
        <time>2026-06-14T13:32:00Z</time>
      </trkpt>
    </trkseg>
  </trk>
</gpx>