<?xml version='1.0' encoding='UTF-8'?>
<gpx xmlns="http://www.topografix.com/GPX/1/1" creator="https://gpx.studio" version="1.1">
  <metadata>
    <name>Dog Walk - 2026-07-06 #2</name>
  </metadata>
  <trk>
    <name>Dog Walk - 2026-07-06 #2</name>
    <type>dog walk</type>
    <trkseg>
      <trkpt lat="41.40134939161048" lon="-81.74023784004699">
        <ele>266.3145163572</ele>
        <time>2026-07-06T12:58:32Z</time>
      </trkpt>
      <trkpt lat="41.40133655988030" lon="-81.74082938408756">
        <ele>266.2986242155</ele>
        <time>2026-07-06T12:59:29Z</time>
      </trkpt>
      <trkpt lat="41.40133594227509" lon="-81.74144362564586">
        <ele>265.9540844863</ele>
        <time>2026-07-06T13:00:07Z</time>
      </trkpt>
      <trkpt lat="41.40134917706838" lon="-81.74203139279473">
        <ele>265.1147768667</ele>
        <time>2026-07-06T13:00:58Z</time>
      </trkpt>
      <trkpt lat="41.40134950997488" lon="-81.74241810065379">
        <ele>264.6093333554</ele>
        <time>2026-07-06T13:01:22Z</time>
      </trkpt>
      <trkpt lat="41.40176966590605" lon="-81.74261922219355">
        <ele>264.2748112715</ele>
        <time>2026-07-06T13:01:59Z</time>
      </trkpt>
      <trkpt lat="41.40219466575371" lon="-81.74281485958602">
        <ele>263.5595917054</ele>
        <time>2026-07-06T13:02:37Z</time>
      </trkpt>
      <trkpt lat="41.40262142908436" lon="-81.74302531022217">
        <ele>263.0700671866</ele>
        <time>2026-07-06T13:03:18Z</time>
      </trkpt>
      <trkpt lat="41.40303875018348" lon="-81.74321948479376">
        <ele>262.4099220145</ele>
        <time>2026-07-06T13:03:50Z</time>
      </trkpt>
      <trkpt lat="41.40311776453373" lon="-81.74325065014176">
        <ele>262.2493766278</ele>
        <time>2026-07-06T13:03:57Z</time>
      </trkpt>
      <trkpt lat="41.40312097776615" lon="-81.74264822404284">
        <ele>262.9417990713</ele>
        <time>2026-07-06T13:04:46Z</time>
      </trkpt>
      <trkpt lat="41.40311257884982" lon="-81.74205340367509">
        <ele>263.5643503582</ele>
        <time>2026-07-06T13:05:27Z</time>
      </trkpt>
      <trkpt lat="41.40311482853937" lon="-81.74145776755709">
        <ele>263.9892810633</ele>
        <time>2026-07-06T13:06:08Z</time>
      </trkpt>
      <trkpt lat="41.40311379402316" lon="-81.74086077067108">
        <ele>264.8879995791</ele>
        <time>2026-07-06T13:06:42Z</time>
      </trkpt>
      <trkpt lat="41.40310445987155" lon="-81.74026162790940">
        <ele>265.3655567734</ele>
        <time>2026-07-06T13:07:17Z</time>
      </trkpt>
      <trkpt lat="41.40309576330755" lon="-81.73965362516398">
        <ele>265.9573289920</ele>
        <time>2026-07-06T13:07:48Z</time>
      </trkpt>
      <trkpt lat="41.40310172898859" lon="-81.73906372177102">
        <ele>266.2698242006</ele>
        <time>2026-07-06T13:08:35Z</time>
      </trkpt>
      <trkpt lat="41.40309371471222" lon="-81.73879286289778">
        <ele>266.1315993808</ele>
        <time>2026-07-06T13:08:56Z</time>
      </trkpt>
      <trkpt lat="41.40264776661344" lon="-81.73879116972098">
        <ele>266.7117372886</ele>
        <time>2026-07-06T13:09:52Z</time>
      </trkpt>
      <trkpt lat="41.40223260814948" lon="-81.73878667884982">
        <ele>266.9344085026</ele>
        <time>2026-07-06T13:10:21Z</time>
      </trkpt>
      <trkpt lat="41.40223412018675" lon="-81.73818032203792">
        <ele>267.0734473426</ele>
        <time>2026-07-06T13:10:58Z</time>
      </trkpt>
      <trkpt lat="41.40223042879897" lon="-81.73758970218982">
        <ele>267.2911647236</ele>
        <time>2026-07-06T13:11:37Z</time>
      </trkpt>
      <trkpt lat="41.40223870602164" lon="-81.73697784412950">
        <ele>267.2800211416</ele>
        <time>2026-07-06T13:12:21Z</time>
      </trkpt>
      <trkpt lat="41.40223782609752" lon="-81.73637867156948">
        <ele>267.1318159543</ele>
        <time>2026-07-06T13:13:01Z</time>
      </trkpt>
      <trkpt lat="41.40222396287287" lon="-81.73577892473605">
        <ele>267.4990663340</ele>
        <time>2026-07-06T13:13:58Z</time>
      </trkpt>
      <trkpt lat="41.40221950361134" lon="-81.73518998395069">
        <ele>267.4089090686</ele>
        <time>2026-07-06T13:14:41Z</time>
      </trkpt>
      <trkpt lat="41.40222069948119" lon="-81.73465192304049">
        <ele>267.0855944068</ele>
        <time>2026-07-06T13:15:17Z</time>
      </trkpt>
      <trkpt lat="41.40176430683146" lon="-81.73464702661525">
        <ele>267.1110799482</ele>
        <time>2026-07-06T13:15:49Z</time>
      </trkpt>
      <trkpt lat="41.40132222260110" lon="-81.73464105167358">
        <ele>267.4135914202</ele>
        <time>2026-07-06T13:16:22Z</time>
      </trkpt>
      <trkpt lat="41.40131155624341" lon="-81.73463992181897">
        <ele>267.5716222265</ele>
        <time>2026-07-06T13:16:23Z</time>
      </trkpt>
      <trkpt lat="41.40131335310901" lon="-81.73523429973355">
        <ele>268.1198842481</ele>
        <time>2026-07-06T13:17:02Z</time>
      </trkpt>
      <trkpt lat="41.40132196319278" lon="-81.73583566499781">
        <ele>268.2643896348</ele>
        <time>2026-07-06T13:17:38Z</time>
      </trkpt>
      <trkpt lat="41.40132827383034" lon="-81.73644254276374">
        <ele>268.1199627964</ele>
        <time>2026-07-06T13:18:11Z</time>
      </trkpt>
      <trkpt lat="41.40132426688305" lon="-81.73703827066490">
        <ele>268.1552667415</ele>
        <time>2026-07-06T13:18:51Z</time>
      </trkpt>
      <trkpt lat="41.40133917149637" lon="-81.73762120034392">
        <ele>267.8151893426</ele>
        <time>2026-07-06T13:19:33Z</time>
      </trkpt>
      <trkpt lat="41.40132933471128" lon="-81.73823657393427">
        <ele>267.7869120045</ele>
        <time>2026-07-06T13:20:12Z</time>
      </trkpt>
      <trkpt lat="41.40134596493438" lon="-81.73882768713814">
        <ele>267.3589254576</ele>
        <time>2026-07-06T13:20:47Z</time>
      </trkpt>
      <trkpt lat="41.40133734380451" lon="-81.73943346360107">
        <ele>267.2228294290</ele>
        <time>2026-07-06T13:21:19Z</time>
      </trkpt>
      <trkpt lat="41.40134645389620" lon="-81.74002759997451">
        <ele>266.6129184655</ele>
        <time>2026-07-06T13:22:00Z</time>
      </trkpt>
      <trkpt lat="41.40134587943381" lon="-81.74015930322511">
        <ele>266.4449550934</ele>
        <time>2026-07-06T13:22:09Z</time>
      </trkpt>
    </trkseg>
  </trk>
</gpx>