<?xml version='1.0' encoding='UTF-8'?>
<gpx xmlns="http://www.topografix.com/GPX/1/1" creator="https://gpx.studio" version="1.1">
  <metadata>
    <name>Dog Walk - 2026-05-12 #5</name>
  </metadata>
  <trk>
    <name>Dog Walk - 2026-05-12 #5</name>
    <type>dog walk</type>
    <trkseg>
      <trkpt lat="41.40132530683645" lon="-81.74024855353260">
        <ele>266.3327517364</ele>
        <time>2026-05-12T19:29:07Z</time>
      </trkpt>
      <trkpt lat="41.40132802690158" lon="-81.74026702899522">
        <ele>266.6214354289</ele>
        <time>2026-05-12T19:29:08Z</time>
      </trkpt>
      <trkpt lat="41.40133509210307" lon="-81.74085421796761">
        <ele>266.5839350537</ele>
        <time>2026-05-12T19:29:53Z</time>
      </trkpt>
      <trkpt lat="41.40133525929975" lon="-81.74144992639755">
        <ele>265.6932247419</ele>
        <time>2026-05-12T19:30:31Z</time>
      </trkpt>
      <trkpt lat="41.40132687391516" lon="-81.74204721201509">
        <ele>265.2864650768</ele>
        <time>2026-05-12T19:31:09Z</time>
      </trkpt>
      <trkpt lat="41.40132337597966" lon="-81.74237918334057">
        <ele>264.8965952515</ele>
        <time>2026-05-12T19:31:28Z</time>
      </trkpt>
      <trkpt lat="41.40131655967631" lon="-81.74237643189470">
        <ele>264.7039027907</ele>
        <time>2026-05-12T19:31:29Z</time>
      </trkpt>
      <trkpt lat="41.40090128290466" lon="-81.74218979122480">
        <ele>265.0126085648</ele>
        <time>2026-05-12T19:32:05Z</time>
      </trkpt>
      <trkpt lat="41.40047200870809" lon="-81.74199686424680">
        <ele>265.3722175967</ele>
        <time>2026-05-12T19:32:48Z</time>
      </trkpt>
      <trkpt lat="41.40004645589234" lon="-81.74180350868828">
        <ele>265.4096828188</ele>
        <time>2026-05-12T19:33:30Z</time>
      </trkpt>
      <trkpt lat="41.39962298961478" lon="-81.74160632681135">
        <ele>264.7243125787</ele>
        <time>2026-05-12T19:34:14Z</time>
      </trkpt>
      <trkpt lat="41.39954733450038" lon="-81.74157040690919">
        <ele>264.5893367552</ele>
        <time>2026-05-12T19:34:20Z</time>
      </trkpt>
      <trkpt lat="41.39954531666562" lon="-81.74097744141160">
        <ele>265.7168682829</ele>
        <time>2026-05-12T19:34:57Z</time>
      </trkpt>
      <trkpt lat="41.39953755237827" lon="-81.74037401613163">
        <ele>266.1247389529</ele>
        <time>2026-05-12T19:35:30Z</time>
      </trkpt>
      <trkpt lat="41.39953159448704" lon="-81.73977867239566">
        <ele>266.5603834991</ele>
        <time>2026-05-12T19:36:11Z</time>
      </trkpt>
      <trkpt lat="41.39953474080459" lon="-81.73917471858573">
        <ele>266.7167169453</ele>
        <time>2026-05-12T19:36:48Z</time>
      </trkpt>
      <trkpt lat="41.39954116588893" lon="-81.73856896016240">
        <ele>266.8375792774</ele>
        <time>2026-05-12T19:37:30Z</time>
      </trkpt>
      <trkpt lat="41.39953723059576" lon="-81.73829457451751">
        <ele>267.0490401532</ele>
        <time>2026-05-12T19:37:50Z</time>
      </trkpt>
      <trkpt lat="41.39953095248253" lon="-81.73829660390285">
        <ele>267.0551042100</ele>
        <time>2026-05-12T19:37:51Z</time>
      </trkpt>
      <trkpt lat="41.39998658356701" lon="-81.73829837139759">
        <ele>267.1932987767</ele>
        <time>2026-05-12T19:38:34Z</time>
      </trkpt>
      <trkpt lat="41.40044383406969" lon="-81.73829943893192">
        <ele>267.1644276691</ele>
        <time>2026-05-12T19:39:19Z</time>
      </trkpt>
      <trkpt lat="41.40088051743926" lon="-81.73830333203460">
        <ele>267.6463119537</ele>
        <time>2026-05-12T19:39:58Z</time>
      </trkpt>
      <trkpt lat="41.40132203948546" lon="-81.73830478973363">
        <ele>267.5920467886</ele>
        <time>2026-05-12T19:40:42Z</time>
      </trkpt>
      <trkpt lat="41.40132972243458" lon="-81.73890451288052">
        <ele>267.4687237829</ele>
        <time>2026-05-12T19:41:15Z</time>
      </trkpt>
      <trkpt lat="41.40133761756730" lon="-81.73950174438626">
        <ele>267.0087948331</ele>
        <time>2026-05-12T19:42:23Z</time>
      </trkpt>
      <trkpt lat="41.40133409938101" lon="-81.74010850182502">
        <ele>266.4070323808</ele>
        <time>2026-05-12T19:43:02Z</time>
      </trkpt>
      <trkpt lat="41.40135198147809" lon="-81.74015647838269">
        <ele>266.6161529221</ele>
        <time>2026-05-12T19:43:05Z</time>
      </trkpt>
    </trkseg>
  </trk>
</gpx>