<?xml version='1.0' encoding='UTF-8'?>
<gpx xmlns="http://www.topografix.com/GPX/1/1" creator="https://gpx.studio" version="1.1">
  <metadata>
    <name>Dog Walk - 2026-05-15 #1</name>
  </metadata>
  <trk>
    <name>Dog Walk - 2026-05-15 #1</name>
    <type>dog walk</type>
    <trkseg>
      <trkpt lat="41.40132670591451" lon="-81.74023983722266">
        <ele>266.5449081446</ele>
        <time>2026-05-15T08:24:04Z</time>
      </trkpt>
      <trkpt lat="41.40133604247716" lon="-81.74082843431430">
        <ele>266.0670037528</ele>
        <time>2026-05-15T08:24:40Z</time>
      </trkpt>
      <trkpt lat="41.40132667036726" lon="-81.74143276231248">
        <ele>266.0001633698</ele>
        <time>2026-05-15T08:25:26Z</time>
      </trkpt>
      <trkpt lat="41.40132822491162" lon="-81.74203624688710">
        <ele>265.5901567186</ele>
        <time>2026-05-15T08:26:01Z</time>
      </trkpt>
      <trkpt lat="41.40132866151369" lon="-81.74239500019695">
        <ele>264.9783208199</ele>
        <time>2026-05-15T08:26:26Z</time>
      </trkpt>
      <trkpt lat="41.40090383390305" lon="-81.74220643930917">
        <ele>265.1854391893</ele>
        <time>2026-05-15T08:26:58Z</time>
      </trkpt>
      <trkpt lat="41.40047313467055" lon="-81.74199485264111">
        <ele>265.1567965525</ele>
        <time>2026-05-15T08:27:45Z</time>
      </trkpt>
      <trkpt lat="41.40005083688146" lon="-81.74180856601863">
        <ele>265.5369887152</ele>
        <time>2026-05-15T08:28:17Z</time>
      </trkpt>
      <trkpt lat="41.39962860162947" lon="-81.74161730568485">
        <ele>264.8033266020</ele>
        <time>2026-05-15T08:29:00Z</time>
      </trkpt>
      <trkpt lat="41.39953706606050" lon="-81.74157929645477">
        <ele>264.8710988985</ele>
        <time>2026-05-15T08:29:09Z</time>
      </trkpt>
      <trkpt lat="41.39952611044329" lon="-81.74097715103754">
        <ele>265.9686695581</ele>
        <time>2026-05-15T08:30:02Z</time>
      </trkpt>
      <trkpt lat="41.39951909301357" lon="-81.74037906260212">
        <ele>266.1341595474</ele>
        <time>2026-05-15T08:30:39Z</time>
      </trkpt>
      <trkpt lat="41.39952984200951" lon="-81.73977267616780">
        <ele>266.6929197208</ele>
        <time>2026-05-15T08:31:19Z</time>
      </trkpt>
      <trkpt lat="41.39953539461270" lon="-81.73917922760424">
        <ele>266.9865497686</ele>
        <time>2026-05-15T08:31:58Z</time>
      </trkpt>
      <trkpt lat="41.39952493291609" lon="-81.73857158154203">
        <ele>266.8462185916</ele>
        <time>2026-05-15T08:32:35Z</time>
      </trkpt>
      <trkpt lat="41.39952539775940" lon="-81.73797356034439">
        <ele>267.1230725402</ele>
        <time>2026-05-15T08:33:25Z</time>
      </trkpt>
      <trkpt lat="41.39952529723976" lon="-81.73737706524470">
        <ele>267.2976163506</ele>
        <time>2026-05-15T08:34:03Z</time>
      </trkpt>
      <trkpt lat="41.39951954353723" lon="-81.73677550122611">
        <ele>267.5160153487</ele>
        <time>2026-05-15T08:34:37Z</time>
      </trkpt>
      <trkpt lat="41.39952709066640" lon="-81.73618063841062">
        <ele>267.5197379863</ele>
        <time>2026-05-15T08:35:08Z</time>
      </trkpt>
      <trkpt lat="41.39952681620274" lon="-81.73558588146780">
        <ele>267.4421830956</ele>
        <time>2026-05-15T08:35:45Z</time>
      </trkpt>
      <trkpt lat="41.39952001133836" lon="-81.73498060645547">
        <ele>267.2483168879</ele>
        <time>2026-05-15T08:36:22Z</time>
      </trkpt>
      <trkpt lat="41.39952209842095" lon="-81.73461095400347">
        <ele>267.2957329189</ele>
        <time>2026-05-15T08:36:48Z</time>
      </trkpt>
      <trkpt lat="41.39997497709238" lon="-81.73461397449817">
        <ele>267.1062832794</ele>
        <time>2026-05-15T08:37:27Z</time>
      </trkpt>
      <trkpt lat="41.40042178419301" lon="-81.73462571158827">
        <ele>267.2598044615</ele>
        <time>2026-05-15T08:38:08Z</time>
      </trkpt>
      <trkpt lat="41.40087175978358" lon="-81.73464342807524">
        <ele>267.2144351259</ele>
        <time>2026-05-15T08:38:41Z</time>
      </trkpt>
      <trkpt lat="41.40132480632152" lon="-81.73463849391671">
        <ele>267.2926442538</ele>
        <time>2026-05-15T08:39:15Z</time>
      </trkpt>
      <trkpt lat="41.40132679067261" lon="-81.73524431078995">
        <ele>267.7968162448</ele>
        <time>2026-05-15T08:39:49Z</time>
      </trkpt>
      <trkpt lat="41.40132890392783" lon="-81.73583789143748">
        <ele>268.2355022267</ele>
        <time>2026-05-15T08:40:19Z</time>
      </trkpt>
      <trkpt lat="41.40133167546838" lon="-81.73644040011439">
        <ele>268.2649201587</ele>
        <time>2026-05-15T08:40:53Z</time>
      </trkpt>
      <trkpt lat="41.40131826325443" lon="-81.73703255725145">
        <ele>268.0305186829</ele>
        <time>2026-05-15T08:41:43Z</time>
      </trkpt>
      <trkpt lat="41.40132804249574" lon="-81.73762444459740">
        <ele>268.0907080320</ele>
        <time>2026-05-15T08:42:31Z</time>
      </trkpt>
      <trkpt lat="41.40132645312987" lon="-81.73822674590096">
        <ele>267.8132249099</ele>
        <time>2026-05-15T08:43:10Z</time>
      </trkpt>
      <trkpt lat="41.40133462897575" lon="-81.73883134294452">
        <ele>267.5053323414</ele>
        <time>2026-05-15T08:44:03Z</time>
      </trkpt>
      <trkpt lat="41.40133125331590" lon="-81.73943992781479">
        <ele>267.1070864930</ele>
        <time>2026-05-15T08:44:37Z</time>
      </trkpt>
      <trkpt lat="41.40133112638698" lon="-81.74003098819200">
        <ele>266.6209302851</ele>
        <time>2026-05-15T08:45:12Z</time>
      </trkpt>
      <trkpt lat="41.40133538016608" lon="-81.74021817655435">
        <ele>266.5654442628</ele>
        <time>2026-05-15T08:45:25Z</time>
      </trkpt>
    </trkseg>
  </trk>
</gpx>