<?xml version='1.0' encoding='UTF-8'?>
<gpx xmlns="http://www.topografix.com/GPX/1/1" creator="https://gpx.studio" version="1.1">
  <metadata>
    <name>Dog Walk - 2026-02-28 #2</name>
  </metadata>
  <trk>
    <name>Dog Walk - 2026-02-28 #2</name>
    <type>dog walk</type>
    <trkseg>
      <trkpt lat="41.40132819771435" lon="-81.74024309961780">
        <ele>266.5766480188</ele>
        <time>2026-02-28T10:07:23Z</time>
      </trkpt>
      <trkpt lat="41.40133353141066" lon="-81.74083933865691">
        <ele>266.3305676768</ele>
        <time>2026-02-28T10:08:09Z</time>
      </trkpt>
      <trkpt lat="41.40133481604626" lon="-81.74142963667099">
        <ele>265.7912880947</ele>
        <time>2026-02-28T10:08:41Z</time>
      </trkpt>
      <trkpt lat="41.40133497351820" lon="-81.74203442977058">
        <ele>265.3467765705</ele>
        <time>2026-02-28T10:09:20Z</time>
      </trkpt>
      <trkpt lat="41.40132907245699" lon="-81.74239255517757">
        <ele>264.5475227981</ele>
        <time>2026-02-28T10:09:51Z</time>
      </trkpt>
      <trkpt lat="41.40090877859849" lon="-81.74220013640010">
        <ele>265.0989684727</ele>
        <time>2026-02-28T10:10:24Z</time>
      </trkpt>
      <trkpt lat="41.40048056384989" lon="-81.74200063142909">
        <ele>265.2624986517</ele>
        <time>2026-02-28T10:11:13Z</time>
      </trkpt>
      <trkpt lat="41.40005361544891" lon="-81.74180679145894">
        <ele>265.3569619265</ele>
        <time>2026-02-28T10:11:55Z</time>
      </trkpt>
      <trkpt lat="41.39963103256093" lon="-81.74160849255045">
        <ele>264.6609082855</ele>
        <time>2026-02-28T10:12:25Z</time>
      </trkpt>
      <trkpt lat="41.39953230827205" lon="-81.74157067003837">
        <ele>264.6399252429</ele>
        <time>2026-02-28T10:12:33Z</time>
      </trkpt>
      <trkpt lat="41.39953610438560" lon="-81.74097092177315">
        <ele>265.7832128126</ele>
        <time>2026-02-28T10:13:15Z</time>
      </trkpt>
      <trkpt lat="41.39954546462784" lon="-81.74037614711145">
        <ele>266.4061005656</ele>
        <time>2026-02-28T10:13:53Z</time>
      </trkpt>
      <trkpt lat="41.39952786737739" lon="-81.73978110778069">
        <ele>266.7986869274</ele>
        <time>2026-02-28T10:14:24Z</time>
      </trkpt>
      <trkpt lat="41.39953482205087" lon="-81.73918452465233">
        <ele>266.7713192744</ele>
        <time>2026-02-28T10:15:06Z</time>
      </trkpt>
      <trkpt lat="41.39952767996467" lon="-81.73858138650266">
        <ele>266.9867316116</ele>
        <time>2026-02-28T10:15:45Z</time>
      </trkpt>
      <trkpt lat="41.39953734000029" lon="-81.73796803197878">
        <ele>267.1094195594</ele>
        <time>2026-02-28T10:16:29Z</time>
      </trkpt>
      <trkpt lat="41.39953040071631" lon="-81.73738438838051">
        <ele>267.4535773216</ele>
        <time>2026-02-28T10:17:12Z</time>
      </trkpt>
      <trkpt lat="41.39953524422948" lon="-81.73678259847195">
        <ele>267.4200048205</ele>
        <time>2026-02-28T10:17:42Z</time>
      </trkpt>
      <trkpt lat="41.39952960368478" lon="-81.73617332781025">
        <ele>267.6930156915</ele>
        <time>2026-02-28T10:18:17Z</time>
      </trkpt>
      <trkpt lat="41.39953394101039" lon="-81.73557654949160">
        <ele>267.3293395917</ele>
        <time>2026-02-28T10:19:05Z</time>
      </trkpt>
      <trkpt lat="41.39953103948827" lon="-81.73497689665976">
        <ele>266.9174801486</ele>
        <time>2026-02-28T10:19:42Z</time>
      </trkpt>
      <trkpt lat="41.39952706226553" lon="-81.73460827812784">
        <ele>267.2895892388</ele>
        <time>2026-02-28T10:20:08Z</time>
      </trkpt>
      <trkpt lat="41.39997520153651" lon="-81.73461883802207">
        <ele>267.0914974420</ele>
        <time>2026-02-28T10:20:43Z</time>
      </trkpt>
      <trkpt lat="41.40043001130606" lon="-81.73462704491750">
        <ele>267.2024465634</ele>
        <time>2026-02-28T10:21:20Z</time>
      </trkpt>
      <trkpt lat="41.40087769159361" lon="-81.73463536932758">
        <ele>267.4378228554</ele>
        <time>2026-02-28T10:21:54Z</time>
      </trkpt>
      <trkpt lat="41.40132743365363" lon="-81.73464313827573">
        <ele>267.1467035570</ele>
        <time>2026-02-28T10:22:41Z</time>
      </trkpt>
      <trkpt lat="41.40132609374638" lon="-81.73523200362246">
        <ele>267.7933560579</ele>
        <time>2026-02-28T10:23:13Z</time>
      </trkpt>
      <trkpt lat="41.40132253097507" lon="-81.73583848201213">
        <ele>268.1946446710</ele>
        <time>2026-02-28T10:24:04Z</time>
      </trkpt>
      <trkpt lat="41.40132232061603" lon="-81.73643547917086">
        <ele>268.0507485430</ele>
        <time>2026-02-28T10:24:55Z</time>
      </trkpt>
      <trkpt lat="41.40131865043233" lon="-81.73703276181668">
        <ele>268.0029542159</ele>
        <time>2026-02-28T10:25:37Z</time>
      </trkpt>
      <trkpt lat="41.40132807069424" lon="-81.73763693677301">
        <ele>268.0360814929</ele>
        <time>2026-02-28T10:26:26Z</time>
      </trkpt>
      <trkpt lat="41.40132988571890" lon="-81.73823976062309">
        <ele>267.3990983551</ele>
        <time>2026-02-28T10:27:00Z</time>
      </trkpt>
      <trkpt lat="41.40133033896364" lon="-81.73882861526545">
        <ele>267.2863064511</ele>
        <time>2026-02-28T10:27:48Z</time>
      </trkpt>
      <trkpt lat="41.40133414546877" lon="-81.73945631204670">
        <ele>267.1663344142</ele>
        <time>2026-02-28T10:28:26Z</time>
      </trkpt>
      <trkpt lat="41.40134144764759" lon="-81.74004235739032">
        <ele>266.7722835361</ele>
        <time>2026-02-28T10:29:23Z</time>
      </trkpt>
      <trkpt lat="41.40134041157261" lon="-81.74021298015231">
        <ele>266.5474725501</ele>
        <time>2026-02-28T10:29:32Z</time>
      </trkpt>
    </trkseg>
  </trk>
</gpx>