<?xml version='1.0' encoding='UTF-8'?>
<gpx xmlns="http://www.topografix.com/GPX/1/1" creator="https://gpx.studio" version="1.1">
  <metadata>
    <name>Dog Walk - 2026-08-31 #2</name>
  </metadata>
  <trk>
    <name>Dog Walk - 2026-08-31 #2</name>
    <type>dog walk</type>
    <trkseg>
      <trkpt lat="41.40134325779027" lon="-81.74023190157618">
        <ele>266.5347149373</ele>
        <time>2026-08-31T12:00:38Z</time>
      </trkpt>
      <trkpt lat="41.40134634976013" lon="-81.74083719060293">
        <ele>266.0849406087</ele>
        <time>2026-08-31T12:01:24Z</time>
      </trkpt>
      <trkpt lat="41.40134568483533" lon="-81.74143529832244">
        <ele>265.7761222840</ele>
        <time>2026-08-31T12:01:57Z</time>
      </trkpt>
      <trkpt lat="41.40134621376536" lon="-81.74203016776794">
        <ele>265.2714013580</ele>
        <time>2026-08-31T12:03:02Z</time>
      </trkpt>
      <trkpt lat="41.40134373133139" lon="-81.74241480403313">
        <ele>264.8289165861</ele>
        <time>2026-08-31T12:03:32Z</time>
      </trkpt>
      <trkpt lat="41.40176194399706" lon="-81.74262525571244">
        <ele>264.2912737890</ele>
        <time>2026-08-31T12:04:18Z</time>
      </trkpt>
      <trkpt lat="41.40219135425448" lon="-81.74284459791922">
        <ele>263.6576935375</ele>
        <time>2026-08-31T12:05:33Z</time>
      </trkpt>
      <trkpt lat="41.40220978450055" lon="-81.74286311632063">
        <ele>263.4668743672</ele>
        <time>2026-08-31T12:05:36Z</time>
      </trkpt>
      <trkpt lat="41.40221742361260" lon="-81.74226732453032">
        <ele>264.2505548849</ele>
        <time>2026-08-31T12:06:20Z</time>
      </trkpt>
      <trkpt lat="41.40222379871090" lon="-81.74166990102741">
        <ele>264.8495666296</ele>
        <time>2026-08-31T12:07:10Z</time>
      </trkpt>
      <trkpt lat="41.40221546323148" lon="-81.74106818454813">
        <ele>265.6379681645</ele>
        <time>2026-08-31T12:08:04Z</time>
      </trkpt>
      <trkpt lat="41.40222021171390" lon="-81.74046431255370">
        <ele>266.0753962467</ele>
        <time>2026-08-31T12:08:36Z</time>
      </trkpt>
      <trkpt lat="41.40222814665719" lon="-81.73986351538190">
        <ele>266.7148528469</ele>
        <time>2026-08-31T12:09:26Z</time>
      </trkpt>
      <trkpt lat="41.40221780318534" lon="-81.73926880812701">
        <ele>266.9126968551</ele>
        <time>2026-08-31T12:10:05Z</time>
      </trkpt>
      <trkpt lat="41.40221586223594" lon="-81.73866165086685">
        <ele>267.0727080941</ele>
        <time>2026-08-31T12:10:54Z</time>
      </trkpt>
      <trkpt lat="41.40221313886200" lon="-81.73827314995110">
        <ele>267.2025460882</ele>
        <time>2026-08-31T12:11:20Z</time>
      </trkpt>
      <trkpt lat="41.40176729374690" lon="-81.73825421838427">
        <ele>267.5298581957</ele>
        <time>2026-08-31T12:12:05Z</time>
      </trkpt>
      <trkpt lat="41.40133314959131" lon="-81.73826617045063">
        <ele>267.4156186177</ele>
        <time>2026-08-31T12:12:37Z</time>
      </trkpt>
      <trkpt lat="41.40133267708227" lon="-81.73886700709114">
        <ele>267.4748060519</ele>
        <time>2026-08-31T12:13:35Z</time>
      </trkpt>
      <trkpt lat="41.40133304251490" lon="-81.73946346239430">
        <ele>267.1874125084</ele>
        <time>2026-08-31T12:14:18Z</time>
      </trkpt>
      <trkpt lat="41.40134117975666" lon="-81.74005762154820">
        <ele>266.8417246742</ele>
        <time>2026-08-31T12:14:53Z</time>
      </trkpt>
      <trkpt lat="41.40133777964132" lon="-81.74018991967121">
        <ele>266.6767874853</ele>
        <time>2026-08-31T12:15:02Z</time>
      </trkpt>
    </trkseg>
  </trk>
</gpx>