<?xml version='1.0' encoding='UTF-8'?>
<gpx xmlns="http://www.topografix.com/GPX/1/1" creator="https://gpx.studio" version="1.1">
  <metadata>
    <name>Dog Walk - 2026-04-18 #3</name>
  </metadata>
  <trk>
    <name>Dog Walk - 2026-04-18 #3</name>
    <type>dog walk</type>
    <trkseg>
      <trkpt lat="41.40133334746088" lon="-81.74023633298445">
        <ele>266.4633742937</ele>
        <time>2026-04-18T14:53:00Z</time>
      </trkpt>
      <trkpt lat="41.40134369077711" lon="-81.74083306669419">
        <ele>266.3009845728</ele>
        <time>2026-04-18T14:53:33Z</time>
      </trkpt>
      <trkpt lat="41.40133898166911" lon="-81.74143724500352">
        <ele>265.7757845132</ele>
        <time>2026-04-18T14:54:07Z</time>
      </trkpt>
      <trkpt lat="41.40135038100586" lon="-81.74202708257909">
        <ele>265.2831638994</ele>
        <time>2026-04-18T14:54:51Z</time>
      </trkpt>
      <trkpt lat="41.40135580191851" lon="-81.74241965175848">
        <ele>264.5886487226</ele>
        <time>2026-04-18T14:55:21Z</time>
      </trkpt>
      <trkpt lat="41.40176503616095" lon="-81.74262215435938">
        <ele>264.1309463108</ele>
        <time>2026-04-18T14:56:01Z</time>
      </trkpt>
      <trkpt lat="41.40218790298692" lon="-81.74283523761382">
        <ele>263.5783757258</ele>
        <time>2026-04-18T14:56:47Z</time>
      </trkpt>
      <trkpt lat="41.40260519106828" lon="-81.74305617386939">
        <ele>262.8420032566</ele>
        <time>2026-04-18T14:57:40Z</time>
      </trkpt>
      <trkpt lat="41.40302248580749" lon="-81.74326551665193">
        <ele>262.4398348879</ele>
        <time>2026-04-18T14:58:21Z</time>
      </trkpt>
      <trkpt lat="41.40344842310102" lon="-81.74347519113611">
        <ele>261.7606105010</ele>
        <time>2026-04-18T14:59:01Z</time>
      </trkpt>
      <trkpt lat="41.40349040961036" lon="-81.74350742234095">
        <ele>261.9772422851</ele>
        <time>2026-04-18T14:59:05Z</time>
      </trkpt>
      <trkpt lat="41.40359979062284" lon="-81.74351897455232">
        <ele>261.7382706978</ele>
        <time>2026-04-18T14:59:19Z</time>
      </trkpt>
      <trkpt lat="41.40398974187237" lon="-81.74350472401919">
        <ele>260.5886014938</ele>
        <time>2026-04-18T15:00:10Z</time>
      </trkpt>
      <trkpt lat="41.40399815255723" lon="-81.74291027971766">
        <ele>261.6971470007</ele>
        <time>2026-04-18T15:01:00Z</time>
      </trkpt>
      <trkpt lat="41.40399367731729" lon="-81.74230964833872">
        <ele>262.2570666952</ele>
        <time>2026-04-18T15:01:37Z</time>
      </trkpt>
      <trkpt lat="41.40399240391492" lon="-81.74171186602108">
        <ele>262.5279633064</ele>
        <time>2026-04-18T15:02:15Z</time>
      </trkpt>
      <trkpt lat="41.40398125361919" lon="-81.74111310201667">
        <ele>262.8364016745</ele>
        <time>2026-04-18T15:03:05Z</time>
      </trkpt>
      <trkpt lat="41.40399174699009" lon="-81.74051494309455">
        <ele>263.3473976405</ele>
        <time>2026-04-18T15:03:58Z</time>
      </trkpt>
      <trkpt lat="41.40398703483214" lon="-81.73990661504953">
        <ele>264.4412922885</ele>
        <time>2026-04-18T15:04:49Z</time>
      </trkpt>
      <trkpt lat="41.40398541155525" lon="-81.73931217105886">
        <ele>264.8796537780</ele>
        <time>2026-04-18T15:05:33Z</time>
      </trkpt>
      <trkpt lat="41.40398593725597" lon="-81.73877153677456">
        <ele>265.5993734177</ele>
        <time>2026-04-18T15:06:35Z</time>
      </trkpt>
      <trkpt lat="41.40352963720235" lon="-81.73878322773523">
        <ele>265.8496925026</ele>
        <time>2026-04-18T15:07:12Z</time>
      </trkpt>
      <trkpt lat="41.40309045257010" lon="-81.73878125815143">
        <ele>266.2333803201</ele>
        <time>2026-04-18T15:07:45Z</time>
      </trkpt>
      <trkpt lat="41.40263535395830" lon="-81.73877859935514">
        <ele>266.6664415517</ele>
        <time>2026-04-18T15:08:25Z</time>
      </trkpt>
      <trkpt lat="41.40222429829261" lon="-81.73876457993423">
        <ele>267.2214167605</ele>
        <time>2026-04-18T15:08:55Z</time>
      </trkpt>
      <trkpt lat="41.40221427491934" lon="-81.73827915781528">
        <ele>267.1081560356</ele>
        <time>2026-04-18T15:09:24Z</time>
      </trkpt>
      <trkpt lat="41.40176677627043" lon="-81.73826585881318">
        <ele>267.6743194067</ele>
        <time>2026-04-18T15:09:54Z</time>
      </trkpt>
      <trkpt lat="41.40132676542278" lon="-81.73826130046965">
        <ele>267.5250588258</ele>
        <time>2026-04-18T15:10:48Z</time>
      </trkpt>
      <trkpt lat="41.40132354796344" lon="-81.73886780484335">
        <ele>267.4564014055</ele>
        <time>2026-04-18T15:11:25Z</time>
      </trkpt>
      <trkpt lat="41.40133820972155" lon="-81.73946050166263">
        <ele>267.0989832808</ele>
        <time>2026-04-18T15:12:08Z</time>
      </trkpt>
      <trkpt lat="41.40133539029826" lon="-81.74006907532663">
        <ele>266.7073091170</ele>
        <time>2026-04-18T15:12:59Z</time>
      </trkpt>
      <trkpt lat="41.40133562397891" lon="-81.74020730371724">
        <ele>266.4939757948</ele>
        <time>2026-04-18T15:13:07Z</time>
      </trkpt>
    </trkseg>
  </trk>
</gpx>