<?xml version='1.0' encoding='UTF-8'?>
<gpx xmlns="http://www.topografix.com/GPX/1/1" creator="https://gpx.studio" version="1.1">
  <metadata>
    <name>Dog Walk - 2026-02-27 #3</name>
  </metadata>
  <trk>
    <name>Dog Walk - 2026-02-27 #3</name>
    <type>dog walk</type>
    <trkseg>
      <trkpt lat="41.40133663759320" lon="-81.74023952271443">
        <ele>266.4527371148</ele>
        <time>2026-02-27T19:46:07Z</time>
      </trkpt>
      <trkpt lat="41.40133655407043" lon="-81.74083754568420">
        <ele>266.2301735748</ele>
        <time>2026-02-27T19:46:45Z</time>
      </trkpt>
      <trkpt lat="41.40133372249922" lon="-81.74142497962363">
        <ele>265.8070258504</ele>
        <time>2026-02-27T19:47:30Z</time>
      </trkpt>
      <trkpt lat="41.40132709468507" lon="-81.74203556346748">
        <ele>265.2692023779</ele>
        <time>2026-02-27T19:48:17Z</time>
      </trkpt>
      <trkpt lat="41.40132719546229" lon="-81.74239144970649">
        <ele>264.6667541036</ele>
        <time>2026-02-27T19:48:35Z</time>
      </trkpt>
      <trkpt lat="41.40090241300253" lon="-81.74220024271058">
        <ele>265.1235724758</ele>
        <time>2026-02-27T19:49:17Z</time>
      </trkpt>
      <trkpt lat="41.40047833595667" lon="-81.74200473066588">
        <ele>265.2474975131</ele>
        <time>2026-02-27T19:49:56Z</time>
      </trkpt>
      <trkpt lat="41.40005271063377" lon="-81.74181661087464">
        <ele>265.3777387974</ele>
        <time>2026-02-27T19:50:47Z</time>
      </trkpt>
      <trkpt lat="41.39963617173981" lon="-81.74161423127136">
        <ele>264.9901086170</ele>
        <time>2026-02-27T19:51:14Z</time>
      </trkpt>
      <trkpt lat="41.39954255294296" lon="-81.74157806757196">
        <ele>265.0396204103</ele>
        <time>2026-02-27T19:51:22Z</time>
      </trkpt>
      <trkpt lat="41.39953058535216" lon="-81.74097838471764">
        <ele>265.8332480920</ele>
        <time>2026-02-27T19:51:55Z</time>
      </trkpt>
      <trkpt lat="41.39953458307304" lon="-81.74037457166922">
        <ele>266.1396736493</ele>
        <time>2026-02-27T19:52:31Z</time>
      </trkpt>
      <trkpt lat="41.39953204550145" lon="-81.73977483918783">
        <ele>266.5514186607</ele>
        <time>2026-02-27T19:53:03Z</time>
      </trkpt>
      <trkpt lat="41.39951721594768" lon="-81.73917744700199">
        <ele>266.9648476997</ele>
        <time>2026-02-27T19:53:37Z</time>
      </trkpt>
      <trkpt lat="41.39952240533254" lon="-81.73858524712603">
        <ele>266.9745851971</ele>
        <time>2026-02-27T19:54:14Z</time>
      </trkpt>
      <trkpt lat="41.39953699109609" lon="-81.73797615725013">
        <ele>267.1029040480</ele>
        <time>2026-02-27T19:55:01Z</time>
      </trkpt>
      <trkpt lat="41.39953717610044" lon="-81.73738035628860">
        <ele>267.2078347783</ele>
        <time>2026-02-27T19:55:39Z</time>
      </trkpt>
      <trkpt lat="41.39952740862530" lon="-81.73677705978999">
        <ele>267.5129199949</ele>
        <time>2026-02-27T19:56:25Z</time>
      </trkpt>
      <trkpt lat="41.39953050876183" lon="-81.73617255178532">
        <ele>267.5743755771</ele>
        <time>2026-02-27T19:57:01Z</time>
      </trkpt>
      <trkpt lat="41.39952606909250" lon="-81.73557386685958">
        <ele>267.4583842326</ele>
        <time>2026-02-27T19:57:43Z</time>
      </trkpt>
      <trkpt lat="41.39951902208159" lon="-81.73498059400032">
        <ele>267.2658198611</ele>
        <time>2026-02-27T19:58:39Z</time>
      </trkpt>
      <trkpt lat="41.39951934987455" lon="-81.73459869654201">
        <ele>267.0785768356</ele>
        <time>2026-02-27T19:59:04Z</time>
      </trkpt>
      <trkpt lat="41.39997207578407" lon="-81.73462315487917">
        <ele>267.0945828651</ele>
        <time>2026-02-27T19:59:47Z</time>
      </trkpt>
      <trkpt lat="41.40042706766017" lon="-81.73462598331987">
        <ele>267.3246418024</ele>
        <time>2026-02-27T20:00:20Z</time>
      </trkpt>
      <trkpt lat="41.40088093123036" lon="-81.73463591441433">
        <ele>267.3438554893</ele>
        <time>2026-02-27T20:01:00Z</time>
      </trkpt>
      <trkpt lat="41.40131825156632" lon="-81.73463546692605">
        <ele>267.3024080727</ele>
        <time>2026-02-27T20:01:33Z</time>
      </trkpt>
      <trkpt lat="41.40132477772255" lon="-81.73524497638343">
        <ele>267.8931535492</ele>
        <time>2026-02-27T20:02:11Z</time>
      </trkpt>
      <trkpt lat="41.40132116700771" lon="-81.73584268690090">
        <ele>268.2570189656</ele>
        <time>2026-02-27T20:02:49Z</time>
      </trkpt>
      <trkpt lat="41.40131862295955" lon="-81.73643050414096">
        <ele>268.2092714952</ele>
        <time>2026-02-27T20:03:44Z</time>
      </trkpt>
      <trkpt lat="41.40132639804528" lon="-81.73704453922151">
        <ele>267.9625950679</ele>
        <time>2026-02-27T20:04:28Z</time>
      </trkpt>
      <trkpt lat="41.40133012451125" lon="-81.73764560232482">
        <ele>267.9619307681</ele>
        <time>2026-02-27T20:05:15Z</time>
      </trkpt>
      <trkpt lat="41.40132702205503" lon="-81.73823606599737">
        <ele>267.4640474061</ele>
        <time>2026-02-27T20:05:54Z</time>
      </trkpt>
      <trkpt lat="41.40132475392441" lon="-81.73883833110499">
        <ele>267.4808199140</ele>
        <time>2026-02-27T20:06:41Z</time>
      </trkpt>
      <trkpt lat="41.40133089616200" lon="-81.73943178477836">
        <ele>267.1114085077</ele>
        <time>2026-02-27T20:07:25Z</time>
      </trkpt>
      <trkpt lat="41.40133578264805" lon="-81.74003794289393">
        <ele>266.7441487349</ele>
        <time>2026-02-27T20:07:59Z</time>
      </trkpt>
      <trkpt lat="41.40133521855684" lon="-81.74021018407424">
        <ele>266.4753676671</ele>
        <time>2026-02-27T20:08:09Z</time>
      </trkpt>
    </trkseg>
  </trk>
</gpx>