<?xml version='1.0' encoding='UTF-8'?>
<gpx xmlns="http://www.topografix.com/GPX/1/1" creator="https://gpx.studio" version="1.1">
  <metadata>
    <name>Dog Walk - 2026-04-21 #2</name>
  </metadata>
  <trk>
    <name>Dog Walk - 2026-04-21 #2</name>
    <type>dog walk</type>
    <trkseg>
      <trkpt lat="41.40134164501777" lon="-81.74023901668839">
        <ele>266.5246885016</ele>
        <time>2026-04-21T10:05:43Z</time>
      </trkpt>
      <trkpt lat="41.40134299089725" lon="-81.74081877057633">
        <ele>266.2456782608</ele>
        <time>2026-04-21T10:06:24Z</time>
      </trkpt>
      <trkpt lat="41.40133317833210" lon="-81.74142673367257">
        <ele>265.6854720470</ele>
        <time>2026-04-21T10:07:04Z</time>
      </trkpt>
      <trkpt lat="41.40133011709027" lon="-81.74202561129613">
        <ele>265.5993287787</ele>
        <time>2026-04-21T10:07:46Z</time>
      </trkpt>
      <trkpt lat="41.40132961886000" lon="-81.74239440197431">
        <ele>264.6617388199</ele>
        <time>2026-04-21T10:08:08Z</time>
      </trkpt>
      <trkpt lat="41.40090268944716" lon="-81.74217554144698">
        <ele>265.0809476077</ele>
        <time>2026-04-21T10:08:45Z</time>
      </trkpt>
      <trkpt lat="41.40049200955615" lon="-81.74197137302716">
        <ele>265.4398703817</ele>
        <time>2026-04-21T10:09:19Z</time>
      </trkpt>
      <trkpt lat="41.40044857084512" lon="-81.74195658193926">
        <ele>265.2033270357</ele>
        <time>2026-04-21T10:09:24Z</time>
      </trkpt>
      <trkpt lat="41.40044225159701" lon="-81.74133974003041">
        <ele>265.9639753166</ele>
        <time>2026-04-21T10:09:52Z</time>
      </trkpt>
      <trkpt lat="41.40043642908753" lon="-81.74075341573953">
        <ele>266.3738800734</ele>
        <time>2026-04-21T10:10:35Z</time>
      </trkpt>
      <trkpt lat="41.40043148034401" lon="-81.74015932391677">
        <ele>266.9697475725</ele>
        <time>2026-04-21T10:11:11Z</time>
      </trkpt>
      <trkpt lat="41.40042817477132" lon="-81.73956243063739">
        <ele>267.0407940244</ele>
        <time>2026-04-21T10:11:51Z</time>
      </trkpt>
      <trkpt lat="41.40043173413692" lon="-81.73894622611681">
        <ele>267.2407900653</ele>
        <time>2026-04-21T10:12:37Z</time>
      </trkpt>
      <trkpt lat="41.40042672171688" lon="-81.73835691950794">
        <ele>267.2484424914</ele>
        <time>2026-04-21T10:13:17Z</time>
      </trkpt>
      <trkpt lat="41.40041580223921" lon="-81.73776008755610">
        <ele>267.4812716612</ele>
        <time>2026-04-21T10:14:06Z</time>
      </trkpt>
      <trkpt lat="41.40041243090941" lon="-81.73715461914173">
        <ele>267.8805820917</ele>
        <time>2026-04-21T10:14:39Z</time>
      </trkpt>
      <trkpt lat="41.40040505782289" lon="-81.73654787423895">
        <ele>268.0199034396</ele>
        <time>2026-04-21T10:15:15Z</time>
      </trkpt>
      <trkpt lat="41.40040806632756" lon="-81.73595078707575">
        <ele>267.9216232509</ele>
        <time>2026-04-21T10:15:49Z</time>
      </trkpt>
      <trkpt lat="41.40039913249698" lon="-81.73535188990451">
        <ele>267.6863229939</ele>
        <time>2026-04-21T10:16:27Z</time>
      </trkpt>
      <trkpt lat="41.40038687526575" lon="-81.73476185038571">
        <ele>267.2719431792</ele>
        <time>2026-04-21T10:17:00Z</time>
      </trkpt>
      <trkpt lat="41.40039158279449" lon="-81.73462784064567">
        <ele>267.1780728283</ele>
        <time>2026-04-21T10:17:10Z</time>
      </trkpt>
      <trkpt lat="41.40084587833559" lon="-81.73463376374023">
        <ele>267.1513369434</ele>
        <time>2026-04-21T10:17:50Z</time>
      </trkpt>
      <trkpt lat="41.40128843464075" lon="-81.73462927020746">
        <ele>267.4685909209</ele>
        <time>2026-04-21T10:18:36Z</time>
      </trkpt>
      <trkpt lat="41.40132044384308" lon="-81.73463294603226">
        <ele>267.4196459542</ele>
        <time>2026-04-21T10:18:38Z</time>
      </trkpt>
      <trkpt lat="41.40131930517359" lon="-81.73523195043640">
        <ele>267.9500344009</ele>
        <time>2026-04-21T10:19:21Z</time>
      </trkpt>
      <trkpt lat="41.40132472794227" lon="-81.73583288224084">
        <ele>268.1401674894</ele>
        <time>2026-04-21T10:20:02Z</time>
      </trkpt>
      <trkpt lat="41.40132284973120" lon="-81.73643711495745">
        <ele>267.9541873378</ele>
        <time>2026-04-21T10:20:49Z</time>
      </trkpt>
      <trkpt lat="41.40133446191098" lon="-81.73702851693683">
        <ele>267.9627487174</ele>
        <time>2026-04-21T10:21:45Z</time>
      </trkpt>
      <trkpt lat="41.40132180415208" lon="-81.73763598113621">
        <ele>267.9749812272</ele>
        <time>2026-04-21T10:22:22Z</time>
      </trkpt>
      <trkpt lat="41.40133168151185" lon="-81.73823818618206">
        <ele>267.4513459002</ele>
        <time>2026-04-21T10:23:14Z</time>
      </trkpt>
      <trkpt lat="41.40133516993435" lon="-81.73884468370164">
        <ele>267.5136272934</ele>
        <time>2026-04-21T10:23:52Z</time>
      </trkpt>
      <trkpt lat="41.40134087688704" lon="-81.73943767048361">
        <ele>267.0295389881</ele>
        <time>2026-04-21T10:24:33Z</time>
      </trkpt>
      <trkpt lat="41.40134517283393" lon="-81.74003298112142">
        <ele>266.7736674492</ele>
        <time>2026-04-21T10:25:13Z</time>
      </trkpt>
      <trkpt lat="41.40134184070659" lon="-81.74018921305326">
        <ele>266.5321329505</ele>
        <time>2026-04-21T10:25:25Z</time>
      </trkpt>
    </trkseg>
  </trk>
</gpx>