<?xml version='1.0' encoding='UTF-8'?>
<gpx xmlns="http://www.topografix.com/GPX/1/1" creator="https://gpx.studio" version="1.1">
  <metadata>
    <name>Dog Walk - 2026-07-01 #5</name>
  </metadata>
  <trk>
    <name>Dog Walk - 2026-07-01 #5</name>
    <type>dog walk</type>
    <trkseg>
      <trkpt lat="41.40133081552974" lon="-81.74023451155405">
        <ele>266.5997865613</ele>
        <time>2026-07-01T18:59:09Z</time>
      </trkpt>
      <trkpt lat="41.40133362498567" lon="-81.74083417565861">
        <ele>266.3396466017</ele>
        <time>2026-07-01T18:59:45Z</time>
      </trkpt>
      <trkpt lat="41.40132867773892" lon="-81.74143893917119">
        <ele>265.6274348390</ele>
        <time>2026-07-01T19:00:29Z</time>
      </trkpt>
      <trkpt lat="41.40132549935863" lon="-81.74203728126541">
        <ele>265.1123411908</ele>
        <time>2026-07-01T19:01:23Z</time>
      </trkpt>
      <trkpt lat="41.40132785885280" lon="-81.74238804383458">
        <ele>264.8131710523</ele>
        <time>2026-07-01T19:01:53Z</time>
      </trkpt>
      <trkpt lat="41.40091188642719" lon="-81.74219169389387">
        <ele>265.1849232181</ele>
        <time>2026-07-01T19:02:42Z</time>
      </trkpt>
      <trkpt lat="41.40047758340208" lon="-81.74200737361014">
        <ele>265.2799992135</ele>
        <time>2026-07-01T19:03:23Z</time>
      </trkpt>
      <trkpt lat="41.40006073053473" lon="-81.74181420813748">
        <ele>265.4383725985</ele>
        <time>2026-07-01T19:04:19Z</time>
      </trkpt>
      <trkpt lat="41.39962522588733" lon="-81.74161167536529">
        <ele>265.0042962683</ele>
        <time>2026-07-01T19:04:58Z</time>
      </trkpt>
      <trkpt lat="41.39953901349352" lon="-81.74157521558820">
        <ele>264.9704624158</ele>
        <time>2026-07-01T19:05:07Z</time>
      </trkpt>
      <trkpt lat="41.39953242370625" lon="-81.74096506006181">
        <ele>265.6795815797</ele>
        <time>2026-07-01T19:06:08Z</time>
      </trkpt>
      <trkpt lat="41.39953378262442" lon="-81.74037573375206">
        <ele>266.0540377585</ele>
        <time>2026-07-01T19:06:52Z</time>
      </trkpt>
      <trkpt lat="41.39953195761139" lon="-81.73976577527063">
        <ele>266.5843761174</ele>
        <time>2026-07-01T19:07:37Z</time>
      </trkpt>
      <trkpt lat="41.39953183181026" lon="-81.73917339460793">
        <ele>266.7381186837</ele>
        <time>2026-07-01T19:08:12Z</time>
      </trkpt>
      <trkpt lat="41.39953328485283" lon="-81.73857294213798">
        <ele>267.0965584070</ele>
        <time>2026-07-01T19:08:48Z</time>
      </trkpt>
      <trkpt lat="41.39952255981733" lon="-81.73798050409901">
        <ele>267.1854874828</ele>
        <time>2026-07-01T19:09:38Z</time>
      </trkpt>
      <trkpt lat="41.39952670028110" lon="-81.73737939191183">
        <ele>267.2062574648</ele>
        <time>2026-07-01T19:10:35Z</time>
      </trkpt>
      <trkpt lat="41.39953347322737" lon="-81.73677539598927">
        <ele>267.3367794960</ele>
        <time>2026-07-01T19:11:14Z</time>
      </trkpt>
      <trkpt lat="41.39952865486504" lon="-81.73618030499567">
        <ele>267.8256672416</ele>
        <time>2026-07-01T19:12:03Z</time>
      </trkpt>
      <trkpt lat="41.39952459722510" lon="-81.73558568301218">
        <ele>267.3556432719</ele>
        <time>2026-07-01T19:12:39Z</time>
      </trkpt>
      <trkpt lat="41.39952976221245" lon="-81.73497482281384">
        <ele>267.0466848714</ele>
        <time>2026-07-01T19:13:20Z</time>
      </trkpt>
      <trkpt lat="41.39951961540885" lon="-81.73461286219423">
        <ele>267.2668289602</ele>
        <time>2026-07-01T19:13:46Z</time>
      </trkpt>
      <trkpt lat="41.39997326749855" lon="-81.73462598508725">
        <ele>267.1685029675</ele>
        <time>2026-07-01T19:14:31Z</time>
      </trkpt>
      <trkpt lat="41.40042201936248" lon="-81.73462931184133">
        <ele>267.3222709964</ele>
        <time>2026-07-01T19:15:36Z</time>
      </trkpt>
      <trkpt lat="41.40087018246643" lon="-81.73463476196908">
        <ele>267.3388360463</ele>
        <time>2026-07-01T19:16:10Z</time>
      </trkpt>
      <trkpt lat="41.40132747844082" lon="-81.73463168099340">
        <ele>267.4809230838</ele>
        <time>2026-07-01T19:16:47Z</time>
      </trkpt>
      <trkpt lat="41.40131674321097" lon="-81.73523684731929">
        <ele>267.6755829294</ele>
        <time>2026-07-01T19:17:19Z</time>
      </trkpt>
      <trkpt lat="41.40132205274099" lon="-81.73584988439545">
        <ele>268.2698170261</ele>
        <time>2026-07-01T19:18:00Z</time>
      </trkpt>
      <trkpt lat="41.40133106504697" lon="-81.73645024098018">
        <ele>268.1778533062</ele>
        <time>2026-07-01T19:18:45Z</time>
      </trkpt>
      <trkpt lat="41.40132142253967" lon="-81.73704490883627">
        <ele>267.8870500864</ele>
        <time>2026-07-01T19:19:31Z</time>
      </trkpt>
      <trkpt lat="41.40133316102789" lon="-81.73763843528467">
        <ele>268.0978180895</ele>
        <time>2026-07-01T19:20:16Z</time>
      </trkpt>
      <trkpt lat="41.40133030811234" lon="-81.73823911056547">
        <ele>267.6682500542</ele>
        <time>2026-07-01T19:20:57Z</time>
      </trkpt>
      <trkpt lat="41.40132319773500" lon="-81.73883337874078">
        <ele>267.3817944056</ele>
        <time>2026-07-01T19:21:43Z</time>
      </trkpt>
      <trkpt lat="41.40133817173394" lon="-81.73944306454473">
        <ele>267.1652433932</ele>
        <time>2026-07-01T19:22:33Z</time>
      </trkpt>
      <trkpt lat="41.40132539904300" lon="-81.74002945780691">
        <ele>266.7952806315</ele>
        <time>2026-07-01T19:23:06Z</time>
      </trkpt>
      <trkpt lat="41.40133376755606" lon="-81.74021962439009">
        <ele>266.4790290111</ele>
        <time>2026-07-01T19:23:16Z</time>
      </trkpt>
    </trkseg>
  </trk>
</gpx>