<?xml version='1.0' encoding='UTF-8'?>
<gpx xmlns="http://www.topografix.com/GPX/1/1" creator="https://gpx.studio" version="1.1">
  <metadata>
    <name>Dog Walk - 2026-04-08 #2</name>
  </metadata>
  <trk>
    <name>Dog Walk - 2026-04-08 #2</name>
    <type>dog walk</type>
    <trkseg>
      <trkpt lat="41.40133777570941" lon="-81.74022294561503">
        <ele>266.4171337992</ele>
        <time>2026-04-08T12:25:57Z</time>
      </trkpt>
      <trkpt lat="41.40133728055588" lon="-81.74083612567624">
        <ele>266.0674662262</ele>
        <time>2026-04-08T12:26:29Z</time>
      </trkpt>
      <trkpt lat="41.40134125560246" lon="-81.74142630102871">
        <ele>265.8599497216</ele>
        <time>2026-04-08T12:27:07Z</time>
      </trkpt>
      <trkpt lat="41.40134469885044" lon="-81.74203365449453">
        <ele>265.2383705212</ele>
        <time>2026-04-08T12:27:40Z</time>
      </trkpt>
      <trkpt lat="41.40134916959970" lon="-81.74241450811570">
        <ele>264.6846921823</ele>
        <time>2026-04-08T12:28:08Z</time>
      </trkpt>
      <trkpt lat="41.40176634271774" lon="-81.74262761910941">
        <ele>264.2623872827</ele>
        <time>2026-04-08T12:29:09Z</time>
      </trkpt>
      <trkpt lat="41.40218649203429" lon="-81.74284090161504">
        <ele>263.3423577273</ele>
        <time>2026-04-08T12:29:53Z</time>
      </trkpt>
      <trkpt lat="41.40261141479120" lon="-81.74304979095278">
        <ele>263.1010206498</ele>
        <time>2026-04-08T12:30:36Z</time>
      </trkpt>
      <trkpt lat="41.40302252893790" lon="-81.74326398997766">
        <ele>262.5048231442</ele>
        <time>2026-04-08T12:31:34Z</time>
      </trkpt>
      <trkpt lat="41.40346026728517" lon="-81.74347967686110">
        <ele>261.7687712009</ele>
        <time>2026-04-08T12:32:17Z</time>
      </trkpt>
      <trkpt lat="41.40348637653442" lon="-81.74350211386455">
        <ele>261.9669056780</ele>
        <time>2026-04-08T12:32:34Z</time>
      </trkpt>
      <trkpt lat="41.40359796801987" lon="-81.74351609134733">
        <ele>261.6113239195</ele>
        <time>2026-04-08T12:32:41Z</time>
      </trkpt>
      <trkpt lat="41.40399225851146" lon="-81.74351593804013">
        <ele>260.6761439363</ele>
        <time>2026-04-08T12:33:17Z</time>
      </trkpt>
      <trkpt lat="41.40399595237081" lon="-81.74290592559866">
        <ele>261.5216017925</ele>
        <time>2026-04-08T12:33:51Z</time>
      </trkpt>
      <trkpt lat="41.40399266710502" lon="-81.74231408854291">
        <ele>262.0784442040</ele>
        <time>2026-04-08T12:34:27Z</time>
      </trkpt>
      <trkpt lat="41.40398689998353" lon="-81.74171289535875">
        <ele>262.4725813688</ele>
        <time>2026-04-08T12:35:00Z</time>
      </trkpt>
      <trkpt lat="41.40398734071586" lon="-81.74111441321999">
        <ele>262.7500263597</ele>
        <time>2026-04-08T12:35:41Z</time>
      </trkpt>
      <trkpt lat="41.40399009464213" lon="-81.74050215895971">
        <ele>263.7122717708</ele>
        <time>2026-04-08T12:36:17Z</time>
      </trkpt>
      <trkpt lat="41.40398925999964" lon="-81.73990903809113">
        <ele>264.1926902079</ele>
        <time>2026-04-08T12:36:48Z</time>
      </trkpt>
      <trkpt lat="41.40399026493991" lon="-81.73930863444359">
        <ele>264.7705158912</ele>
        <time>2026-04-08T12:37:27Z</time>
      </trkpt>
      <trkpt lat="41.40398517264310" lon="-81.73877875958185">
        <ele>265.3851750683</ele>
        <time>2026-04-08T12:38:01Z</time>
      </trkpt>
      <trkpt lat="41.40354342568745" lon="-81.73877508295730">
        <ele>265.9825327766</ele>
        <time>2026-04-08T12:38:36Z</time>
      </trkpt>
      <trkpt lat="41.40308193968696" lon="-81.73877254809742">
        <ele>266.1153187970</ele>
        <time>2026-04-08T12:39:12Z</time>
      </trkpt>
      <trkpt lat="41.40263837249155" lon="-81.73878016641851">
        <ele>266.7827137934</ele>
        <time>2026-04-08T12:40:16Z</time>
      </trkpt>
      <trkpt lat="41.40222916651984" lon="-81.73877570392865">
        <ele>267.1886416148</ele>
        <time>2026-04-08T12:40:48Z</time>
      </trkpt>
      <trkpt lat="41.40222284223329" lon="-81.73827135399760">
        <ele>267.5235371372</ele>
        <time>2026-04-08T12:41:27Z</time>
      </trkpt>
      <trkpt lat="41.40177134591907" lon="-81.73827444152292">
        <ele>267.7070586884</ele>
        <time>2026-04-08T12:42:15Z</time>
      </trkpt>
      <trkpt lat="41.40133817895484" lon="-81.73827477668223">
        <ele>267.6007442839</ele>
        <time>2026-04-08T12:43:00Z</time>
      </trkpt>
      <trkpt lat="41.40133315505582" lon="-81.73886384686482">
        <ele>267.3739546554</ele>
        <time>2026-04-08T12:43:31Z</time>
      </trkpt>
      <trkpt lat="41.40133395477943" lon="-81.73946752826913">
        <ele>267.2199363241</ele>
        <time>2026-04-08T12:44:18Z</time>
      </trkpt>
      <trkpt lat="41.40133631985417" lon="-81.74006779223639">
        <ele>266.7270861083</ele>
        <time>2026-04-08T12:45:05Z</time>
      </trkpt>
      <trkpt lat="41.40133534768869" lon="-81.74018964780770">
        <ele>266.5864967811</ele>
        <time>2026-04-08T12:45:14Z</time>
      </trkpt>
    </trkseg>
  </trk>
</gpx>