<?xml version='1.0' encoding='UTF-8'?>
<gpx xmlns="http://www.topografix.com/GPX/1/1" creator="https://gpx.studio" version="1.1">
  <metadata>
    <name>Dog Walk - 2026-08-19 #3</name>
  </metadata>
  <trk>
    <name>Dog Walk - 2026-08-19 #3</name>
    <type>dog walk</type>
    <trkseg>
      <trkpt lat="41.40132663632303" lon="-81.74025548208975">
        <ele>266.5556129575</ele>
        <time>2026-08-19T18:34:14Z</time>
      </trkpt>
      <trkpt lat="41.40133855001834" lon="-81.74026214023461">
        <ele>266.3152884302</ele>
        <time>2026-08-19T18:34:15Z</time>
      </trkpt>
      <trkpt lat="41.40133693953367" lon="-81.74087270630919">
        <ele>266.3589726884</ele>
        <time>2026-08-19T18:35:02Z</time>
      </trkpt>
      <trkpt lat="41.40132691235588" lon="-81.74145551542119">
        <ele>265.7277038010</ele>
        <time>2026-08-19T18:35:48Z</time>
      </trkpt>
      <trkpt lat="41.40132707241643" lon="-81.74205315190028">
        <ele>265.3217890233</ele>
        <time>2026-08-19T18:36:27Z</time>
      </trkpt>
      <trkpt lat="41.40131775837970" lon="-81.74237542331969">
        <ele>264.6070743860</ele>
        <time>2026-08-19T18:36:46Z</time>
      </trkpt>
      <trkpt lat="41.40132647432765" lon="-81.74237464510448">
        <ele>264.6744213116</ele>
        <time>2026-08-19T18:36:58Z</time>
      </trkpt>
      <trkpt lat="41.40090272304357" lon="-81.74218162547351">
        <ele>265.0752573678</ele>
        <time>2026-08-19T18:37:51Z</time>
      </trkpt>
      <trkpt lat="41.40048275878240" lon="-81.74198115687679">
        <ele>265.2208164056</ele>
        <time>2026-08-19T18:38:31Z</time>
      </trkpt>
      <trkpt lat="41.40004601860607" lon="-81.74179814996533">
        <ele>265.2335409425</ele>
        <time>2026-08-19T18:39:03Z</time>
      </trkpt>
      <trkpt lat="41.39962307096787" lon="-81.74160740821839">
        <ele>264.6561477985</ele>
        <time>2026-08-19T18:39:44Z</time>
      </trkpt>
      <trkpt lat="41.39954963579413" lon="-81.74158440749679">
        <ele>264.5953219669</ele>
        <time>2026-08-19T18:39:50Z</time>
      </trkpt>
      <trkpt lat="41.39953837151035" lon="-81.74097479012566">
        <ele>265.6496818203</ele>
        <time>2026-08-19T18:40:30Z</time>
      </trkpt>
      <trkpt lat="41.39954369480005" lon="-81.74037414663682">
        <ele>266.1221802098</ele>
        <time>2026-08-19T18:41:07Z</time>
      </trkpt>
      <trkpt lat="41.39954089862717" lon="-81.73977697364506">
        <ele>266.4640824791</ele>
        <time>2026-08-19T18:41:56Z</time>
      </trkpt>
      <trkpt lat="41.39954407946536" lon="-81.73917448317027">
        <ele>266.9866788958</ele>
        <time>2026-08-19T18:42:39Z</time>
      </trkpt>
      <trkpt lat="41.39954189774405" lon="-81.73857299953028">
        <ele>266.9818706003</ele>
        <time>2026-08-19T18:43:35Z</time>
      </trkpt>
      <trkpt lat="41.39953693692640" lon="-81.73829585805956">
        <ele>266.8448680477</ele>
        <time>2026-08-19T18:43:56Z</time>
      </trkpt>
      <trkpt lat="41.39953800457506" lon="-81.73828496459163">
        <ele>266.9334197966</ele>
        <time>2026-08-19T18:43:57Z</time>
      </trkpt>
      <trkpt lat="41.39998487777757" lon="-81.73830840422659">
        <ele>266.9569662194</ele>
        <time>2026-08-19T18:44:57Z</time>
      </trkpt>
      <trkpt lat="41.40043602367075" lon="-81.73829745090092">
        <ele>267.2322076767</ele>
        <time>2026-08-19T18:45:25Z</time>
      </trkpt>
      <trkpt lat="41.40088168631494" lon="-81.73829823095963">
        <ele>267.5969050197</ele>
        <time>2026-08-19T18:46:02Z</time>
      </trkpt>
      <trkpt lat="41.40132408066938" lon="-81.73831335640601">
        <ele>267.3057020769</ele>
        <time>2026-08-19T18:46:41Z</time>
      </trkpt>
      <trkpt lat="41.40133429798959" lon="-81.73890143918777">
        <ele>267.4938640062</ele>
        <time>2026-08-19T18:47:13Z</time>
      </trkpt>
      <trkpt lat="41.40133329945085" lon="-81.73949484061544">
        <ele>267.3297782956</ele>
        <time>2026-08-19T18:47:46Z</time>
      </trkpt>
      <trkpt lat="41.40134265429513" lon="-81.74009439699671">
        <ele>266.6481386238</ele>
        <time>2026-08-19T18:48:21Z</time>
      </trkpt>
      <trkpt lat="41.40134379527282" lon="-81.74016121928820">
        <ele>266.7143814173</ele>
        <time>2026-08-19T18:48:25Z</time>
      </trkpt>
    </trkseg>
  </trk>
</gpx>