<?xml version='1.0' encoding='UTF-8'?>
<gpx xmlns="http://www.topografix.com/GPX/1/1" creator="https://gpx.studio" version="1.1">
  <metadata>
    <name>Dog Walk - 2026-06-12 #2</name>
  </metadata>
  <trk>
    <name>Dog Walk - 2026-06-12 #2</name>
    <type>dog walk</type>
    <trkseg>
      <trkpt lat="41.40133046450797" lon="-81.74023406261490">
        <ele>266.5986315276</ele>
        <time>2026-06-12T15:07:40Z</time>
      </trkpt>
      <trkpt lat="41.40132968923677" lon="-81.74083665743267">
        <ele>266.0975891505</ele>
        <time>2026-06-12T15:08:19Z</time>
      </trkpt>
      <trkpt lat="41.40133725546501" lon="-81.74143136540030">
        <ele>266.0021655738</ele>
        <time>2026-06-12T15:08:54Z</time>
      </trkpt>
      <trkpt lat="41.40133506028435" lon="-81.74203017922144">
        <ele>265.4181154327</ele>
        <time>2026-06-12T15:09:36Z</time>
      </trkpt>
      <trkpt lat="41.40132557870801" lon="-81.74239547181510">
        <ele>264.7637232743</ele>
        <time>2026-06-12T15:10:00Z</time>
      </trkpt>
      <trkpt lat="41.40089559933928" lon="-81.74219443538429">
        <ele>264.9596598528</ele>
        <time>2026-06-12T15:10:43Z</time>
      </trkpt>
      <trkpt lat="41.40048905750083" lon="-81.74200118694800">
        <ele>265.2260976347</ele>
        <time>2026-06-12T15:11:29Z</time>
      </trkpt>
      <trkpt lat="41.40004320705039" lon="-81.74180928615021">
        <ele>265.4380772187</ele>
        <time>2026-06-12T15:12:33Z</time>
      </trkpt>
      <trkpt lat="41.39962295187566" lon="-81.74160804264939">
        <ele>264.6880673895</ele>
        <time>2026-06-12T15:13:09Z</time>
      </trkpt>
      <trkpt lat="41.39953253566267" lon="-81.74157579958238">
        <ele>264.9762381469</ele>
        <time>2026-06-12T15:13:19Z</time>
      </trkpt>
      <trkpt lat="41.39952697219601" lon="-81.74097796788980">
        <ele>265.5545771373</ele>
        <time>2026-06-12T15:14:08Z</time>
      </trkpt>
      <trkpt lat="41.39952909221294" lon="-81.74038721147309">
        <ele>266.4401226881</ele>
        <time>2026-06-12T15:14:54Z</time>
      </trkpt>
      <trkpt lat="41.39952759315936" lon="-81.73977422391125">
        <ele>266.5941971181</ele>
        <time>2026-06-12T15:15:33Z</time>
      </trkpt>
      <trkpt lat="41.39952953117921" lon="-81.73917353942956">
        <ele>266.6025294822</ele>
        <time>2026-06-12T15:16:10Z</time>
      </trkpt>
      <trkpt lat="41.39952978010791" lon="-81.73857558969884">
        <ele>266.9596708897</ele>
        <time>2026-06-12T15:16:51Z</time>
      </trkpt>
      <trkpt lat="41.39952862165396" lon="-81.73797367472400">
        <ele>267.0992993863</ele>
        <time>2026-06-12T15:17:26Z</time>
      </trkpt>
      <trkpt lat="41.39953062405382" lon="-81.73737055779455">
        <ele>267.2550160219</ele>
        <time>2026-06-12T15:18:00Z</time>
      </trkpt>
      <trkpt lat="41.39952697048457" lon="-81.73677283390813">
        <ele>267.1836087844</ele>
        <time>2026-06-12T15:18:43Z</time>
      </trkpt>
      <trkpt lat="41.39953059322468" lon="-81.73617780938133">
        <ele>267.3789374242</ele>
        <time>2026-06-12T15:19:19Z</time>
      </trkpt>
      <trkpt lat="41.39952858204120" lon="-81.73558039866492">
        <ele>267.3419090226</ele>
        <time>2026-06-12T15:20:16Z</time>
      </trkpt>
      <trkpt lat="41.39952710225172" lon="-81.73498927614366">
        <ele>267.1131274515</ele>
        <time>2026-06-12T15:20:46Z</time>
      </trkpt>
      <trkpt lat="41.39952938467558" lon="-81.73461083910918">
        <ele>267.1971762698</ele>
        <time>2026-06-12T15:21:13Z</time>
      </trkpt>
      <trkpt lat="41.39998170542351" lon="-81.73462833960441">
        <ele>267.1408635806</ele>
        <time>2026-06-12T15:21:54Z</time>
      </trkpt>
      <trkpt lat="41.40042600065827" lon="-81.73462199759454">
        <ele>267.3570798774</ele>
        <time>2026-06-12T15:22:32Z</time>
      </trkpt>
      <trkpt lat="41.40087754491454" lon="-81.73463855284344">
        <ele>267.3351854798</ele>
        <time>2026-06-12T15:23:08Z</time>
      </trkpt>
      <trkpt lat="41.40131693444895" lon="-81.73463919832571">
        <ele>267.3968236520</ele>
        <time>2026-06-12T15:23:47Z</time>
      </trkpt>
      <trkpt lat="41.40132237373935" lon="-81.73523359097911">
        <ele>268.1736797350</ele>
        <time>2026-06-12T15:24:39Z</time>
      </trkpt>
      <trkpt lat="41.40131656487912" lon="-81.73583745834945">
        <ele>268.2088683230</ele>
        <time>2026-06-12T15:25:17Z</time>
      </trkpt>
      <trkpt lat="41.40132627551718" lon="-81.73644147509070">
        <ele>268.3597828003</ele>
        <time>2026-06-12T15:25:56Z</time>
      </trkpt>
      <trkpt lat="41.40133238783259" lon="-81.73704077657663">
        <ele>268.0193835991</ele>
        <time>2026-06-12T15:26:31Z</time>
      </trkpt>
      <trkpt lat="41.40132739966592" lon="-81.73763707187575">
        <ele>267.7963684145</ele>
        <time>2026-06-12T15:27:06Z</time>
      </trkpt>
      <trkpt lat="41.40133109622403" lon="-81.73823787042295">
        <ele>267.3808469582</ele>
        <time>2026-06-12T15:27:52Z</time>
      </trkpt>
      <trkpt lat="41.40133471606183" lon="-81.73884272074430">
        <ele>267.1897641682</ele>
        <time>2026-06-12T15:28:26Z</time>
      </trkpt>
      <trkpt lat="41.40133197620072" lon="-81.73943624910203">
        <ele>267.3486548987</ele>
        <time>2026-06-12T15:29:08Z</time>
      </trkpt>
      <trkpt lat="41.40133028348727" lon="-81.74004331410927">
        <ele>266.6103300356</ele>
        <time>2026-06-12T15:29:50Z</time>
      </trkpt>
      <trkpt lat="41.40133152158329" lon="-81.74021925424380">
        <ele>266.5497843884</ele>
        <time>2026-06-12T15:30:06Z</time>
      </trkpt>
    </trkseg>
  </trk>
</gpx>