<?xml version='1.0' encoding='UTF-8'?>
<gpx xmlns="http://www.topografix.com/GPX/1/1" creator="https://gpx.studio" version="1.1">
  <metadata>
    <name>Dog Walk - 2026-03-18 #3</name>
  </metadata>
  <trk>
    <name>Dog Walk - 2026-03-18 #3</name>
    <type>dog walk</type>
    <trkseg>
      <trkpt lat="41.40133962568197" lon="-81.74024317482241">
        <ele>266.6317325414</ele>
        <time>2026-03-18T18:22:07Z</time>
      </trkpt>
      <trkpt lat="41.40134729590740" lon="-81.74083204487100">
        <ele>266.2485179730</ele>
        <time>2026-03-18T18:23:00Z</time>
      </trkpt>
      <trkpt lat="41.40134949837304" lon="-81.74142844193562">
        <ele>265.7798384718</ele>
        <time>2026-03-18T18:23:32Z</time>
      </trkpt>
      <trkpt lat="41.40135018853737" lon="-81.74203938214133">
        <ele>265.4874898674</ele>
        <time>2026-03-18T18:24:08Z</time>
      </trkpt>
      <trkpt lat="41.40134904988990" lon="-81.74242015725262">
        <ele>264.6905323936</ele>
        <time>2026-03-18T18:24:34Z</time>
      </trkpt>
      <trkpt lat="41.40176438095642" lon="-81.74262048016372">
        <ele>264.1597444988</ele>
        <time>2026-03-18T18:25:13Z</time>
      </trkpt>
      <trkpt lat="41.40219762661398" lon="-81.74281619619504">
        <ele>263.7085378824</ele>
        <time>2026-03-18T18:25:51Z</time>
      </trkpt>
      <trkpt lat="41.40261759829205" lon="-81.74300920633841">
        <ele>263.1086774218</ele>
        <time>2026-03-18T18:26:25Z</time>
      </trkpt>
      <trkpt lat="41.40303759437371" lon="-81.74321656285213">
        <ele>262.4954367434</ele>
        <time>2026-03-18T18:27:02Z</time>
      </trkpt>
      <trkpt lat="41.40312708479325" lon="-81.74324804661376">
        <ele>262.5483274535</ele>
        <time>2026-03-18T18:27:10Z</time>
      </trkpt>
      <trkpt lat="41.40311417536308" lon="-81.74265027902518">
        <ele>263.2406683270</ele>
        <time>2026-03-18T18:27:48Z</time>
      </trkpt>
      <trkpt lat="41.40311144561234" lon="-81.74204946676269">
        <ele>263.7962435817</ele>
        <time>2026-03-18T18:28:31Z</time>
      </trkpt>
      <trkpt lat="41.40311512023891" lon="-81.74145483546131">
        <ele>264.2273802817</ele>
        <time>2026-03-18T18:29:08Z</time>
      </trkpt>
      <trkpt lat="41.40310702473134" lon="-81.74085190306938">
        <ele>264.7727019372</ele>
        <time>2026-03-18T18:29:48Z</time>
      </trkpt>
      <trkpt lat="41.40309794216680" lon="-81.74025637283555">
        <ele>265.3910427989</ele>
        <time>2026-03-18T18:30:45Z</time>
      </trkpt>
      <trkpt lat="41.40310040470693" lon="-81.73966294401343">
        <ele>265.8948151889</ele>
        <time>2026-03-18T18:31:23Z</time>
      </trkpt>
      <trkpt lat="41.40310120286117" lon="-81.73904865580758">
        <ele>266.1418285654</ele>
        <time>2026-03-18T18:32:04Z</time>
      </trkpt>
      <trkpt lat="41.40309374831006" lon="-81.73878814524383">
        <ele>266.1924700209</ele>
        <time>2026-03-18T18:32:25Z</time>
      </trkpt>
      <trkpt lat="41.40264785187260" lon="-81.73877871196458">
        <ele>266.6439314928</ele>
        <time>2026-03-18T18:32:58Z</time>
      </trkpt>
      <trkpt lat="41.40223480539436" lon="-81.73878669040155">
        <ele>267.1206158638</ele>
        <time>2026-03-18T18:33:29Z</time>
      </trkpt>
      <trkpt lat="41.40223854546522" lon="-81.73817588923561">
        <ele>266.9685719782</ele>
        <time>2026-03-18T18:34:23Z</time>
      </trkpt>
      <trkpt lat="41.40223105684652" lon="-81.73758316457254">
        <ele>266.9150017067</ele>
        <time>2026-03-18T18:35:01Z</time>
      </trkpt>
      <trkpt lat="41.40222709813722" lon="-81.73698662356526">
        <ele>267.3726789793</ele>
        <time>2026-03-18T18:35:51Z</time>
      </trkpt>
      <trkpt lat="41.40222500830475" lon="-81.73637035383162">
        <ele>267.0991179532</ele>
        <time>2026-03-18T18:36:30Z</time>
      </trkpt>
      <trkpt lat="41.40222888370506" lon="-81.73578122786665">
        <ele>267.1335906727</ele>
        <time>2026-03-18T18:37:18Z</time>
      </trkpt>
      <trkpt lat="41.40222584597231" lon="-81.73518285175854">
        <ele>266.9477663853</ele>
        <time>2026-03-18T18:38:00Z</time>
      </trkpt>
      <trkpt lat="41.40222101152325" lon="-81.73464983581368">
        <ele>267.0634712514</ele>
        <time>2026-03-18T18:38:27Z</time>
      </trkpt>
      <trkpt lat="41.40177732032938" lon="-81.73464399935183">
        <ele>267.1149998014</ele>
        <time>2026-03-18T18:39:01Z</time>
      </trkpt>
      <trkpt lat="41.40132211215785" lon="-81.73463648599166">
        <ele>267.2438360244</ele>
        <time>2026-03-18T18:39:55Z</time>
      </trkpt>
      <trkpt lat="41.40131358861414" lon="-81.73463410623107">
        <ele>267.1794956810</ele>
        <time>2026-03-18T18:39:56Z</time>
      </trkpt>
      <trkpt lat="41.40132132249605" lon="-81.73522869151037">
        <ele>267.6755637277</ele>
        <time>2026-03-18T18:40:43Z</time>
      </trkpt>
      <trkpt lat="41.40132970432103" lon="-81.73583263846901">
        <ele>268.1902535265</ele>
        <time>2026-03-18T18:41:23Z</time>
      </trkpt>
      <trkpt lat="41.40132065081314" lon="-81.73642029122458">
        <ele>267.9690805076</ele>
        <time>2026-03-18T18:41:59Z</time>
      </trkpt>
      <trkpt lat="41.40133485636448" lon="-81.73703913933387">
        <ele>268.1534511141</ele>
        <time>2026-03-18T18:42:46Z</time>
      </trkpt>
      <trkpt lat="41.40133231689287" lon="-81.73762913648528">
        <ele>267.8456842481</ele>
        <time>2026-03-18T18:43:32Z</time>
      </trkpt>
      <trkpt lat="41.40133591383427" lon="-81.73823786625314">
        <ele>267.5282539163</ele>
        <time>2026-03-18T18:44:08Z</time>
      </trkpt>
      <trkpt lat="41.40133635807016" lon="-81.73884184869895">
        <ele>267.2452264709</ele>
        <time>2026-03-18T18:45:04Z</time>
      </trkpt>
      <trkpt lat="41.40134627293095" lon="-81.73943209775175">
        <ele>267.0096368416</ele>
        <time>2026-03-18T18:45:51Z</time>
      </trkpt>
      <trkpt lat="41.40134724799096" lon="-81.74003137268275">
        <ele>266.6389921188</ele>
        <time>2026-03-18T18:46:31Z</time>
      </trkpt>
      <trkpt lat="41.40134907849898" lon="-81.74015957934888">
        <ele>266.5747760325</ele>
        <time>2026-03-18T18:46:52Z</time>
      </trkpt>
    </trkseg>
  </trk>
</gpx>