<?xml version='1.0' encoding='UTF-8'?>
<gpx xmlns="http://www.topografix.com/GPX/1/1" creator="https://gpx.studio" version="1.1">
  <metadata>
    <name>Dog Walk - 2026-06-04 #1</name>
  </metadata>
  <trk>
    <name>Dog Walk - 2026-06-04 #1</name>
    <type>dog walk</type>
    <trkseg>
      <trkpt lat="41.40134018754102" lon="-81.74022925435466">
        <ele>266.4753464978</ele>
        <time>2026-06-04T08:59:50Z</time>
      </trkpt>
      <trkpt lat="41.40134245435364" lon="-81.74082395255736">
        <ele>266.3063374269</ele>
        <time>2026-06-04T09:00:28Z</time>
      </trkpt>
      <trkpt lat="41.40133248015920" lon="-81.74142236368786">
        <ele>265.7529054309</ele>
        <time>2026-06-04T09:01:04Z</time>
      </trkpt>
      <trkpt lat="41.40132925278130" lon="-81.74203596873795">
        <ele>265.2213939914</ele>
        <time>2026-06-04T09:01:49Z</time>
      </trkpt>
      <trkpt lat="41.40133014184719" lon="-81.74238247988654">
        <ele>264.8350321520</ele>
        <time>2026-06-04T09:02:08Z</time>
      </trkpt>
      <trkpt lat="41.40091045911157" lon="-81.74217323701794">
        <ele>265.2880908027</ele>
        <time>2026-06-04T09:02:42Z</time>
      </trkpt>
      <trkpt lat="41.40047468150741" lon="-81.74196827958060">
        <ele>265.1276842130</ele>
        <time>2026-06-04T09:03:24Z</time>
      </trkpt>
      <trkpt lat="41.40044900686965" lon="-81.74194372172886">
        <ele>265.3136897317</ele>
        <time>2026-06-04T09:03:28Z</time>
      </trkpt>
      <trkpt lat="41.40044475775397" lon="-81.74134629140266">
        <ele>265.8993627725</ele>
        <time>2026-06-04T09:04:01Z</time>
      </trkpt>
      <trkpt lat="41.40044386119725" lon="-81.74075308612258">
        <ele>266.2160285632</ele>
        <time>2026-06-04T09:04:47Z</time>
      </trkpt>
      <trkpt lat="41.40043303412055" lon="-81.74016140888592">
        <ele>266.6539584764</ele>
        <time>2026-06-04T09:05:27Z</time>
      </trkpt>
      <trkpt lat="41.40042659163850" lon="-81.73957133149568">
        <ele>266.8273670557</ele>
        <time>2026-06-04T09:06:13Z</time>
      </trkpt>
      <trkpt lat="41.40042818349791" lon="-81.73895060415336">
        <ele>267.1208819484</ele>
        <time>2026-06-04T09:06:50Z</time>
      </trkpt>
      <trkpt lat="41.40042598089214" lon="-81.73834615681302">
        <ele>267.1544032067</ele>
        <time>2026-06-04T09:07:30Z</time>
      </trkpt>
      <trkpt lat="41.40041443096332" lon="-81.73776688101380">
        <ele>267.6882658723</ele>
        <time>2026-06-04T09:08:03Z</time>
      </trkpt>
      <trkpt lat="41.40041589465694" lon="-81.73715123537616">
        <ele>267.7829798188</ele>
        <time>2026-06-04T09:08:40Z</time>
      </trkpt>
      <trkpt lat="41.40040530910477" lon="-81.73655544312807">
        <ele>267.9629746090</ele>
        <time>2026-06-04T09:09:26Z</time>
      </trkpt>
      <trkpt lat="41.40040113860508" lon="-81.73595440668564">
        <ele>267.9633582893</ele>
        <time>2026-06-04T09:10:03Z</time>
      </trkpt>
      <trkpt lat="41.40039479271883" lon="-81.73535611499476">
        <ele>267.7708707762</ele>
        <time>2026-06-04T09:10:46Z</time>
      </trkpt>
      <trkpt lat="41.40039942753398" lon="-81.73476170968701">
        <ele>267.3221315233</ele>
        <time>2026-06-04T09:11:31Z</time>
      </trkpt>
      <trkpt lat="41.40039278718292" lon="-81.73462935845691">
        <ele>267.2407155600</ele>
        <time>2026-06-04T09:11:40Z</time>
      </trkpt>
      <trkpt lat="41.40084395386337" lon="-81.73463343959178">
        <ele>267.2248608626</ele>
        <time>2026-06-04T09:12:12Z</time>
      </trkpt>
      <trkpt lat="41.40129975216634" lon="-81.73462895406021">
        <ele>267.4899591700</ele>
        <time>2026-06-04T09:13:04Z</time>
      </trkpt>
      <trkpt lat="41.40131719349368" lon="-81.73463318775218">
        <ele>267.2412895063</ele>
        <time>2026-06-04T09:13:05Z</time>
      </trkpt>
      <trkpt lat="41.40132571235234" lon="-81.73523414171865">
        <ele>267.8783692060</ele>
        <time>2026-06-04T09:13:42Z</time>
      </trkpt>
      <trkpt lat="41.40132546073180" lon="-81.73583626680112">
        <ele>268.1987636054</ele>
        <time>2026-06-04T09:14:37Z</time>
      </trkpt>
      <trkpt lat="41.40133312354728" lon="-81.73642837468381">
        <ele>268.1372735739</ele>
        <time>2026-06-04T09:15:12Z</time>
      </trkpt>
      <trkpt lat="41.40132652510756" lon="-81.73702537353820">
        <ele>268.0054043120</ele>
        <time>2026-06-04T09:15:55Z</time>
      </trkpt>
      <trkpt lat="41.40133519261401" lon="-81.73763649523765">
        <ele>267.7840879654</ele>
        <time>2026-06-04T09:16:34Z</time>
      </trkpt>
      <trkpt lat="41.40134359865744" lon="-81.73823192933237">
        <ele>267.4609080414</ele>
        <time>2026-06-04T09:17:28Z</time>
      </trkpt>
      <trkpt lat="41.40134058611682" lon="-81.73882509498098">
        <ele>267.3327297068</ele>
        <time>2026-06-04T09:18:13Z</time>
      </trkpt>
      <trkpt lat="41.40134246954310" lon="-81.73943670378281">
        <ele>266.9858011901</ele>
        <time>2026-06-04T09:18:51Z</time>
      </trkpt>
      <trkpt lat="41.40134875121124" lon="-81.74002768600499">
        <ele>266.6320559545</ele>
        <time>2026-06-04T09:19:29Z</time>
      </trkpt>
      <trkpt lat="41.40135311281919" lon="-81.74019175137764">
        <ele>266.6457528090</ele>
        <time>2026-06-04T09:19:39Z</time>
      </trkpt>
    </trkseg>
  </trk>
</gpx>