<?xml version='1.0' encoding='UTF-8'?>
<gpx xmlns="http://www.topografix.com/GPX/1/1" creator="https://gpx.studio" version="1.1">
  <metadata>
    <name>Dog Walk - 2026-05-01 #3</name>
  </metadata>
  <trk>
    <name>Dog Walk - 2026-05-01 #3</name>
    <type>dog walk</type>
    <trkseg>
      <trkpt lat="41.40134297366406" lon="-81.74023369802855">
        <ele>266.4836005372</ele>
        <time>2026-05-01T16:17:32Z</time>
      </trkpt>
      <trkpt lat="41.40135093115499" lon="-81.74083759013219">
        <ele>266.2368505234</ele>
        <time>2026-05-01T16:18:10Z</time>
      </trkpt>
      <trkpt lat="41.40134839279602" lon="-81.74142558529522">
        <ele>265.8080423143</ele>
        <time>2026-05-01T16:19:08Z</time>
      </trkpt>
      <trkpt lat="41.40134476797329" lon="-81.74204031945884">
        <ele>265.2300086731</ele>
        <time>2026-05-01T16:19:42Z</time>
      </trkpt>
      <trkpt lat="41.40134468173346" lon="-81.74242164466685">
        <ele>264.5658201927</ele>
        <time>2026-05-01T16:20:01Z</time>
      </trkpt>
      <trkpt lat="41.40177885145906" lon="-81.74263331968970">
        <ele>264.1185732466</ele>
        <time>2026-05-01T16:20:39Z</time>
      </trkpt>
      <trkpt lat="41.40218751347088" lon="-81.74285137028048">
        <ele>263.3075180254</ele>
        <time>2026-05-01T16:21:38Z</time>
      </trkpt>
      <trkpt lat="41.40221569867180" lon="-81.74287085749825">
        <ele>263.5719467230</ele>
        <time>2026-05-01T16:21:40Z</time>
      </trkpt>
      <trkpt lat="41.40221052776158" lon="-81.74225742040139">
        <ele>264.3736462408</ele>
        <time>2026-05-01T16:22:15Z</time>
      </trkpt>
      <trkpt lat="41.40222074396275" lon="-81.74167025896256">
        <ele>264.8581119195</ele>
        <time>2026-05-01T16:22:49Z</time>
      </trkpt>
      <trkpt lat="41.40220709522188" lon="-81.74105777011729">
        <ele>265.4391020103</ele>
        <time>2026-05-01T16:23:26Z</time>
      </trkpt>
      <trkpt lat="41.40222038804242" lon="-81.74047521712022">
        <ele>266.2029025896</ele>
        <time>2026-05-01T16:24:00Z</time>
      </trkpt>
      <trkpt lat="41.40221742630165" lon="-81.73987570072387">
        <ele>266.5367835122</ele>
        <time>2026-05-01T16:24:37Z</time>
      </trkpt>
      <trkpt lat="41.40222238867241" lon="-81.73925948461206">
        <ele>266.5534574743</ele>
        <time>2026-05-01T16:25:13Z</time>
      </trkpt>
      <trkpt lat="41.40221628109026" lon="-81.73865926615305">
        <ele>267.0353024219</ele>
        <time>2026-05-01T16:26:08Z</time>
      </trkpt>
      <trkpt lat="41.40221567442698" lon="-81.73825801040255">
        <ele>267.0784856780</ele>
        <time>2026-05-01T16:26:37Z</time>
      </trkpt>
      <trkpt lat="41.40177453772261" lon="-81.73825526130578">
        <ele>268.0421721774</ele>
        <time>2026-05-01T16:27:48Z</time>
      </trkpt>
      <trkpt lat="41.40133905000105" lon="-81.73826288614579">
        <ele>267.5239938222</ele>
        <time>2026-05-01T16:28:37Z</time>
      </trkpt>
      <trkpt lat="41.40133987156502" lon="-81.73886673252667">
        <ele>267.3903904722</ele>
        <time>2026-05-01T16:29:26Z</time>
      </trkpt>
      <trkpt lat="41.40134205806383" lon="-81.73946614735216">
        <ele>267.1867967962</ele>
        <time>2026-05-01T16:30:09Z</time>
      </trkpt>
      <trkpt lat="41.40133893272290" lon="-81.74006575340559">
        <ele>266.6892610470</ele>
        <time>2026-05-01T16:30:46Z</time>
      </trkpt>
      <trkpt lat="41.40134145976163" lon="-81.74018803074119">
        <ele>266.5360095588</ele>
        <time>2026-05-01T16:30:56Z</time>
      </trkpt>
    </trkseg>
  </trk>
</gpx>