<?xml version='1.0' encoding='UTF-8'?>
<gpx xmlns="http://www.topografix.com/GPX/1/1" creator="https://gpx.studio" version="1.1">
  <metadata>
    <name>Dog Walk - 2026-07-08 #2</name>
  </metadata>
  <trk>
    <name>Dog Walk - 2026-07-08 #2</name>
    <type>dog walk</type>
    <trkseg>
      <trkpt lat="41.40134761882210" lon="-81.74023108808184">
        <ele>266.3015287604</ele>
        <time>2026-07-08T12:01:38Z</time>
      </trkpt>
      <trkpt lat="41.40133709752518" lon="-81.74083074386503">
        <ele>266.1918111383</ele>
        <time>2026-07-08T12:02:16Z</time>
      </trkpt>
      <trkpt lat="41.40134542308042" lon="-81.74143405725829">
        <ele>265.6538243912</ele>
        <time>2026-07-08T12:02:57Z</time>
      </trkpt>
      <trkpt lat="41.40134736266867" lon="-81.74203475312154">
        <ele>265.2996905425</ele>
        <time>2026-07-08T12:03:39Z</time>
      </trkpt>
      <trkpt lat="41.40134401226348" lon="-81.74242119012351">
        <ele>264.7379123350</ele>
        <time>2026-07-08T12:04:00Z</time>
      </trkpt>
      <trkpt lat="41.40176387851054" lon="-81.74264118870033">
        <ele>264.1326661136</ele>
        <time>2026-07-08T12:04:38Z</time>
      </trkpt>
      <trkpt lat="41.40219246913163" lon="-81.74284595046238">
        <ele>263.5043367890</ele>
        <time>2026-07-08T12:05:17Z</time>
      </trkpt>
      <trkpt lat="41.40222209027103" lon="-81.74285470077602">
        <ele>263.4801995735</ele>
        <time>2026-07-08T12:05:31Z</time>
      </trkpt>
      <trkpt lat="41.40221662354814" lon="-81.74225641579754">
        <ele>264.1087960879</ele>
        <time>2026-07-08T12:06:05Z</time>
      </trkpt>
      <trkpt lat="41.40220307149087" lon="-81.74166154865532">
        <ele>264.5962073321</ele>
        <time>2026-07-08T12:06:46Z</time>
      </trkpt>
      <trkpt lat="41.40222139806713" lon="-81.74107206994081">
        <ele>265.4822877203</ele>
        <time>2026-07-08T12:07:23Z</time>
      </trkpt>
      <trkpt lat="41.40222075360107" lon="-81.74047430914479">
        <ele>266.0153213525</ele>
        <time>2026-07-08T12:08:19Z</time>
      </trkpt>
      <trkpt lat="41.40222165584483" lon="-81.73987542520372">
        <ele>266.5859652211</ele>
        <time>2026-07-08T12:09:01Z</time>
      </trkpt>
      <trkpt lat="41.40221391446297" lon="-81.73926585468101">
        <ele>266.8747899142</ele>
        <time>2026-07-08T12:09:46Z</time>
      </trkpt>
      <trkpt lat="41.40222184204129" lon="-81.73866282634019">
        <ele>267.1071503211</ele>
        <time>2026-07-08T12:10:42Z</time>
      </trkpt>
      <trkpt lat="41.40221282075071" lon="-81.73827655476435">
        <ele>266.9543531973</ele>
        <time>2026-07-08T12:11:04Z</time>
      </trkpt>
      <trkpt lat="41.40176939999802" lon="-81.73826794409585">
        <ele>267.9287112283</ele>
        <time>2026-07-08T12:11:35Z</time>
      </trkpt>
      <trkpt lat="41.40133910490937" lon="-81.73826429177559">
        <ele>267.4381398039</ele>
        <time>2026-07-08T12:12:31Z</time>
      </trkpt>
      <trkpt lat="41.40133019787195" lon="-81.73886016534797">
        <ele>267.1992550568</ele>
        <time>2026-07-08T12:13:20Z</time>
      </trkpt>
      <trkpt lat="41.40134429103833" lon="-81.73945816073004">
        <ele>267.2117959180</ele>
        <time>2026-07-08T12:14:09Z</time>
      </trkpt>
      <trkpt lat="41.40134389665286" lon="-81.74005552141527">
        <ele>266.7527403329</ele>
        <time>2026-07-08T12:14:50Z</time>
      </trkpt>
      <trkpt lat="41.40133881706220" lon="-81.74018949330433">
        <ele>266.3322790297</ele>
        <time>2026-07-08T12:14:59Z</time>
      </trkpt>
    </trkseg>
  </trk>
</gpx>