<?xml version='1.0' encoding='UTF-8'?>
<gpx xmlns="http://www.topografix.com/GPX/1/1" creator="https://gpx.studio" version="1.1">
  <metadata>
    <name>Dog Walk - 2026-09-05 #1</name>
  </metadata>
  <trk>
    <name>Dog Walk - 2026-09-05 #1</name>
    <type>dog walk</type>
    <trkseg>
      <trkpt lat="41.40133521615480" lon="-81.74023621540192">
        <ele>266.2904652502</ele>
        <time>2026-09-05T07:15:40Z</time>
      </trkpt>
      <trkpt lat="41.40132387851489" lon="-81.74083321242976">
        <ele>266.3553721489</ele>
        <time>2026-09-05T07:16:29Z</time>
      </trkpt>
      <trkpt lat="41.40133106756927" lon="-81.74144121944079">
        <ele>265.8891261708</ele>
        <time>2026-09-05T07:17:12Z</time>
      </trkpt>
      <trkpt lat="41.40133826191035" lon="-81.74203166168165">
        <ele>265.4613359006</ele>
        <time>2026-09-05T07:17:51Z</time>
      </trkpt>
      <trkpt lat="41.40133026324375" lon="-81.74239103196737">
        <ele>264.7701890857</ele>
        <time>2026-09-05T07:18:16Z</time>
      </trkpt>
      <trkpt lat="41.40090485417544" lon="-81.74220001431424">
        <ele>265.1755309989</ele>
        <time>2026-09-05T07:19:04Z</time>
      </trkpt>
      <trkpt lat="41.40048025494101" lon="-81.74199542421006">
        <ele>265.0111168095</ele>
        <time>2026-09-05T07:20:01Z</time>
      </trkpt>
      <trkpt lat="41.40005623470564" lon="-81.74180403214081">
        <ele>265.3798741308</ele>
        <time>2026-09-05T07:20:38Z</time>
      </trkpt>
      <trkpt lat="41.39963500501365" lon="-81.74162007103476">
        <ele>264.7744951987</ele>
        <time>2026-09-05T07:21:19Z</time>
      </trkpt>
      <trkpt lat="41.39953635673199" lon="-81.74157141512373">
        <ele>264.8939332304</ele>
        <time>2026-09-05T07:21:27Z</time>
      </trkpt>
      <trkpt lat="41.39953772402664" lon="-81.74097161092553">
        <ele>265.5427707825</ele>
        <time>2026-09-05T07:22:07Z</time>
      </trkpt>
      <trkpt lat="41.39953401828929" lon="-81.74037298630073">
        <ele>266.3330717308</ele>
        <time>2026-09-05T07:22:57Z</time>
      </trkpt>
      <trkpt lat="41.39953452502004" lon="-81.73977509241996">
        <ele>266.6543652619</ele>
        <time>2026-09-05T07:24:04Z</time>
      </trkpt>
      <trkpt lat="41.39953579420812" lon="-81.73917254336439">
        <ele>266.8803605130</ele>
        <time>2026-09-05T07:24:45Z</time>
      </trkpt>
      <trkpt lat="41.39953970890533" lon="-81.73857962312248">
        <ele>267.0346062157</ele>
        <time>2026-09-05T07:25:27Z</time>
      </trkpt>
      <trkpt lat="41.39952317735143" lon="-81.73796995732496">
        <ele>267.3985605098</ele>
        <time>2026-09-05T07:26:08Z</time>
      </trkpt>
      <trkpt lat="41.39953139959864" lon="-81.73737418028617">
        <ele>267.3041962527</ele>
        <time>2026-09-05T07:27:09Z</time>
      </trkpt>
      <trkpt lat="41.39953774962767" lon="-81.73677634347516">
        <ele>267.2745820914</ele>
        <time>2026-09-05T07:27:55Z</time>
      </trkpt>
      <trkpt lat="41.39952505855061" lon="-81.73618096310237">
        <ele>267.2306257606</ele>
        <time>2026-09-05T07:28:32Z</time>
      </trkpt>
      <trkpt lat="41.39952560409488" lon="-81.73556435144215">
        <ele>267.2266179759</ele>
        <time>2026-09-05T07:29:10Z</time>
      </trkpt>
      <trkpt lat="41.39952513726010" lon="-81.73498979316830">
        <ele>267.2565478858</ele>
        <time>2026-09-05T07:29:48Z</time>
      </trkpt>
      <trkpt lat="41.39952915949527" lon="-81.73461431632984">
        <ele>267.3164907523</ele>
        <time>2026-09-05T07:30:14Z</time>
      </trkpt>
      <trkpt lat="41.39998016384213" lon="-81.73461220966543">
        <ele>267.2539997881</ele>
        <time>2026-09-05T07:30:51Z</time>
      </trkpt>
      <trkpt lat="41.40042727277081" lon="-81.73462596012418">
        <ele>267.3594067589</ele>
        <time>2026-09-05T07:31:29Z</time>
      </trkpt>
      <trkpt lat="41.40087668737568" lon="-81.73464209491094">
        <ele>267.3556916549</ele>
        <time>2026-09-05T07:32:11Z</time>
      </trkpt>
      <trkpt lat="41.40132610236324" lon="-81.73464091520687">
        <ele>267.3180434808</ele>
        <time>2026-09-05T07:32:51Z</time>
      </trkpt>
      <trkpt lat="41.40132006276288" lon="-81.73524018913511">
        <ele>267.9651682535</ele>
        <time>2026-09-05T07:33:24Z</time>
      </trkpt>
      <trkpt lat="41.40132146305060" lon="-81.73583812989165">
        <ele>268.3205121081</ele>
        <time>2026-09-05T07:34:07Z</time>
      </trkpt>
      <trkpt lat="41.40131589872437" lon="-81.73643776507190">
        <ele>268.3342967627</ele>
        <time>2026-09-05T07:34:57Z</time>
      </trkpt>
      <trkpt lat="41.40132176843847" lon="-81.73703620374245">
        <ele>268.2344917701</ele>
        <time>2026-09-05T07:35:36Z</time>
      </trkpt>
      <trkpt lat="41.40132452022434" lon="-81.73765640256995">
        <ele>267.9102304493</ele>
        <time>2026-09-05T07:36:11Z</time>
      </trkpt>
      <trkpt lat="41.40132598605759" lon="-81.73824159670519">
        <ele>267.5312639459</ele>
        <time>2026-09-05T07:36:55Z</time>
      </trkpt>
      <trkpt lat="41.40132334744562" lon="-81.73883756444651">
        <ele>267.4233790049</ele>
        <time>2026-09-05T07:37:34Z</time>
      </trkpt>
      <trkpt lat="41.40133321446840" lon="-81.73943545295604">
        <ele>267.3280186304</ele>
        <time>2026-09-05T07:38:36Z</time>
      </trkpt>
      <trkpt lat="41.40133722623339" lon="-81.74003531074543">
        <ele>266.4854560348</ele>
        <time>2026-09-05T07:39:13Z</time>
      </trkpt>
      <trkpt lat="41.40133282164298" lon="-81.74021266446496">
        <ele>266.6042695433</ele>
        <time>2026-09-05T07:39:29Z</time>
      </trkpt>
    </trkseg>
  </trk>
</gpx>