<?xml version='1.0' encoding='UTF-8'?>
<gpx xmlns="http://www.topografix.com/GPX/1/1" creator="https://gpx.studio" version="1.1">
  <metadata>
    <name>Dog Walk - 2026-09-18 #1</name>
  </metadata>
  <trk>
    <name>Dog Walk - 2026-09-18 #1</name>
    <type>dog walk</type>
    <trkseg>
      <trkpt lat="41.40134635649029" lon="-81.74023661530644">
        <ele>266.6672777740</ele>
        <time>2026-09-18T06:53:15Z</time>
      </trkpt>
      <trkpt lat="41.40133998055497" lon="-81.74081721044838">
        <ele>266.2609870792</ele>
        <time>2026-09-18T06:53:56Z</time>
      </trkpt>
      <trkpt lat="41.40134257980091" lon="-81.74142930884298">
        <ele>265.8272818155</ele>
        <time>2026-09-18T06:54:43Z</time>
      </trkpt>
      <trkpt lat="41.40134687607974" lon="-81.74202773526284">
        <ele>265.1909842125</ele>
        <time>2026-09-18T06:55:17Z</time>
      </trkpt>
      <trkpt lat="41.40134965130886" lon="-81.74241276234068">
        <ele>264.7034905890</ele>
        <time>2026-09-18T06:55:47Z</time>
      </trkpt>
      <trkpt lat="41.40177289189246" lon="-81.74262379456741">
        <ele>264.0834327288</ele>
        <time>2026-09-18T06:56:40Z</time>
      </trkpt>
      <trkpt lat="41.40218526753588" lon="-81.74283933801824">
        <ele>263.4113698749</ele>
        <time>2026-09-18T06:57:23Z</time>
      </trkpt>
      <trkpt lat="41.40260853114042" lon="-81.74305349720011">
        <ele>262.8567568614</ele>
        <time>2026-09-18T06:58:16Z</time>
      </trkpt>
      <trkpt lat="41.40303239052604" lon="-81.74326228850997">
        <ele>262.5284801655</ele>
        <time>2026-09-18T06:59:10Z</time>
      </trkpt>
      <trkpt lat="41.40345230023766" lon="-81.74347641872586">
        <ele>261.8815433777</ele>
        <time>2026-09-18T06:59:48Z</time>
      </trkpt>
      <trkpt lat="41.40348516029126" lon="-81.74349801870930">
        <ele>261.7321154717</ele>
        <time>2026-09-18T06:59:51Z</time>
      </trkpt>
      <trkpt lat="41.40359851103093" lon="-81.74352813418534">
        <ele>261.7341199193</ele>
        <time>2026-09-18T07:00:02Z</time>
      </trkpt>
      <trkpt lat="41.40399474110882" lon="-81.74351001537504">
        <ele>260.7753898859</ele>
        <time>2026-09-18T07:00:31Z</time>
      </trkpt>
      <trkpt lat="41.40399363588627" lon="-81.74291222697046">
        <ele>261.6724385455</ele>
        <time>2026-09-18T07:01:11Z</time>
      </trkpt>
      <trkpt lat="41.40399502672006" lon="-81.74231615515801">
        <ele>262.1645047741</ele>
        <time>2026-09-18T07:01:47Z</time>
      </trkpt>
      <trkpt lat="41.40398955934905" lon="-81.74171846696247">
        <ele>262.5028330600</ele>
        <time>2026-09-18T07:02:30Z</time>
      </trkpt>
      <trkpt lat="41.40399023932047" lon="-81.74110993201722">
        <ele>262.8806312535</ele>
        <time>2026-09-18T07:03:16Z</time>
      </trkpt>
      <trkpt lat="41.40398409332151" lon="-81.74051191395841">
        <ele>263.6753669883</ele>
        <time>2026-09-18T07:03:51Z</time>
      </trkpt>
      <trkpt lat="41.40398876892558" lon="-81.73991433422398">
        <ele>264.1897588756</ele>
        <time>2026-09-18T07:04:38Z</time>
      </trkpt>
      <trkpt lat="41.40398821562562" lon="-81.73930954982909">
        <ele>264.9376975943</ele>
        <time>2026-09-18T07:05:13Z</time>
      </trkpt>
      <trkpt lat="41.40398777290100" lon="-81.73878556227378">
        <ele>265.3469450436</ele>
        <time>2026-09-18T07:05:45Z</time>
      </trkpt>
      <trkpt lat="41.40353744075122" lon="-81.73878563052276">
        <ele>265.9349260559</ele>
        <time>2026-09-18T07:06:19Z</time>
      </trkpt>
      <trkpt lat="41.40308884031547" lon="-81.73877003524329">
        <ele>266.1282706434</ele>
        <time>2026-09-18T07:07:02Z</time>
      </trkpt>
      <trkpt lat="41.40263233224791" lon="-81.73877777193209">
        <ele>266.8356514336</ele>
        <time>2026-09-18T07:07:45Z</time>
      </trkpt>
      <trkpt lat="41.40222433543760" lon="-81.73878070456963">
        <ele>267.2744317355</ele>
        <time>2026-09-18T07:08:30Z</time>
      </trkpt>
      <trkpt lat="41.40221839835996" lon="-81.73827701872403">
        <ele>266.9918824498</ele>
        <time>2026-09-18T07:08:54Z</time>
      </trkpt>
      <trkpt lat="41.40177081653322" lon="-81.73827970876732">
        <ele>267.7918703342</ele>
        <time>2026-09-18T07:09:33Z</time>
      </trkpt>
      <trkpt lat="41.40133299400276" lon="-81.73826034331201">
        <ele>267.6004767144</ele>
        <time>2026-09-18T07:10:15Z</time>
      </trkpt>
      <trkpt lat="41.40133192410087" lon="-81.73886233223648">
        <ele>267.4673720624</ele>
        <time>2026-09-18T07:10:54Z</time>
      </trkpt>
      <trkpt lat="41.40133478433994" lon="-81.73947325360814">
        <ele>267.1288818291</ele>
        <time>2026-09-18T07:11:35Z</time>
      </trkpt>
      <trkpt lat="41.40133646667230" lon="-81.74006414450504">
        <ele>266.6009326666</ele>
        <time>2026-09-18T07:12:18Z</time>
      </trkpt>
      <trkpt lat="41.40133406597862" lon="-81.74021070639138">
        <ele>266.7408732854</ele>
        <time>2026-09-18T07:12:27Z</time>
      </trkpt>
    </trkseg>
  </trk>
</gpx>