<?xml version='1.0' encoding='UTF-8'?>
<gpx xmlns="http://www.topografix.com/GPX/1/1" creator="https://gpx.studio" version="1.1">
  <metadata>
    <name>Dog Walk - 2026-03-13 #2</name>
  </metadata>
  <trk>
    <name>Dog Walk - 2026-03-13 #2</name>
    <type>dog walk</type>
    <trkseg>
      <trkpt lat="41.40133198726037" lon="-81.74024369365053">
        <ele>266.6215541065</ele>
        <time>2026-03-13T13:31:02Z</time>
      </trkpt>
      <trkpt lat="41.40132642231149" lon="-81.74082453477105">
        <ele>266.2273230267</ele>
        <time>2026-03-13T13:31:36Z</time>
      </trkpt>
      <trkpt lat="41.40133568643408" lon="-81.74143244693347">
        <ele>265.7163669731</ele>
        <time>2026-03-13T13:32:38Z</time>
      </trkpt>
      <trkpt lat="41.40133726784079" lon="-81.74203835439634">
        <ele>265.4079748048</ele>
        <time>2026-03-13T13:33:14Z</time>
      </trkpt>
      <trkpt lat="41.40132970975316" lon="-81.74238494651787">
        <ele>264.8904222378</ele>
        <time>2026-03-13T13:33:41Z</time>
      </trkpt>
      <trkpt lat="41.40090304155715" lon="-81.74219668004490">
        <ele>265.2026616776</ele>
        <time>2026-03-13T13:34:23Z</time>
      </trkpt>
      <trkpt lat="41.40046721540943" lon="-81.74200071030471">
        <ele>264.9897548518</ele>
        <time>2026-03-13T13:35:04Z</time>
      </trkpt>
      <trkpt lat="41.40005503057158" lon="-81.74180837292785">
        <ele>265.3741307161</ele>
        <time>2026-03-13T13:35:33Z</time>
      </trkpt>
      <trkpt lat="41.39962632632065" lon="-81.74161370615965">
        <ele>264.5823312783</ele>
        <time>2026-03-13T13:36:10Z</time>
      </trkpt>
      <trkpt lat="41.39952977685021" lon="-81.74157071083937">
        <ele>264.7550563212</ele>
        <time>2026-03-13T13:36:20Z</time>
      </trkpt>
      <trkpt lat="41.39952941031012" lon="-81.74097461104336">
        <ele>265.7179877296</ele>
        <time>2026-03-13T13:37:00Z</time>
      </trkpt>
      <trkpt lat="41.39952952178512" lon="-81.74037984395520">
        <ele>266.3969597060</ele>
        <time>2026-03-13T13:37:53Z</time>
      </trkpt>
      <trkpt lat="41.39952920425292" lon="-81.73977494650930">
        <ele>266.8649323459</ele>
        <time>2026-03-13T13:38:38Z</time>
      </trkpt>
      <trkpt lat="41.39953025116265" lon="-81.73917261382776">
        <ele>267.0091577673</ele>
        <time>2026-03-13T13:39:13Z</time>
      </trkpt>
      <trkpt lat="41.39952869004435" lon="-81.73857273210612">
        <ele>267.0046938938</ele>
        <time>2026-03-13T13:39:58Z</time>
      </trkpt>
      <trkpt lat="41.39953134320623" lon="-81.73797003797287">
        <ele>266.8758439927</ele>
        <time>2026-03-13T13:40:35Z</time>
      </trkpt>
      <trkpt lat="41.39953834576107" lon="-81.73738130853964">
        <ele>267.3179169509</ele>
        <time>2026-03-13T13:41:27Z</time>
      </trkpt>
      <trkpt lat="41.39952570797936" lon="-81.73677552392576">
        <ele>267.5151454357</ele>
        <time>2026-03-13T13:42:23Z</time>
      </trkpt>
      <trkpt lat="41.39952952561381" lon="-81.73618291351582">
        <ele>267.3931602853</ele>
        <time>2026-03-13T13:42:56Z</time>
      </trkpt>
      <trkpt lat="41.39952022124677" lon="-81.73557009477284">
        <ele>267.6228872119</ele>
        <time>2026-03-13T13:43:36Z</time>
      </trkpt>
      <trkpt lat="41.39952279886183" lon="-81.73497743129859">
        <ele>267.1052026731</ele>
        <time>2026-03-13T13:44:17Z</time>
      </trkpt>
      <trkpt lat="41.39952706671617" lon="-81.73461900420838">
        <ele>267.3202055540</ele>
        <time>2026-03-13T13:44:42Z</time>
      </trkpt>
      <trkpt lat="41.39997202269163" lon="-81.73463692943743">
        <ele>267.0786053596</ele>
        <time>2026-03-13T13:45:26Z</time>
      </trkpt>
      <trkpt lat="41.40042499450486" lon="-81.73462929076975">
        <ele>267.4250805243</ele>
        <time>2026-03-13T13:45:56Z</time>
      </trkpt>
      <trkpt lat="41.40087186650627" lon="-81.73463156352182">
        <ele>267.4923942600</ele>
        <time>2026-03-13T13:46:33Z</time>
      </trkpt>
      <trkpt lat="41.40131806806185" lon="-81.73463380488981">
        <ele>267.3247336865</ele>
        <time>2026-03-13T13:47:10Z</time>
      </trkpt>
      <trkpt lat="41.40131831865259" lon="-81.73523700115240">
        <ele>267.9177506944</ele>
        <time>2026-03-13T13:47:50Z</time>
      </trkpt>
      <trkpt lat="41.40133068586842" lon="-81.73583599093512">
        <ele>268.2600288673</ele>
        <time>2026-03-13T13:48:36Z</time>
      </trkpt>
      <trkpt lat="41.40131679948203" lon="-81.73643246225802">
        <ele>268.0995723122</ele>
        <time>2026-03-13T13:49:09Z</time>
      </trkpt>
      <trkpt lat="41.40132191975140" lon="-81.73703687140615">
        <ele>268.1232695041</ele>
        <time>2026-03-13T13:49:48Z</time>
      </trkpt>
      <trkpt lat="41.40132058023565" lon="-81.73762682132487">
        <ele>267.9215986022</ele>
        <time>2026-03-13T13:50:21Z</time>
      </trkpt>
      <trkpt lat="41.40132618143160" lon="-81.73823685565040">
        <ele>267.5115064619</ele>
        <time>2026-03-13T13:51:09Z</time>
      </trkpt>
      <trkpt lat="41.40132269955919" lon="-81.73883202615984">
        <ele>267.1706387777</ele>
        <time>2026-03-13T13:51:45Z</time>
      </trkpt>
      <trkpt lat="41.40132690339156" lon="-81.73943691502181">
        <ele>267.2402009774</ele>
        <time>2026-03-13T13:52:25Z</time>
      </trkpt>
      <trkpt lat="41.40133185639174" lon="-81.74003562153565">
        <ele>266.7338891982</ele>
        <time>2026-03-13T13:53:07Z</time>
      </trkpt>
      <trkpt lat="41.40133210556983" lon="-81.74021253094243">
        <ele>266.2574217247</ele>
        <time>2026-03-13T13:53:21Z</time>
      </trkpt>
    </trkseg>
  </trk>
</gpx>