<?xml version='1.0' encoding='UTF-8'?>
<gpx xmlns="http://www.topografix.com/GPX/1/1" creator="https://gpx.studio" version="1.1">
  <metadata>
    <name>Dog Walk - 2026-08-16 #1</name>
  </metadata>
  <trk>
    <name>Dog Walk - 2026-08-16 #1</name>
    <type>dog walk</type>
    <trkseg>
      <trkpt lat="41.40134374616358" lon="-81.74022859437879">
        <ele>266.4169454634</ele>
        <time>2026-08-16T11:24:50Z</time>
      </trkpt>
      <trkpt lat="41.40134057847282" lon="-81.74082266774029">
        <ele>266.1667007105</ele>
        <time>2026-08-16T11:25:29Z</time>
      </trkpt>
      <trkpt lat="41.40133142948764" lon="-81.74142836544023">
        <ele>265.7428820468</ele>
        <time>2026-08-16T11:26:13Z</time>
      </trkpt>
      <trkpt lat="41.40134078152592" lon="-81.74203544111914">
        <ele>265.4097304713</ele>
        <time>2026-08-16T11:26:46Z</time>
      </trkpt>
      <trkpt lat="41.40132777670752" lon="-81.74238275757401">
        <ele>264.5940843051</ele>
        <time>2026-08-16T11:27:13Z</time>
      </trkpt>
      <trkpt lat="41.40090414273596" lon="-81.74217635878777">
        <ele>265.3286658394</ele>
        <time>2026-08-16T11:27:50Z</time>
      </trkpt>
      <trkpt lat="41.40049539323342" lon="-81.74195599257550">
        <ele>265.1487473908</ele>
        <time>2026-08-16T11:28:59Z</time>
      </trkpt>
      <trkpt lat="41.40044975272141" lon="-81.74194533602052">
        <ele>265.4542798190</ele>
        <time>2026-08-16T11:29:03Z</time>
      </trkpt>
      <trkpt lat="41.40044371101521" lon="-81.74134851705098">
        <ele>266.1911813093</ele>
        <time>2026-08-16T11:29:42Z</time>
      </trkpt>
      <trkpt lat="41.40043320100016" lon="-81.74075353542261">
        <ele>266.3372182702</ele>
        <time>2026-08-16T11:30:21Z</time>
      </trkpt>
      <trkpt lat="41.40043882805253" lon="-81.74015618618793">
        <ele>266.6288859757</ele>
        <time>2026-08-16T11:31:00Z</time>
      </trkpt>
      <trkpt lat="41.40043462759081" lon="-81.73955762834022">
        <ele>266.9566839296</ele>
        <time>2026-08-16T11:31:39Z</time>
      </trkpt>
      <trkpt lat="41.40043558521883" lon="-81.73895729236206">
        <ele>267.0419058365</ele>
        <time>2026-08-16T11:32:21Z</time>
      </trkpt>
      <trkpt lat="41.40041669359758" lon="-81.73836368548199">
        <ele>267.2808809161</ele>
        <time>2026-08-16T11:33:01Z</time>
      </trkpt>
      <trkpt lat="41.40041637254286" lon="-81.73775730858381">
        <ele>267.6884488259</ele>
        <time>2026-08-16T11:33:45Z</time>
      </trkpt>
      <trkpt lat="41.40042241946728" lon="-81.73715308879649">
        <ele>268.0152880049</ele>
        <time>2026-08-16T11:34:33Z</time>
      </trkpt>
      <trkpt lat="41.40039965448262" lon="-81.73655293152869">
        <ele>268.0556269838</ele>
        <time>2026-08-16T11:35:12Z</time>
      </trkpt>
      <trkpt lat="41.40040074127077" lon="-81.73594987166500">
        <ele>268.0853275256</ele>
        <time>2026-08-16T11:35:49Z</time>
      </trkpt>
      <trkpt lat="41.40040233438269" lon="-81.73534713864518">
        <ele>267.9921853071</ele>
        <time>2026-08-16T11:36:27Z</time>
      </trkpt>
      <trkpt lat="41.40039536739159" lon="-81.73475561298102">
        <ele>267.2800230219</ele>
        <time>2026-08-16T11:37:15Z</time>
      </trkpt>
      <trkpt lat="41.40039638328520" lon="-81.73463123454424">
        <ele>267.3814172951</ele>
        <time>2026-08-16T11:37:22Z</time>
      </trkpt>
      <trkpt lat="41.40084736981782" lon="-81.73463260700021">
        <ele>267.3225685052</ele>
        <time>2026-08-16T11:37:57Z</time>
      </trkpt>
      <trkpt lat="41.40129659321214" lon="-81.73462142579633">
        <ele>267.4455300162</ele>
        <time>2026-08-16T11:38:47Z</time>
      </trkpt>
      <trkpt lat="41.40132352820191" lon="-81.73463841209106">
        <ele>267.3338642433</ele>
        <time>2026-08-16T11:38:49Z</time>
      </trkpt>
      <trkpt lat="41.40132483420021" lon="-81.73523300657932">
        <ele>268.1909541688</ele>
        <time>2026-08-16T11:39:31Z</time>
      </trkpt>
      <trkpt lat="41.40132573979001" lon="-81.73583105934924">
        <ele>268.3390516573</ele>
        <time>2026-08-16T11:40:04Z</time>
      </trkpt>
      <trkpt lat="41.40133593852197" lon="-81.73644308717358">
        <ele>268.2757389133</ele>
        <time>2026-08-16T11:40:37Z</time>
      </trkpt>
      <trkpt lat="41.40133004651166" lon="-81.73702122134569">
        <ele>267.7804072532</ele>
        <time>2026-08-16T11:41:10Z</time>
      </trkpt>
      <trkpt lat="41.40132984281416" lon="-81.73762534834937">
        <ele>267.8696749411</ele>
        <time>2026-08-16T11:41:52Z</time>
      </trkpt>
      <trkpt lat="41.40133710386726" lon="-81.73823441586795">
        <ele>267.5917305852</ele>
        <time>2026-08-16T11:42:50Z</time>
      </trkpt>
      <trkpt lat="41.40133500539342" lon="-81.73883263322919">
        <ele>267.4744789001</ele>
        <time>2026-08-16T11:43:29Z</time>
      </trkpt>
      <trkpt lat="41.40134205985474" lon="-81.73943088987392">
        <ele>267.1272429753</ele>
        <time>2026-08-16T11:44:18Z</time>
      </trkpt>
      <trkpt lat="41.40134204482485" lon="-81.74002643802478">
        <ele>266.6245228349</ele>
        <time>2026-08-16T11:45:02Z</time>
      </trkpt>
      <trkpt lat="41.40135142606831" lon="-81.74019804250453">
        <ele>266.3589339943</ele>
        <time>2026-08-16T11:45:12Z</time>
      </trkpt>
    </trkseg>
  </trk>
</gpx>