<?xml version='1.0' encoding='UTF-8'?>
<gpx xmlns="http://www.topografix.com/GPX/1/1" creator="https://gpx.studio" version="1.1">
  <metadata>
    <name>Dog Walk - 2026-02-23 #3</name>
  </metadata>
  <trk>
    <name>Dog Walk - 2026-02-23 #3</name>
    <type>dog walk</type>
    <trkseg>
      <trkpt lat="41.40133305139732" lon="-81.74026140331411">
        <ele>266.5340891045</ele>
        <time>2026-02-23T20:36:11Z</time>
      </trkpt>
      <trkpt lat="41.40133271532299" lon="-81.74026258217575">
        <ele>266.3069311337</ele>
        <time>2026-02-23T20:36:12Z</time>
      </trkpt>
      <trkpt lat="41.40132862336499" lon="-81.74085265772511">
        <ele>266.3457236302</ele>
        <time>2026-02-23T20:36:58Z</time>
      </trkpt>
      <trkpt lat="41.40133183435726" lon="-81.74145673336351">
        <ele>265.9456217583</ele>
        <time>2026-02-23T20:37:55Z</time>
      </trkpt>
      <trkpt lat="41.40132287404149" lon="-81.74205860830992">
        <ele>265.2749920441</ele>
        <time>2026-02-23T20:38:29Z</time>
      </trkpt>
      <trkpt lat="41.40132948272359" lon="-81.74237425167526">
        <ele>264.6720637787</ele>
        <time>2026-02-23T20:38:49Z</time>
      </trkpt>
      <trkpt lat="41.40132203365619" lon="-81.74235850618216">
        <ele>264.6686858020</ele>
        <time>2026-02-23T20:38:51Z</time>
      </trkpt>
      <trkpt lat="41.40090437470027" lon="-81.74219185012019">
        <ele>265.1171126149</ele>
        <time>2026-02-23T20:39:26Z</time>
      </trkpt>
      <trkpt lat="41.40047084315265" lon="-81.74199383677353">
        <ele>265.2023843724</ele>
        <time>2026-02-23T20:40:04Z</time>
      </trkpt>
      <trkpt lat="41.40004719235278" lon="-81.74179925144129">
        <ele>265.5482887375</ele>
        <time>2026-02-23T20:40:51Z</time>
      </trkpt>
      <trkpt lat="41.39962424110220" lon="-81.74162021576777">
        <ele>264.8743933632</ele>
        <time>2026-02-23T20:41:32Z</time>
      </trkpt>
      <trkpt lat="41.39954183161021" lon="-81.74156849049405">
        <ele>264.7595783820</ele>
        <time>2026-02-23T20:41:40Z</time>
      </trkpt>
      <trkpt lat="41.39954140082586" lon="-81.74096845139863">
        <ele>265.6326878706</ele>
        <time>2026-02-23T20:42:35Z</time>
      </trkpt>
      <trkpt lat="41.39954018825944" lon="-81.74036686710872">
        <ele>266.0907230102</ele>
        <time>2026-02-23T20:43:08Z</time>
      </trkpt>
      <trkpt lat="41.39953944158260" lon="-81.73977575437593">
        <ele>266.3091523266</ele>
        <time>2026-02-23T20:43:56Z</time>
      </trkpt>
      <trkpt lat="41.39954092380788" lon="-81.73917502967323">
        <ele>266.9424465110</ele>
        <time>2026-02-23T20:44:34Z</time>
      </trkpt>
      <trkpt lat="41.39953595476737" lon="-81.73857167901535">
        <ele>266.9314073380</ele>
        <time>2026-02-23T20:45:11Z</time>
      </trkpt>
      <trkpt lat="41.39953110109846" lon="-81.73829720901536">
        <ele>266.8477100615</ele>
        <time>2026-02-23T20:45:32Z</time>
      </trkpt>
      <trkpt lat="41.39953312471927" lon="-81.73829380576949">
        <ele>266.8026750389</ele>
        <time>2026-02-23T20:45:33Z</time>
      </trkpt>
      <trkpt lat="41.39998471771492" lon="-81.73831600377173">
        <ele>267.1196713477</ele>
        <time>2026-02-23T20:46:10Z</time>
      </trkpt>
      <trkpt lat="41.40043165477334" lon="-81.73829760370974">
        <ele>267.0268820684</ele>
        <time>2026-02-23T20:46:45Z</time>
      </trkpt>
      <trkpt lat="41.40088271906030" lon="-81.73829890617459">
        <ele>267.2826492830</ele>
        <time>2026-02-23T20:47:28Z</time>
      </trkpt>
      <trkpt lat="41.40132808815820" lon="-81.73829942899837">
        <ele>267.4827020692</ele>
        <time>2026-02-23T20:48:05Z</time>
      </trkpt>
      <trkpt lat="41.40132583450458" lon="-81.73890476931801">
        <ele>267.2899994247</ele>
        <time>2026-02-23T20:48:41Z</time>
      </trkpt>
      <trkpt lat="41.40133667754232" lon="-81.73949980499718">
        <ele>267.3688283421</ele>
        <time>2026-02-23T20:49:24Z</time>
      </trkpt>
      <trkpt lat="41.40133713638061" lon="-81.74009868483063">
        <ele>266.6497468508</ele>
        <time>2026-02-23T20:50:00Z</time>
      </trkpt>
      <trkpt lat="41.40133989808584" lon="-81.74016041507176">
        <ele>266.7774433798</ele>
        <time>2026-02-23T20:50:03Z</time>
      </trkpt>
    </trkseg>
  </trk>
</gpx>