<?xml version='1.0' encoding='UTF-8'?>
<gpx xmlns="http://www.topografix.com/GPX/1/1" creator="https://gpx.studio" version="1.1">
  <metadata>
    <name>Dog Walk - 2026-05-16 #1</name>
  </metadata>
  <trk>
    <name>Dog Walk - 2026-05-16 #1</name>
    <type>dog walk</type>
    <trkseg>
      <trkpt lat="41.40134013957697" lon="-81.74023326454343">
        <ele>266.5035760891</ele>
        <time>2026-05-16T06:58:06Z</time>
      </trkpt>
      <trkpt lat="41.40133619031570" lon="-81.74082049362161">
        <ele>266.1254825745</ele>
        <time>2026-05-16T06:58:41Z</time>
      </trkpt>
      <trkpt lat="41.40134991112797" lon="-81.74142715107885">
        <ele>265.9518891013</ele>
        <time>2026-05-16T06:59:27Z</time>
      </trkpt>
      <trkpt lat="41.40134537830026" lon="-81.74203728118214">
        <ele>265.1708709470</ele>
        <time>2026-05-16T07:00:05Z</time>
      </trkpt>
      <trkpt lat="41.40134683904014" lon="-81.74241838893202">
        <ele>264.7291888245</ele>
        <time>2026-05-16T07:00:36Z</time>
      </trkpt>
      <trkpt lat="41.40177058726482" lon="-81.74262433055736">
        <ele>264.3007857858</ele>
        <time>2026-05-16T07:01:14Z</time>
      </trkpt>
      <trkpt lat="41.40218978454512" lon="-81.74284247976027">
        <ele>263.4233860880</ele>
        <time>2026-05-16T07:01:51Z</time>
      </trkpt>
      <trkpt lat="41.40260964559125" lon="-81.74305700593301">
        <ele>262.8561187512</ele>
        <time>2026-05-16T07:02:50Z</time>
      </trkpt>
      <trkpt lat="41.40302775855764" lon="-81.74327409809148">
        <ele>262.2564389033</ele>
        <time>2026-05-16T07:03:34Z</time>
      </trkpt>
      <trkpt lat="41.40344686527632" lon="-81.74348120903481">
        <ele>261.7929475055</ele>
        <time>2026-05-16T07:04:10Z</time>
      </trkpt>
      <trkpt lat="41.40348957934567" lon="-81.74349035394951">
        <ele>261.8627325637</ele>
        <time>2026-05-16T07:04:13Z</time>
      </trkpt>
      <trkpt lat="41.40359831375931" lon="-81.74351718093254">
        <ele>261.7901811987</ele>
        <time>2026-05-16T07:04:21Z</time>
      </trkpt>
      <trkpt lat="41.40399420213003" lon="-81.74351301256370">
        <ele>260.5734585645</ele>
        <time>2026-05-16T07:05:01Z</time>
      </trkpt>
      <trkpt lat="41.40399106983970" lon="-81.74290379907904">
        <ele>261.5914892453</ele>
        <time>2026-05-16T07:05:58Z</time>
      </trkpt>
      <trkpt lat="41.40399715491279" lon="-81.74231566527551">
        <ele>262.0722827005</ele>
        <time>2026-05-16T07:06:32Z</time>
      </trkpt>
      <trkpt lat="41.40399050771289" lon="-81.74169931652558">
        <ele>262.3004853219</ele>
        <time>2026-05-16T07:07:15Z</time>
      </trkpt>
      <trkpt lat="41.40398830132640" lon="-81.74110959495562">
        <ele>262.9223291498</ele>
        <time>2026-05-16T07:08:04Z</time>
      </trkpt>
      <trkpt lat="41.40399066556659" lon="-81.74051677309468">
        <ele>263.7338209974</ele>
        <time>2026-05-16T07:08:47Z</time>
      </trkpt>
      <trkpt lat="41.40398556909192" lon="-81.73991317384166">
        <ele>264.2658406065</ele>
        <time>2026-05-16T07:09:27Z</time>
      </trkpt>
      <trkpt lat="41.40398803830765" lon="-81.73930793726539">
        <ele>264.8068527424</ele>
        <time>2026-05-16T07:10:02Z</time>
      </trkpt>
      <trkpt lat="41.40398373530707" lon="-81.73878108813820">
        <ele>265.4605122574</ele>
        <time>2026-05-16T07:10:48Z</time>
      </trkpt>
      <trkpt lat="41.40354254620039" lon="-81.73877735891027">
        <ele>265.9755415161</ele>
        <time>2026-05-16T07:11:27Z</time>
      </trkpt>
      <trkpt lat="41.40308996890525" lon="-81.73879000968260">
        <ele>266.1095158810</ele>
        <time>2026-05-16T07:12:04Z</time>
      </trkpt>
      <trkpt lat="41.40263619933967" lon="-81.73878722575404">
        <ele>266.8668323134</ele>
        <time>2026-05-16T07:12:41Z</time>
      </trkpt>
      <trkpt lat="41.40222554689050" lon="-81.73877628380126">
        <ele>267.2285499663</ele>
        <time>2026-05-16T07:13:29Z</time>
      </trkpt>
      <trkpt lat="41.40222481602174" lon="-81.73828139118838">
        <ele>267.1108303292</ele>
        <time>2026-05-16T07:14:00Z</time>
      </trkpt>
      <trkpt lat="41.40176632621188" lon="-81.73827668101320">
        <ele>267.9311754630</ele>
        <time>2026-05-16T07:14:40Z</time>
      </trkpt>
      <trkpt lat="41.40133011583095" lon="-81.73826879138167">
        <ele>267.6416568608</ele>
        <time>2026-05-16T07:15:17Z</time>
      </trkpt>
      <trkpt lat="41.40132838553124" lon="-81.73886396850916">
        <ele>267.3789493241</ele>
        <time>2026-05-16T07:16:01Z</time>
      </trkpt>
      <trkpt lat="41.40133559111915" lon="-81.73947252549348">
        <ele>267.0124527792</ele>
        <time>2026-05-16T07:16:33Z</time>
      </trkpt>
      <trkpt lat="41.40133302634603" lon="-81.74007506067137">
        <ele>266.7327088000</ele>
        <time>2026-05-16T07:17:20Z</time>
      </trkpt>
      <trkpt lat="41.40133680947562" lon="-81.74021004823301">
        <ele>266.5688312363</ele>
        <time>2026-05-16T07:17:29Z</time>
      </trkpt>
    </trkseg>
  </trk>
</gpx>