<?xml version='1.0' encoding='UTF-8'?>
<gpx xmlns="http://www.topografix.com/GPX/1/1" creator="https://gpx.studio" version="1.1">
  <metadata>
    <name>Dog Walk - 2026-07-07 #2</name>
  </metadata>
  <trk>
    <name>Dog Walk - 2026-07-07 #2</name>
    <type>dog walk</type>
    <trkseg>
      <trkpt lat="41.40134168481269" lon="-81.74022721653539">
        <ele>266.4801008544</ele>
        <time>2026-07-07T10:56:45Z</time>
      </trkpt>
      <trkpt lat="41.40133995603348" lon="-81.74083147558899">
        <ele>266.2152470826</ele>
        <time>2026-07-07T10:57:29Z</time>
      </trkpt>
      <trkpt lat="41.40133288459778" lon="-81.74142789457599">
        <ele>265.8084154505</ele>
        <time>2026-07-07T10:58:21Z</time>
      </trkpt>
      <trkpt lat="41.40133358594260" lon="-81.74203248916868">
        <ele>265.5161469442</ele>
        <time>2026-07-07T10:59:19Z</time>
      </trkpt>
      <trkpt lat="41.40132480825921" lon="-81.74238909994384">
        <ele>264.7334602364</ele>
        <time>2026-07-07T10:59:40Z</time>
      </trkpt>
      <trkpt lat="41.40092301818375" lon="-81.74217675825548">
        <ele>265.3418168817</ele>
        <time>2026-07-07T11:00:14Z</time>
      </trkpt>
      <trkpt lat="41.40049336131741" lon="-81.74197519281257">
        <ele>265.3545406191</ele>
        <time>2026-07-07T11:00:45Z</time>
      </trkpt>
      <trkpt lat="41.40045135026078" lon="-81.74194911782703">
        <ele>265.1823302648</ele>
        <time>2026-07-07T11:00:48Z</time>
      </trkpt>
      <trkpt lat="41.40044829183492" lon="-81.74134699417725">
        <ele>265.9055877856</ele>
        <time>2026-07-07T11:01:53Z</time>
      </trkpt>
      <trkpt lat="41.40045017272359" lon="-81.74075123853160">
        <ele>266.1580615099</ele>
        <time>2026-07-07T11:02:30Z</time>
      </trkpt>
      <trkpt lat="41.40043023572320" lon="-81.74015151758378">
        <ele>266.7301027491</ele>
        <time>2026-07-07T11:03:31Z</time>
      </trkpt>
      <trkpt lat="41.40044342151197" lon="-81.73955399479665">
        <ele>266.6112490571</ele>
        <time>2026-07-07T11:04:13Z</time>
      </trkpt>
      <trkpt lat="41.40042676807833" lon="-81.73895509124218">
        <ele>267.2831309149</ele>
        <time>2026-07-07T11:04:53Z</time>
      </trkpt>
      <trkpt lat="41.40042624755177" lon="-81.73835458867646">
        <ele>267.1055454397</ele>
        <time>2026-07-07T11:05:35Z</time>
      </trkpt>
      <trkpt lat="41.40041323275359" lon="-81.73774876126089">
        <ele>267.5498335697</ele>
        <time>2026-07-07T11:06:26Z</time>
      </trkpt>
      <trkpt lat="41.40042274571996" lon="-81.73715061585843">
        <ele>268.0992613924</ele>
        <time>2026-07-07T11:07:12Z</time>
      </trkpt>
      <trkpt lat="41.40041025011667" lon="-81.73656958878927">
        <ele>267.9953972587</ele>
        <time>2026-07-07T11:07:48Z</time>
      </trkpt>
      <trkpt lat="41.40040746774314" lon="-81.73596096064662">
        <ele>267.8103932072</ele>
        <time>2026-07-07T11:08:40Z</time>
      </trkpt>
      <trkpt lat="41.40039854213497" lon="-81.73535444347766">
        <ele>267.7491858460</ele>
        <time>2026-07-07T11:09:15Z</time>
      </trkpt>
      <trkpt lat="41.40039395617471" lon="-81.73475360857213">
        <ele>267.3756904264</ele>
        <time>2026-07-07T11:09:51Z</time>
      </trkpt>
      <trkpt lat="41.40039231036221" lon="-81.73462620990551">
        <ele>267.4940383396</ele>
        <time>2026-07-07T11:10:07Z</time>
      </trkpt>
      <trkpt lat="41.40084394467976" lon="-81.73463190837865">
        <ele>267.2453621501</ele>
        <time>2026-07-07T11:10:40Z</time>
      </trkpt>
      <trkpt lat="41.40128775347583" lon="-81.73463283130988">
        <ele>267.3422145515</ele>
        <time>2026-07-07T11:11:26Z</time>
      </trkpt>
      <trkpt lat="41.40131558776967" lon="-81.73463114193673">
        <ele>267.2099947820</ele>
        <time>2026-07-07T11:11:28Z</time>
      </trkpt>
      <trkpt lat="41.40133266744049" lon="-81.73522990182398">
        <ele>267.8403390532</ele>
        <time>2026-07-07T11:12:04Z</time>
      </trkpt>
      <trkpt lat="41.40132597669864" lon="-81.73583674501774">
        <ele>268.3783627729</ele>
        <time>2026-07-07T11:12:42Z</time>
      </trkpt>
      <trkpt lat="41.40132696528972" lon="-81.73642441585362">
        <ele>268.1992055424</ele>
        <time>2026-07-07T11:13:24Z</time>
      </trkpt>
      <trkpt lat="41.40133653400631" lon="-81.73703358741403">
        <ele>267.9646070604</ele>
        <time>2026-07-07T11:14:17Z</time>
      </trkpt>
      <trkpt lat="41.40132865765290" lon="-81.73763631871695">
        <ele>267.9037053112</ele>
        <time>2026-07-07T11:15:00Z</time>
      </trkpt>
      <trkpt lat="41.40133987331492" lon="-81.73823394110089">
        <ele>267.5173617087</ele>
        <time>2026-07-07T11:15:33Z</time>
      </trkpt>
      <trkpt lat="41.40133871418833" lon="-81.73882817582754">
        <ele>267.5235014358</ele>
        <time>2026-07-07T11:16:06Z</time>
      </trkpt>
      <trkpt lat="41.40134322819602" lon="-81.73944287117041">
        <ele>267.2472429277</ele>
        <time>2026-07-07T11:16:47Z</time>
      </trkpt>
      <trkpt lat="41.40133923795071" lon="-81.74003645683291">
        <ele>266.7605125835</ele>
        <time>2026-07-07T11:17:24Z</time>
      </trkpt>
      <trkpt lat="41.40134086385572" lon="-81.74019991270669">
        <ele>266.7468412709</ele>
        <time>2026-07-07T11:17:32Z</time>
      </trkpt>
    </trkseg>
  </trk>
</gpx>