<?xml version='1.0' encoding='UTF-8'?>
<gpx xmlns="http://www.topografix.com/GPX/1/1" creator="https://gpx.studio" version="1.1">
  <metadata>
    <name>Dog Walk - 2026-04-10 #2</name>
  </metadata>
  <trk>
    <name>Dog Walk - 2026-04-10 #2</name>
    <type>dog walk</type>
    <trkseg>
      <trkpt lat="41.40134170218423" lon="-81.74022218688015">
        <ele>266.2499803056</ele>
        <time>2026-04-10T12:57:06Z</time>
      </trkpt>
      <trkpt lat="41.40134010731489" lon="-81.74083546433178">
        <ele>266.1642325865</ele>
        <time>2026-04-10T12:57:42Z</time>
      </trkpt>
      <trkpt lat="41.40135035039538" lon="-81.74143761435168">
        <ele>265.7026130379</ele>
        <time>2026-04-10T12:58:27Z</time>
      </trkpt>
      <trkpt lat="41.40134911757637" lon="-81.74203997565296">
        <ele>265.2444939359</ele>
        <time>2026-04-10T12:59:01Z</time>
      </trkpt>
      <trkpt lat="41.40134493904777" lon="-81.74241300408202">
        <ele>264.6329516888</ele>
        <time>2026-04-10T12:59:27Z</time>
      </trkpt>
      <trkpt lat="41.40177043432540" lon="-81.74263786384398">
        <ele>264.2481341444</ele>
        <time>2026-04-10T13:00:06Z</time>
      </trkpt>
      <trkpt lat="41.40219115805898" lon="-81.74285218448318">
        <ele>263.5708992183</ele>
        <time>2026-04-10T13:00:39Z</time>
      </trkpt>
      <trkpt lat="41.40221113410221" lon="-81.74285493334553">
        <ele>263.4355338129</ele>
        <time>2026-04-10T13:00:41Z</time>
      </trkpt>
      <trkpt lat="41.40221522965810" lon="-81.74227398955416">
        <ele>264.2667431448</ele>
        <time>2026-04-10T13:01:39Z</time>
      </trkpt>
      <trkpt lat="41.40221174854918" lon="-81.74166414046999">
        <ele>264.7401970388</ele>
        <time>2026-04-10T13:02:10Z</time>
      </trkpt>
      <trkpt lat="41.40222089263222" lon="-81.74106292274212">
        <ele>265.3647046359</ele>
        <time>2026-04-10T13:02:55Z</time>
      </trkpt>
      <trkpt lat="41.40221281413444" lon="-81.74046380571443">
        <ele>266.0488865565</ele>
        <time>2026-04-10T13:03:29Z</time>
      </trkpt>
      <trkpt lat="41.40220941993427" lon="-81.73986668239249">
        <ele>266.4963677337</ele>
        <time>2026-04-10T13:04:28Z</time>
      </trkpt>
      <trkpt lat="41.40222695274190" lon="-81.73926317565660">
        <ele>266.7538820335</ele>
        <time>2026-04-10T13:05:00Z</time>
      </trkpt>
      <trkpt lat="41.40221882968141" lon="-81.73866481190552">
        <ele>267.2765769178</ele>
        <time>2026-04-10T13:05:42Z</time>
      </trkpt>
      <trkpt lat="41.40221623315684" lon="-81.73827162106123">
        <ele>267.2849828916</ele>
        <time>2026-04-10T13:06:03Z</time>
      </trkpt>
      <trkpt lat="41.40176420967745" lon="-81.73826977008518">
        <ele>267.5638220959</ele>
        <time>2026-04-10T13:06:37Z</time>
      </trkpt>
      <trkpt lat="41.40133459071939" lon="-81.73826409408117">
        <ele>267.6388235195</ele>
        <time>2026-04-10T13:07:10Z</time>
      </trkpt>
      <trkpt lat="41.40133842742665" lon="-81.73885793337826">
        <ele>267.5419440894</ele>
        <time>2026-04-10T13:08:08Z</time>
      </trkpt>
      <trkpt lat="41.40134405249302" lon="-81.73945260270865">
        <ele>266.8586646674</ele>
        <time>2026-04-10T13:08:41Z</time>
      </trkpt>
      <trkpt lat="41.40133943030913" lon="-81.74006176714836">
        <ele>266.5862654104</ele>
        <time>2026-04-10T13:09:11Z</time>
      </trkpt>
      <trkpt lat="41.40134208550749" lon="-81.74020371562739">
        <ele>266.5572406642</ele>
        <time>2026-04-10T13:09:20Z</time>
      </trkpt>
    </trkseg>
  </trk>
</gpx>