<?xml version='1.0' encoding='UTF-8'?>
<gpx xmlns="http://www.topografix.com/GPX/1/1" creator="https://gpx.studio" version="1.1">
  <metadata>
    <name>Dog Walk - 2026-06-29 #1</name>
  </metadata>
  <trk>
    <name>Dog Walk - 2026-06-29 #1</name>
    <type>dog walk</type>
    <trkseg>
      <trkpt lat="41.40133435158889" lon="-81.74023681815093">
        <ele>266.5997732309</ele>
        <time>2026-06-29T09:30:02Z</time>
      </trkpt>
      <trkpt lat="41.40132682761269" lon="-81.74083259791261">
        <ele>266.2404883556</ele>
        <time>2026-06-29T09:30:34Z</time>
      </trkpt>
      <trkpt lat="41.40133141524858" lon="-81.74144698205448">
        <ele>265.8210921098</ele>
        <time>2026-06-29T09:31:02Z</time>
      </trkpt>
      <trkpt lat="41.40133479971055" lon="-81.74203272953265">
        <ele>265.3746137302</ele>
        <time>2026-06-29T09:31:49Z</time>
      </trkpt>
      <trkpt lat="41.40133532478331" lon="-81.74238976595529">
        <ele>264.6072052925</ele>
        <time>2026-06-29T09:32:06Z</time>
      </trkpt>
      <trkpt lat="41.40090606904057" lon="-81.74219650299293">
        <ele>265.3164398169</ele>
        <time>2026-06-29T09:32:48Z</time>
      </trkpt>
      <trkpt lat="41.40047612448534" lon="-81.74200599475371">
        <ele>265.1915215687</ele>
        <time>2026-06-29T09:33:19Z</time>
      </trkpt>
      <trkpt lat="41.40005098094456" lon="-81.74181298878064">
        <ele>265.4243154923</ele>
        <time>2026-06-29T09:33:51Z</time>
      </trkpt>
      <trkpt lat="41.39963176910762" lon="-81.74161359371277">
        <ele>264.4772774789</ele>
        <time>2026-06-29T09:34:32Z</time>
      </trkpt>
      <trkpt lat="41.39953070016735" lon="-81.74157749836286">
        <ele>264.7735721026</ele>
        <time>2026-06-29T09:34:42Z</time>
      </trkpt>
      <trkpt lat="41.39953611381144" lon="-81.74096632892449">
        <ele>265.6523841192</ele>
        <time>2026-06-29T09:35:20Z</time>
      </trkpt>
      <trkpt lat="41.39952920531306" lon="-81.74037222732278">
        <ele>266.1107891332</ele>
        <time>2026-06-29T09:36:13Z</time>
      </trkpt>
      <trkpt lat="41.39953282721503" lon="-81.73977680853125">
        <ele>266.6433666853</ele>
        <time>2026-06-29T09:37:11Z</time>
      </trkpt>
      <trkpt lat="41.39953325684927" lon="-81.73916997159341">
        <ele>266.8700851942</ele>
        <time>2026-06-29T09:37:45Z</time>
      </trkpt>
      <trkpt lat="41.39952972784150" lon="-81.73857340139631">
        <ele>266.7714793312</ele>
        <time>2026-06-29T09:38:28Z</time>
      </trkpt>
      <trkpt lat="41.39953089082021" lon="-81.73797498018843">
        <ele>267.0581653651</ele>
        <time>2026-06-29T09:39:04Z</time>
      </trkpt>
      <trkpt lat="41.39952498953858" lon="-81.73737334651308">
        <ele>267.2571028265</ele>
        <time>2026-06-29T09:39:41Z</time>
      </trkpt>
      <trkpt lat="41.39953322627198" lon="-81.73677319916901">
        <ele>267.4388601571</ele>
        <time>2026-06-29T09:40:27Z</time>
      </trkpt>
      <trkpt lat="41.39953349570695" lon="-81.73617711398845">
        <ele>267.4560133725</ele>
        <time>2026-06-29T09:41:09Z</time>
      </trkpt>
      <trkpt lat="41.39952229360164" lon="-81.73557848399577">
        <ele>267.3553388206</ele>
        <time>2026-06-29T09:41:49Z</time>
      </trkpt>
      <trkpt lat="41.39953342006348" lon="-81.73497259630591">
        <ele>267.0525280825</ele>
        <time>2026-06-29T09:42:29Z</time>
      </trkpt>
      <trkpt lat="41.39952523298100" lon="-81.73460679714141">
        <ele>266.9537814022</ele>
        <time>2026-06-29T09:42:56Z</time>
      </trkpt>
      <trkpt lat="41.39996984586740" lon="-81.73463260422423">
        <ele>267.1278618943</ele>
        <time>2026-06-29T09:43:33Z</time>
      </trkpt>
      <trkpt lat="41.40042074057364" lon="-81.73462781939021">
        <ele>267.3158538174</ele>
        <time>2026-06-29T09:44:12Z</time>
      </trkpt>
      <trkpt lat="41.40086828866509" lon="-81.73463469292851">
        <ele>267.2386853771</ele>
        <time>2026-06-29T09:44:44Z</time>
      </trkpt>
      <trkpt lat="41.40132399377607" lon="-81.73464645104076">
        <ele>267.4432675546</ele>
        <time>2026-06-29T09:45:39Z</time>
      </trkpt>
      <trkpt lat="41.40132050367978" lon="-81.73523629118588">
        <ele>267.7360300837</ele>
        <time>2026-06-29T09:46:31Z</time>
      </trkpt>
      <trkpt lat="41.40132037200138" lon="-81.73583464747581">
        <ele>268.1716090007</ele>
        <time>2026-06-29T09:47:27Z</time>
      </trkpt>
      <trkpt lat="41.40132342489732" lon="-81.73643405092733">
        <ele>267.9868665893</ele>
        <time>2026-06-29T09:48:20Z</time>
      </trkpt>
      <trkpt lat="41.40132718956375" lon="-81.73703965209756">
        <ele>268.2990663871</ele>
        <time>2026-06-29T09:49:05Z</time>
      </trkpt>
      <trkpt lat="41.40133569174489" lon="-81.73763440582279">
        <ele>268.0334905692</ele>
        <time>2026-06-29T09:49:57Z</time>
      </trkpt>
      <trkpt lat="41.40133194355931" lon="-81.73823043024619">
        <ele>267.5512175328</ele>
        <time>2026-06-29T09:50:56Z</time>
      </trkpt>
      <trkpt lat="41.40133171268266" lon="-81.73883725408724">
        <ele>267.3361647299</ele>
        <time>2026-06-29T09:51:48Z</time>
      </trkpt>
      <trkpt lat="41.40132995568757" lon="-81.73943881869984">
        <ele>267.2356757194</ele>
        <time>2026-06-29T09:52:22Z</time>
      </trkpt>
      <trkpt lat="41.40132659231522" lon="-81.74002121414016">
        <ele>266.6561902103</ele>
        <time>2026-06-29T09:53:18Z</time>
      </trkpt>
      <trkpt lat="41.40132946274812" lon="-81.74021297236561">
        <ele>266.5621376268</ele>
        <time>2026-06-29T09:53:29Z</time>
      </trkpt>
    </trkseg>
  </trk>
</gpx>