<?xml version='1.0' encoding='UTF-8'?>
<gpx xmlns="http://www.topografix.com/GPX/1/1" creator="https://gpx.studio" version="1.1">
  <metadata>
    <name>Dog Walk - 2026-03-09</name>
  </metadata>
  <trk>
    <name>Dog Walk - 2026-03-09</name>
    <type>dog walk</type>
    <trkseg>
      <trkpt lat="41.40134188886343" lon="-81.74022736174616">
        <ele>266.6630365622</ele>
        <time>2026-03-09T10:56:34Z</time>
      </trkpt>
      <trkpt lat="41.40134037232477" lon="-81.74082774736655">
        <ele>265.9584262054</ele>
        <time>2026-03-09T10:57:18Z</time>
      </trkpt>
      <trkpt lat="41.40134536940771" lon="-81.74142775113449">
        <ele>265.8737650297</ele>
        <time>2026-03-09T10:58:49Z</time>
      </trkpt>
      <trkpt lat="41.40134191669301" lon="-81.74203687513129">
        <ele>265.2712969538</ele>
        <time>2026-03-09T10:59:37Z</time>
      </trkpt>
      <trkpt lat="41.40135586026703" lon="-81.74241245619936">
        <ele>264.7764716121</ele>
        <time>2026-03-09T10:59:59Z</time>
      </trkpt>
      <trkpt lat="41.40176957795786" lon="-81.74263107253536">
        <ele>264.3085224154</ele>
        <time>2026-03-09T11:00:29Z</time>
      </trkpt>
      <trkpt lat="41.40219433525241" lon="-81.74284023259467">
        <ele>263.4860753431</ele>
        <time>2026-03-09T11:01:13Z</time>
      </trkpt>
      <trkpt lat="41.40260931970442" lon="-81.74304598273572">
        <ele>262.8219103611</ele>
        <time>2026-03-09T11:01:49Z</time>
      </trkpt>
      <trkpt lat="41.40303368966948" lon="-81.74326508033707">
        <ele>262.3431489289</ele>
        <time>2026-03-09T11:02:32Z</time>
      </trkpt>
      <trkpt lat="41.40345338255113" lon="-81.74347438016700">
        <ele>261.7627569235</ele>
        <time>2026-03-09T11:03:05Z</time>
      </trkpt>
      <trkpt lat="41.40348797481932" lon="-81.74350103429684">
        <ele>261.7137664329</ele>
        <time>2026-03-09T11:03:16Z</time>
      </trkpt>
      <trkpt lat="41.40359140130603" lon="-81.74350774642781">
        <ele>261.7267430915</ele>
        <time>2026-03-09T11:03:38Z</time>
      </trkpt>
      <trkpt lat="41.40398776901668" lon="-81.74350380174096">
        <ele>260.7666954093</ele>
        <time>2026-03-09T11:04:16Z</time>
      </trkpt>
      <trkpt lat="41.40398983571924" lon="-81.74291096165425">
        <ele>261.4676148475</ele>
        <time>2026-03-09T11:04:48Z</time>
      </trkpt>
      <trkpt lat="41.40399730895059" lon="-81.74230838526233">
        <ele>262.1153979116</ele>
        <time>2026-03-09T11:05:24Z</time>
      </trkpt>
      <trkpt lat="41.40398994619294" lon="-81.74170554148060">
        <ele>262.2745091581</ele>
        <time>2026-03-09T11:05:59Z</time>
      </trkpt>
      <trkpt lat="41.40398580605424" lon="-81.74111827042300">
        <ele>263.1165548398</ele>
        <time>2026-03-09T11:06:31Z</time>
      </trkpt>
      <trkpt lat="41.40399135922630" lon="-81.74051044591883">
        <ele>263.4483112158</ele>
        <time>2026-03-09T11:07:16Z</time>
      </trkpt>
      <trkpt lat="41.40398273114384" lon="-81.73991850458219">
        <ele>264.3487407935</ele>
        <time>2026-03-09T11:07:53Z</time>
      </trkpt>
      <trkpt lat="41.40398832268813" lon="-81.73930722674331">
        <ele>264.9456961817</ele>
        <time>2026-03-09T11:08:32Z</time>
      </trkpt>
      <trkpt lat="41.40399432181606" lon="-81.73877143205655">
        <ele>265.3106460980</ele>
        <time>2026-03-09T11:09:05Z</time>
      </trkpt>
      <trkpt lat="41.40354137705133" lon="-81.73877922470830">
        <ele>265.8846201491</ele>
        <time>2026-03-09T11:09:43Z</time>
      </trkpt>
      <trkpt lat="41.40309175120154" lon="-81.73876959999126">
        <ele>266.4279328759</ele>
        <time>2026-03-09T11:10:38Z</time>
      </trkpt>
      <trkpt lat="41.40264208593027" lon="-81.73877196708382">
        <ele>266.8847522972</ele>
        <time>2026-03-09T11:11:29Z</time>
      </trkpt>
      <trkpt lat="41.40223155525119" lon="-81.73877899506326">
        <ele>267.1521003091</ele>
        <time>2026-03-09T11:12:07Z</time>
      </trkpt>
      <trkpt lat="41.40221515373921" lon="-81.73828485762118">
        <ele>267.0386879827</ele>
        <time>2026-03-09T11:12:35Z</time>
      </trkpt>
      <trkpt lat="41.40176676825256" lon="-81.73826364759687">
        <ele>267.8673530754</ele>
        <time>2026-03-09T11:13:21Z</time>
      </trkpt>
      <trkpt lat="41.40133489342330" lon="-81.73826827966883">
        <ele>267.3167040003</ele>
        <time>2026-03-09T11:14:00Z</time>
      </trkpt>
      <trkpt lat="41.40132692553977" lon="-81.73888639501422">
        <ele>267.1615261194</ele>
        <time>2026-03-09T11:14:52Z</time>
      </trkpt>
      <trkpt lat="41.40133819649899" lon="-81.73946318842873">
        <ele>267.2451229504</ele>
        <time>2026-03-09T11:15:40Z</time>
      </trkpt>
      <trkpt lat="41.40133589327308" lon="-81.74006249084184">
        <ele>266.6043959319</ele>
        <time>2026-03-09T11:16:29Z</time>
      </trkpt>
      <trkpt lat="41.40134007786920" lon="-81.74021025193598">
        <ele>266.4934717567</ele>
        <time>2026-03-09T11:16:36Z</time>
      </trkpt>
    </trkseg>
  </trk>
</gpx>