<?xml version='1.0' encoding='UTF-8'?>
<gpx xmlns="http://www.topografix.com/GPX/1/1" creator="https://gpx.studio" version="1.1">
  <metadata>
    <name>Dog Walk - 2026-06-25 #1</name>
  </metadata>
  <trk>
    <name>Dog Walk - 2026-06-25 #1</name>
    <type>dog walk</type>
    <trkseg>
      <trkpt lat="41.40134662790641" lon="-81.74024916589163">
        <ele>266.5773848487</ele>
        <time>2026-06-25T12:20:47Z</time>
      </trkpt>
      <trkpt lat="41.40134771549565" lon="-81.74084606788331">
        <ele>266.0874331822</ele>
        <time>2026-06-25T12:21:24Z</time>
      </trkpt>
      <trkpt lat="41.40133590761270" lon="-81.74144070017543">
        <ele>265.7560079814</ele>
        <time>2026-06-25T12:21:57Z</time>
      </trkpt>
      <trkpt lat="41.40135456794343" lon="-81.74203676817973">
        <ele>265.2059728656</ele>
        <time>2026-06-25T12:22:38Z</time>
      </trkpt>
      <trkpt lat="41.40134662786181" lon="-81.74241042586004">
        <ele>264.6471394851</ele>
        <time>2026-06-25T12:23:14Z</time>
      </trkpt>
      <trkpt lat="41.40178134761750" lon="-81.74261564894667">
        <ele>264.2573822234</ele>
        <time>2026-06-25T12:24:04Z</time>
      </trkpt>
      <trkpt lat="41.40219320592111" lon="-81.74282394555432">
        <ele>263.5963165833</ele>
        <time>2026-06-25T12:24:40Z</time>
      </trkpt>
      <trkpt lat="41.40262035725957" lon="-81.74302640391640">
        <ele>263.1166165488</ele>
        <time>2026-06-25T12:25:17Z</time>
      </trkpt>
      <trkpt lat="41.40304332054777" lon="-81.74321359722039">
        <ele>262.3042759569</ele>
        <time>2026-06-25T12:25:48Z</time>
      </trkpt>
      <trkpt lat="41.40311420117177" lon="-81.74324939532549">
        <ele>262.3885929828</ele>
        <time>2026-06-25T12:25:56Z</time>
      </trkpt>
      <trkpt lat="41.40311481275516" lon="-81.74265011067369">
        <ele>263.0087811754</ele>
        <time>2026-06-25T12:26:38Z</time>
      </trkpt>
      <trkpt lat="41.40311291017880" lon="-81.74205104055173">
        <ele>263.7492928189</ele>
        <time>2026-06-25T12:27:26Z</time>
      </trkpt>
      <trkpt lat="41.40310325597109" lon="-81.74146381544028">
        <ele>264.1214140626</ele>
        <time>2026-06-25T12:28:05Z</time>
      </trkpt>
      <trkpt lat="41.40309284499771" lon="-81.74085627414765">
        <ele>264.8110956340</ele>
        <time>2026-06-25T12:28:41Z</time>
      </trkpt>
      <trkpt lat="41.40310621951431" lon="-81.74025968621307">
        <ele>265.5742305462</ele>
        <time>2026-06-25T12:29:19Z</time>
      </trkpt>
      <trkpt lat="41.40310720995014" lon="-81.73965250376335">
        <ele>265.9727392178</ele>
        <time>2026-06-25T12:30:07Z</time>
      </trkpt>
      <trkpt lat="41.40309742457949" lon="-81.73904917412101">
        <ele>265.9503276818</ele>
        <time>2026-06-25T12:30:52Z</time>
      </trkpt>
      <trkpt lat="41.40309694656498" lon="-81.73880209204880">
        <ele>266.0348514442</ele>
        <time>2026-06-25T12:31:08Z</time>
      </trkpt>
      <trkpt lat="41.40264819971254" lon="-81.73878910106936">
        <ele>266.7512304330</ele>
        <time>2026-06-25T12:31:50Z</time>
      </trkpt>
      <trkpt lat="41.40223451624513" lon="-81.73878239649748">
        <ele>267.3745260136</ele>
        <time>2026-06-25T12:32:21Z</time>
      </trkpt>
      <trkpt lat="41.40223036117472" lon="-81.73817330252365">
        <ele>267.1675184683</ele>
        <time>2026-06-25T12:33:01Z</time>
      </trkpt>
      <trkpt lat="41.40221949513061" lon="-81.73758477630108">
        <ele>267.2507785703</ele>
        <time>2026-06-25T12:33:53Z</time>
      </trkpt>
      <trkpt lat="41.40222052419769" lon="-81.73698693385623">
        <ele>267.0936063235</ele>
        <time>2026-06-25T12:34:47Z</time>
      </trkpt>
      <trkpt lat="41.40223100303936" lon="-81.73638450541765">
        <ele>266.9900363605</ele>
        <time>2026-06-25T12:35:27Z</time>
      </trkpt>
      <trkpt lat="41.40222817604478" lon="-81.73577240431456">
        <ele>267.5036290357</ele>
        <time>2026-06-25T12:36:07Z</time>
      </trkpt>
      <trkpt lat="41.40222327352085" lon="-81.73518968788846">
        <ele>267.1171908879</ele>
        <time>2026-06-25T12:36:51Z</time>
      </trkpt>
      <trkpt lat="41.40222465751174" lon="-81.73464824955080">
        <ele>267.0838793219</ele>
        <time>2026-06-25T12:37:22Z</time>
      </trkpt>
      <trkpt lat="41.40176749789069" lon="-81.73465087223325">
        <ele>267.2005486051</ele>
        <time>2026-06-25T12:37:59Z</time>
      </trkpt>
      <trkpt lat="41.40132896435715" lon="-81.73463776935893">
        <ele>267.5987763044</ele>
        <time>2026-06-25T12:38:29Z</time>
      </trkpt>
      <trkpt lat="41.40132026058278" lon="-81.73462491973545">
        <ele>267.2964793144</ele>
        <time>2026-06-25T12:38:30Z</time>
      </trkpt>
      <trkpt lat="41.40132055030848" lon="-81.73523445926671">
        <ele>267.9090302882</ele>
        <time>2026-06-25T12:39:04Z</time>
      </trkpt>
      <trkpt lat="41.40132514542975" lon="-81.73582811382668">
        <ele>268.0385333698</ele>
        <time>2026-06-25T12:39:53Z</time>
      </trkpt>
      <trkpt lat="41.40133735358629" lon="-81.73643184212281">
        <ele>268.2285984116</ele>
        <time>2026-06-25T12:40:42Z</time>
      </trkpt>
      <trkpt lat="41.40133339604063" lon="-81.73702969227762">
        <ele>268.2358934054</ele>
        <time>2026-06-25T12:41:13Z</time>
      </trkpt>
      <trkpt lat="41.40133460179900" lon="-81.73763138299390">
        <ele>267.8837046456</ele>
        <time>2026-06-25T12:42:00Z</time>
      </trkpt>
      <trkpt lat="41.40134474650991" lon="-81.73823740210591">
        <ele>267.4148201596</ele>
        <time>2026-06-25T12:42:40Z</time>
      </trkpt>
      <trkpt lat="41.40134174032404" lon="-81.73883283328462">
        <ele>267.6495099442</ele>
        <time>2026-06-25T12:43:17Z</time>
      </trkpt>
      <trkpt lat="41.40133576943784" lon="-81.73942980183116">
        <ele>267.1546645325</ele>
        <time>2026-06-25T12:44:05Z</time>
      </trkpt>
      <trkpt lat="41.40134236099938" lon="-81.74002697024190">
        <ele>266.8273212840</ele>
        <time>2026-06-25T12:44:51Z</time>
      </trkpt>
      <trkpt lat="41.40135211299387" lon="-81.74016060713848">
        <ele>266.6734876039</ele>
        <time>2026-06-25T12:45:02Z</time>
      </trkpt>
    </trkseg>
  </trk>
</gpx>