<?xml version='1.0' encoding='UTF-8'?>
<gpx xmlns="http://www.topografix.com/GPX/1/1" creator="https://gpx.studio" version="1.1">
  <metadata>
    <name>Dog Walk - 2026-05-07 #4</name>
  </metadata>
  <trk>
    <name>Dog Walk - 2026-05-07 #4</name>
    <type>dog walk</type>
    <trkseg>
      <trkpt lat="41.40134604535399" lon="-81.74023286452405">
        <ele>266.6480326627</ele>
        <time>2026-05-07T20:03:05Z</time>
      </trkpt>
      <trkpt lat="41.40134077723715" lon="-81.74082924114363">
        <ele>266.0413705939</ele>
        <time>2026-05-07T20:03:42Z</time>
      </trkpt>
      <trkpt lat="41.40134841765783" lon="-81.74142845504009">
        <ele>265.8157140220</ele>
        <time>2026-05-07T20:04:27Z</time>
      </trkpt>
      <trkpt lat="41.40133586507823" lon="-81.74203987394611">
        <ele>265.4831777281</ele>
        <time>2026-05-07T20:05:06Z</time>
      </trkpt>
      <trkpt lat="41.40134881960029" lon="-81.74241069327729">
        <ele>264.5213933060</ele>
        <time>2026-05-07T20:05:27Z</time>
      </trkpt>
      <trkpt lat="41.40176320658964" lon="-81.74262573282549">
        <ele>264.3027501962</ele>
        <time>2026-05-07T20:06:02Z</time>
      </trkpt>
      <trkpt lat="41.40218219558400" lon="-81.74284575145963">
        <ele>263.4185403922</ele>
        <time>2026-05-07T20:06:44Z</time>
      </trkpt>
      <trkpt lat="41.40260304629579" lon="-81.74305152950252">
        <ele>263.0153150750</ele>
        <time>2026-05-07T20:07:36Z</time>
      </trkpt>
      <trkpt lat="41.40302800954500" lon="-81.74326748911564">
        <ele>262.3242911128</ele>
        <time>2026-05-07T20:08:11Z</time>
      </trkpt>
      <trkpt lat="41.40344744522949" lon="-81.74347694727764">
        <ele>261.7134329924</ele>
        <time>2026-05-07T20:08:55Z</time>
      </trkpt>
      <trkpt lat="41.40348410159388" lon="-81.74349836765697">
        <ele>261.9030779133</ele>
        <time>2026-05-07T20:08:58Z</time>
      </trkpt>
      <trkpt lat="41.40359338765234" lon="-81.74351646036764">
        <ele>261.6011287272</ele>
        <time>2026-05-07T20:09:06Z</time>
      </trkpt>
      <trkpt lat="41.40399300868308" lon="-81.74351239344425">
        <ele>260.6615079903</ele>
        <time>2026-05-07T20:09:41Z</time>
      </trkpt>
      <trkpt lat="41.40398945625957" lon="-81.74290984772848">
        <ele>261.3972570157</ele>
        <time>2026-05-07T20:10:19Z</time>
      </trkpt>
      <trkpt lat="41.40399632635146" lon="-81.74231041496373">
        <ele>262.0303791772</ele>
        <time>2026-05-07T20:10:58Z</time>
      </trkpt>
      <trkpt lat="41.40399133800296" lon="-81.74170872833464">
        <ele>262.4154953969</ele>
        <time>2026-05-07T20:11:34Z</time>
      </trkpt>
      <trkpt lat="41.40399037319698" lon="-81.74111372821524">
        <ele>262.8269988340</ele>
        <time>2026-05-07T20:12:10Z</time>
      </trkpt>
      <trkpt lat="41.40398575155058" lon="-81.74050012896046">
        <ele>263.4704917515</ele>
        <time>2026-05-07T20:13:01Z</time>
      </trkpt>
      <trkpt lat="41.40399531479708" lon="-81.73990285370431">
        <ele>264.1845212320</ele>
        <time>2026-05-07T20:13:39Z</time>
      </trkpt>
      <trkpt lat="41.40398817511384" lon="-81.73930490741171">
        <ele>265.0281765032</ele>
        <time>2026-05-07T20:14:27Z</time>
      </trkpt>
      <trkpt lat="41.40398596815361" lon="-81.73877245643013">
        <ele>265.4329948327</ele>
        <time>2026-05-07T20:15:06Z</time>
      </trkpt>
      <trkpt lat="41.40354333920668" lon="-81.73877568005791">
        <ele>265.8570377766</ele>
        <time>2026-05-07T20:15:40Z</time>
      </trkpt>
      <trkpt lat="41.40308541728763" lon="-81.73877040255488">
        <ele>266.3357359629</ele>
        <time>2026-05-07T20:16:26Z</time>
      </trkpt>
      <trkpt lat="41.40263279160148" lon="-81.73877466955570">
        <ele>266.7215391482</ele>
        <time>2026-05-07T20:17:22Z</time>
      </trkpt>
      <trkpt lat="41.40223066316997" lon="-81.73877711692361">
        <ele>266.9527153423</ele>
        <time>2026-05-07T20:17:54Z</time>
      </trkpt>
      <trkpt lat="41.40222185748682" lon="-81.73827676199767">
        <ele>266.8973582624</ele>
        <time>2026-05-07T20:18:30Z</time>
      </trkpt>
      <trkpt lat="41.40176632470866" lon="-81.73827631459471">
        <ele>267.8082698084</ele>
        <time>2026-05-07T20:19:11Z</time>
      </trkpt>
      <trkpt lat="41.40132979114231" lon="-81.73827150693940">
        <ele>267.4255267549</ele>
        <time>2026-05-07T20:19:47Z</time>
      </trkpt>
      <trkpt lat="41.40133769197826" lon="-81.73886103963056">
        <ele>267.4359882576</ele>
        <time>2026-05-07T20:20:25Z</time>
      </trkpt>
      <trkpt lat="41.40133416376205" lon="-81.73946752122087">
        <ele>267.2318598454</ele>
        <time>2026-05-07T20:21:15Z</time>
      </trkpt>
      <trkpt lat="41.40133284830760" lon="-81.74006189337311">
        <ele>266.6991857674</ele>
        <time>2026-05-07T20:21:53Z</time>
      </trkpt>
      <trkpt lat="41.40133657436071" lon="-81.74021779658655">
        <ele>266.4943521885</ele>
        <time>2026-05-07T20:22:02Z</time>
      </trkpt>
    </trkseg>
  </trk>
</gpx>