<?xml version='1.0' encoding='UTF-8'?>
<gpx xmlns="http://www.topografix.com/GPX/1/1" creator="https://gpx.studio" version="1.1">
  <metadata>
    <name>Dog Walk - 2026-04-19 #1</name>
  </metadata>
  <trk>
    <name>Dog Walk - 2026-04-19 #1</name>
    <type>dog walk</type>
    <trkseg>
      <trkpt lat="41.40134744574286" lon="-81.74023049390576">
        <ele>266.2966244901</ele>
        <time>2026-04-19T08:10:23Z</time>
      </trkpt>
      <trkpt lat="41.40133939377980" lon="-81.74083423698409">
        <ele>266.1656789157</ele>
        <time>2026-04-19T08:11:00Z</time>
      </trkpt>
      <trkpt lat="41.40133889570265" lon="-81.74143360683264">
        <ele>265.9628955881</ele>
        <time>2026-04-19T08:11:47Z</time>
      </trkpt>
      <trkpt lat="41.40132737759586" lon="-81.74203043215546">
        <ele>265.0714680002</ele>
        <time>2026-04-19T08:12:23Z</time>
      </trkpt>
      <trkpt lat="41.40133960321171" lon="-81.74238484171602">
        <ele>264.5937788729</ele>
        <time>2026-04-19T08:12:45Z</time>
      </trkpt>
      <trkpt lat="41.40090537821764" lon="-81.74218120640693">
        <ele>265.4516355013</ele>
        <time>2026-04-19T08:13:21Z</time>
      </trkpt>
      <trkpt lat="41.40048776793328" lon="-81.74197034850428">
        <ele>265.2050070036</ele>
        <time>2026-04-19T08:13:58Z</time>
      </trkpt>
      <trkpt lat="41.40044453836964" lon="-81.74196241196100">
        <ele>265.1890632548</ele>
        <time>2026-04-19T08:14:02Z</time>
      </trkpt>
      <trkpt lat="41.40044104617849" lon="-81.74135828530241">
        <ele>265.7492857446</ele>
        <time>2026-04-19T08:15:08Z</time>
      </trkpt>
      <trkpt lat="41.40044547083554" lon="-81.74074462100944">
        <ele>266.3418135426</ele>
        <time>2026-04-19T08:15:45Z</time>
      </trkpt>
      <trkpt lat="41.40044283619391" lon="-81.74015800552301">
        <ele>266.9153779752</ele>
        <time>2026-04-19T08:16:27Z</time>
      </trkpt>
      <trkpt lat="41.40042959247717" lon="-81.73955691101332">
        <ele>266.7585578385</ele>
        <time>2026-04-19T08:17:06Z</time>
      </trkpt>
      <trkpt lat="41.40042910382905" lon="-81.73895763008738">
        <ele>267.0016104389</ele>
        <time>2026-04-19T08:17:38Z</time>
      </trkpt>
      <trkpt lat="41.40042576490870" lon="-81.73834960175006">
        <ele>267.2571502993</ele>
        <time>2026-04-19T08:18:13Z</time>
      </trkpt>
      <trkpt lat="41.40041595411522" lon="-81.73776426405476">
        <ele>267.7878686057</ele>
        <time>2026-04-19T08:18:50Z</time>
      </trkpt>
      <trkpt lat="41.40041378370153" lon="-81.73715624068632">
        <ele>268.0654186179</ele>
        <time>2026-04-19T08:19:49Z</time>
      </trkpt>
      <trkpt lat="41.40040982898612" lon="-81.73655121643348">
        <ele>268.0938151251</ele>
        <time>2026-04-19T08:20:38Z</time>
      </trkpt>
      <trkpt lat="41.40040625796754" lon="-81.73594647437021">
        <ele>267.8933473394</ele>
        <time>2026-04-19T08:21:25Z</time>
      </trkpt>
      <trkpt lat="41.40039490571785" lon="-81.73536399942650">
        <ele>267.8958875228</ele>
        <time>2026-04-19T08:22:09Z</time>
      </trkpt>
      <trkpt lat="41.40038787537591" lon="-81.73476203597396">
        <ele>267.2474818963</ele>
        <time>2026-04-19T08:22:49Z</time>
      </trkpt>
      <trkpt lat="41.40039399564420" lon="-81.73462531911451">
        <ele>267.2581351853</ele>
        <time>2026-04-19T08:23:01Z</time>
      </trkpt>
      <trkpt lat="41.40084409220081" lon="-81.73462363489563">
        <ele>267.2740011661</ele>
        <time>2026-04-19T08:23:53Z</time>
      </trkpt>
      <trkpt lat="41.40129299729821" lon="-81.73463481098860">
        <ele>267.4472422229</ele>
        <time>2026-04-19T08:24:36Z</time>
      </trkpt>
      <trkpt lat="41.40131319889255" lon="-81.73463949836103">
        <ele>267.3079060253</ele>
        <time>2026-04-19T08:24:37Z</time>
      </trkpt>
      <trkpt lat="41.40132027828022" lon="-81.73523533267544">
        <ele>268.1412448360</ele>
        <time>2026-04-19T08:25:18Z</time>
      </trkpt>
      <trkpt lat="41.40132793399881" lon="-81.73583274990139">
        <ele>268.4964732309</ele>
        <time>2026-04-19T08:25:50Z</time>
      </trkpt>
      <trkpt lat="41.40133049759963" lon="-81.73643247206215">
        <ele>268.1102830446</ele>
        <time>2026-04-19T08:26:30Z</time>
      </trkpt>
      <trkpt lat="41.40132705909223" lon="-81.73703512681351">
        <ele>267.9447981464</ele>
        <time>2026-04-19T08:27:09Z</time>
      </trkpt>
      <trkpt lat="41.40133657244321" lon="-81.73763765362273">
        <ele>267.9185650986</ele>
        <time>2026-04-19T08:28:02Z</time>
      </trkpt>
      <trkpt lat="41.40133537594716" lon="-81.73823321477154">
        <ele>267.5012344121</ele>
        <time>2026-04-19T08:28:31Z</time>
      </trkpt>
      <trkpt lat="41.40133981927008" lon="-81.73882855592836">
        <ele>267.2450907318</ele>
        <time>2026-04-19T08:29:04Z</time>
      </trkpt>
      <trkpt lat="41.40134372349465" lon="-81.73943220050843">
        <ele>267.1555578090</ele>
        <time>2026-04-19T08:29:48Z</time>
      </trkpt>
      <trkpt lat="41.40134559239639" lon="-81.74002391799971">
        <ele>266.6902343909</ele>
        <time>2026-04-19T08:30:27Z</time>
      </trkpt>
      <trkpt lat="41.40134811501245" lon="-81.74019603572718">
        <ele>266.4285105007</ele>
        <time>2026-04-19T08:30:35Z</time>
      </trkpt>
    </trkseg>
  </trk>
</gpx>