<?xml version='1.0' encoding='UTF-8'?>
<gpx xmlns="http://www.topografix.com/GPX/1/1" creator="https://gpx.studio" version="1.1">
  <metadata>
    <name>Dog Walk - 2026-06-10 #4</name>
  </metadata>
  <trk>
    <name>Dog Walk - 2026-06-10 #4</name>
    <type>dog walk</type>
    <trkseg>
      <trkpt lat="41.40134505239523" lon="-81.74023873317444">
        <ele>266.4962578860</ele>
        <time>2026-06-10T19:14:46Z</time>
      </trkpt>
      <trkpt lat="41.40133702204233" lon="-81.74082393677622">
        <ele>266.2389995762</ele>
        <time>2026-06-10T19:15:14Z</time>
      </trkpt>
      <trkpt lat="41.40134307591711" lon="-81.74143504581933">
        <ele>265.8147907943</ele>
        <time>2026-06-10T19:15:51Z</time>
      </trkpt>
      <trkpt lat="41.40135091221112" lon="-81.74203947709015">
        <ele>265.4049584494</ele>
        <time>2026-06-10T19:16:44Z</time>
      </trkpt>
      <trkpt lat="41.40134621469630" lon="-81.74241148861817">
        <ele>264.6460616872</ele>
        <time>2026-06-10T19:17:05Z</time>
      </trkpt>
      <trkpt lat="41.40177248851445" lon="-81.74262143370981">
        <ele>264.3968266246</ele>
        <time>2026-06-10T19:17:39Z</time>
      </trkpt>
      <trkpt lat="41.40219633906777" lon="-81.74281513093415">
        <ele>263.4839584325</ele>
        <time>2026-06-10T19:18:24Z</time>
      </trkpt>
      <trkpt lat="41.40261550456012" lon="-81.74301177766020">
        <ele>263.1905191268</ele>
        <time>2026-06-10T19:19:16Z</time>
      </trkpt>
      <trkpt lat="41.40304240845668" lon="-81.74321970120573">
        <ele>262.4411873917</ele>
        <time>2026-06-10T19:20:00Z</time>
      </trkpt>
      <trkpt lat="41.40311584839404" lon="-81.74325446480009">
        <ele>262.4287965948</ele>
        <time>2026-06-10T19:20:07Z</time>
      </trkpt>
      <trkpt lat="41.40311376306144" lon="-81.74265473106969">
        <ele>263.1222968918</ele>
        <time>2026-06-10T19:20:50Z</time>
      </trkpt>
      <trkpt lat="41.40311635139698" lon="-81.74205718941508">
        <ele>263.6771949079</ele>
        <time>2026-06-10T19:21:36Z</time>
      </trkpt>
      <trkpt lat="41.40311341515135" lon="-81.74145817557661">
        <ele>264.1639069640</ele>
        <time>2026-06-10T19:22:11Z</time>
      </trkpt>
      <trkpt lat="41.40310498069957" lon="-81.74085349486801">
        <ele>264.9446354547</ele>
        <time>2026-06-10T19:22:46Z</time>
      </trkpt>
      <trkpt lat="41.40310806321089" lon="-81.74024953917468">
        <ele>265.4771938408</ele>
        <time>2026-06-10T19:23:39Z</time>
      </trkpt>
      <trkpt lat="41.40310844858144" lon="-81.73965347594446">
        <ele>265.9656186132</ele>
        <time>2026-06-10T19:24:17Z</time>
      </trkpt>
      <trkpt lat="41.40309994720330" lon="-81.73905914297909">
        <ele>265.9819260379</ele>
        <time>2026-06-10T19:25:06Z</time>
      </trkpt>
      <trkpt lat="41.40309673890827" lon="-81.73878941725994">
        <ele>266.3615621478</ele>
        <time>2026-06-10T19:25:31Z</time>
      </trkpt>
      <trkpt lat="41.40264907802483" lon="-81.73877463889110">
        <ele>266.5320384284</ele>
        <time>2026-06-10T19:26:05Z</time>
      </trkpt>
      <trkpt lat="41.40223588614415" lon="-81.73878158853682">
        <ele>267.0720223476</ele>
        <time>2026-06-10T19:26:53Z</time>
      </trkpt>
      <trkpt lat="41.40223484551758" lon="-81.73818505985474">
        <ele>267.0927985487</ele>
        <time>2026-06-10T19:27:26Z</time>
      </trkpt>
      <trkpt lat="41.40223504594034" lon="-81.73757290906180">
        <ele>267.2427622975</ele>
        <time>2026-06-10T19:28:01Z</time>
      </trkpt>
      <trkpt lat="41.40222221422324" lon="-81.73697925303379">
        <ele>267.0639557991</ele>
        <time>2026-06-10T19:28:37Z</time>
      </trkpt>
      <trkpt lat="41.40223285856245" lon="-81.73638551558020">
        <ele>267.2386997751</ele>
        <time>2026-06-10T19:29:13Z</time>
      </trkpt>
      <trkpt lat="41.40222118328931" lon="-81.73578277660485">
        <ele>267.5091335723</ele>
        <time>2026-06-10T19:29:50Z</time>
      </trkpt>
      <trkpt lat="41.40222176920590" lon="-81.73517763746048">
        <ele>267.2249518485</ele>
        <time>2026-06-10T19:30:30Z</time>
      </trkpt>
      <trkpt lat="41.40221856162801" lon="-81.73465014820677">
        <ele>267.0755903624</ele>
        <time>2026-06-10T19:31:23Z</time>
      </trkpt>
      <trkpt lat="41.40177609980086" lon="-81.73464271327559">
        <ele>267.3383174957</ele>
        <time>2026-06-10T19:32:13Z</time>
      </trkpt>
      <trkpt lat="41.40132328438109" lon="-81.73463736423227">
        <ele>267.3077438590</ele>
        <time>2026-06-10T19:32:48Z</time>
      </trkpt>
      <trkpt lat="41.40131812230123" lon="-81.73463950352550">
        <ele>267.3097473535</ele>
        <time>2026-06-10T19:32:49Z</time>
      </trkpt>
      <trkpt lat="41.40132878823745" lon="-81.73523436130775">
        <ele>267.7105604841</ele>
        <time>2026-06-10T19:33:44Z</time>
      </trkpt>
      <trkpt lat="41.40132646946741" lon="-81.73583151753385">
        <ele>268.3334342616</ele>
        <time>2026-06-10T19:34:34Z</time>
      </trkpt>
      <trkpt lat="41.40132665814842" lon="-81.73643715842999">
        <ele>268.2552911283</ele>
        <time>2026-06-10T19:35:14Z</time>
      </trkpt>
      <trkpt lat="41.40133342380145" lon="-81.73703444685378">
        <ele>268.0240093240</ele>
        <time>2026-06-10T19:36:01Z</time>
      </trkpt>
      <trkpt lat="41.40132960480585" lon="-81.73763308740564">
        <ele>267.7944802081</ele>
        <time>2026-06-10T19:36:40Z</time>
      </trkpt>
      <trkpt lat="41.40133438109460" lon="-81.73823148761221">
        <ele>267.4267130491</ele>
        <time>2026-06-10T19:37:25Z</time>
      </trkpt>
      <trkpt lat="41.40133047911910" lon="-81.73883505765910">
        <ele>267.4833635406</ele>
        <time>2026-06-10T19:38:01Z</time>
      </trkpt>
      <trkpt lat="41.40133904165781" lon="-81.73941838200049">
        <ele>267.1651664737</ele>
        <time>2026-06-10T19:38:34Z</time>
      </trkpt>
      <trkpt lat="41.40134114307561" lon="-81.74001905144237">
        <ele>266.6857368581</ele>
        <time>2026-06-10T19:39:16Z</time>
      </trkpt>
      <trkpt lat="41.40134875586497" lon="-81.74016418956765">
        <ele>266.6394677148</ele>
        <time>2026-06-10T19:39:26Z</time>
      </trkpt>
    </trkseg>
  </trk>
</gpx>