<?xml version='1.0' encoding='UTF-8'?>
<gpx xmlns="http://www.topografix.com/GPX/1/1" creator="https://gpx.studio" version="1.1">
  <metadata>
    <name>Dog Walk - 2026-05-09 #4</name>
  </metadata>
  <trk>
    <name>Dog Walk - 2026-05-09 #4</name>
    <type>dog walk</type>
    <trkseg>
      <trkpt lat="41.40132916956340" lon="-81.74025472814343">
        <ele>266.3753731716</ele>
        <time>2026-05-09T20:13:38Z</time>
      </trkpt>
      <trkpt lat="41.40133358839917" lon="-81.74025378875918">
        <ele>266.4042152403</ele>
        <time>2026-05-09T20:13:39Z</time>
      </trkpt>
      <trkpt lat="41.40134108616999" lon="-81.74085398695334">
        <ele>265.9362100588</ele>
        <time>2026-05-09T20:14:12Z</time>
      </trkpt>
      <trkpt lat="41.40132516517087" lon="-81.74145712800758">
        <ele>265.9742894840</ele>
        <time>2026-05-09T20:15:08Z</time>
      </trkpt>
      <trkpt lat="41.40132413290260" lon="-81.74204552158750">
        <ele>265.2297415770</ele>
        <time>2026-05-09T20:15:47Z</time>
      </trkpt>
      <trkpt lat="41.40132226182987" lon="-81.74237682999217">
        <ele>264.9542890457</ele>
        <time>2026-05-09T20:16:17Z</time>
      </trkpt>
      <trkpt lat="41.40132994902255" lon="-81.74237964274164">
        <ele>264.6258435211</ele>
        <time>2026-05-09T20:16:18Z</time>
      </trkpt>
      <trkpt lat="41.40089720682361" lon="-81.74219064609159">
        <ele>265.2056409469</ele>
        <time>2026-05-09T20:16:58Z</time>
      </trkpt>
      <trkpt lat="41.40047439310285" lon="-81.74200540755042">
        <ele>265.1567740481</ele>
        <time>2026-05-09T20:17:42Z</time>
      </trkpt>
      <trkpt lat="41.40004447932547" lon="-81.74180555959839">
        <ele>265.4657242391</ele>
        <time>2026-05-09T20:18:22Z</time>
      </trkpt>
      <trkpt lat="41.39962149267131" lon="-81.74160965326321">
        <ele>264.5964273177</ele>
        <time>2026-05-09T20:18:58Z</time>
      </trkpt>
      <trkpt lat="41.39954746680797" lon="-81.74157431245253">
        <ele>264.8426587449</ele>
        <time>2026-05-09T20:19:10Z</time>
      </trkpt>
      <trkpt lat="41.39954557758531" lon="-81.74097288187031">
        <ele>265.5731345489</ele>
        <time>2026-05-09T20:19:53Z</time>
      </trkpt>
      <trkpt lat="41.39954530545546" lon="-81.74037384025488">
        <ele>265.9004822820</ele>
        <time>2026-05-09T20:20:26Z</time>
      </trkpt>
      <trkpt lat="41.39953501982966" lon="-81.73977575803171">
        <ele>266.7230892210</ele>
        <time>2026-05-09T20:21:11Z</time>
      </trkpt>
      <trkpt lat="41.39954364488752" lon="-81.73917362961282">
        <ele>266.9604083583</ele>
        <time>2026-05-09T20:22:13Z</time>
      </trkpt>
      <trkpt lat="41.39953227196023" lon="-81.73857768684267">
        <ele>266.7444306212</ele>
        <time>2026-05-09T20:22:52Z</time>
      </trkpt>
      <trkpt lat="41.39952851736233" lon="-81.73829824817165">
        <ele>266.8930070298</ele>
        <time>2026-05-09T20:23:10Z</time>
      </trkpt>
      <trkpt lat="41.39953617234395" lon="-81.73829704277458">
        <ele>266.8644381498</ele>
        <time>2026-05-09T20:23:11Z</time>
      </trkpt>
      <trkpt lat="41.39998209459958" lon="-81.73830365305250">
        <ele>267.3218959797</ele>
        <time>2026-05-09T20:24:03Z</time>
      </trkpt>
      <trkpt lat="41.40043872875664" lon="-81.73829937140897">
        <ele>267.4741320993</ele>
        <time>2026-05-09T20:24:39Z</time>
      </trkpt>
      <trkpt lat="41.40088656778659" lon="-81.73829741826647">
        <ele>267.5979956643</ele>
        <time>2026-05-09T20:25:22Z</time>
      </trkpt>
      <trkpt lat="41.40132758944248" lon="-81.73829958142318">
        <ele>267.7967737611</ele>
        <time>2026-05-09T20:26:03Z</time>
      </trkpt>
      <trkpt lat="41.40132180010298" lon="-81.73890280035414">
        <ele>267.4185566203</ele>
        <time>2026-05-09T20:26:52Z</time>
      </trkpt>
      <trkpt lat="41.40133875533162" lon="-81.73950126993151">
        <ele>267.1545488561</ele>
        <time>2026-05-09T20:27:36Z</time>
      </trkpt>
      <trkpt lat="41.40134059782911" lon="-81.74010168511991">
        <ele>266.6308931546</ele>
        <time>2026-05-09T20:28:28Z</time>
      </trkpt>
      <trkpt lat="41.40134280775202" lon="-81.74015792297912">
        <ele>266.7356143829</ele>
        <time>2026-05-09T20:28:32Z</time>
      </trkpt>
    </trkseg>
  </trk>
</gpx>