<?xml version='1.0' encoding='UTF-8'?>
<gpx xmlns="http://www.topografix.com/GPX/1/1" creator="https://gpx.studio" version="1.1">
  <metadata>
    <name>Dog Walk - 2026-04-25 #1</name>
  </metadata>
  <trk>
    <name>Dog Walk - 2026-04-25 #1</name>
    <type>dog walk</type>
    <trkseg>
      <trkpt lat="41.40134024087408" lon="-81.74023948618873">
        <ele>266.4444180124</ele>
        <time>2026-04-25T10:05:11Z</time>
      </trkpt>
      <trkpt lat="41.40133562613735" lon="-81.74083221347418">
        <ele>266.3412153085</ele>
        <time>2026-04-25T10:05:42Z</time>
      </trkpt>
      <trkpt lat="41.40134038899646" lon="-81.74143109847626">
        <ele>265.7900236141</ele>
        <time>2026-04-25T10:06:27Z</time>
      </trkpt>
      <trkpt lat="41.40134029411181" lon="-81.74203028446671">
        <ele>265.4051829769</ele>
        <time>2026-04-25T10:07:16Z</time>
      </trkpt>
      <trkpt lat="41.40135395274282" lon="-81.74242565159214">
        <ele>264.7081191268</ele>
        <time>2026-04-25T10:07:38Z</time>
      </trkpt>
      <trkpt lat="41.40176275691413" lon="-81.74261817080311">
        <ele>264.2881943105</ele>
        <time>2026-04-25T10:08:30Z</time>
      </trkpt>
      <trkpt lat="41.40219447815542" lon="-81.74282081464652">
        <ele>263.5600093579</ele>
        <time>2026-04-25T10:09:09Z</time>
      </trkpt>
      <trkpt lat="41.40262170443503" lon="-81.74301982634989">
        <ele>262.9602560832</ele>
        <time>2026-04-25T10:09:49Z</time>
      </trkpt>
      <trkpt lat="41.40303940055217" lon="-81.74322106103814">
        <ele>262.6536449111</ele>
        <time>2026-04-25T10:10:30Z</time>
      </trkpt>
      <trkpt lat="41.40312494160838" lon="-81.74326026320378">
        <ele>262.2039346421</ele>
        <time>2026-04-25T10:10:37Z</time>
      </trkpt>
      <trkpt lat="41.40311004225978" lon="-81.74265259351172">
        <ele>263.1363193555</ele>
        <time>2026-04-25T10:11:15Z</time>
      </trkpt>
      <trkpt lat="41.40311617480337" lon="-81.74205464289770">
        <ele>263.7663676405</ele>
        <time>2026-04-25T10:11:58Z</time>
      </trkpt>
      <trkpt lat="41.40311022109911" lon="-81.74144490241768">
        <ele>264.1869566883</ele>
        <time>2026-04-25T10:12:51Z</time>
      </trkpt>
      <trkpt lat="41.40310165779783" lon="-81.74085024446450">
        <ele>264.7237574059</ele>
        <time>2026-04-25T10:13:53Z</time>
      </trkpt>
      <trkpt lat="41.40311280510287" lon="-81.74025124744824">
        <ele>265.3625820840</ele>
        <time>2026-04-25T10:14:29Z</time>
      </trkpt>
      <trkpt lat="41.40310449279829" lon="-81.73965141297424">
        <ele>265.9887758494</ele>
        <time>2026-04-25T10:15:13Z</time>
      </trkpt>
      <trkpt lat="41.40309438055535" lon="-81.73904946978826">
        <ele>266.2109201692</ele>
        <time>2026-04-25T10:15:54Z</time>
      </trkpt>
      <trkpt lat="41.40309962917787" lon="-81.73878269033879">
        <ele>266.2136999659</ele>
        <time>2026-04-25T10:16:16Z</time>
      </trkpt>
      <trkpt lat="41.40265428519773" lon="-81.73877426461428">
        <ele>266.8286930296</ele>
        <time>2026-04-25T10:17:06Z</time>
      </trkpt>
      <trkpt lat="41.40223600382689" lon="-81.73878337261567">
        <ele>267.1213782116</ele>
        <time>2026-04-25T10:17:33Z</time>
      </trkpt>
      <trkpt lat="41.40223104169726" lon="-81.73817851303349">
        <ele>267.1880760164</ele>
        <time>2026-04-25T10:18:20Z</time>
      </trkpt>
      <trkpt lat="41.40222921031496" lon="-81.73757743806975">
        <ele>267.1940510552</ele>
        <time>2026-04-25T10:19:03Z</time>
      </trkpt>
      <trkpt lat="41.40222947898452" lon="-81.73698148667427">
        <ele>267.2026793037</ele>
        <time>2026-04-25T10:19:41Z</time>
      </trkpt>
      <trkpt lat="41.40223400363836" lon="-81.73637857857067">
        <ele>267.3803838609</ele>
        <time>2026-04-25T10:20:19Z</time>
      </trkpt>
      <trkpt lat="41.40222662392576" lon="-81.73578129208744">
        <ele>267.3704822079</ele>
        <time>2026-04-25T10:21:00Z</time>
      </trkpt>
      <trkpt lat="41.40221590758102" lon="-81.73518074790536">
        <ele>267.3844160256</ele>
        <time>2026-04-25T10:21:31Z</time>
      </trkpt>
      <trkpt lat="41.40223679612134" lon="-81.73465201040885">
        <ele>267.0494852290</ele>
        <time>2026-04-25T10:22:02Z</time>
      </trkpt>
      <trkpt lat="41.40177184068055" lon="-81.73463899491425">
        <ele>267.2098641971</ele>
        <time>2026-04-25T10:22:46Z</time>
      </trkpt>
      <trkpt lat="41.40132225480475" lon="-81.73462580336454">
        <ele>267.3558091835</ele>
        <time>2026-04-25T10:23:27Z</time>
      </trkpt>
      <trkpt lat="41.40131289749492" lon="-81.73464760051588">
        <ele>267.3339665923</ele>
        <time>2026-04-25T10:23:29Z</time>
      </trkpt>
      <trkpt lat="41.40132259252542" lon="-81.73523392220656">
        <ele>267.9543596083</ele>
        <time>2026-04-25T10:24:19Z</time>
      </trkpt>
      <trkpt lat="41.40132241321094" lon="-81.73584164638494">
        <ele>268.5427369718</ele>
        <time>2026-04-25T10:25:03Z</time>
      </trkpt>
      <trkpt lat="41.40132040688417" lon="-81.73643698231305">
        <ele>268.0161200576</ele>
        <time>2026-04-25T10:25:40Z</time>
      </trkpt>
      <trkpt lat="41.40132225658576" lon="-81.73704162564682">
        <ele>268.0191602246</ele>
        <time>2026-04-25T10:26:25Z</time>
      </trkpt>
      <trkpt lat="41.40132250645657" lon="-81.73763690760040">
        <ele>267.7967540033</ele>
        <time>2026-04-25T10:27:10Z</time>
      </trkpt>
      <trkpt lat="41.40132720746611" lon="-81.73824133881206">
        <ele>267.6858191581</ele>
        <time>2026-04-25T10:27:57Z</time>
      </trkpt>
      <trkpt lat="41.40134062815215" lon="-81.73884444865807">
        <ele>267.4025211893</ele>
        <time>2026-04-25T10:28:42Z</time>
      </trkpt>
      <trkpt lat="41.40134280718290" lon="-81.73942638505959">
        <ele>267.1514000657</ele>
        <time>2026-04-25T10:29:19Z</time>
      </trkpt>
      <trkpt lat="41.40134435570784" lon="-81.74003610143480">
        <ele>266.7413135185</ele>
        <time>2026-04-25T10:30:01Z</time>
      </trkpt>
      <trkpt lat="41.40134575116232" lon="-81.74016521781633">
        <ele>266.4747469535</ele>
        <time>2026-04-25T10:30:09Z</time>
      </trkpt>
    </trkseg>
  </trk>
</gpx>