<?xml version='1.0' encoding='UTF-8'?>
<gpx xmlns="http://www.topografix.com/GPX/1/1" creator="https://gpx.studio" version="1.1">
  <metadata>
    <name>Dog Walk - 2026-08-31 #4</name>
  </metadata>
  <trk>
    <name>Dog Walk - 2026-08-31 #4</name>
    <type>dog walk</type>
    <trkseg>
      <trkpt lat="41.40132500926876" lon="-81.74023546544447">
        <ele>266.3720338261</ele>
        <time>2026-08-31T18:18:51Z</time>
      </trkpt>
      <trkpt lat="41.40132880454631" lon="-81.74083457157633">
        <ele>266.2701149905</ele>
        <time>2026-08-31T18:19:28Z</time>
      </trkpt>
      <trkpt lat="41.40132954780370" lon="-81.74142332747383">
        <ele>265.6357626609</ele>
        <time>2026-08-31T18:20:11Z</time>
      </trkpt>
      <trkpt lat="41.40133244468205" lon="-81.74203298066431">
        <ele>265.3052998576</ele>
        <time>2026-08-31T18:20:50Z</time>
      </trkpt>
      <trkpt lat="41.40133128479684" lon="-81.74239131686114">
        <ele>264.6890979905</ele>
        <time>2026-08-31T18:21:24Z</time>
      </trkpt>
      <trkpt lat="41.40090462154160" lon="-81.74219561231439">
        <ele>265.2676878746</ele>
        <time>2026-08-31T18:22:03Z</time>
      </trkpt>
      <trkpt lat="41.40047508770256" lon="-81.74200674525670">
        <ele>265.0625345079</ele>
        <time>2026-08-31T18:22:44Z</time>
      </trkpt>
      <trkpt lat="41.40004815740998" lon="-81.74180926654621">
        <ele>265.4192545015</ele>
        <time>2026-08-31T18:23:22Z</time>
      </trkpt>
      <trkpt lat="41.39962360042082" lon="-81.74161873238123">
        <ele>264.7939653486</ele>
        <time>2026-08-31T18:23:56Z</time>
      </trkpt>
      <trkpt lat="41.39954228496928" lon="-81.74156945446325">
        <ele>264.6293337827</ele>
        <time>2026-08-31T18:24:03Z</time>
      </trkpt>
      <trkpt lat="41.39952732222126" lon="-81.74097493339620">
        <ele>265.8466796462</ele>
        <time>2026-08-31T18:24:37Z</time>
      </trkpt>
      <trkpt lat="41.39953637495872" lon="-81.74037188849731">
        <ele>266.0510298945</ele>
        <time>2026-08-31T18:25:20Z</time>
      </trkpt>
      <trkpt lat="41.39952497488927" lon="-81.73976731662675">
        <ele>266.5102706490</ele>
        <time>2026-08-31T18:26:05Z</time>
      </trkpt>
      <trkpt lat="41.39953804074308" lon="-81.73917759100631">
        <ele>266.9434630103</ele>
        <time>2026-08-31T18:26:41Z</time>
      </trkpt>
      <trkpt lat="41.39952142306137" lon="-81.73857154048032">
        <ele>266.8428636424</ele>
        <time>2026-08-31T18:27:22Z</time>
      </trkpt>
      <trkpt lat="41.39952693044208" lon="-81.73797698977556">
        <ele>267.0157604397</ele>
        <time>2026-08-31T18:27:56Z</time>
      </trkpt>
      <trkpt lat="41.39952926117653" lon="-81.73737726268098">
        <ele>267.2354556883</ele>
        <time>2026-08-31T18:28:37Z</time>
      </trkpt>
      <trkpt lat="41.39952300528191" lon="-81.73677485432751">
        <ele>267.3592666143</ele>
        <time>2026-08-31T18:29:13Z</time>
      </trkpt>
      <trkpt lat="41.39952819637955" lon="-81.73618759580528">
        <ele>267.4915468973</ele>
        <time>2026-08-31T18:30:04Z</time>
      </trkpt>
      <trkpt lat="41.39952782531517" lon="-81.73557917809723">
        <ele>267.4376992084</ele>
        <time>2026-08-31T18:30:40Z</time>
      </trkpt>
      <trkpt lat="41.39952634250626" lon="-81.73496899458584">
        <ele>267.4098017175</ele>
        <time>2026-08-31T18:31:14Z</time>
      </trkpt>
      <trkpt lat="41.39952559876951" lon="-81.73461009095166">
        <ele>267.1541970563</ele>
        <time>2026-08-31T18:31:36Z</time>
      </trkpt>
      <trkpt lat="41.39997725074979" lon="-81.73461666071645">
        <ele>267.1597259559</ele>
        <time>2026-08-31T18:32:17Z</time>
      </trkpt>
      <trkpt lat="41.40042615496202" lon="-81.73462699450971">
        <ele>267.3083896929</ele>
        <time>2026-08-31T18:32:55Z</time>
      </trkpt>
      <trkpt lat="41.40087914223809" lon="-81.73463311247070">
        <ele>267.3157318070</ele>
        <time>2026-08-31T18:33:37Z</time>
      </trkpt>
      <trkpt lat="41.40131945859122" lon="-81.73464851912053">
        <ele>267.4894714807</ele>
        <time>2026-08-31T18:34:18Z</time>
      </trkpt>
      <trkpt lat="41.40131993329856" lon="-81.73524395835678">
        <ele>267.6928300314</ele>
        <time>2026-08-31T18:34:53Z</time>
      </trkpt>
      <trkpt lat="41.40131124209936" lon="-81.73583319916187">
        <ele>268.0151420060</ele>
        <time>2026-08-31T18:35:32Z</time>
      </trkpt>
      <trkpt lat="41.40132598242143" lon="-81.73643822888499">
        <ele>267.9904180566</ele>
        <time>2026-08-31T18:36:05Z</time>
      </trkpt>
      <trkpt lat="41.40132998243554" lon="-81.73703236665682">
        <ele>268.0717620769</ele>
        <time>2026-08-31T18:36:48Z</time>
      </trkpt>
      <trkpt lat="41.40133087354555" lon="-81.73764197720548">
        <ele>267.9278631180</ele>
        <time>2026-08-31T18:37:26Z</time>
      </trkpt>
      <trkpt lat="41.40133444813290" lon="-81.73822793238253">
        <ele>267.5320933015</ele>
        <time>2026-08-31T18:38:17Z</time>
      </trkpt>
      <trkpt lat="41.40133349131700" lon="-81.73883590021939">
        <ele>267.4597670855</ele>
        <time>2026-08-31T18:39:05Z</time>
      </trkpt>
      <trkpt lat="41.40132998057073" lon="-81.73943745836942">
        <ele>266.9363708508</ele>
        <time>2026-08-31T18:39:50Z</time>
      </trkpt>
      <trkpt lat="41.40132358447525" lon="-81.74003386189689">
        <ele>266.7388285463</ele>
        <time>2026-08-31T18:40:44Z</time>
      </trkpt>
      <trkpt lat="41.40132915199013" lon="-81.74022074650375">
        <ele>266.7778810217</ele>
        <time>2026-08-31T18:40:57Z</time>
      </trkpt>
    </trkseg>
  </trk>
</gpx>