<?xml version='1.0' encoding='UTF-8'?>
<gpx xmlns="http://www.topografix.com/GPX/1/1" creator="https://gpx.studio" version="1.1">
  <metadata>
    <name>Dog Walk - 2026-06-11 #2</name>
  </metadata>
  <trk>
    <name>Dog Walk - 2026-06-11 #2</name>
    <type>dog walk</type>
    <trkseg>
      <trkpt lat="41.40133196645323" lon="-81.74023986817441">
        <ele>266.4391997827</ele>
        <time>2026-06-11T13:09:52Z</time>
      </trkpt>
      <trkpt lat="41.40133046653946" lon="-81.74082746772976">
        <ele>265.9780484109</ele>
        <time>2026-06-11T13:10:33Z</time>
      </trkpt>
      <trkpt lat="41.40132850928957" lon="-81.74143618848973">
        <ele>265.8798166484</ele>
        <time>2026-06-11T13:11:22Z</time>
      </trkpt>
      <trkpt lat="41.40132869789449" lon="-81.74204888598439">
        <ele>265.4661791036</ele>
        <time>2026-06-11T13:12:04Z</time>
      </trkpt>
      <trkpt lat="41.40133076146066" lon="-81.74240212318644">
        <ele>264.9164810941</ele>
        <time>2026-06-11T13:12:27Z</time>
      </trkpt>
      <trkpt lat="41.40090091557735" lon="-81.74219699581165">
        <ele>265.0353631696</ele>
        <time>2026-06-11T13:13:06Z</time>
      </trkpt>
      <trkpt lat="41.40047128646425" lon="-81.74200463022815">
        <ele>265.1749875744</ele>
        <time>2026-06-11T13:13:44Z</time>
      </trkpt>
      <trkpt lat="41.40005503164515" lon="-81.74181001396948">
        <ele>265.5973567738</ele>
        <time>2026-06-11T13:14:19Z</time>
      </trkpt>
      <trkpt lat="41.39963327933675" lon="-81.74161230258433">
        <ele>264.6983641040</ele>
        <time>2026-06-11T13:15:06Z</time>
      </trkpt>
      <trkpt lat="41.39952884796469" lon="-81.74157558942036">
        <ele>265.0022092035</ele>
        <time>2026-06-11T13:15:21Z</time>
      </trkpt>
      <trkpt lat="41.39954086472135" lon="-81.74097267493489">
        <ele>265.6641088082</ele>
        <time>2026-06-11T13:16:22Z</time>
      </trkpt>
      <trkpt lat="41.39952880097029" lon="-81.74037277754944">
        <ele>266.3243266756</ele>
        <time>2026-06-11T13:17:01Z</time>
      </trkpt>
      <trkpt lat="41.39953530493466" lon="-81.73978129930967">
        <ele>266.7381333288</ele>
        <time>2026-06-11T13:17:39Z</time>
      </trkpt>
      <trkpt lat="41.39953539642811" lon="-81.73916975356366">
        <ele>266.9523962950</ele>
        <time>2026-06-11T13:18:22Z</time>
      </trkpt>
      <trkpt lat="41.39953475373095" lon="-81.73857882572811">
        <ele>266.9423507775</ele>
        <time>2026-06-11T13:19:09Z</time>
      </trkpt>
      <trkpt lat="41.39952494862756" lon="-81.73797076197343">
        <ele>267.1144358616</ele>
        <time>2026-06-11T13:19:52Z</time>
      </trkpt>
      <trkpt lat="41.39953093880528" lon="-81.73737304543712">
        <ele>267.3197644937</ele>
        <time>2026-06-11T13:20:21Z</time>
      </trkpt>
      <trkpt lat="41.39953353861750" lon="-81.73677753243031">
        <ele>267.2892717585</ele>
        <time>2026-06-11T13:21:04Z</time>
      </trkpt>
      <trkpt lat="41.39952612576761" lon="-81.73616938508353">
        <ele>267.4761018962</ele>
        <time>2026-06-11T13:21:46Z</time>
      </trkpt>
      <trkpt lat="41.39953003725505" lon="-81.73558277355103">
        <ele>267.4708095388</ele>
        <time>2026-06-11T13:22:24Z</time>
      </trkpt>
      <trkpt lat="41.39952852351738" lon="-81.73498063764427">
        <ele>267.1761549225</ele>
        <time>2026-06-11T13:23:11Z</time>
      </trkpt>
      <trkpt lat="41.39952698351809" lon="-81.73461079592937">
        <ele>267.1364340839</ele>
        <time>2026-06-11T13:23:35Z</time>
      </trkpt>
      <trkpt lat="41.39997223249171" lon="-81.73461563859011">
        <ele>267.0464422889</ele>
        <time>2026-06-11T13:24:12Z</time>
      </trkpt>
      <trkpt lat="41.40042193621273" lon="-81.73463058199079">
        <ele>267.2561122662</ele>
        <time>2026-06-11T13:24:40Z</time>
      </trkpt>
      <trkpt lat="41.40086823397829" lon="-81.73463122932161">
        <ele>267.2661132378</ele>
        <time>2026-06-11T13:25:15Z</time>
      </trkpt>
      <trkpt lat="41.40132037801800" lon="-81.73464077052338">
        <ele>267.4531048124</ele>
        <time>2026-06-11T13:25:59Z</time>
      </trkpt>
      <trkpt lat="41.40132371465148" lon="-81.73524188978379">
        <ele>268.0669162145</ele>
        <time>2026-06-11T13:26:40Z</time>
      </trkpt>
      <trkpt lat="41.40132499191083" lon="-81.73583798702987">
        <ele>268.4735754617</ele>
        <time>2026-06-11T13:27:23Z</time>
      </trkpt>
      <trkpt lat="41.40132223015761" lon="-81.73643377137475">
        <ele>268.2922405355</ele>
        <time>2026-06-11T13:28:08Z</time>
      </trkpt>
      <trkpt lat="41.40132407012317" lon="-81.73704271065154">
        <ele>268.0254267792</ele>
        <time>2026-06-11T13:28:45Z</time>
      </trkpt>
      <trkpt lat="41.40133130418222" lon="-81.73764173237655">
        <ele>267.8257286797</ele>
        <time>2026-06-11T13:29:42Z</time>
      </trkpt>
      <trkpt lat="41.40132576180027" lon="-81.73823841922822">
        <ele>267.4270633939</ele>
        <time>2026-06-11T13:30:21Z</time>
      </trkpt>
      <trkpt lat="41.40132998177831" lon="-81.73884491234563">
        <ele>267.3575568392</ele>
        <time>2026-06-11T13:31:10Z</time>
      </trkpt>
      <trkpt lat="41.40132762973437" lon="-81.73943424639086">
        <ele>267.1507662645</ele>
        <time>2026-06-11T13:31:48Z</time>
      </trkpt>
      <trkpt lat="41.40132589312645" lon="-81.74003056879280">
        <ele>266.6839711314</ele>
        <time>2026-06-11T13:32:29Z</time>
      </trkpt>
      <trkpt lat="41.40132960335031" lon="-81.74021114960425">
        <ele>266.4682041879</ele>
        <time>2026-06-11T13:32:41Z</time>
      </trkpt>
    </trkseg>
  </trk>
</gpx>