<?xml version='1.0' encoding='UTF-8'?>
<gpx xmlns="http://www.topografix.com/GPX/1/1" creator="https://gpx.studio" version="1.1">
  <metadata>
    <name>Dog Walk - 2026-06-27 #3</name>
  </metadata>
  <trk>
    <name>Dog Walk - 2026-06-27 #3</name>
    <type>dog walk</type>
    <trkseg>
      <trkpt lat="41.40133791763241" lon="-81.74023245647071">
        <ele>266.6030629506</ele>
        <time>2026-06-27T17:34:13Z</time>
      </trkpt>
      <trkpt lat="41.40133997627649" lon="-81.74084112790493">
        <ele>266.1479199987</ele>
        <time>2026-06-27T17:34:57Z</time>
      </trkpt>
      <trkpt lat="41.40134482007790" lon="-81.74144153332053">
        <ele>265.8626282755</ele>
        <time>2026-06-27T17:35:33Z</time>
      </trkpt>
      <trkpt lat="41.40134927076914" lon="-81.74204702638589">
        <ele>265.2406325170</ele>
        <time>2026-06-27T17:36:14Z</time>
      </trkpt>
      <trkpt lat="41.40135407956655" lon="-81.74242348730357">
        <ele>264.4804449184</ele>
        <time>2026-06-27T17:36:44Z</time>
      </trkpt>
      <trkpt lat="41.40176742272125" lon="-81.74261307785375">
        <ele>264.1728040944</ele>
        <time>2026-06-27T17:37:21Z</time>
      </trkpt>
      <trkpt lat="41.40218840338618" lon="-81.74281567286420">
        <ele>263.5152123233</ele>
        <time>2026-06-27T17:38:04Z</time>
      </trkpt>
      <trkpt lat="41.40261430831855" lon="-81.74300999924859">
        <ele>263.0003354789</ele>
        <time>2026-06-27T17:38:34Z</time>
      </trkpt>
      <trkpt lat="41.40304705038011" lon="-81.74322273590140">
        <ele>262.4210156564</ele>
        <time>2026-06-27T17:39:08Z</time>
      </trkpt>
      <trkpt lat="41.40311610076741" lon="-81.74325093381405">
        <ele>262.4510765580</ele>
        <time>2026-06-27T17:39:15Z</time>
      </trkpt>
      <trkpt lat="41.40311730383334" lon="-81.74264719253431">
        <ele>263.1435188830</ele>
        <time>2026-06-27T17:39:59Z</time>
      </trkpt>
      <trkpt lat="41.40312037383084" lon="-81.74205603618179">
        <ele>263.4803507357</ele>
        <time>2026-06-27T17:40:35Z</time>
      </trkpt>
      <trkpt lat="41.40311673793298" lon="-81.74146342644677">
        <ele>264.0239449342</ele>
        <time>2026-06-27T17:41:16Z</time>
      </trkpt>
      <trkpt lat="41.40310682558728" lon="-81.74085904764254">
        <ele>264.8113215362</ele>
        <time>2026-06-27T17:41:55Z</time>
      </trkpt>
      <trkpt lat="41.40309732112652" lon="-81.74025318514821">
        <ele>265.3187854734</ele>
        <time>2026-06-27T17:42:33Z</time>
      </trkpt>
      <trkpt lat="41.40309869317842" lon="-81.73965378329193">
        <ele>265.7495433672</ele>
        <time>2026-06-27T17:43:07Z</time>
      </trkpt>
      <trkpt lat="41.40309417346691" lon="-81.73904205529419">
        <ele>266.2037804440</ele>
        <time>2026-06-27T17:43:54Z</time>
      </trkpt>
      <trkpt lat="41.40310236395838" lon="-81.73879095582814">
        <ele>266.2912292891</ele>
        <time>2026-06-27T17:44:11Z</time>
      </trkpt>
      <trkpt lat="41.40265062956315" lon="-81.73878226840797">
        <ele>266.7239300432</ele>
        <time>2026-06-27T17:44:51Z</time>
      </trkpt>
      <trkpt lat="41.40223043889688" lon="-81.73878959487647">
        <ele>266.9943403027</ele>
        <time>2026-06-27T17:45:26Z</time>
      </trkpt>
      <trkpt lat="41.40222745998093" lon="-81.73817239373371">
        <ele>267.1671312313</ele>
        <time>2026-06-27T17:46:15Z</time>
      </trkpt>
      <trkpt lat="41.40222936483379" lon="-81.73758424489884">
        <ele>267.2308636781</ele>
        <time>2026-06-27T17:46:57Z</time>
      </trkpt>
      <trkpt lat="41.40223096276778" lon="-81.73697638285509">
        <ele>267.2497338957</ele>
        <time>2026-06-27T17:47:35Z</time>
      </trkpt>
      <trkpt lat="41.40222559280902" lon="-81.73637199609659">
        <ele>267.3608842555</ele>
        <time>2026-06-27T17:48:15Z</time>
      </trkpt>
      <trkpt lat="41.40222458595859" lon="-81.73579007425981">
        <ele>267.2409694189</ele>
        <time>2026-06-27T17:48:45Z</time>
      </trkpt>
      <trkpt lat="41.40222294480984" lon="-81.73517097684334">
        <ele>267.0868046963</ele>
        <time>2026-06-27T17:49:33Z</time>
      </trkpt>
      <trkpt lat="41.40223162221243" lon="-81.73465507029582">
        <ele>266.9345968586</ele>
        <time>2026-06-27T17:50:23Z</time>
      </trkpt>
      <trkpt lat="41.40177568362734" lon="-81.73464018941563">
        <ele>267.5265619389</ele>
        <time>2026-06-27T17:50:58Z</time>
      </trkpt>
      <trkpt lat="41.40132011347350" lon="-81.73463575927454">
        <ele>267.3528798241</ele>
        <time>2026-06-27T17:51:35Z</time>
      </trkpt>
      <trkpt lat="41.40131399144240" lon="-81.73463841241002">
        <ele>267.3391337450</ele>
        <time>2026-06-27T17:51:36Z</time>
      </trkpt>
      <trkpt lat="41.40132362075992" lon="-81.73524216703018">
        <ele>267.7977526890</ele>
        <time>2026-06-27T17:52:07Z</time>
      </trkpt>
      <trkpt lat="41.40131718582306" lon="-81.73583767536223">
        <ele>268.1088301667</ele>
        <time>2026-06-27T17:52:48Z</time>
      </trkpt>
      <trkpt lat="41.40132033553814" lon="-81.73643877730487">
        <ele>268.1631467010</ele>
        <time>2026-06-27T17:53:30Z</time>
      </trkpt>
      <trkpt lat="41.40132075715589" lon="-81.73703682305266">
        <ele>268.0751646091</ele>
        <time>2026-06-27T17:54:20Z</time>
      </trkpt>
      <trkpt lat="41.40133606542009" lon="-81.73763156873858">
        <ele>267.9479468861</ele>
        <time>2026-06-27T17:55:11Z</time>
      </trkpt>
      <trkpt lat="41.40132936624732" lon="-81.73823481371376">
        <ele>267.4752976411</ele>
        <time>2026-06-27T17:55:52Z</time>
      </trkpt>
      <trkpt lat="41.40134060021910" lon="-81.73882481500465">
        <ele>267.2794167496</ele>
        <time>2026-06-27T17:56:23Z</time>
      </trkpt>
      <trkpt lat="41.40134915020855" lon="-81.73943313487092">
        <ele>267.2049945422</ele>
        <time>2026-06-27T17:57:10Z</time>
      </trkpt>
      <trkpt lat="41.40134638050893" lon="-81.74002489276090">
        <ele>266.6226582499</ele>
        <time>2026-06-27T17:57:48Z</time>
      </trkpt>
      <trkpt lat="41.40134575172122" lon="-81.74016175396326">
        <ele>266.5050623640</ele>
        <time>2026-06-27T17:57:58Z</time>
      </trkpt>
    </trkseg>
  </trk>
</gpx>