<?xml version='1.0' encoding='UTF-8'?>
<gpx xmlns="http://www.topografix.com/GPX/1/1" creator="https://gpx.studio" version="1.1">
  <metadata>
    <name>Dog Walk - 2026-06-27 #2</name>
  </metadata>
  <trk>
    <name>Dog Walk - 2026-06-27 #2</name>
    <type>dog walk</type>
    <trkseg>
      <trkpt lat="41.40134373904385" lon="-81.74023252563269">
        <ele>266.4066849538</ele>
        <time>2026-06-27T13:41:04Z</time>
      </trkpt>
      <trkpt lat="41.40134743077274" lon="-81.74083724844145">
        <ele>266.3550060525</ele>
        <time>2026-06-27T13:41:56Z</time>
      </trkpt>
      <trkpt lat="41.40135700332617" lon="-81.74144258302501">
        <ele>265.7106779815</ele>
        <time>2026-06-27T13:42:32Z</time>
      </trkpt>
      <trkpt lat="41.40134294294746" lon="-81.74204096028345">
        <ele>265.3211409750</ele>
        <time>2026-06-27T13:43:15Z</time>
      </trkpt>
      <trkpt lat="41.40134512115245" lon="-81.74241441752611">
        <ele>264.9043193144</ele>
        <time>2026-06-27T13:43:38Z</time>
      </trkpt>
      <trkpt lat="41.40176809315804" lon="-81.74264541398495">
        <ele>264.3859775310</ele>
        <time>2026-06-27T13:44:20Z</time>
      </trkpt>
      <trkpt lat="41.40219188730443" lon="-81.74284413487561">
        <ele>263.4879171803</ele>
        <time>2026-06-27T13:45:21Z</time>
      </trkpt>
      <trkpt lat="41.40221913700795" lon="-81.74287380018860">
        <ele>263.3733052290</ele>
        <time>2026-06-27T13:45:24Z</time>
      </trkpt>
      <trkpt lat="41.40222247985110" lon="-81.74226238230402">
        <ele>264.0066702797</ele>
        <time>2026-06-27T13:46:05Z</time>
      </trkpt>
      <trkpt lat="41.40221427647300" lon="-81.74166993496340">
        <ele>264.5984213999</ele>
        <time>2026-06-27T13:46:50Z</time>
      </trkpt>
      <trkpt lat="41.40221963453159" lon="-81.74106717404973">
        <ele>265.6379001188</ele>
        <time>2026-06-27T13:47:24Z</time>
      </trkpt>
      <trkpt lat="41.40221354458818" lon="-81.74046538702071">
        <ele>265.9209040892</ele>
        <time>2026-06-27T13:48:01Z</time>
      </trkpt>
      <trkpt lat="41.40221861668628" lon="-81.73985796975914">
        <ele>266.3212442689</ele>
        <time>2026-06-27T13:48:47Z</time>
      </trkpt>
      <trkpt lat="41.40221359875405" lon="-81.73927398602289">
        <ele>267.2203925785</ele>
        <time>2026-06-27T13:49:23Z</time>
      </trkpt>
      <trkpt lat="41.40221724900927" lon="-81.73867192499128">
        <ele>267.3452614746</ele>
        <time>2026-06-27T13:50:19Z</time>
      </trkpt>
      <trkpt lat="41.40220931857414" lon="-81.73826764547830">
        <ele>267.2387467365</ele>
        <time>2026-06-27T13:50:51Z</time>
      </trkpt>
      <trkpt lat="41.40177255252240" lon="-81.73826193357156">
        <ele>267.7787086650</ele>
        <time>2026-06-27T13:51:34Z</time>
      </trkpt>
      <trkpt lat="41.40133626875348" lon="-81.73827254663551">
        <ele>267.4409563996</ele>
        <time>2026-06-27T13:52:16Z</time>
      </trkpt>
      <trkpt lat="41.40133758174245" lon="-81.73886411875856">
        <ele>267.3043924087</ele>
        <time>2026-06-27T13:52:52Z</time>
      </trkpt>
      <trkpt lat="41.40133476096912" lon="-81.73946502037683">
        <ele>267.2528032999</ele>
        <time>2026-06-27T13:53:41Z</time>
      </trkpt>
      <trkpt lat="41.40134699121494" lon="-81.74005886054182">
        <ele>266.5324569135</ele>
        <time>2026-06-27T13:54:27Z</time>
      </trkpt>
      <trkpt lat="41.40133711353280" lon="-81.74018599150472">
        <ele>266.7004774414</ele>
        <time>2026-06-27T13:54:35Z</time>
      </trkpt>
    </trkseg>
  </trk>
</gpx>