<?xml version='1.0' encoding='UTF-8'?>
<gpx xmlns="http://www.topografix.com/GPX/1/1" creator="https://gpx.studio" version="1.1">
  <metadata>
    <name>Dog Walk - 2026-06-10 #2</name>
  </metadata>
  <trk>
    <name>Dog Walk - 2026-06-10 #2</name>
    <type>dog walk</type>
    <trkseg>
      <trkpt lat="41.40134731869019" lon="-81.74023080338826">
        <ele>266.6238732153</ele>
        <time>2026-06-10T12:28:23Z</time>
      </trkpt>
      <trkpt lat="41.40134635846056" lon="-81.74082571822326">
        <ele>266.0002749395</ele>
        <time>2026-06-10T12:28:52Z</time>
      </trkpt>
      <trkpt lat="41.40133157835975" lon="-81.74142592849617">
        <ele>265.7948687122</ele>
        <time>2026-06-10T12:29:41Z</time>
      </trkpt>
      <trkpt lat="41.40133426609452" lon="-81.74202665370861">
        <ele>265.3435003457</ele>
        <time>2026-06-10T12:30:25Z</time>
      </trkpt>
      <trkpt lat="41.40133524361838" lon="-81.74238441988403">
        <ele>264.5770732507</ele>
        <time>2026-06-10T12:30:51Z</time>
      </trkpt>
      <trkpt lat="41.40090939736470" lon="-81.74218576790628">
        <ele>265.0796478434</ele>
        <time>2026-06-10T12:31:28Z</time>
      </trkpt>
      <trkpt lat="41.40048454864155" lon="-81.74196458052681">
        <ele>265.1592560593</ele>
        <time>2026-06-10T12:32:01Z</time>
      </trkpt>
      <trkpt lat="41.40045257397784" lon="-81.74194877782587">
        <ele>265.0376234349</ele>
        <time>2026-06-10T12:32:10Z</time>
      </trkpt>
      <trkpt lat="41.40044495226732" lon="-81.74135159433027">
        <ele>265.6576373110</ele>
        <time>2026-06-10T12:32:54Z</time>
      </trkpt>
      <trkpt lat="41.40043700231629" lon="-81.74073408640392">
        <ele>266.4599263616</ele>
        <time>2026-06-10T12:33:37Z</time>
      </trkpt>
      <trkpt lat="41.40042675641335" lon="-81.74015741797541">
        <ele>266.7705685280</ele>
        <time>2026-06-10T12:34:14Z</time>
      </trkpt>
      <trkpt lat="41.40044184772719" lon="-81.73956040507547">
        <ele>267.0070685497</ele>
        <time>2026-06-10T12:34:56Z</time>
      </trkpt>
      <trkpt lat="41.40042712555574" lon="-81.73895800709336">
        <ele>267.1918861656</ele>
        <time>2026-06-10T12:35:35Z</time>
      </trkpt>
      <trkpt lat="41.40042221296587" lon="-81.73834833822515">
        <ele>267.2857797309</ele>
        <time>2026-06-10T12:36:19Z</time>
      </trkpt>
      <trkpt lat="41.40041998973847" lon="-81.73775318388226">
        <ele>267.3909001008</ele>
        <time>2026-06-10T12:37:05Z</time>
      </trkpt>
      <trkpt lat="41.40040643785459" lon="-81.73715485273976">
        <ele>267.9134830381</ele>
        <time>2026-06-10T12:37:44Z</time>
      </trkpt>
      <trkpt lat="41.40040834474132" lon="-81.73654611409198">
        <ele>267.9723788960</ele>
        <time>2026-06-10T12:38:28Z</time>
      </trkpt>
      <trkpt lat="41.40040764593162" lon="-81.73595258080573">
        <ele>267.9534709126</ele>
        <time>2026-06-10T12:39:16Z</time>
      </trkpt>
      <trkpt lat="41.40039804118572" lon="-81.73535238761055">
        <ele>267.9805406936</ele>
        <time>2026-06-10T12:39:50Z</time>
      </trkpt>
      <trkpt lat="41.40039633036249" lon="-81.73475739192459">
        <ele>267.3395574445</ele>
        <time>2026-06-10T12:40:22Z</time>
      </trkpt>
      <trkpt lat="41.40040458583362" lon="-81.73462489241236">
        <ele>267.2408273475</ele>
        <time>2026-06-10T12:40:32Z</time>
      </trkpt>
      <trkpt lat="41.40084118764581" lon="-81.73463318517777">
        <ele>267.4192204139</ele>
        <time>2026-06-10T12:41:09Z</time>
      </trkpt>
      <trkpt lat="41.40129688119124" lon="-81.73463359280383">
        <ele>267.3037246843</ele>
        <time>2026-06-10T12:41:46Z</time>
      </trkpt>
      <trkpt lat="41.40131570911585" lon="-81.73463801628510">
        <ele>267.3317540462</ele>
        <time>2026-06-10T12:41:48Z</time>
      </trkpt>
      <trkpt lat="41.40131905525291" lon="-81.73523814887326">
        <ele>267.7140378406</ele>
        <time>2026-06-10T12:42:31Z</time>
      </trkpt>
      <trkpt lat="41.40131635596025" lon="-81.73583575251619">
        <ele>268.3559793731</ele>
        <time>2026-06-10T12:43:10Z</time>
      </trkpt>
      <trkpt lat="41.40132940191131" lon="-81.73643544014323">
        <ele>268.0464571017</ele>
        <time>2026-06-10T12:43:47Z</time>
      </trkpt>
      <trkpt lat="41.40132828343537" lon="-81.73701917356000">
        <ele>267.9220059799</ele>
        <time>2026-06-10T12:44:32Z</time>
      </trkpt>
      <trkpt lat="41.40133066520863" lon="-81.73763205507684">
        <ele>267.8732046688</ele>
        <time>2026-06-10T12:45:19Z</time>
      </trkpt>
      <trkpt lat="41.40133193094461" lon="-81.73822963118681">
        <ele>267.5857818408</ele>
        <time>2026-06-10T12:46:07Z</time>
      </trkpt>
      <trkpt lat="41.40134037906591" lon="-81.73882835607166">
        <ele>267.3848475167</ele>
        <time>2026-06-10T12:46:50Z</time>
      </trkpt>
      <trkpt lat="41.40134448598525" lon="-81.73942952061878">
        <ele>267.4530071079</ele>
        <time>2026-06-10T12:47:24Z</time>
      </trkpt>
      <trkpt lat="41.40133852457598" lon="-81.74003724327274">
        <ele>266.4115436071</ele>
        <time>2026-06-10T12:48:09Z</time>
      </trkpt>
      <trkpt lat="41.40134549965468" lon="-81.74019216582336">
        <ele>266.6443401443</ele>
        <time>2026-06-10T12:48:19Z</time>
      </trkpt>
    </trkseg>
  </trk>
</gpx>