<?xml version='1.0' encoding='UTF-8'?>
<gpx xmlns="http://www.topografix.com/GPX/1/1" creator="https://gpx.studio" version="1.1">
  <metadata>
    <name>Dog Walk - 2026-07-24 #1</name>
  </metadata>
  <trk>
    <name>Dog Walk - 2026-07-24 #1</name>
    <type>dog walk</type>
    <trkseg>
      <trkpt lat="41.40133609920939" lon="-81.74022639198024">
        <ele>266.3945442431</ele>
        <time>2026-07-24T08:30:28Z</time>
      </trkpt>
      <trkpt lat="41.40133936988112" lon="-81.74083679528763">
        <ele>266.0284381321</ele>
        <time>2026-07-24T08:30:59Z</time>
      </trkpt>
      <trkpt lat="41.40134363818059" lon="-81.74143499060534">
        <ele>265.7592094928</ele>
        <time>2026-07-24T08:31:50Z</time>
      </trkpt>
      <trkpt lat="41.40135226406319" lon="-81.74204224648554">
        <ele>265.3535541734</ele>
        <time>2026-07-24T08:32:30Z</time>
      </trkpt>
      <trkpt lat="41.40134767287655" lon="-81.74241062944085">
        <ele>264.5605048165</ele>
        <time>2026-07-24T08:32:58Z</time>
      </trkpt>
      <trkpt lat="41.40177857093545" lon="-81.74262234293322">
        <ele>264.3332541521</ele>
        <time>2026-07-24T08:33:44Z</time>
      </trkpt>
      <trkpt lat="41.40219877851722" lon="-81.74281977720372">
        <ele>263.8050137512</ele>
        <time>2026-07-24T08:34:22Z</time>
      </trkpt>
      <trkpt lat="41.40261237676210" lon="-81.74301716472023">
        <ele>263.1529175094</ele>
        <time>2026-07-24T08:35:07Z</time>
      </trkpt>
      <trkpt lat="41.40304885546810" lon="-81.74321357006255">
        <ele>262.4476124748</ele>
        <time>2026-07-24T08:35:54Z</time>
      </trkpt>
      <trkpt lat="41.40311478038520" lon="-81.74325028271548">
        <ele>262.3727858225</ele>
        <time>2026-07-24T08:36:00Z</time>
      </trkpt>
      <trkpt lat="41.40311482743382" lon="-81.74265443190423">
        <ele>263.1998242273</ele>
        <time>2026-07-24T08:36:57Z</time>
      </trkpt>
      <trkpt lat="41.40310591351543" lon="-81.74205177033218">
        <ele>263.6686885061</ele>
        <time>2026-07-24T08:37:33Z</time>
      </trkpt>
      <trkpt lat="41.40311775298140" lon="-81.74144862422054">
        <ele>264.1286563544</ele>
        <time>2026-07-24T08:38:19Z</time>
      </trkpt>
      <trkpt lat="41.40310486314102" lon="-81.74085734275917">
        <ele>264.7649903226</ele>
        <time>2026-07-24T08:39:10Z</time>
      </trkpt>
      <trkpt lat="41.40310226441302" lon="-81.74025809061725">
        <ele>265.3997630021</ele>
        <time>2026-07-24T08:40:07Z</time>
      </trkpt>
      <trkpt lat="41.40310181733854" lon="-81.73965770393526">
        <ele>265.9381005615</ele>
        <time>2026-07-24T08:40:52Z</time>
      </trkpt>
      <trkpt lat="41.40310250443147" lon="-81.73905379179534">
        <ele>266.2470976273</ele>
        <time>2026-07-24T08:41:35Z</time>
      </trkpt>
      <trkpt lat="41.40311049622728" lon="-81.73878998513655">
        <ele>266.2614845041</ele>
        <time>2026-07-24T08:41:57Z</time>
      </trkpt>
      <trkpt lat="41.40264729372458" lon="-81.73876717537605">
        <ele>266.6839236934</ele>
        <time>2026-07-24T08:42:43Z</time>
      </trkpt>
      <trkpt lat="41.40223755080028" lon="-81.73878683810121">
        <ele>267.0677025563</ele>
        <time>2026-07-24T08:43:20Z</time>
      </trkpt>
      <trkpt lat="41.40223192805180" lon="-81.73817478688231">
        <ele>267.0908542593</ele>
        <time>2026-07-24T08:43:59Z</time>
      </trkpt>
      <trkpt lat="41.40223375052673" lon="-81.73758011278447">
        <ele>266.9281644315</ele>
        <time>2026-07-24T08:44:44Z</time>
      </trkpt>
      <trkpt lat="41.40222899376923" lon="-81.73698162666898">
        <ele>267.3205044866</ele>
        <time>2026-07-24T08:45:35Z</time>
      </trkpt>
      <trkpt lat="41.40222594575836" lon="-81.73638422669828">
        <ele>267.1701906882</ele>
        <time>2026-07-24T08:46:13Z</time>
      </trkpt>
      <trkpt lat="41.40222999273367" lon="-81.73578125068585">
        <ele>267.4347069505</ele>
        <time>2026-07-24T08:46:53Z</time>
      </trkpt>
      <trkpt lat="41.40222172268142" lon="-81.73518119814558">
        <ele>267.3938959688</ele>
        <time>2026-07-24T08:47:30Z</time>
      </trkpt>
      <trkpt lat="41.40222689648800" lon="-81.73466078938375">
        <ele>266.9935116458</ele>
        <time>2026-07-24T08:47:58Z</time>
      </trkpt>
      <trkpt lat="41.40177283400379" lon="-81.73464926765801">
        <ele>267.2561689817</ele>
        <time>2026-07-24T08:48:53Z</time>
      </trkpt>
      <trkpt lat="41.40132002151518" lon="-81.73463877792017">
        <ele>267.2824612176</ele>
        <time>2026-07-24T08:49:34Z</time>
      </trkpt>
      <trkpt lat="41.40131827769045" lon="-81.73463154619724">
        <ele>267.3357993432</ele>
        <time>2026-07-24T08:49:35Z</time>
      </trkpt>
      <trkpt lat="41.40132329584252" lon="-81.73523524652494">
        <ele>267.7080166709</ele>
        <time>2026-07-24T08:50:20Z</time>
      </trkpt>
      <trkpt lat="41.40132224120111" lon="-81.73583768530403">
        <ele>268.2871106710</ele>
        <time>2026-07-24T08:51:07Z</time>
      </trkpt>
      <trkpt lat="41.40132491050384" lon="-81.73642982525429">
        <ele>268.1812267431</ele>
        <time>2026-07-24T08:51:45Z</time>
      </trkpt>
      <trkpt lat="41.40133029242338" lon="-81.73704012514600">
        <ele>268.1423854016</ele>
        <time>2026-07-24T08:52:35Z</time>
      </trkpt>
      <trkpt lat="41.40133424480040" lon="-81.73763072203309">
        <ele>267.8195168217</ele>
        <time>2026-07-24T08:53:14Z</time>
      </trkpt>
      <trkpt lat="41.40134313336402" lon="-81.73822853525782">
        <ele>267.4917146356</ele>
        <time>2026-07-24T08:53:47Z</time>
      </trkpt>
      <trkpt lat="41.40133689644674" lon="-81.73883255795630">
        <ele>267.5580175952</ele>
        <time>2026-07-24T08:54:30Z</time>
      </trkpt>
      <trkpt lat="41.40133243606832" lon="-81.73943117409296">
        <ele>266.9998238913</ele>
        <time>2026-07-24T08:55:23Z</time>
      </trkpt>
      <trkpt lat="41.40134817453070" lon="-81.74003240673574">
        <ele>266.7732281972</ele>
        <time>2026-07-24T08:56:12Z</time>
      </trkpt>
      <trkpt lat="41.40134693377494" lon="-81.74015704429908">
        <ele>266.5096807813</ele>
        <time>2026-07-24T08:56:21Z</time>
      </trkpt>
    </trkseg>
  </trk>
</gpx>