<?xml version='1.0' encoding='UTF-8'?>
<gpx xmlns="http://www.topografix.com/GPX/1/1" creator="https://gpx.studio" version="1.1">
  <metadata>
    <name>Dog Walk - 2026-04-13 #4</name>
  </metadata>
  <trk>
    <name>Dog Walk - 2026-04-13 #4</name>
    <type>dog walk</type>
    <trkseg>
      <trkpt lat="41.40132616224013" lon="-81.74023183325322">
        <ele>266.3658086409</ele>
        <time>2026-04-13T17:46:29Z</time>
      </trkpt>
      <trkpt lat="41.40132386801078" lon="-81.74084317073782">
        <ele>266.2043753263</ele>
        <time>2026-04-13T17:47:01Z</time>
      </trkpt>
      <trkpt lat="41.40133213788483" lon="-81.74142801414609">
        <ele>265.6768040157</ele>
        <time>2026-04-13T17:47:50Z</time>
      </trkpt>
      <trkpt lat="41.40133846008549" lon="-81.74202546038997">
        <ele>265.2663598709</ele>
        <time>2026-04-13T17:48:33Z</time>
      </trkpt>
      <trkpt lat="41.40133149102978" lon="-81.74238768098375">
        <ele>264.7157598633</ele>
        <time>2026-04-13T17:49:12Z</time>
      </trkpt>
      <trkpt lat="41.40090159041167" lon="-81.74220470655426">
        <ele>265.0420217372</ele>
        <time>2026-04-13T17:49:52Z</time>
      </trkpt>
      <trkpt lat="41.40048376960850" lon="-81.74199969270579">
        <ele>265.1735262996</ele>
        <time>2026-04-13T17:50:25Z</time>
      </trkpt>
      <trkpt lat="41.40004879059693" lon="-81.74181123922709">
        <ele>265.3972248736</ele>
        <time>2026-04-13T17:50:58Z</time>
      </trkpt>
      <trkpt lat="41.39962613365802" lon="-81.74162441606875">
        <ele>264.9643790021</ele>
        <time>2026-04-13T17:51:36Z</time>
      </trkpt>
      <trkpt lat="41.39953440345021" lon="-81.74158293078982">
        <ele>264.7358095526</ele>
        <time>2026-04-13T17:51:44Z</time>
      </trkpt>
      <trkpt lat="41.39952794428910" lon="-81.74097205507553">
        <ele>265.6476754019</ele>
        <time>2026-04-13T17:52:17Z</time>
      </trkpt>
      <trkpt lat="41.39953422464834" lon="-81.74037428867638">
        <ele>266.0746698755</ele>
        <time>2026-04-13T17:52:58Z</time>
      </trkpt>
      <trkpt lat="41.39953065309128" lon="-81.73977169895072">
        <ele>266.6690546832</ele>
        <time>2026-04-13T17:53:29Z</time>
      </trkpt>
      <trkpt lat="41.39953220333162" lon="-81.73916804970474">
        <ele>266.8167419862</ele>
        <time>2026-04-13T17:54:03Z</time>
      </trkpt>
      <trkpt lat="41.39953536444661" lon="-81.73857456926910">
        <ele>266.7500357718</ele>
        <time>2026-04-13T17:54:40Z</time>
      </trkpt>
      <trkpt lat="41.39953398242923" lon="-81.73797133276574">
        <ele>267.3063910729</ele>
        <time>2026-04-13T17:55:25Z</time>
      </trkpt>
      <trkpt lat="41.39952579801469" lon="-81.73738682213475">
        <ele>266.9600798200</ele>
        <time>2026-04-13T17:55:58Z</time>
      </trkpt>
      <trkpt lat="41.39952975777005" lon="-81.73677871057818">
        <ele>267.3380666221</ele>
        <time>2026-04-13T17:56:29Z</time>
      </trkpt>
      <trkpt lat="41.39952254850228" lon="-81.73618246339576">
        <ele>267.6288780944</ele>
        <time>2026-04-13T17:57:13Z</time>
      </trkpt>
      <trkpt lat="41.39953507082112" lon="-81.73558111835963">
        <ele>267.3668417733</ele>
        <time>2026-04-13T17:57:46Z</time>
      </trkpt>
      <trkpt lat="41.39952748245476" lon="-81.73497997925359">
        <ele>267.1531978191</ele>
        <time>2026-04-13T17:58:32Z</time>
      </trkpt>
      <trkpt lat="41.39952100577357" lon="-81.73461724718719">
        <ele>267.1608663109</ele>
        <time>2026-04-13T17:59:02Z</time>
      </trkpt>
      <trkpt lat="41.39997663685649" lon="-81.73462815823376">
        <ele>267.2715896917</ele>
        <time>2026-04-13T17:59:43Z</time>
      </trkpt>
      <trkpt lat="41.40042472106220" lon="-81.73462669643946">
        <ele>267.5236638748</ele>
        <time>2026-04-13T18:00:15Z</time>
      </trkpt>
      <trkpt lat="41.40087082994280" lon="-81.73463886717782">
        <ele>267.3477686383</ele>
        <time>2026-04-13T18:00:54Z</time>
      </trkpt>
      <trkpt lat="41.40131618277645" lon="-81.73463364628762">
        <ele>267.3613945284</ele>
        <time>2026-04-13T18:01:49Z</time>
      </trkpt>
      <trkpt lat="41.40131268212476" lon="-81.73523602162739">
        <ele>267.8008787664</ele>
        <time>2026-04-13T18:02:36Z</time>
      </trkpt>
      <trkpt lat="41.40131989395167" lon="-81.73584504316634">
        <ele>268.3535833294</ele>
        <time>2026-04-13T18:03:10Z</time>
      </trkpt>
      <trkpt lat="41.40132341757192" lon="-81.73643492591660">
        <ele>268.2703011464</ele>
        <time>2026-04-13T18:04:09Z</time>
      </trkpt>
      <trkpt lat="41.40132184671700" lon="-81.73704182239491">
        <ele>268.0398703059</ele>
        <time>2026-04-13T18:04:41Z</time>
      </trkpt>
      <trkpt lat="41.40132682041504" lon="-81.73763135144004">
        <ele>267.8068156529</ele>
        <time>2026-04-13T18:05:09Z</time>
      </trkpt>
      <trkpt lat="41.40133134799784" lon="-81.73822844425177">
        <ele>267.6295114795</ele>
        <time>2026-04-13T18:05:53Z</time>
      </trkpt>
      <trkpt lat="41.40132658613933" lon="-81.73882988749889">
        <ele>267.3661337594</ele>
        <time>2026-04-13T18:06:30Z</time>
      </trkpt>
      <trkpt lat="41.40133640676969" lon="-81.73943622409858">
        <ele>267.2998851442</ele>
        <time>2026-04-13T18:07:06Z</time>
      </trkpt>
      <trkpt lat="41.40133536257952" lon="-81.74002416590797">
        <ele>266.5018412571</ele>
        <time>2026-04-13T18:07:47Z</time>
      </trkpt>
      <trkpt lat="41.40132931081684" lon="-81.74021141068155">
        <ele>266.5155961320</ele>
        <time>2026-04-13T18:08:03Z</time>
      </trkpt>
    </trkseg>
  </trk>
</gpx>