<?xml version='1.0' encoding='UTF-8'?>
<gpx xmlns="http://www.topografix.com/GPX/1/1" creator="https://gpx.studio" version="1.1">
  <metadata>
    <name>Dog Walk - 2026-07-25 #2</name>
  </metadata>
  <trk>
    <name>Dog Walk - 2026-07-25 #2</name>
    <type>dog walk</type>
    <trkseg>
      <trkpt lat="41.40134510798985" lon="-81.74024176805186">
        <ele>266.3990906844</ele>
        <time>2026-07-25T12:47:57Z</time>
      </trkpt>
      <trkpt lat="41.40133467387917" lon="-81.74084703728107">
        <ele>266.1301836136</ele>
        <time>2026-07-25T12:48:36Z</time>
      </trkpt>
      <trkpt lat="41.40134363332685" lon="-81.74143625939445">
        <ele>265.8875822022</ele>
        <time>2026-07-25T12:49:21Z</time>
      </trkpt>
      <trkpt lat="41.40135578614390" lon="-81.74203326371934">
        <ele>265.3738742262</ele>
        <time>2026-07-25T12:50:18Z</time>
      </trkpt>
      <trkpt lat="41.40135056221117" lon="-81.74241632132374">
        <ele>264.7904959485</ele>
        <time>2026-07-25T12:50:41Z</time>
      </trkpt>
      <trkpt lat="41.40176951185512" lon="-81.74264363902093">
        <ele>264.2735376914</ele>
        <time>2026-07-25T12:51:24Z</time>
      </trkpt>
      <trkpt lat="41.40217783506804" lon="-81.74285534258377">
        <ele>263.3982655464</ele>
        <time>2026-07-25T12:51:59Z</time>
      </trkpt>
      <trkpt lat="41.40222204919623" lon="-81.74286127722559">
        <ele>263.2458575088</ele>
        <time>2026-07-25T12:52:05Z</time>
      </trkpt>
      <trkpt lat="41.40221981331632" lon="-81.74226589918429">
        <ele>264.0018935432</ele>
        <time>2026-07-25T12:52:39Z</time>
      </trkpt>
      <trkpt lat="41.40221371003427" lon="-81.74166687965999">
        <ele>264.7962986992</ele>
        <time>2026-07-25T12:53:16Z</time>
      </trkpt>
      <trkpt lat="41.40222493976517" lon="-81.74106324264460">
        <ele>265.5151580574</ele>
        <time>2026-07-25T12:54:07Z</time>
      </trkpt>
      <trkpt lat="41.40222202968440" lon="-81.74046956689750">
        <ele>266.0405608900</ele>
        <time>2026-07-25T12:55:06Z</time>
      </trkpt>
      <trkpt lat="41.40222234427007" lon="-81.73987251924616">
        <ele>266.3865492468</ele>
        <time>2026-07-25T12:55:40Z</time>
      </trkpt>
      <trkpt lat="41.40222502354272" lon="-81.73926739386636">
        <ele>266.9456642162</ele>
        <time>2026-07-25T12:56:21Z</time>
      </trkpt>
      <trkpt lat="41.40223083499528" lon="-81.73866904931708">
        <ele>267.0122640682</ele>
        <time>2026-07-25T12:57:01Z</time>
      </trkpt>
      <trkpt lat="41.40221739692290" lon="-81.73827068674539">
        <ele>267.2187538686</ele>
        <time>2026-07-25T12:57:38Z</time>
      </trkpt>
      <trkpt lat="41.40175966094804" lon="-81.73826241097753">
        <ele>267.7623191517</ele>
        <time>2026-07-25T12:58:14Z</time>
      </trkpt>
      <trkpt lat="41.40134759635089" lon="-81.73827422066144">
        <ele>267.4618588490</ele>
        <time>2026-07-25T12:58:44Z</time>
      </trkpt>
      <trkpt lat="41.40134124811649" lon="-81.73885797765097">
        <ele>267.3435583428</ele>
        <time>2026-07-25T12:59:26Z</time>
      </trkpt>
      <trkpt lat="41.40134382917419" lon="-81.73946106115639">
        <ele>266.9965766170</ele>
        <time>2026-07-25T13:00:08Z</time>
      </trkpt>
      <trkpt lat="41.40133670335045" lon="-81.74006430178450">
        <ele>266.6094637464</ele>
        <time>2026-07-25T13:01:07Z</time>
      </trkpt>
      <trkpt lat="41.40133632206080" lon="-81.74018874017820">
        <ele>266.6078229518</ele>
        <time>2026-07-25T13:01:17Z</time>
      </trkpt>
    </trkseg>
  </trk>
</gpx>