<?xml version='1.0' encoding='UTF-8'?>
<gpx xmlns="http://www.topografix.com/GPX/1/1" creator="https://gpx.studio" version="1.1">
  <metadata>
    <name>Dog Walk - 2026-06-14 #3</name>
  </metadata>
  <trk>
    <name>Dog Walk - 2026-06-14 #3</name>
    <type>dog walk</type>
    <trkseg>
      <trkpt lat="41.40133644789734" lon="-81.74023072620885">
        <ele>266.4276725247</ele>
        <time>2026-06-14T17:16:04Z</time>
      </trkpt>
      <trkpt lat="41.40134108347568" lon="-81.74083778836888">
        <ele>266.0664778519</ele>
        <time>2026-06-14T17:16:37Z</time>
      </trkpt>
      <trkpt lat="41.40135524331843" lon="-81.74142984693276">
        <ele>265.7067140831</ele>
        <time>2026-06-14T17:17:29Z</time>
      </trkpt>
      <trkpt lat="41.40134445628792" lon="-81.74203250026416">
        <ele>265.2627894784</ele>
        <time>2026-06-14T17:18:02Z</time>
      </trkpt>
      <trkpt lat="41.40133909015447" lon="-81.74242099624617">
        <ele>264.8925208785</ele>
        <time>2026-06-14T17:18:21Z</time>
      </trkpt>
      <trkpt lat="41.40176179240562" lon="-81.74263855271865">
        <ele>264.2266476348</ele>
        <time>2026-06-14T17:19:06Z</time>
      </trkpt>
      <trkpt lat="41.40218566163573" lon="-81.74285030636449">
        <ele>263.4381805281</ele>
        <time>2026-06-14T17:19:49Z</time>
      </trkpt>
      <trkpt lat="41.40221084754028" lon="-81.74286414478983">
        <ele>263.3854645647</ele>
        <time>2026-06-14T17:19:51Z</time>
      </trkpt>
      <trkpt lat="41.40222603374205" lon="-81.74227069734721">
        <ele>263.9337726687</ele>
        <time>2026-06-14T17:20:40Z</time>
      </trkpt>
      <trkpt lat="41.40220588482315" lon="-81.74166740739682">
        <ele>264.8053274765</ele>
        <time>2026-06-14T17:21:25Z</time>
      </trkpt>
      <trkpt lat="41.40221571051720" lon="-81.74106524056756">
        <ele>265.5463573245</ele>
        <time>2026-06-14T17:22:10Z</time>
      </trkpt>
      <trkpt lat="41.40221576510240" lon="-81.74046204036530">
        <ele>266.0111834130</ele>
        <time>2026-06-14T17:22:49Z</time>
      </trkpt>
      <trkpt lat="41.40221996881822" lon="-81.73986753024487">
        <ele>266.5660434691</ele>
        <time>2026-06-14T17:23:31Z</time>
      </trkpt>
      <trkpt lat="41.40221597661616" lon="-81.73927056599621">
        <ele>266.9906691915</ele>
        <time>2026-06-14T17:24:42Z</time>
      </trkpt>
      <trkpt lat="41.40221787647236" lon="-81.73865816413395">
        <ele>267.3084020723</ele>
        <time>2026-06-14T17:25:16Z</time>
      </trkpt>
      <trkpt lat="41.40222188516729" lon="-81.73826612739998">
        <ele>267.1826833258</ele>
        <time>2026-06-14T17:25:48Z</time>
      </trkpt>
      <trkpt lat="41.40176416608529" lon="-81.73826772171807">
        <ele>267.7467350839</ele>
        <time>2026-06-14T17:26:30Z</time>
      </trkpt>
      <trkpt lat="41.40134024690610" lon="-81.73826142425825">
        <ele>267.6378588498</ele>
        <time>2026-06-14T17:27:03Z</time>
      </trkpt>
      <trkpt lat="41.40133670394065" lon="-81.73886182144449">
        <ele>267.5184416217</ele>
        <time>2026-06-14T17:27:46Z</time>
      </trkpt>
      <trkpt lat="41.40133206813649" lon="-81.73945190541127">
        <ele>267.1621922229</ele>
        <time>2026-06-14T17:28:31Z</time>
      </trkpt>
      <trkpt lat="41.40133304079591" lon="-81.74006023173193">
        <ele>266.7518940908</ele>
        <time>2026-06-14T17:29:09Z</time>
      </trkpt>
      <trkpt lat="41.40134123581857" lon="-81.74019372195326">
        <ele>266.5350507804</ele>
        <time>2026-06-14T17:29:17Z</time>
      </trkpt>
    </trkseg>
  </trk>
</gpx>