<?xml version='1.0' encoding='UTF-8'?>
<gpx xmlns="http://www.topografix.com/GPX/1/1" creator="https://gpx.studio" version="1.1">
  <metadata>
    <name>Dog Walk - 2026-08-13 #2</name>
  </metadata>
  <trk>
    <name>Dog Walk - 2026-08-13 #2</name>
    <type>dog walk</type>
    <trkseg>
      <trkpt lat="41.40134561234586" lon="-81.74023649881867">
        <ele>266.8025726472</ele>
        <time>2026-08-13T18:42:08Z</time>
      </trkpt>
      <trkpt lat="41.40133679562085" lon="-81.74083016439646">
        <ele>265.8341789998</ele>
        <time>2026-08-13T18:43:07Z</time>
      </trkpt>
      <trkpt lat="41.40135219037050" lon="-81.74143348781274">
        <ele>265.6364635133</ele>
        <time>2026-08-13T18:44:05Z</time>
      </trkpt>
      <trkpt lat="41.40134347581660" lon="-81.74203532748894">
        <ele>265.2587669893</ele>
        <time>2026-08-13T18:44:49Z</time>
      </trkpt>
      <trkpt lat="41.40135233085145" lon="-81.74241576927983">
        <ele>264.7655797724</ele>
        <time>2026-08-13T18:45:13Z</time>
      </trkpt>
      <trkpt lat="41.40176396901760" lon="-81.74263007038904">
        <ele>264.1094998548</ele>
        <time>2026-08-13T18:45:56Z</time>
      </trkpt>
      <trkpt lat="41.40219300373509" lon="-81.74284979125463">
        <ele>263.6079078656</ele>
        <time>2026-08-13T18:46:45Z</time>
      </trkpt>
      <trkpt lat="41.40221614468360" lon="-81.74286320835411">
        <ele>263.3235229933</ele>
        <time>2026-08-13T18:46:47Z</time>
      </trkpt>
      <trkpt lat="41.40221979161836" lon="-81.74225815169126">
        <ele>264.1854611172</ele>
        <time>2026-08-13T18:47:32Z</time>
      </trkpt>
      <trkpt lat="41.40222236088810" lon="-81.74166602962603">
        <ele>264.6928699245</ele>
        <time>2026-08-13T18:48:23Z</time>
      </trkpt>
      <trkpt lat="41.40221621445469" lon="-81.74106713452093">
        <ele>265.6448651010</ele>
        <time>2026-08-13T18:49:00Z</time>
      </trkpt>
      <trkpt lat="41.40222107078898" lon="-81.74047005245211">
        <ele>266.2009337564</ele>
        <time>2026-08-13T18:49:32Z</time>
      </trkpt>
      <trkpt lat="41.40221850758773" lon="-81.73986757563392">
        <ele>266.4158085285</ele>
        <time>2026-08-13T18:50:06Z</time>
      </trkpt>
      <trkpt lat="41.40221417205891" lon="-81.73926746743625">
        <ele>266.9040539531</ele>
        <time>2026-08-13T18:50:51Z</time>
      </trkpt>
      <trkpt lat="41.40221861597284" lon="-81.73866357742993">
        <ele>267.1178755666</ele>
        <time>2026-08-13T18:51:35Z</time>
      </trkpt>
      <trkpt lat="41.40221933004408" lon="-81.73825998563051">
        <ele>267.1224288658</ele>
        <time>2026-08-13T18:52:16Z</time>
      </trkpt>
      <trkpt lat="41.40176671566390" lon="-81.73826508224386">
        <ele>267.6403541655</ele>
        <time>2026-08-13T18:52:54Z</time>
      </trkpt>
      <trkpt lat="41.40134421901303" lon="-81.73826314717904">
        <ele>267.4288280686</ele>
        <time>2026-08-13T18:53:32Z</time>
      </trkpt>
      <trkpt lat="41.40133655757246" lon="-81.73886276277744">
        <ele>267.4802243196</ele>
        <time>2026-08-13T18:54:09Z</time>
      </trkpt>
      <trkpt lat="41.40134278943559" lon="-81.73945982156374">
        <ele>267.0041925860</ele>
        <time>2026-08-13T18:54:43Z</time>
      </trkpt>
      <trkpt lat="41.40135069919949" lon="-81.74005841113082">
        <ele>266.7181180217</ele>
        <time>2026-08-13T18:55:30Z</time>
      </trkpt>
      <trkpt lat="41.40134477446177" lon="-81.74018374799510">
        <ele>266.6350810355</ele>
        <time>2026-08-13T18:55:38Z</time>
      </trkpt>
    </trkseg>
  </trk>
</gpx>