<?xml version='1.0' encoding='UTF-8'?>
<gpx xmlns="http://www.topografix.com/GPX/1/1" creator="https://gpx.studio" version="1.1">
  <metadata>
    <name>Dog Walk - 2026-06-24 #1</name>
  </metadata>
  <trk>
    <name>Dog Walk - 2026-06-24 #1</name>
    <type>dog walk</type>
    <trkseg>
      <trkpt lat="41.40134229512538" lon="-81.74022611504301">
        <ele>266.3367258444</ele>
        <time>2026-06-24T10:16:01Z</time>
      </trkpt>
      <trkpt lat="41.40134328333853" lon="-81.74084291609105">
        <ele>266.3009201146</ele>
        <time>2026-06-24T10:17:08Z</time>
      </trkpt>
      <trkpt lat="41.40133897389773" lon="-81.74144026508513">
        <ele>265.8184071182</ele>
        <time>2026-06-24T10:17:53Z</time>
      </trkpt>
      <trkpt lat="41.40134390248146" lon="-81.74203711741858">
        <ele>265.2339672825</ele>
        <time>2026-06-24T10:18:31Z</time>
      </trkpt>
      <trkpt lat="41.40134819532469" lon="-81.74242768523739">
        <ele>264.7056881032</ele>
        <time>2026-06-24T10:19:01Z</time>
      </trkpt>
      <trkpt lat="41.40177508733449" lon="-81.74263411285173">
        <ele>264.1857281369</ele>
        <time>2026-06-24T10:19:44Z</time>
      </trkpt>
      <trkpt lat="41.40219969195076" lon="-81.74282261309801">
        <ele>263.4844915506</ele>
        <time>2026-06-24T10:20:23Z</time>
      </trkpt>
      <trkpt lat="41.40262370387404" lon="-81.74301542518056">
        <ele>263.2916301862</ele>
        <time>2026-06-24T10:21:20Z</time>
      </trkpt>
      <trkpt lat="41.40304083642899" lon="-81.74321439746737">
        <ele>262.6019489264</ele>
        <time>2026-06-24T10:22:06Z</time>
      </trkpt>
      <trkpt lat="41.40311490239236" lon="-81.74325048379855">
        <ele>262.1615980166</ele>
        <time>2026-06-24T10:22:16Z</time>
      </trkpt>
      <trkpt lat="41.40311121870525" lon="-81.74266189964938">
        <ele>263.0837902226</ele>
        <time>2026-06-24T10:22:50Z</time>
      </trkpt>
      <trkpt lat="41.40311091275705" lon="-81.74205039660093">
        <ele>263.6877066270</ele>
        <time>2026-06-24T10:23:22Z</time>
      </trkpt>
      <trkpt lat="41.40311656063704" lon="-81.74145635820953">
        <ele>264.1681719639</ele>
        <time>2026-06-24T10:23:56Z</time>
      </trkpt>
      <trkpt lat="41.40310578045887" lon="-81.74086043236932">
        <ele>264.8839599032</ele>
        <time>2026-06-24T10:24:30Z</time>
      </trkpt>
      <trkpt lat="41.40310554380942" lon="-81.74025946204129">
        <ele>265.5420254871</ele>
        <time>2026-06-24T10:25:30Z</time>
      </trkpt>
      <trkpt lat="41.40310645703944" lon="-81.73965805107868">
        <ele>265.7862737288</ele>
        <time>2026-06-24T10:26:10Z</time>
      </trkpt>
      <trkpt lat="41.40310439904504" lon="-81.73904522167354">
        <ele>266.0927708206</ele>
        <time>2026-06-24T10:26:54Z</time>
      </trkpt>
      <trkpt lat="41.40309929434611" lon="-81.73878842329276">
        <ele>266.2315023169</ele>
        <time>2026-06-24T10:27:09Z</time>
      </trkpt>
      <trkpt lat="41.40265654592804" lon="-81.73879465245122">
        <ele>266.8795313113</ele>
        <time>2026-06-24T10:27:48Z</time>
      </trkpt>
      <trkpt lat="41.40222852398279" lon="-81.73878400757528">
        <ele>267.1414611179</ele>
        <time>2026-06-24T10:28:22Z</time>
      </trkpt>
      <trkpt lat="41.40222710037678" lon="-81.73816716176518">
        <ele>266.9884294678</ele>
        <time>2026-06-24T10:29:24Z</time>
      </trkpt>
      <trkpt lat="41.40223038419210" lon="-81.73758127335205">
        <ele>266.9694880272</ele>
        <time>2026-06-24T10:30:01Z</time>
      </trkpt>
      <trkpt lat="41.40223056751397" lon="-81.73698734149112">
        <ele>267.2321959000</ele>
        <time>2026-06-24T10:30:43Z</time>
      </trkpt>
      <trkpt lat="41.40222972385326" lon="-81.73638102981370">
        <ele>267.2855119386</ele>
        <time>2026-06-24T10:31:23Z</time>
      </trkpt>
      <trkpt lat="41.40222391058826" lon="-81.73578139417879">
        <ele>267.2742685737</ele>
        <time>2026-06-24T10:31:57Z</time>
      </trkpt>
      <trkpt lat="41.40222579585823" lon="-81.73517824940240">
        <ele>267.2611412324</ele>
        <time>2026-06-24T10:32:33Z</time>
      </trkpt>
      <trkpt lat="41.40221480050837" lon="-81.73465202762027">
        <ele>267.0424441659</ele>
        <time>2026-06-24T10:33:03Z</time>
      </trkpt>
      <trkpt lat="41.40177615249820" lon="-81.73464734311094">
        <ele>267.2211990663</ele>
        <time>2026-06-24T10:33:39Z</time>
      </trkpt>
      <trkpt lat="41.40131773018892" lon="-81.73462596294024">
        <ele>267.3052533459</ele>
        <time>2026-06-24T10:34:29Z</time>
      </trkpt>
      <trkpt lat="41.40131804784738" lon="-81.73463213809002">
        <ele>267.2672438325</ele>
        <time>2026-06-24T10:34:30Z</time>
      </trkpt>
      <trkpt lat="41.40132362890979" lon="-81.73523504398779">
        <ele>267.9650175984</ele>
        <time>2026-06-24T10:35:04Z</time>
      </trkpt>
      <trkpt lat="41.40131943656212" lon="-81.73583792839987">
        <ele>268.3392992845</ele>
        <time>2026-06-24T10:35:45Z</time>
      </trkpt>
      <trkpt lat="41.40132428562224" lon="-81.73642334365687">
        <ele>268.1781826566</ele>
        <time>2026-06-24T10:36:45Z</time>
      </trkpt>
      <trkpt lat="41.40132152055980" lon="-81.73703408797674">
        <ele>268.1759671349</ele>
        <time>2026-06-24T10:37:21Z</time>
      </trkpt>
      <trkpt lat="41.40133153870899" lon="-81.73763391715995">
        <ele>268.0210435336</ele>
        <time>2026-06-24T10:38:11Z</time>
      </trkpt>
      <trkpt lat="41.40133257461597" lon="-81.73823040511202">
        <ele>267.6495892899</ele>
        <time>2026-06-24T10:38:47Z</time>
      </trkpt>
      <trkpt lat="41.40133926225383" lon="-81.73883537698210">
        <ele>267.4153248296</ele>
        <time>2026-06-24T10:39:24Z</time>
      </trkpt>
      <trkpt lat="41.40134459955629" lon="-81.73943211589618">
        <ele>267.4117445244</ele>
        <time>2026-06-24T10:40:10Z</time>
      </trkpt>
      <trkpt lat="41.40134534543246" lon="-81.74002984440939">
        <ele>266.6529390257</ele>
        <time>2026-06-24T10:40:49Z</time>
      </trkpt>
      <trkpt lat="41.40134735607503" lon="-81.74016813573036">
        <ele>266.5261119609</ele>
        <time>2026-06-24T10:40:59Z</time>
      </trkpt>
    </trkseg>
  </trk>
</gpx>