<?xml version='1.0' encoding='UTF-8'?>
<gpx xmlns="http://www.topografix.com/GPX/1/1" creator="https://gpx.studio" version="1.1">
  <metadata>
    <name>Dog Walk - 2026-03-13 #1</name>
  </metadata>
  <trk>
    <name>Dog Walk - 2026-03-13 #1</name>
    <type>dog walk</type>
    <trkseg>
      <trkpt lat="41.40132563963749" lon="-81.74023584343951">
        <ele>266.6204241869</ele>
        <time>2026-03-13T08:32:49Z</time>
      </trkpt>
      <trkpt lat="41.40133190115020" lon="-81.74082550122777">
        <ele>266.2696514358</ele>
        <time>2026-03-13T08:33:28Z</time>
      </trkpt>
      <trkpt lat="41.40133090115600" lon="-81.74143585031655">
        <ele>265.9802018961</ele>
        <time>2026-03-13T08:34:02Z</time>
      </trkpt>
      <trkpt lat="41.40133228697941" lon="-81.74203273624293">
        <ele>265.3091640810</ele>
        <time>2026-03-13T08:34:41Z</time>
      </trkpt>
      <trkpt lat="41.40132685735869" lon="-81.74239295886861">
        <ele>264.8101902422</ele>
        <time>2026-03-13T08:35:04Z</time>
      </trkpt>
      <trkpt lat="41.40091299461148" lon="-81.74220966443461">
        <ele>264.8482738586</ele>
        <time>2026-03-13T08:35:33Z</time>
      </trkpt>
      <trkpt lat="41.40047422103952" lon="-81.74201024394667">
        <ele>265.0891310280</ele>
        <time>2026-03-13T08:36:21Z</time>
      </trkpt>
      <trkpt lat="41.40004822936467" lon="-81.74181306479684">
        <ele>265.2588817953</ele>
        <time>2026-03-13T08:36:55Z</time>
      </trkpt>
      <trkpt lat="41.39962876141303" lon="-81.74161525971236">
        <ele>264.5451277324</ele>
        <time>2026-03-13T08:37:33Z</time>
      </trkpt>
      <trkpt lat="41.39953347089044" lon="-81.74157881905182">
        <ele>264.7672295600</ele>
        <time>2026-03-13T08:37:40Z</time>
      </trkpt>
      <trkpt lat="41.39953206912953" lon="-81.74098148637525">
        <ele>265.8696247520</ele>
        <time>2026-03-13T08:38:14Z</time>
      </trkpt>
      <trkpt lat="41.39953360655318" lon="-81.74038064514738">
        <ele>266.3052037536</ele>
        <time>2026-03-13T08:38:47Z</time>
      </trkpt>
      <trkpt lat="41.39952890548929" lon="-81.73977821316925">
        <ele>266.6568419826</ele>
        <time>2026-03-13T08:39:23Z</time>
      </trkpt>
      <trkpt lat="41.39953324630211" lon="-81.73918134746758">
        <ele>266.9178177341</ele>
        <time>2026-03-13T08:40:06Z</time>
      </trkpt>
      <trkpt lat="41.39953047507909" lon="-81.73857726761334">
        <ele>267.1860576759</ele>
        <time>2026-03-13T08:40:49Z</time>
      </trkpt>
      <trkpt lat="41.39953276191834" lon="-81.73797402536623">
        <ele>267.2278241944</ele>
        <time>2026-03-13T08:41:23Z</time>
      </trkpt>
      <trkpt lat="41.39952649021544" lon="-81.73737930180752">
        <ele>267.3067200418</ele>
        <time>2026-03-13T08:42:00Z</time>
      </trkpt>
      <trkpt lat="41.39952500598684" lon="-81.73677934623700">
        <ele>267.3952673249</ele>
        <time>2026-03-13T08:42:37Z</time>
      </trkpt>
      <trkpt lat="41.39952867312324" lon="-81.73618087680454">
        <ele>267.5479900472</ele>
        <time>2026-03-13T08:43:12Z</time>
      </trkpt>
      <trkpt lat="41.39952119457248" lon="-81.73557488447295">
        <ele>267.2377128265</ele>
        <time>2026-03-13T08:43:54Z</time>
      </trkpt>
      <trkpt lat="41.39953292630862" lon="-81.73497937988617">
        <ele>267.2355458765</ele>
        <time>2026-03-13T08:44:35Z</time>
      </trkpt>
      <trkpt lat="41.39951685680283" lon="-81.73462359539135">
        <ele>267.2227308184</ele>
        <time>2026-03-13T08:45:15Z</time>
      </trkpt>
      <trkpt lat="41.39996686370299" lon="-81.73461478407272">
        <ele>267.2025865722</ele>
        <time>2026-03-13T08:46:10Z</time>
      </trkpt>
      <trkpt lat="41.40042477185288" lon="-81.73463722646288">
        <ele>267.4888292334</ele>
        <time>2026-03-13T08:46:47Z</time>
      </trkpt>
      <trkpt lat="41.40087320355666" lon="-81.73464200910189">
        <ele>267.2479764526</ele>
        <time>2026-03-13T08:47:23Z</time>
      </trkpt>
      <trkpt lat="41.40131765700554" lon="-81.73464338127131">
        <ele>267.2170924006</ele>
        <time>2026-03-13T08:48:08Z</time>
      </trkpt>
      <trkpt lat="41.40132361977503" lon="-81.73523411870661">
        <ele>268.1604075985</ele>
        <time>2026-03-13T08:48:58Z</time>
      </trkpt>
      <trkpt lat="41.40132321316477" lon="-81.73584017806729">
        <ele>267.9948489686</ele>
        <time>2026-03-13T08:49:35Z</time>
      </trkpt>
      <trkpt lat="41.40131708427352" lon="-81.73644641168551">
        <ele>268.2105280504</ele>
        <time>2026-03-13T08:50:06Z</time>
      </trkpt>
      <trkpt lat="41.40132713284029" lon="-81.73704172119680">
        <ele>267.9927877263</ele>
        <time>2026-03-13T08:51:13Z</time>
      </trkpt>
      <trkpt lat="41.40133514573212" lon="-81.73763924810507">
        <ele>268.1710808013</ele>
        <time>2026-03-13T08:51:48Z</time>
      </trkpt>
      <trkpt lat="41.40132948304884" lon="-81.73823264302733">
        <ele>267.6738115453</ele>
        <time>2026-03-13T08:52:25Z</time>
      </trkpt>
      <trkpt lat="41.40132616966982" lon="-81.73884077081489">
        <ele>267.1355608570</ele>
        <time>2026-03-13T08:53:23Z</time>
      </trkpt>
      <trkpt lat="41.40132672933694" lon="-81.73943166224228">
        <ele>267.1242056216</ele>
        <time>2026-03-13T08:53:56Z</time>
      </trkpt>
      <trkpt lat="41.40132858531503" lon="-81.74004456394790">
        <ele>266.6137248101</ele>
        <time>2026-03-13T08:54:35Z</time>
      </trkpt>
      <trkpt lat="41.40132345761521" lon="-81.74020987456451">
        <ele>266.4695922046</ele>
        <time>2026-03-13T08:54:46Z</time>
      </trkpt>
    </trkseg>
  </trk>
</gpx>