<?xml version='1.0' encoding='UTF-8'?>
<gpx xmlns="http://www.topografix.com/GPX/1/1" creator="https://gpx.studio" version="1.1">
  <metadata>
    <name>Dog Walk - 2026-09-15 #2</name>
  </metadata>
  <trk>
    <name>Dog Walk - 2026-09-15 #2</name>
    <type>dog walk</type>
    <trkseg>
      <trkpt lat="41.40134426173559" lon="-81.74023650513340">
        <ele>266.5977358888</ele>
        <time>2026-09-15T16:36:07Z</time>
      </trkpt>
      <trkpt lat="41.40133996171640" lon="-81.74084108817738">
        <ele>266.4172589484</ele>
        <time>2026-09-15T16:36:45Z</time>
      </trkpt>
      <trkpt lat="41.40135017058551" lon="-81.74143906533422">
        <ele>265.6777950518</ele>
        <time>2026-09-15T16:37:15Z</time>
      </trkpt>
      <trkpt lat="41.40134766078319" lon="-81.74203482335416">
        <ele>265.1197361403</ele>
        <time>2026-09-15T16:38:01Z</time>
      </trkpt>
      <trkpt lat="41.40135322816391" lon="-81.74242013879433">
        <ele>264.9529306761</ele>
        <time>2026-09-15T16:38:26Z</time>
      </trkpt>
      <trkpt lat="41.40176890171213" lon="-81.74262802671426">
        <ele>264.2300918335</ele>
        <time>2026-09-15T16:38:59Z</time>
      </trkpt>
      <trkpt lat="41.40218497250617" lon="-81.74284193798212">
        <ele>263.3060633430</ele>
        <time>2026-09-15T16:39:39Z</time>
      </trkpt>
      <trkpt lat="41.40221632249445" lon="-81.74285683115598">
        <ele>263.3001573308</ele>
        <time>2026-09-15T16:39:41Z</time>
      </trkpt>
      <trkpt lat="41.40222889298530" lon="-81.74225517899706">
        <ele>264.1324249183</ele>
        <time>2026-09-15T16:40:14Z</time>
      </trkpt>
      <trkpt lat="41.40221804299517" lon="-81.74166373986796">
        <ele>264.6262922342</ele>
        <time>2026-09-15T16:40:48Z</time>
      </trkpt>
      <trkpt lat="41.40221972213004" lon="-81.74106343402973">
        <ele>265.3855163025</ele>
        <time>2026-09-15T16:41:30Z</time>
      </trkpt>
      <trkpt lat="41.40221833405377" lon="-81.74047418726691">
        <ele>266.1275569259</ele>
        <time>2026-09-15T16:42:21Z</time>
      </trkpt>
      <trkpt lat="41.40222021713446" lon="-81.73986902849309">
        <ele>266.4916661550</ele>
        <time>2026-09-15T16:43:00Z</time>
      </trkpt>
      <trkpt lat="41.40220994421108" lon="-81.73926928105814">
        <ele>266.8974771038</ele>
        <time>2026-09-15T16:43:43Z</time>
      </trkpt>
      <trkpt lat="41.40221839420084" lon="-81.73867234670388">
        <ele>267.3096518060</ele>
        <time>2026-09-15T16:44:24Z</time>
      </trkpt>
      <trkpt lat="41.40222786934648" lon="-81.73827370915785">
        <ele>267.1327442982</ele>
        <time>2026-09-15T16:44:47Z</time>
      </trkpt>
      <trkpt lat="41.40177083584582" lon="-81.73827124677723">
        <ele>267.7006617125</ele>
        <time>2026-09-15T16:45:17Z</time>
      </trkpt>
      <trkpt lat="41.40133670165111" lon="-81.73826091350792">
        <ele>267.6314310729</ele>
        <time>2026-09-15T16:45:58Z</time>
      </trkpt>
      <trkpt lat="41.40133587574381" lon="-81.73885925235207">
        <ele>267.2376180880</ele>
        <time>2026-09-15T16:46:41Z</time>
      </trkpt>
      <trkpt lat="41.40134829427193" lon="-81.73945590125383">
        <ele>267.0809713783</ele>
        <time>2026-09-15T16:47:17Z</time>
      </trkpt>
      <trkpt lat="41.40134323955931" lon="-81.74006080484835">
        <ele>266.7458634303</ele>
        <time>2026-09-15T16:47:59Z</time>
      </trkpt>
      <trkpt lat="41.40133779925421" lon="-81.74019225015324">
        <ele>266.3730257718</ele>
        <time>2026-09-15T16:48:06Z</time>
      </trkpt>
    </trkseg>
  </trk>
</gpx>