<?xml version='1.0' encoding='UTF-8'?>
<gpx xmlns="http://www.topografix.com/GPX/1/1" creator="https://gpx.studio" version="1.1">
  <metadata>
    <name>Dog Walk - 2026-07-07 #1</name>
  </metadata>
  <trk>
    <name>Dog Walk - 2026-07-07 #1</name>
    <type>dog walk</type>
    <trkseg>
      <trkpt lat="41.40134944630050" lon="-81.74021748621593">
        <ele>266.5017130146</ele>
        <time>2026-07-07T08:10:08Z</time>
      </trkpt>
      <trkpt lat="41.40133389204755" lon="-81.74083319881785">
        <ele>266.2549714425</ele>
        <time>2026-07-07T08:10:46Z</time>
      </trkpt>
      <trkpt lat="41.40134057402970" lon="-81.74143217958012">
        <ele>265.7016027974</ele>
        <time>2026-07-07T08:11:37Z</time>
      </trkpt>
      <trkpt lat="41.40132381789272" lon="-81.74202979475794">
        <ele>265.4316371850</ele>
        <time>2026-07-07T08:12:18Z</time>
      </trkpt>
      <trkpt lat="41.40133565642003" lon="-81.74237207144539">
        <ele>264.6222140735</ele>
        <time>2026-07-07T08:12:42Z</time>
      </trkpt>
      <trkpt lat="41.40090811459886" lon="-81.74218995190759">
        <ele>264.9214949512</ele>
        <time>2026-07-07T08:13:17Z</time>
      </trkpt>
      <trkpt lat="41.40047894631007" lon="-81.74197872060927">
        <ele>265.2339831162</ele>
        <time>2026-07-07T08:14:08Z</time>
      </trkpt>
      <trkpt lat="41.40044766929051" lon="-81.74194794518840">
        <ele>265.4780714689</ele>
        <time>2026-07-07T08:14:11Z</time>
      </trkpt>
      <trkpt lat="41.40043907478715" lon="-81.74135305965443">
        <ele>265.8634246505</ele>
        <time>2026-07-07T08:14:57Z</time>
      </trkpt>
      <trkpt lat="41.40044508237965" lon="-81.74075164408259">
        <ele>266.2575539817</ele>
        <time>2026-07-07T08:15:42Z</time>
      </trkpt>
      <trkpt lat="41.40044091098409" lon="-81.74015169819509">
        <ele>266.7335947026</ele>
        <time>2026-07-07T08:16:18Z</time>
      </trkpt>
      <trkpt lat="41.40043492447023" lon="-81.73955830509978">
        <ele>267.2934669965</ele>
        <time>2026-07-07T08:16:59Z</time>
      </trkpt>
      <trkpt lat="41.40042863554744" lon="-81.73894322232593">
        <ele>267.0380637021</ele>
        <time>2026-07-07T08:17:43Z</time>
      </trkpt>
      <trkpt lat="41.40042175886156" lon="-81.73834721997243">
        <ele>267.2146703046</ele>
        <time>2026-07-07T08:18:14Z</time>
      </trkpt>
      <trkpt lat="41.40042207224035" lon="-81.73775388993680">
        <ele>267.6859436224</ele>
        <time>2026-07-07T08:19:08Z</time>
      </trkpt>
      <trkpt lat="41.40042020871562" lon="-81.73715464858627">
        <ele>267.9562261728</ele>
        <time>2026-07-07T08:19:52Z</time>
      </trkpt>
      <trkpt lat="41.40041362489033" lon="-81.73656108365174">
        <ele>267.9931467823</ele>
        <time>2026-07-07T08:20:49Z</time>
      </trkpt>
      <trkpt lat="41.40040160017554" lon="-81.73595036453546">
        <ele>268.0246387671</ele>
        <time>2026-07-07T08:21:27Z</time>
      </trkpt>
      <trkpt lat="41.40040146372156" lon="-81.73535165655707">
        <ele>267.9279645573</ele>
        <time>2026-07-07T08:22:12Z</time>
      </trkpt>
      <trkpt lat="41.40039644477255" lon="-81.73476043423746">
        <ele>267.3825644740</ele>
        <time>2026-07-07T08:22:43Z</time>
      </trkpt>
      <trkpt lat="41.40039537787558" lon="-81.73462670248111">
        <ele>267.2950175232</ele>
        <time>2026-07-07T08:22:53Z</time>
      </trkpt>
      <trkpt lat="41.40083873296098" lon="-81.73463058517845">
        <ele>267.3175168733</ele>
        <time>2026-07-07T08:23:44Z</time>
      </trkpt>
      <trkpt lat="41.40129756752032" lon="-81.73462828264113">
        <ele>267.3680280204</ele>
        <time>2026-07-07T08:24:25Z</time>
      </trkpt>
      <trkpt lat="41.40132252388726" lon="-81.73463815016019">
        <ele>267.4295551767</ele>
        <time>2026-07-07T08:24:27Z</time>
      </trkpt>
      <trkpt lat="41.40132087547900" lon="-81.73523158791933">
        <ele>268.1382667472</ele>
        <time>2026-07-07T08:25:14Z</time>
      </trkpt>
      <trkpt lat="41.40132268293118" lon="-81.73582995052695">
        <ele>268.2622696833</ele>
        <time>2026-07-07T08:25:49Z</time>
      </trkpt>
      <trkpt lat="41.40133063515536" lon="-81.73643759309923">
        <ele>268.1775338792</ele>
        <time>2026-07-07T08:26:39Z</time>
      </trkpt>
      <trkpt lat="41.40133687571764" lon="-81.73703267768701">
        <ele>268.0631355889</ele>
        <time>2026-07-07T08:27:12Z</time>
      </trkpt>
      <trkpt lat="41.40133286542163" lon="-81.73762942895915">
        <ele>267.8880993947</ele>
        <time>2026-07-07T08:28:10Z</time>
      </trkpt>
      <trkpt lat="41.40133444565993" lon="-81.73823744158064">
        <ele>267.5302502741</ele>
        <time>2026-07-07T08:29:02Z</time>
      </trkpt>
      <trkpt lat="41.40135489968981" lon="-81.73883491472090">
        <ele>267.3508326715</ele>
        <time>2026-07-07T08:29:50Z</time>
      </trkpt>
      <trkpt lat="41.40135200843698" lon="-81.73943609055677">
        <ele>267.0436111903</ele>
        <time>2026-07-07T08:30:38Z</time>
      </trkpt>
      <trkpt lat="41.40134160950323" lon="-81.74002505432583">
        <ele>266.7779080389</ele>
        <time>2026-07-07T08:31:37Z</time>
      </trkpt>
      <trkpt lat="41.40134925409932" lon="-81.74019651721689">
        <ele>266.3567854428</ele>
        <time>2026-07-07T08:31:50Z</time>
      </trkpt>
    </trkseg>
  </trk>
</gpx>