<?xml version='1.0' encoding='UTF-8'?>
<gpx xmlns="http://www.topografix.com/GPX/1/1" creator="https://gpx.studio" version="1.1">
  <metadata>
    <name>Dog Walk - 2026-07-22 #2</name>
  </metadata>
  <trk>
    <name>Dog Walk - 2026-07-22 #2</name>
    <type>dog walk</type>
    <trkseg>
      <trkpt lat="41.40133203490421" lon="-81.74025756711524">
        <ele>266.5379727343</ele>
        <time>2026-07-22T18:26:23Z</time>
      </trkpt>
      <trkpt lat="41.40132908961052" lon="-81.74025924043620">
        <ele>266.4977330719</ele>
        <time>2026-07-22T18:26:24Z</time>
      </trkpt>
      <trkpt lat="41.40132650962195" lon="-81.74086154229349">
        <ele>266.2483853824</ele>
        <time>2026-07-22T18:26:52Z</time>
      </trkpt>
      <trkpt lat="41.40132310651426" lon="-81.74145417697832">
        <ele>266.0477072946</ele>
        <time>2026-07-22T18:27:36Z</time>
      </trkpt>
      <trkpt lat="41.40131888566245" lon="-81.74205625475464">
        <ele>265.2607557939</ele>
        <time>2026-07-22T18:28:09Z</time>
      </trkpt>
      <trkpt lat="41.40132843998099" lon="-81.74237613031744">
        <ele>264.7723807769</ele>
        <time>2026-07-22T18:28:27Z</time>
      </trkpt>
      <trkpt lat="41.40132349188520" lon="-81.74238073401895">
        <ele>264.8122226365</ele>
        <time>2026-07-22T18:28:28Z</time>
      </trkpt>
      <trkpt lat="41.40089794062821" lon="-81.74218520640255">
        <ele>264.9684558444</ele>
        <time>2026-07-22T18:29:07Z</time>
      </trkpt>
      <trkpt lat="41.40048108563494" lon="-81.74199485183421">
        <ele>265.2108868082</ele>
        <time>2026-07-22T18:29:48Z</time>
      </trkpt>
      <trkpt lat="41.40005226741091" lon="-81.74179759368293">
        <ele>265.5082639262</ele>
        <time>2026-07-22T18:30:29Z</time>
      </trkpt>
      <trkpt lat="41.39961630151920" lon="-81.74160461186922">
        <ele>264.6725701866</ele>
        <time>2026-07-22T18:31:12Z</time>
      </trkpt>
      <trkpt lat="41.39954160100351" lon="-81.74157105994982">
        <ele>264.9209872080</ele>
        <time>2026-07-22T18:31:23Z</time>
      </trkpt>
      <trkpt lat="41.39954075024560" lon="-81.74097135465755">
        <ele>265.6696833910</ele>
        <time>2026-07-22T18:32:01Z</time>
      </trkpt>
      <trkpt lat="41.39953594569983" lon="-81.74036560558508">
        <ele>266.0618340785</ele>
        <time>2026-07-22T18:32:48Z</time>
      </trkpt>
      <trkpt lat="41.39954072916443" lon="-81.73977403829640">
        <ele>266.5651896241</ele>
        <time>2026-07-22T18:33:44Z</time>
      </trkpt>
      <trkpt lat="41.39953588291990" lon="-81.73917470623874">
        <ele>266.9029010956</ele>
        <time>2026-07-22T18:34:33Z</time>
      </trkpt>
      <trkpt lat="41.39952856969204" lon="-81.73858379293114">
        <ele>267.2246566309</ele>
        <time>2026-07-22T18:35:20Z</time>
      </trkpt>
      <trkpt lat="41.39953110684110" lon="-81.73829328356733">
        <ele>266.8595407440</ele>
        <time>2026-07-22T18:35:39Z</time>
      </trkpt>
      <trkpt lat="41.39953205069352" lon="-81.73829296531102">
        <ele>266.7784856272</ele>
        <time>2026-07-22T18:35:40Z</time>
      </trkpt>
      <trkpt lat="41.39998840973499" lon="-81.73829557329653">
        <ele>267.1319224422</ele>
        <time>2026-07-22T18:36:27Z</time>
      </trkpt>
      <trkpt lat="41.40044104105880" lon="-81.73829801638452">
        <ele>267.1606651388</ele>
        <time>2026-07-22T18:37:13Z</time>
      </trkpt>
      <trkpt lat="41.40089012067845" lon="-81.73829965484357">
        <ele>267.6120024848</ele>
        <time>2026-07-22T18:38:21Z</time>
      </trkpt>
      <trkpt lat="41.40133043659963" lon="-81.73830650208735">
        <ele>267.2980974444</ele>
        <time>2026-07-22T18:38:59Z</time>
      </trkpt>
      <trkpt lat="41.40132751842675" lon="-81.73890554847681">
        <ele>267.3456455390</ele>
        <time>2026-07-22T18:39:35Z</time>
      </trkpt>
      <trkpt lat="41.40133143279535" lon="-81.73950363538313">
        <ele>267.1284603948</ele>
        <time>2026-07-22T18:40:09Z</time>
      </trkpt>
      <trkpt lat="41.40133743051275" lon="-81.74010069238793">
        <ele>266.6841780657</ele>
        <time>2026-07-22T18:40:53Z</time>
      </trkpt>
      <trkpt lat="41.40134023334527" lon="-81.74014651907616">
        <ele>266.5178036647</ele>
        <time>2026-07-22T18:40:56Z</time>
      </trkpt>
    </trkseg>
  </trk>
</gpx>