<?xml version='1.0' encoding='UTF-8'?>
<gpx xmlns="http://www.topografix.com/GPX/1/1" creator="https://gpx.studio" version="1.1">
  <metadata>
    <name>Dog Walk - 2026-08-06 #1</name>
  </metadata>
  <trk>
    <name>Dog Walk - 2026-08-06 #1</name>
    <type>dog walk</type>
    <trkseg>
      <trkpt lat="41.40133901018100" lon="-81.74023105878631">
        <ele>266.5898349250</ele>
        <time>2026-08-06T10:17:45Z</time>
      </trkpt>
      <trkpt lat="41.40134364329766" lon="-81.74083128505536">
        <ele>266.2986968121</ele>
        <time>2026-08-06T10:18:53Z</time>
      </trkpt>
      <trkpt lat="41.40134366715572" lon="-81.74143454146380">
        <ele>265.7098522533</ele>
        <time>2026-08-06T10:19:42Z</time>
      </trkpt>
      <trkpt lat="41.40134463148803" lon="-81.74204328403724">
        <ele>265.6285432650</ele>
        <time>2026-08-06T10:20:34Z</time>
      </trkpt>
      <trkpt lat="41.40134744454011" lon="-81.74241751942296">
        <ele>264.7569711379</ele>
        <time>2026-08-06T10:20:57Z</time>
      </trkpt>
      <trkpt lat="41.40177428640383" lon="-81.74262264225278">
        <ele>264.2287261094</ele>
        <time>2026-08-06T10:21:42Z</time>
      </trkpt>
      <trkpt lat="41.40219102091307" lon="-81.74281054786130">
        <ele>263.5615743020</ele>
        <time>2026-08-06T10:22:17Z</time>
      </trkpt>
      <trkpt lat="41.40261053433692" lon="-81.74302144161828">
        <ele>263.1900208978</ele>
        <time>2026-08-06T10:22:56Z</time>
      </trkpt>
      <trkpt lat="41.40304379497520" lon="-81.74321701134706">
        <ele>262.3998079183</ele>
        <time>2026-08-06T10:23:43Z</time>
      </trkpt>
      <trkpt lat="41.40311365370125" lon="-81.74324978134224">
        <ele>262.3119999524</ele>
        <time>2026-08-06T10:23:49Z</time>
      </trkpt>
      <trkpt lat="41.40311176421395" lon="-81.74264342019157">
        <ele>263.2891653655</ele>
        <time>2026-08-06T10:24:24Z</time>
      </trkpt>
      <trkpt lat="41.40311839565419" lon="-81.74205908884443">
        <ele>263.6721547596</ele>
        <time>2026-08-06T10:24:52Z</time>
      </trkpt>
      <trkpt lat="41.40311199107077" lon="-81.74146234224824">
        <ele>264.3784808027</ele>
        <time>2026-08-06T10:25:39Z</time>
      </trkpt>
      <trkpt lat="41.40310346286148" lon="-81.74086150956140">
        <ele>264.5899261355</ele>
        <time>2026-08-06T10:26:17Z</time>
      </trkpt>
      <trkpt lat="41.40310307551660" lon="-81.74026308797106">
        <ele>265.4032686526</ele>
        <time>2026-08-06T10:26:54Z</time>
      </trkpt>
      <trkpt lat="41.40310711892810" lon="-81.73964846814786">
        <ele>265.6580267268</ele>
        <time>2026-08-06T10:27:37Z</time>
      </trkpt>
      <trkpt lat="41.40310575701084" lon="-81.73905392683395">
        <ele>266.2288876281</ele>
        <time>2026-08-06T10:28:10Z</time>
      </trkpt>
      <trkpt lat="41.40309574022454" lon="-81.73877998845050">
        <ele>266.0890023294</ele>
        <time>2026-08-06T10:28:25Z</time>
      </trkpt>
      <trkpt lat="41.40265807393925" lon="-81.73878812978924">
        <ele>266.3607621973</ele>
        <time>2026-08-06T10:29:02Z</time>
      </trkpt>
      <trkpt lat="41.40222609947448" lon="-81.73878648265064">
        <ele>267.1935667303</ele>
        <time>2026-08-06T10:30:28Z</time>
      </trkpt>
      <trkpt lat="41.40222730812832" lon="-81.73818113581669">
        <ele>267.1512484167</ele>
        <time>2026-08-06T10:31:13Z</time>
      </trkpt>
      <trkpt lat="41.40222842830238" lon="-81.73757177528474">
        <ele>266.9146588087</ele>
        <time>2026-08-06T10:31:58Z</time>
      </trkpt>
      <trkpt lat="41.40223161169653" lon="-81.73697626077185">
        <ele>267.3597243573</ele>
        <time>2026-08-06T10:32:52Z</time>
      </trkpt>
      <trkpt lat="41.40223775149784" lon="-81.73638432080472">
        <ele>267.2576593361</ele>
        <time>2026-08-06T10:33:31Z</time>
      </trkpt>
      <trkpt lat="41.40223073074678" lon="-81.73578409948578">
        <ele>267.4214553274</ele>
        <time>2026-08-06T10:34:18Z</time>
      </trkpt>
      <trkpt lat="41.40222123859296" lon="-81.73518209160547">
        <ele>267.0239505755</ele>
        <time>2026-08-06T10:35:00Z</time>
      </trkpt>
      <trkpt lat="41.40222903175816" lon="-81.73466639107149">
        <ele>267.3713764913</ele>
        <time>2026-08-06T10:35:36Z</time>
      </trkpt>
      <trkpt lat="41.40176707339092" lon="-81.73464357504629">
        <ele>267.1871804600</ele>
        <time>2026-08-06T10:36:11Z</time>
      </trkpt>
      <trkpt lat="41.40132160364030" lon="-81.73464240877199">
        <ele>267.4233126446</ele>
        <time>2026-08-06T10:36:44Z</time>
      </trkpt>
      <trkpt lat="41.40131690765448" lon="-81.73463473584611">
        <ele>267.3276670580</ele>
        <time>2026-08-06T10:36:45Z</time>
      </trkpt>
      <trkpt lat="41.40131709115747" lon="-81.73523801852913">
        <ele>267.9611943373</ele>
        <time>2026-08-06T10:37:28Z</time>
      </trkpt>
      <trkpt lat="41.40132351442040" lon="-81.73583751135671">
        <ele>268.3559050472</ele>
        <time>2026-08-06T10:38:06Z</time>
      </trkpt>
      <trkpt lat="41.40132616097377" lon="-81.73643656441867">
        <ele>267.8334298750</ele>
        <time>2026-08-06T10:38:38Z</time>
      </trkpt>
      <trkpt lat="41.40134071058374" lon="-81.73704309762870">
        <ele>267.8940434615</ele>
        <time>2026-08-06T10:39:11Z</time>
      </trkpt>
      <trkpt lat="41.40132519218852" lon="-81.73763390630457">
        <ele>267.8434844899</ele>
        <time>2026-08-06T10:39:56Z</time>
      </trkpt>
      <trkpt lat="41.40133804559559" lon="-81.73823464257281">
        <ele>267.7546266097</ele>
        <time>2026-08-06T10:40:37Z</time>
      </trkpt>
      <trkpt lat="41.40133822950980" lon="-81.73883338227462">
        <ele>267.4635139584</ele>
        <time>2026-08-06T10:41:11Z</time>
      </trkpt>
      <trkpt lat="41.40134718116039" lon="-81.73943862455087">
        <ele>267.2833442219</ele>
        <time>2026-08-06T10:41:58Z</time>
      </trkpt>
      <trkpt lat="41.40134140480267" lon="-81.74001684095309">
        <ele>266.7191310949</ele>
        <time>2026-08-06T10:42:38Z</time>
      </trkpt>
      <trkpt lat="41.40134378209788" lon="-81.74016304312053">
        <ele>266.5382032062</ele>
        <time>2026-08-06T10:42:49Z</time>
      </trkpt>
    </trkseg>
  </trk>
</gpx>