<?xml version='1.0' encoding='UTF-8'?>
<gpx xmlns="http://www.topografix.com/GPX/1/1" creator="https://gpx.studio" version="1.1">
  <metadata>
    <name>Dog Walk - 2026-06-11 #1</name>
  </metadata>
  <trk>
    <name>Dog Walk - 2026-06-11 #1</name>
    <type>dog walk</type>
    <trkseg>
      <trkpt lat="41.40132909684699" lon="-81.74024068328421">
        <ele>266.6130869990</ele>
        <time>2026-06-11T08:55:17Z</time>
      </trkpt>
      <trkpt lat="41.40132674806443" lon="-81.74083243523756">
        <ele>266.1405693338</ele>
        <time>2026-06-11T08:55:54Z</time>
      </trkpt>
      <trkpt lat="41.40132593957089" lon="-81.74143195116254">
        <ele>265.6573933830</ele>
        <time>2026-06-11T08:56:36Z</time>
      </trkpt>
      <trkpt lat="41.40132683588660" lon="-81.74203803265087">
        <ele>265.2632497618</ele>
        <time>2026-06-11T08:57:20Z</time>
      </trkpt>
      <trkpt lat="41.40133432537610" lon="-81.74240075352060">
        <ele>264.8373257717</ele>
        <time>2026-06-11T08:57:54Z</time>
      </trkpt>
      <trkpt lat="41.40090707524944" lon="-81.74219248756610">
        <ele>264.9684909978</ele>
        <time>2026-06-11T08:58:45Z</time>
      </trkpt>
      <trkpt lat="41.40047312806602" lon="-81.74200724137077">
        <ele>265.1249815519</ele>
        <time>2026-06-11T08:59:29Z</time>
      </trkpt>
      <trkpt lat="41.40004685607373" lon="-81.74180177613002">
        <ele>265.1905295316</ele>
        <time>2026-06-11T09:00:09Z</time>
      </trkpt>
      <trkpt lat="41.39962065148690" lon="-81.74161196314763">
        <ele>264.7946962390</ele>
        <time>2026-06-11T09:01:06Z</time>
      </trkpt>
      <trkpt lat="41.39954104523741" lon="-81.74157589120333">
        <ele>264.7539603615</ele>
        <time>2026-06-11T09:01:16Z</time>
      </trkpt>
      <trkpt lat="41.39954105508869" lon="-81.74096346330157">
        <ele>265.7769087419</ele>
        <time>2026-06-11T09:02:19Z</time>
      </trkpt>
      <trkpt lat="41.39952688712019" lon="-81.74036793353463">
        <ele>266.3323019345</ele>
        <time>2026-06-11T09:02:50Z</time>
      </trkpt>
      <trkpt lat="41.39952925415682" lon="-81.73977653269351">
        <ele>266.5921971522</ele>
        <time>2026-06-11T09:03:24Z</time>
      </trkpt>
      <trkpt lat="41.39952499095769" lon="-81.73917781659554">
        <ele>267.0756657587</ele>
        <time>2026-06-11T09:04:23Z</time>
      </trkpt>
      <trkpt lat="41.39953511967232" lon="-81.73858526293782">
        <ele>266.8565956274</ele>
        <time>2026-06-11T09:05:12Z</time>
      </trkpt>
      <trkpt lat="41.39953087264670" lon="-81.73797866761252">
        <ele>267.2348885830</ele>
        <time>2026-06-11T09:05:56Z</time>
      </trkpt>
      <trkpt lat="41.39953049055876" lon="-81.73737412186256">
        <ele>267.1610548873</ele>
        <time>2026-06-11T09:06:43Z</time>
      </trkpt>
      <trkpt lat="41.39953413070278" lon="-81.73677517494993">
        <ele>267.6473173246</ele>
        <time>2026-06-11T09:07:26Z</time>
      </trkpt>
      <trkpt lat="41.39952929687945" lon="-81.73617410530960">
        <ele>267.3169678209</ele>
        <time>2026-06-11T09:08:06Z</time>
      </trkpt>
      <trkpt lat="41.39952860862488" lon="-81.73556914128910">
        <ele>267.3097568068</ele>
        <time>2026-06-11T09:09:01Z</time>
      </trkpt>
      <trkpt lat="41.39951912614428" lon="-81.73498565379803">
        <ele>267.3418476009</ele>
        <time>2026-06-11T09:09:39Z</time>
      </trkpt>
      <trkpt lat="41.39953022055479" lon="-81.73461816342139">
        <ele>267.0213248392</ele>
        <time>2026-06-11T09:10:01Z</time>
      </trkpt>
      <trkpt lat="41.39997910427208" lon="-81.73462502283874">
        <ele>267.2072987814</ele>
        <time>2026-06-11T09:10:39Z</time>
      </trkpt>
      <trkpt lat="41.40042541339057" lon="-81.73462046710135">
        <ele>267.2853059270</ele>
        <time>2026-06-11T09:11:30Z</time>
      </trkpt>
      <trkpt lat="41.40087091736911" lon="-81.73463388162162">
        <ele>267.1668318036</ele>
        <time>2026-06-11T09:12:16Z</time>
      </trkpt>
      <trkpt lat="41.40132383861393" lon="-81.73464229734731">
        <ele>267.3193911321</ele>
        <time>2026-06-11T09:12:52Z</time>
      </trkpt>
      <trkpt lat="41.40131891805507" lon="-81.73524921492439">
        <ele>267.8386435377</ele>
        <time>2026-06-11T09:13:33Z</time>
      </trkpt>
      <trkpt lat="41.40132127227552" lon="-81.73583392081886">
        <ele>267.9477863949</ele>
        <time>2026-06-11T09:14:15Z</time>
      </trkpt>
      <trkpt lat="41.40132675515304" lon="-81.73643585227877">
        <ele>268.3461223387</ele>
        <time>2026-06-11T09:14:49Z</time>
      </trkpt>
      <trkpt lat="41.40133009788570" lon="-81.73703120364463">
        <ele>267.8527119318</ele>
        <time>2026-06-11T09:15:30Z</time>
      </trkpt>
      <trkpt lat="41.40132663276176" lon="-81.73763769091690">
        <ele>267.8733825581</ele>
        <time>2026-06-11T09:16:38Z</time>
      </trkpt>
      <trkpt lat="41.40133468410649" lon="-81.73824719164969">
        <ele>267.6346816757</ele>
        <time>2026-06-11T09:17:13Z</time>
      </trkpt>
      <trkpt lat="41.40133031328159" lon="-81.73883674315618">
        <ele>267.5507154844</ele>
        <time>2026-06-11T09:17:51Z</time>
      </trkpt>
      <trkpt lat="41.40132851523855" lon="-81.73943680061045">
        <ele>267.2433944720</ele>
        <time>2026-06-11T09:18:33Z</time>
      </trkpt>
      <trkpt lat="41.40133740915067" lon="-81.74004231335221">
        <ele>266.7404674423</ele>
        <time>2026-06-11T09:19:25Z</time>
      </trkpt>
      <trkpt lat="41.40133305452726" lon="-81.74021275202948">
        <ele>266.6202696677</ele>
        <time>2026-06-11T09:19:37Z</time>
      </trkpt>
    </trkseg>
  </trk>
</gpx>