<?xml version='1.0' encoding='UTF-8'?>
<gpx xmlns="http://www.topografix.com/GPX/1/1" creator="https://gpx.studio" version="1.1">
  <metadata>
    <name>Dog Walk - 2026-02-25 #3</name>
  </metadata>
  <trk>
    <name>Dog Walk - 2026-02-25 #3</name>
    <type>dog walk</type>
    <trkseg>
      <trkpt lat="41.40133702014552" lon="-81.74023367174573">
        <ele>266.6674902277</ele>
        <time>2026-02-25T18:15:19Z</time>
      </trkpt>
      <trkpt lat="41.40134061394805" lon="-81.74083031169506">
        <ele>266.2380623016</ele>
        <time>2026-02-25T18:15:51Z</time>
      </trkpt>
      <trkpt lat="41.40134751389643" lon="-81.74143025992751">
        <ele>265.8583250106</ele>
        <time>2026-02-25T18:16:28Z</time>
      </trkpt>
      <trkpt lat="41.40134454829514" lon="-81.74202645976727">
        <ele>265.5055144521</ele>
        <time>2026-02-25T18:17:15Z</time>
      </trkpt>
      <trkpt lat="41.40134703973472" lon="-81.74242699831305">
        <ele>264.5635197374</ele>
        <time>2026-02-25T18:17:58Z</time>
      </trkpt>
      <trkpt lat="41.40177042082477" lon="-81.74262347625969">
        <ele>264.1252249433</ele>
        <time>2026-02-25T18:18:33Z</time>
      </trkpt>
      <trkpt lat="41.40219977277508" lon="-81.74280998176121">
        <ele>263.5044964917</ele>
        <time>2026-02-25T18:19:06Z</time>
      </trkpt>
      <trkpt lat="41.40262617804754" lon="-81.74301174336885">
        <ele>263.1560092689</ele>
        <time>2026-02-25T18:19:47Z</time>
      </trkpt>
      <trkpt lat="41.40304095468966" lon="-81.74321563123996">
        <ele>262.5160568882</ele>
        <time>2026-02-25T18:20:40Z</time>
      </trkpt>
      <trkpt lat="41.40312091265663" lon="-81.74325366313977">
        <ele>262.2285454568</ele>
        <time>2026-02-25T18:20:46Z</time>
      </trkpt>
      <trkpt lat="41.40311126275899" lon="-81.74265230693118">
        <ele>262.9795129578</ele>
        <time>2026-02-25T18:21:35Z</time>
      </trkpt>
      <trkpt lat="41.40311422964827" lon="-81.74204477455950">
        <ele>263.7911877018</ele>
        <time>2026-02-25T18:22:07Z</time>
      </trkpt>
      <trkpt lat="41.40311388451465" lon="-81.74145237593494">
        <ele>264.1072307124</ele>
        <time>2026-02-25T18:22:46Z</time>
      </trkpt>
      <trkpt lat="41.40311373492260" lon="-81.74084683830641">
        <ele>264.5520495673</ele>
        <time>2026-02-25T18:23:31Z</time>
      </trkpt>
      <trkpt lat="41.40311047768104" lon="-81.74026584625609">
        <ele>265.4611676829</ele>
        <time>2026-02-25T18:24:01Z</time>
      </trkpt>
      <trkpt lat="41.40310130751784" lon="-81.73965582968516">
        <ele>265.8583558440</ele>
        <time>2026-02-25T18:24:43Z</time>
      </trkpt>
      <trkpt lat="41.40310832002058" lon="-81.73905534548176">
        <ele>266.0498452112</ele>
        <time>2026-02-25T18:25:20Z</time>
      </trkpt>
      <trkpt lat="41.40309756176506" lon="-81.73878413972994">
        <ele>266.3164702518</ele>
        <time>2026-02-25T18:25:35Z</time>
      </trkpt>
      <trkpt lat="41.40265502316207" lon="-81.73877910579341">
        <ele>266.6618771724</ele>
        <time>2026-02-25T18:26:11Z</time>
      </trkpt>
      <trkpt lat="41.40224326246215" lon="-81.73878209961470">
        <ele>267.2005518796</ele>
        <time>2026-02-25T18:26:53Z</time>
      </trkpt>
      <trkpt lat="41.40223269434127" lon="-81.73818796512772">
        <ele>267.1651456739</ele>
        <time>2026-02-25T18:27:50Z</time>
      </trkpt>
      <trkpt lat="41.40223573680233" lon="-81.73757979399558">
        <ele>267.0951142108</ele>
        <time>2026-02-25T18:28:28Z</time>
      </trkpt>
      <trkpt lat="41.40222485480911" lon="-81.73697700699857">
        <ele>267.2282703129</ele>
        <time>2026-02-25T18:29:16Z</time>
      </trkpt>
      <trkpt lat="41.40222824663653" lon="-81.73638046777282">
        <ele>267.3489372735</ele>
        <time>2026-02-25T18:30:04Z</time>
      </trkpt>
      <trkpt lat="41.40222542241325" lon="-81.73577493826384">
        <ele>267.3410308238</ele>
        <time>2026-02-25T18:31:08Z</time>
      </trkpt>
      <trkpt lat="41.40223086703855" lon="-81.73517964371982">
        <ele>267.2558752912</ele>
        <time>2026-02-25T18:31:45Z</time>
      </trkpt>
      <trkpt lat="41.40221949917498" lon="-81.73465889004831">
        <ele>267.1708873871</ele>
        <time>2026-02-25T18:32:16Z</time>
      </trkpt>
      <trkpt lat="41.40177575757124" lon="-81.73464453977952">
        <ele>267.5407657955</ele>
        <time>2026-02-25T18:32:52Z</time>
      </trkpt>
      <trkpt lat="41.40131746814865" lon="-81.73463732351348">
        <ele>267.3188053997</ele>
        <time>2026-02-25T18:33:26Z</time>
      </trkpt>
      <trkpt lat="41.40131651991516" lon="-81.73463645881455">
        <ele>267.4369327858</ele>
        <time>2026-02-25T18:33:27Z</time>
      </trkpt>
      <trkpt lat="41.40132785240085" lon="-81.73523623866160">
        <ele>267.8668144243</ele>
        <time>2026-02-25T18:34:09Z</time>
      </trkpt>
      <trkpt lat="41.40132882042794" lon="-81.73582954039975">
        <ele>268.2779428576</ele>
        <time>2026-02-25T18:34:49Z</time>
      </trkpt>
      <trkpt lat="41.40133307840875" lon="-81.73643137835259">
        <ele>268.3130623353</ele>
        <time>2026-02-25T18:35:20Z</time>
      </trkpt>
      <trkpt lat="41.40132887443610" lon="-81.73702535847539">
        <ele>268.1301264807</ele>
        <time>2026-02-25T18:36:02Z</time>
      </trkpt>
      <trkpt lat="41.40133254470349" lon="-81.73763142340241">
        <ele>268.0860816182</ele>
        <time>2026-02-25T18:36:42Z</time>
      </trkpt>
      <trkpt lat="41.40133463477124" lon="-81.73823793413003">
        <ele>267.7094073847</ele>
        <time>2026-02-25T18:37:26Z</time>
      </trkpt>
      <trkpt lat="41.40134221396523" lon="-81.73883189809681">
        <ele>267.3214513050</ele>
        <time>2026-02-25T18:38:01Z</time>
      </trkpt>
      <trkpt lat="41.40133796894317" lon="-81.73943560635718">
        <ele>267.1622191087</ele>
        <time>2026-02-25T18:38:48Z</time>
      </trkpt>
      <trkpt lat="41.40134035911817" lon="-81.74003431214651">
        <ele>266.4966769846</ele>
        <time>2026-02-25T18:39:25Z</time>
      </trkpt>
      <trkpt lat="41.40134239989477" lon="-81.74016707852718">
        <ele>266.6934755867</ele>
        <time>2026-02-25T18:39:33Z</time>
      </trkpt>
    </trkseg>
  </trk>
</gpx>