<?xml version='1.0' encoding='UTF-8'?>
<gpx xmlns="http://www.topografix.com/GPX/1/1" creator="https://gpx.studio" version="1.1">
  <metadata>
    <name>Dog Walk - 2026-06-03 #1</name>
  </metadata>
  <trk>
    <name>Dog Walk - 2026-06-03 #1</name>
    <type>dog walk</type>
    <trkseg>
      <trkpt lat="41.40134160906274" lon="-81.74023349861636">
        <ele>266.4073787137</ele>
        <time>2026-06-03T11:46:12Z</time>
      </trkpt>
      <trkpt lat="41.40134232400318" lon="-81.74083729564549">
        <ele>266.2468681413</ele>
        <time>2026-06-03T11:47:01Z</time>
      </trkpt>
      <trkpt lat="41.40134503954917" lon="-81.74143763084582">
        <ele>265.7487411584</ele>
        <time>2026-06-03T11:47:43Z</time>
      </trkpt>
      <trkpt lat="41.40133441042209" lon="-81.74202836269463">
        <ele>265.4830129629</ele>
        <time>2026-06-03T11:48:28Z</time>
      </trkpt>
      <trkpt lat="41.40133356259650" lon="-81.74240326109665">
        <ele>264.7204033269</ele>
        <time>2026-06-03T11:48:53Z</time>
      </trkpt>
      <trkpt lat="41.40091086043495" lon="-81.74217487162439">
        <ele>264.9779931436</ele>
        <time>2026-06-03T11:49:31Z</time>
      </trkpt>
      <trkpt lat="41.40048664222309" lon="-81.74196860129881">
        <ele>265.2204391910</ele>
        <time>2026-06-03T11:50:28Z</time>
      </trkpt>
      <trkpt lat="41.40044769642729" lon="-81.74195431921454">
        <ele>265.1765336935</ele>
        <time>2026-06-03T11:50:31Z</time>
      </trkpt>
      <trkpt lat="41.40045151466237" lon="-81.74135386874727">
        <ele>266.1254240836</ele>
        <time>2026-06-03T11:51:14Z</time>
      </trkpt>
      <trkpt lat="41.40045060277839" lon="-81.74075029065635">
        <ele>266.7296904142</ele>
        <time>2026-06-03T11:51:52Z</time>
      </trkpt>
      <trkpt lat="41.40043182807462" lon="-81.74015694658077">
        <ele>266.8015043291</ele>
        <time>2026-06-03T11:52:38Z</time>
      </trkpt>
      <trkpt lat="41.40043491012257" lon="-81.73953901794179">
        <ele>266.9789657982</ele>
        <time>2026-06-03T11:53:19Z</time>
      </trkpt>
      <trkpt lat="41.40043453922823" lon="-81.73894995318625">
        <ele>267.0305016017</ele>
        <time>2026-06-03T11:53:48Z</time>
      </trkpt>
      <trkpt lat="41.40041773040674" lon="-81.73836197013490">
        <ele>267.3348080344</ele>
        <time>2026-06-03T11:54:24Z</time>
      </trkpt>
      <trkpt lat="41.40041916312331" lon="-81.73775468661641">
        <ele>267.5815737493</ele>
        <time>2026-06-03T11:54:57Z</time>
      </trkpt>
      <trkpt lat="41.40040742766828" lon="-81.73715688906519">
        <ele>268.2209817647</ele>
        <time>2026-06-03T11:55:58Z</time>
      </trkpt>
      <trkpt lat="41.40040538341984" lon="-81.73654861966315">
        <ele>267.9773152737</ele>
        <time>2026-06-03T11:56:49Z</time>
      </trkpt>
      <trkpt lat="41.40041628176546" lon="-81.73595413512962">
        <ele>267.9865963865</ele>
        <time>2026-06-03T11:57:21Z</time>
      </trkpt>
      <trkpt lat="41.40040425288127" lon="-81.73535457974747">
        <ele>267.8619749817</ele>
        <time>2026-06-03T11:57:59Z</time>
      </trkpt>
      <trkpt lat="41.40039216210823" lon="-81.73476188474463">
        <ele>267.4176730200</ele>
        <time>2026-06-03T11:58:43Z</time>
      </trkpt>
      <trkpt lat="41.40039442644178" lon="-81.73462392954751">
        <ele>267.4080412374</ele>
        <time>2026-06-03T11:58:55Z</time>
      </trkpt>
      <trkpt lat="41.40084089016811" lon="-81.73464658978996">
        <ele>267.3646854814</ele>
        <time>2026-06-03T11:59:31Z</time>
      </trkpt>
      <trkpt lat="41.40129354633510" lon="-81.73463637626784">
        <ele>267.3259470025</ele>
        <time>2026-06-03T12:00:07Z</time>
      </trkpt>
      <trkpt lat="41.40131667252253" lon="-81.73463891646311">
        <ele>267.3477843431</ele>
        <time>2026-06-03T12:00:09Z</time>
      </trkpt>
      <trkpt lat="41.40133045688938" lon="-81.73522142983857">
        <ele>267.8545481332</ele>
        <time>2026-06-03T12:00:46Z</time>
      </trkpt>
      <trkpt lat="41.40133564425543" lon="-81.73583274332580">
        <ele>268.3687775515</ele>
        <time>2026-06-03T12:01:33Z</time>
      </trkpt>
      <trkpt lat="41.40132019581966" lon="-81.73643760934402">
        <ele>268.2988744417</ele>
        <time>2026-06-03T12:02:47Z</time>
      </trkpt>
      <trkpt lat="41.40132791875507" lon="-81.73703347444446">
        <ele>267.9168349829</ele>
        <time>2026-06-03T12:03:26Z</time>
      </trkpt>
      <trkpt lat="41.40133625765146" lon="-81.73763413077639">
        <ele>267.8334192205</ele>
        <time>2026-06-03T12:04:21Z</time>
      </trkpt>
      <trkpt lat="41.40133594749896" lon="-81.73823206900084">
        <ele>267.8530447456</ele>
        <time>2026-06-03T12:05:12Z</time>
      </trkpt>
      <trkpt lat="41.40133252106023" lon="-81.73884045851163">
        <ele>267.4168682351</ele>
        <time>2026-06-03T12:05:57Z</time>
      </trkpt>
      <trkpt lat="41.40133388215233" lon="-81.73942173384893">
        <ele>267.3014065132</ele>
        <time>2026-06-03T12:06:45Z</time>
      </trkpt>
      <trkpt lat="41.40133912972416" lon="-81.74002785564832">
        <ele>266.6518723568</ele>
        <time>2026-06-03T12:07:25Z</time>
      </trkpt>
      <trkpt lat="41.40134280134570" lon="-81.74019275090578">
        <ele>266.6957980182</ele>
        <time>2026-06-03T12:07:35Z</time>
      </trkpt>
    </trkseg>
  </trk>
</gpx>