<?xml version='1.0' encoding='UTF-8'?>
<gpx xmlns="http://www.topografix.com/GPX/1/1" creator="https://gpx.studio" version="1.1">
  <metadata>
    <name>Dog Walk - 2026-05-13 #2</name>
  </metadata>
  <trk>
    <name>Dog Walk - 2026-05-13 #2</name>
    <type>dog walk</type>
    <trkseg>
      <trkpt lat="41.40133196015074" lon="-81.74023231187599">
        <ele>266.4118621712</ele>
        <time>2026-05-13T19:02:04Z</time>
      </trkpt>
      <trkpt lat="41.40133573493320" lon="-81.74083380851638">
        <ele>266.2303283738</ele>
        <time>2026-05-13T19:02:47Z</time>
      </trkpt>
      <trkpt lat="41.40133663445611" lon="-81.74142958265075">
        <ele>265.8729902328</ele>
        <time>2026-05-13T19:03:30Z</time>
      </trkpt>
      <trkpt lat="41.40132961532807" lon="-81.74203414938735">
        <ele>265.5393091263</ele>
        <time>2026-05-13T19:04:18Z</time>
      </trkpt>
      <trkpt lat="41.40133025456138" lon="-81.74239154409766">
        <ele>264.8649414542</ele>
        <time>2026-05-13T19:04:39Z</time>
      </trkpt>
      <trkpt lat="41.40090419694832" lon="-81.74220868975790">
        <ele>265.1214329984</ele>
        <time>2026-05-13T19:05:09Z</time>
      </trkpt>
      <trkpt lat="41.40048131633363" lon="-81.74199414084967">
        <ele>265.2195084516</ele>
        <time>2026-05-13T19:05:48Z</time>
      </trkpt>
      <trkpt lat="41.40005530335364" lon="-81.74180975795718">
        <ele>265.3589317554</ele>
        <time>2026-05-13T19:06:25Z</time>
      </trkpt>
      <trkpt lat="41.39963102672249" lon="-81.74161630082921">
        <ele>264.6922610549</ele>
        <time>2026-05-13T19:07:12Z</time>
      </trkpt>
      <trkpt lat="41.39953361288239" lon="-81.74157979448350">
        <ele>264.7909535714</ele>
        <time>2026-05-13T19:07:25Z</time>
      </trkpt>
      <trkpt lat="41.39953482087486" lon="-81.74097535336789">
        <ele>265.7279341635</ele>
        <time>2026-05-13T19:08:06Z</time>
      </trkpt>
      <trkpt lat="41.39953390146428" lon="-81.74037734082488">
        <ele>266.0776801282</ele>
        <time>2026-05-13T19:08:39Z</time>
      </trkpt>
      <trkpt lat="41.39952973915182" lon="-81.73976937721439">
        <ele>266.5977590074</ele>
        <time>2026-05-13T19:09:16Z</time>
      </trkpt>
      <trkpt lat="41.39953024728730" lon="-81.73917557391403">
        <ele>266.8493125596</ele>
        <time>2026-05-13T19:09:54Z</time>
      </trkpt>
      <trkpt lat="41.39954080494709" lon="-81.73858393253700">
        <ele>266.9076792171</ele>
        <time>2026-05-13T19:10:38Z</time>
      </trkpt>
      <trkpt lat="41.39953471174911" lon="-81.73797691709291">
        <ele>266.9645447716</ele>
        <time>2026-05-13T19:11:18Z</time>
      </trkpt>
      <trkpt lat="41.39952548165255" lon="-81.73737961887994">
        <ele>267.1285756684</ele>
        <time>2026-05-13T19:11:58Z</time>
      </trkpt>
      <trkpt lat="41.39952507177899" lon="-81.73678354920294">
        <ele>267.3153406868</ele>
        <time>2026-05-13T19:13:04Z</time>
      </trkpt>
      <trkpt lat="41.39952683958267" lon="-81.73617824537911">
        <ele>267.5050221575</ele>
        <time>2026-05-13T19:13:43Z</time>
      </trkpt>
      <trkpt lat="41.39952569602779" lon="-81.73557823241529">
        <ele>267.3267312643</ele>
        <time>2026-05-13T19:14:37Z</time>
      </trkpt>
      <trkpt lat="41.39952523997516" lon="-81.73498389711040">
        <ele>267.2618358350</ele>
        <time>2026-05-13T19:15:22Z</time>
      </trkpt>
      <trkpt lat="41.39952664247499" lon="-81.73462428566323">
        <ele>267.2568615131</ele>
        <time>2026-05-13T19:15:46Z</time>
      </trkpt>
      <trkpt lat="41.39998347569620" lon="-81.73462516715519">
        <ele>267.2514553421</ele>
        <time>2026-05-13T19:16:27Z</time>
      </trkpt>
      <trkpt lat="41.40042570732313" lon="-81.73463786810332">
        <ele>267.3466994042</ele>
        <time>2026-05-13T19:17:03Z</time>
      </trkpt>
      <trkpt lat="41.40087611546492" lon="-81.73463169552483">
        <ele>267.2698719735</ele>
        <time>2026-05-13T19:17:39Z</time>
      </trkpt>
      <trkpt lat="41.40132050198846" lon="-81.73463477556167">
        <ele>267.3610087243</ele>
        <time>2026-05-13T19:18:13Z</time>
      </trkpt>
      <trkpt lat="41.40131543891905" lon="-81.73523578469199">
        <ele>267.7599748326</ele>
        <time>2026-05-13T19:19:09Z</time>
      </trkpt>
      <trkpt lat="41.40132351254369" lon="-81.73583857487426">
        <ele>268.2521825670</ele>
        <time>2026-05-13T19:19:58Z</time>
      </trkpt>
      <trkpt lat="41.40132866473252" lon="-81.73644723659449">
        <ele>267.9694355933</ele>
        <time>2026-05-13T19:20:40Z</time>
      </trkpt>
      <trkpt lat="41.40132197170732" lon="-81.73704130070206">
        <ele>268.0024891557</ele>
        <time>2026-05-13T19:21:19Z</time>
      </trkpt>
      <trkpt lat="41.40132505438524" lon="-81.73764251343357">
        <ele>267.7875925482</ele>
        <time>2026-05-13T19:21:58Z</time>
      </trkpt>
      <trkpt lat="41.40131958597730" lon="-81.73823711162339">
        <ele>267.4873615861</ele>
        <time>2026-05-13T19:22:38Z</time>
      </trkpt>
      <trkpt lat="41.40132324450785" lon="-81.73883859732646">
        <ele>267.3151363209</ele>
        <time>2026-05-13T19:23:10Z</time>
      </trkpt>
      <trkpt lat="41.40132997830853" lon="-81.73943959171078">
        <ele>267.2387864407</ele>
        <time>2026-05-13T19:23:48Z</time>
      </trkpt>
      <trkpt lat="41.40133660822988" lon="-81.74003479549519">
        <ele>266.8293726901</ele>
        <time>2026-05-13T19:24:32Z</time>
      </trkpt>
      <trkpt lat="41.40133091916265" lon="-81.74021017386535">
        <ele>266.6274511795</ele>
        <time>2026-05-13T19:24:46Z</time>
      </trkpt>
    </trkseg>
  </trk>
</gpx>