<?xml version='1.0' encoding='UTF-8'?>
<gpx xmlns="http://www.topografix.com/GPX/1/1" creator="https://gpx.studio" version="1.1">
  <metadata>
    <name>Dog Walk - 2026-03-24 #1</name>
  </metadata>
  <trk>
    <name>Dog Walk - 2026-03-24 #1</name>
    <type>dog walk</type>
    <trkseg>
      <trkpt lat="41.40134105700624" lon="-81.74023351594377">
        <ele>266.5109456336</ele>
        <time>2026-03-24T08:34:09Z</time>
      </trkpt>
      <trkpt lat="41.40133894141445" lon="-81.74082656742326">
        <ele>265.9984195252</ele>
        <time>2026-03-24T08:34:51Z</time>
      </trkpt>
      <trkpt lat="41.40133521921322" lon="-81.74144047545552">
        <ele>265.5694730894</ele>
        <time>2026-03-24T08:35:30Z</time>
      </trkpt>
      <trkpt lat="41.40133752907037" lon="-81.74202439731685">
        <ele>265.2600851320</ele>
        <time>2026-03-24T08:36:13Z</time>
      </trkpt>
      <trkpt lat="41.40133052667240" lon="-81.74238908919881">
        <ele>264.7018598888</ele>
        <time>2026-03-24T08:36:38Z</time>
      </trkpt>
      <trkpt lat="41.40091687502674" lon="-81.74216855275228">
        <ele>265.2439034712</ele>
        <time>2026-03-24T08:37:13Z</time>
      </trkpt>
      <trkpt lat="41.40048875842824" lon="-81.74197404913311">
        <ele>265.1846591887</ele>
        <time>2026-03-24T08:37:51Z</time>
      </trkpt>
      <trkpt lat="41.40044849870508" lon="-81.74195757064774">
        <ele>265.2189100127</ele>
        <time>2026-03-24T08:37:55Z</time>
      </trkpt>
      <trkpt lat="41.40043878840572" lon="-81.74134688403866">
        <ele>265.9741027936</ele>
        <time>2026-03-24T08:38:41Z</time>
      </trkpt>
      <trkpt lat="41.40044310673445" lon="-81.74075013445730">
        <ele>266.3731751556</ele>
        <time>2026-03-24T08:39:29Z</time>
      </trkpt>
      <trkpt lat="41.40043717825946" lon="-81.74015157349152">
        <ele>266.6732070991</ele>
        <time>2026-03-24T08:40:04Z</time>
      </trkpt>
      <trkpt lat="41.40043605417375" lon="-81.73954008737984">
        <ele>267.0027378439</ele>
        <time>2026-03-24T08:40:37Z</time>
      </trkpt>
      <trkpt lat="41.40043325751356" lon="-81.73894565614100">
        <ele>267.0489868551</ele>
        <time>2026-03-24T08:41:23Z</time>
      </trkpt>
      <trkpt lat="41.40041993199502" lon="-81.73835685253924">
        <ele>267.1009877042</ele>
        <time>2026-03-24T08:42:01Z</time>
      </trkpt>
      <trkpt lat="41.40041463917432" lon="-81.73776230395978">
        <ele>267.5249293599</ele>
        <time>2026-03-24T08:42:55Z</time>
      </trkpt>
      <trkpt lat="41.40041405471911" lon="-81.73715369457669">
        <ele>268.1058902275</ele>
        <time>2026-03-24T08:43:38Z</time>
      </trkpt>
      <trkpt lat="41.40040418532292" lon="-81.73654786390105">
        <ele>268.0928033438</ele>
        <time>2026-03-24T08:44:43Z</time>
      </trkpt>
      <trkpt lat="41.40040269085471" lon="-81.73595771652784">
        <ele>268.1733693675</ele>
        <time>2026-03-24T08:45:24Z</time>
      </trkpt>
      <trkpt lat="41.40040274666277" lon="-81.73535940056919">
        <ele>267.8264551187</ele>
        <time>2026-03-24T08:46:02Z</time>
      </trkpt>
      <trkpt lat="41.40039394448056" lon="-81.73475823072502">
        <ele>267.1853490583</ele>
        <time>2026-03-24T08:46:51Z</time>
      </trkpt>
      <trkpt lat="41.40040075179206" lon="-81.73462977847758">
        <ele>267.4840969983</ele>
        <time>2026-03-24T08:46:59Z</time>
      </trkpt>
      <trkpt lat="41.40084756910079" lon="-81.73462369932727">
        <ele>267.1978159892</ele>
        <time>2026-03-24T08:47:37Z</time>
      </trkpt>
      <trkpt lat="41.40129531369890" lon="-81.73462411822021">
        <ele>267.2937621327</ele>
        <time>2026-03-24T08:48:16Z</time>
      </trkpt>
      <trkpt lat="41.40131448410988" lon="-81.73463217220180">
        <ele>267.2901974971</ele>
        <time>2026-03-24T08:48:17Z</time>
      </trkpt>
      <trkpt lat="41.40131886038955" lon="-81.73523469866318">
        <ele>268.0383069393</ele>
        <time>2026-03-24T08:48:52Z</time>
      </trkpt>
      <trkpt lat="41.40133235442427" lon="-81.73582646563821">
        <ele>268.3860590965</ele>
        <time>2026-03-24T08:49:31Z</time>
      </trkpt>
      <trkpt lat="41.40132067065601" lon="-81.73642848139585">
        <ele>268.0887117055</ele>
        <time>2026-03-24T08:50:13Z</time>
      </trkpt>
      <trkpt lat="41.40133283443622" lon="-81.73703110231355">
        <ele>268.2713581741</ele>
        <time>2026-03-24T08:50:52Z</time>
      </trkpt>
      <trkpt lat="41.40132579987159" lon="-81.73763357476979">
        <ele>267.9275685020</ele>
        <time>2026-03-24T08:51:24Z</time>
      </trkpt>
      <trkpt lat="41.40133655074696" lon="-81.73823430366059">
        <ele>267.6010569435</ele>
        <time>2026-03-24T08:52:08Z</time>
      </trkpt>
      <trkpt lat="41.40133584310129" lon="-81.73883967590464">
        <ele>267.1909935806</ele>
        <time>2026-03-24T08:52:57Z</time>
      </trkpt>
      <trkpt lat="41.40133644991119" lon="-81.73943897404205">
        <ele>267.1269741068</ele>
        <time>2026-03-24T08:53:40Z</time>
      </trkpt>
      <trkpt lat="41.40135021345603" lon="-81.74002747166838">
        <ele>266.7565926150</ele>
        <time>2026-03-24T08:54:25Z</time>
      </trkpt>
      <trkpt lat="41.40135255030420" lon="-81.74019497942889">
        <ele>266.4567102763</ele>
        <time>2026-03-24T08:54:37Z</time>
      </trkpt>
    </trkseg>
  </trk>
</gpx>