<?xml version='1.0' encoding='UTF-8'?>
<gpx xmlns="http://www.topografix.com/GPX/1/1" creator="https://gpx.studio" version="1.1">
  <metadata>
    <name>Dog Walk - 2026-06-08 #2</name>
  </metadata>
  <trk>
    <name>Dog Walk - 2026-06-08 #2</name>
    <type>dog walk</type>
    <trkseg>
      <trkpt lat="41.40133284092813" lon="-81.74023674654276">
        <ele>266.4770018702</ele>
        <time>2026-06-08T11:01:42Z</time>
      </trkpt>
      <trkpt lat="41.40133773493763" lon="-81.74083256339537">
        <ele>266.0077717244</ele>
        <time>2026-06-08T11:02:21Z</time>
      </trkpt>
      <trkpt lat="41.40134043274683" lon="-81.74142465778830">
        <ele>265.7954501609</ele>
        <time>2026-06-08T11:02:50Z</time>
      </trkpt>
      <trkpt lat="41.40134502427961" lon="-81.74202881164567">
        <ele>265.1217458039</ele>
        <time>2026-06-08T11:03:38Z</time>
      </trkpt>
      <trkpt lat="41.40134338411023" lon="-81.74241550874109">
        <ele>264.8875286672</ele>
        <time>2026-06-08T11:03:59Z</time>
      </trkpt>
      <trkpt lat="41.40177207574683" lon="-81.74262249286080">
        <ele>264.2871660858</ele>
        <time>2026-06-08T11:04:38Z</time>
      </trkpt>
      <trkpt lat="41.40218480006212" lon="-81.74283676752290">
        <ele>263.5481227710</ele>
        <time>2026-06-08T11:05:38Z</time>
      </trkpt>
      <trkpt lat="41.40260830387646" lon="-81.74305364543575">
        <ele>262.9938823435</ele>
        <time>2026-06-08T11:06:25Z</time>
      </trkpt>
      <trkpt lat="41.40302706819634" lon="-81.74326569819645">
        <ele>262.5056142800</ele>
        <time>2026-06-08T11:07:00Z</time>
      </trkpt>
      <trkpt lat="41.40345339396190" lon="-81.74347092497470">
        <ele>261.9003659066</ele>
        <time>2026-06-08T11:07:41Z</time>
      </trkpt>
      <trkpt lat="41.40349027171127" lon="-81.74349382517507">
        <ele>261.8097935587</ele>
        <time>2026-06-08T11:07:45Z</time>
      </trkpt>
      <trkpt lat="41.40360149904793" lon="-81.74352569038490">
        <ele>261.5533589781</ele>
        <time>2026-06-08T11:07:55Z</time>
      </trkpt>
      <trkpt lat="41.40399369005442" lon="-81.74350795116520">
        <ele>260.6133049443</ele>
        <time>2026-06-08T11:08:32Z</time>
      </trkpt>
      <trkpt lat="41.40400145766213" lon="-81.74291133073581">
        <ele>261.6674905266</ele>
        <time>2026-06-08T11:09:06Z</time>
      </trkpt>
      <trkpt lat="41.40399603462313" lon="-81.74230787637538">
        <ele>262.1995400195</ele>
        <time>2026-06-08T11:09:56Z</time>
      </trkpt>
      <trkpt lat="41.40399521421428" lon="-81.74170806450854">
        <ele>262.3082957945</ele>
        <time>2026-06-08T11:10:27Z</time>
      </trkpt>
      <trkpt lat="41.40398340269010" lon="-81.74111659839356">
        <ele>262.9667294109</ele>
        <time>2026-06-08T11:11:23Z</time>
      </trkpt>
      <trkpt lat="41.40399000158915" lon="-81.74050829834806">
        <ele>263.7996306805</ele>
        <time>2026-06-08T11:11:50Z</time>
      </trkpt>
      <trkpt lat="41.40398714307081" lon="-81.73990213015276">
        <ele>264.1228331700</ele>
        <time>2026-06-08T11:12:27Z</time>
      </trkpt>
      <trkpt lat="41.40398901159228" lon="-81.73930206933849">
        <ele>264.9094526081</ele>
        <time>2026-06-08T11:13:20Z</time>
      </trkpt>
      <trkpt lat="41.40399474268069" lon="-81.73879141411125">
        <ele>265.5451325646</ele>
        <time>2026-06-08T11:13:52Z</time>
      </trkpt>
      <trkpt lat="41.40353437350998" lon="-81.73876998538366">
        <ele>265.9528789306</ele>
        <time>2026-06-08T11:14:29Z</time>
      </trkpt>
      <trkpt lat="41.40308737260090" lon="-81.73877356887658">
        <ele>266.2695556686</ele>
        <time>2026-06-08T11:14:59Z</time>
      </trkpt>
      <trkpt lat="41.40263601562823" lon="-81.73878171159996">
        <ele>266.9491674704</ele>
        <time>2026-06-08T11:15:42Z</time>
      </trkpt>
      <trkpt lat="41.40223183877782" lon="-81.73878084915351">
        <ele>266.9836826306</ele>
        <time>2026-06-08T11:16:19Z</time>
      </trkpt>
      <trkpt lat="41.40221662960431" lon="-81.73827945454597">
        <ele>267.1739449644</ele>
        <time>2026-06-08T11:16:49Z</time>
      </trkpt>
      <trkpt lat="41.40176371480219" lon="-81.73826507743280">
        <ele>267.7444320081</ele>
        <time>2026-06-08T11:17:27Z</time>
      </trkpt>
      <trkpt lat="41.40132909541797" lon="-81.73826110546487">
        <ele>267.6716782843</ele>
        <time>2026-06-08T11:18:12Z</time>
      </trkpt>
      <trkpt lat="41.40133039789172" lon="-81.73886608434807">
        <ele>267.5627883201</ele>
        <time>2026-06-08T11:18:46Z</time>
      </trkpt>
      <trkpt lat="41.40132974763018" lon="-81.73947789165840">
        <ele>267.2471864317</ele>
        <time>2026-06-08T11:19:36Z</time>
      </trkpt>
      <trkpt lat="41.40133358125906" lon="-81.74006286590394">
        <ele>266.5761054490</ele>
        <time>2026-06-08T11:20:15Z</time>
      </trkpt>
      <trkpt lat="41.40132805576903" lon="-81.74021088380607">
        <ele>266.6436840615</ele>
        <time>2026-06-08T11:20:35Z</time>
      </trkpt>
    </trkseg>
  </trk>
</gpx>