<?xml version='1.0' encoding='UTF-8'?>
<gpx xmlns="http://www.topografix.com/GPX/1/1" creator="https://gpx.studio" version="1.1">
  <metadata>
    <name>Dog Walk - 2026-06-09 #1</name>
  </metadata>
  <trk>
    <name>Dog Walk - 2026-06-09 #1</name>
    <type>dog walk</type>
    <trkseg>
      <trkpt lat="41.40133308167577" lon="-81.74024425890759">
        <ele>266.6336023206</ele>
        <time>2026-06-09T08:19:12Z</time>
      </trkpt>
      <trkpt lat="41.40133463463263" lon="-81.74082954483870">
        <ele>266.3093940688</ele>
        <time>2026-06-09T08:19:52Z</time>
      </trkpt>
      <trkpt lat="41.40133031647565" lon="-81.74143841794567">
        <ele>265.8289419239</ele>
        <time>2026-06-09T08:20:35Z</time>
      </trkpt>
      <trkpt lat="41.40133864540979" lon="-81.74203780102474">
        <ele>265.3649118942</ele>
        <time>2026-06-09T08:21:25Z</time>
      </trkpt>
      <trkpt lat="41.40132432959580" lon="-81.74238176583312">
        <ele>264.5031323856</ele>
        <time>2026-06-09T08:21:47Z</time>
      </trkpt>
      <trkpt lat="41.40090291265530" lon="-81.74219827384911">
        <ele>265.1462937023</ele>
        <time>2026-06-09T08:22:26Z</time>
      </trkpt>
      <trkpt lat="41.40047405517617" lon="-81.74200572931780">
        <ele>265.0728235355</ele>
        <time>2026-06-09T08:23:28Z</time>
      </trkpt>
      <trkpt lat="41.40005671046572" lon="-81.74181706385117">
        <ele>265.4006727806</ele>
        <time>2026-06-09T08:24:05Z</time>
      </trkpt>
      <trkpt lat="41.39962804907861" lon="-81.74162094435134">
        <ele>264.8319808581</ele>
        <time>2026-06-09T08:24:44Z</time>
      </trkpt>
      <trkpt lat="41.39952713327799" lon="-81.74157630323241">
        <ele>264.8374187960</ele>
        <time>2026-06-09T08:24:55Z</time>
      </trkpt>
      <trkpt lat="41.39953986461086" lon="-81.74097019218726">
        <ele>265.6215717924</ele>
        <time>2026-06-09T08:25:44Z</time>
      </trkpt>
      <trkpt lat="41.39953540606236" lon="-81.74037498583542">
        <ele>266.0596126688</ele>
        <time>2026-06-09T08:26:18Z</time>
      </trkpt>
      <trkpt lat="41.39953352827949" lon="-81.73976939169910">
        <ele>266.4575413889</ele>
        <time>2026-06-09T08:27:00Z</time>
      </trkpt>
      <trkpt lat="41.39953628752583" lon="-81.73917502902890">
        <ele>266.7641807014</ele>
        <time>2026-06-09T08:27:37Z</time>
      </trkpt>
      <trkpt lat="41.39952959547813" lon="-81.73857373855398">
        <ele>266.9890934310</ele>
        <time>2026-06-09T08:28:15Z</time>
      </trkpt>
      <trkpt lat="41.39953468082302" lon="-81.73798346428960">
        <ele>266.9835462739</ele>
        <time>2026-06-09T08:28:56Z</time>
      </trkpt>
      <trkpt lat="41.39952870643639" lon="-81.73737110044587">
        <ele>267.2348950144</ele>
        <time>2026-06-09T08:29:33Z</time>
      </trkpt>
      <trkpt lat="41.39952322095674" lon="-81.73676882547726">
        <ele>267.4382171050</ele>
        <time>2026-06-09T08:30:13Z</time>
      </trkpt>
      <trkpt lat="41.39952587249052" lon="-81.73617730672551">
        <ele>267.6578309000</ele>
        <time>2026-06-09T08:31:02Z</time>
      </trkpt>
      <trkpt lat="41.39953188332510" lon="-81.73557686633684">
        <ele>267.1370224594</ele>
        <time>2026-06-09T08:31:39Z</time>
      </trkpt>
      <trkpt lat="41.39952262163023" lon="-81.73497563521937">
        <ele>267.2550946649</ele>
        <time>2026-06-09T08:32:17Z</time>
      </trkpt>
      <trkpt lat="41.39952336293620" lon="-81.73461487649661">
        <ele>267.1079717266</ele>
        <time>2026-06-09T08:32:39Z</time>
      </trkpt>
      <trkpt lat="41.39997778697450" lon="-81.73463107966346">
        <ele>267.2500757187</ele>
        <time>2026-06-09T08:33:17Z</time>
      </trkpt>
      <trkpt lat="41.40042565895640" lon="-81.73462635720760">
        <ele>267.4916547855</ele>
        <time>2026-06-09T08:33:47Z</time>
      </trkpt>
      <trkpt lat="41.40086480971841" lon="-81.73463238699114">
        <ele>267.3750120853</ele>
        <time>2026-06-09T08:34:19Z</time>
      </trkpt>
      <trkpt lat="41.40131192483147" lon="-81.73464348809306">
        <ele>267.1840609003</ele>
        <time>2026-06-09T08:35:18Z</time>
      </trkpt>
      <trkpt lat="41.40132430166886" lon="-81.73524119590230">
        <ele>268.0017504242</ele>
        <time>2026-06-09T08:35:53Z</time>
      </trkpt>
      <trkpt lat="41.40132316012425" lon="-81.73584631929398">
        <ele>268.1368458402</ele>
        <time>2026-06-09T08:36:39Z</time>
      </trkpt>
      <trkpt lat="41.40132154070758" lon="-81.73643390692126">
        <ele>268.4526232068</ele>
        <time>2026-06-09T08:37:22Z</time>
      </trkpt>
      <trkpt lat="41.40132296340046" lon="-81.73703404053425">
        <ele>267.7499582547</ele>
        <time>2026-06-09T08:38:04Z</time>
      </trkpt>
      <trkpt lat="41.40132336309127" lon="-81.73763472158222">
        <ele>268.0446168125</ele>
        <time>2026-06-09T08:38:44Z</time>
      </trkpt>
      <trkpt lat="41.40133183177893" lon="-81.73823634408490">
        <ele>267.5147228555</ele>
        <time>2026-06-09T08:39:20Z</time>
      </trkpt>
      <trkpt lat="41.40134062034391" lon="-81.73884533908220">
        <ele>267.4490259814</ele>
        <time>2026-06-09T08:39:56Z</time>
      </trkpt>
      <trkpt lat="41.40133723392507" lon="-81.73943224089508">
        <ele>267.1656361456</ele>
        <time>2026-06-09T08:40:44Z</time>
      </trkpt>
      <trkpt lat="41.40132833293411" lon="-81.74003554935845">
        <ele>266.6184148804</ele>
        <time>2026-06-09T08:41:21Z</time>
      </trkpt>
      <trkpt lat="41.40132851402509" lon="-81.74022983019847">
        <ele>266.4939827232</ele>
        <time>2026-06-09T08:41:34Z</time>
      </trkpt>
    </trkseg>
  </trk>
</gpx>