<?xml version='1.0' encoding='UTF-8'?>
<gpx xmlns="http://www.topografix.com/GPX/1/1" creator="https://gpx.studio" version="1.1">
  <metadata>
    <name>Dog Walk - 2026-04-21 #3</name>
  </metadata>
  <trk>
    <name>Dog Walk - 2026-04-21 #3</name>
    <type>dog walk</type>
    <trkseg>
      <trkpt lat="41.40133762587595" lon="-81.74022631853396">
        <ele>266.5973402096</ele>
        <time>2026-04-21T13:59:38Z</time>
      </trkpt>
      <trkpt lat="41.40134329425378" lon="-81.74084010668692">
        <ele>266.1988076514</ele>
        <time>2026-04-21T14:00:11Z</time>
      </trkpt>
      <trkpt lat="41.40134539931663" lon="-81.74143530215359">
        <ele>265.7692066293</ele>
        <time>2026-04-21T14:00:48Z</time>
      </trkpt>
      <trkpt lat="41.40134974397713" lon="-81.74203476634452">
        <ele>265.4309507899</ele>
        <time>2026-04-21T14:01:25Z</time>
      </trkpt>
      <trkpt lat="41.40134807888744" lon="-81.74241192322282">
        <ele>264.6416770003</ele>
        <time>2026-04-21T14:01:52Z</time>
      </trkpt>
      <trkpt lat="41.40175814251324" lon="-81.74263079883994">
        <ele>264.2873154136</ele>
        <time>2026-04-21T14:02:44Z</time>
      </trkpt>
      <trkpt lat="41.40219459543745" lon="-81.74283837660522">
        <ele>263.4206472848</ele>
        <time>2026-04-21T14:03:53Z</time>
      </trkpt>
      <trkpt lat="41.40261377317017" lon="-81.74305746987974">
        <ele>262.9284982365</ele>
        <time>2026-04-21T14:04:40Z</time>
      </trkpt>
      <trkpt lat="41.40303731292736" lon="-81.74326646883191">
        <ele>262.4288083729</ele>
        <time>2026-04-21T14:05:20Z</time>
      </trkpt>
      <trkpt lat="41.40345290012526" lon="-81.74347228546829">
        <ele>261.7999336107</ele>
        <time>2026-04-21T14:06:01Z</time>
      </trkpt>
      <trkpt lat="41.40348365259205" lon="-81.74350571951709">
        <ele>261.7849321974</ele>
        <time>2026-04-21T14:06:05Z</time>
      </trkpt>
      <trkpt lat="41.40359830300829" lon="-81.74352309581840">
        <ele>261.4320181356</ele>
        <time>2026-04-21T14:06:14Z</time>
      </trkpt>
      <trkpt lat="41.40399526469944" lon="-81.74350366360579">
        <ele>260.4501854055</ele>
        <time>2026-04-21T14:06:46Z</time>
      </trkpt>
      <trkpt lat="41.40399720433057" lon="-81.74290662259483">
        <ele>261.4525484475</ele>
        <time>2026-04-21T14:07:22Z</time>
      </trkpt>
      <trkpt lat="41.40398796792643" lon="-81.74231485395401">
        <ele>261.9598250485</ele>
        <time>2026-04-21T14:08:17Z</time>
      </trkpt>
      <trkpt lat="41.40399947163243" lon="-81.74171374732698">
        <ele>262.4903661039</ele>
        <time>2026-04-21T14:09:10Z</time>
      </trkpt>
      <trkpt lat="41.40399921150139" lon="-81.74110762936202">
        <ele>262.8569441973</ele>
        <time>2026-04-21T14:09:57Z</time>
      </trkpt>
      <trkpt lat="41.40398832242845" lon="-81.74051776923716">
        <ele>263.4996628143</ele>
        <time>2026-04-21T14:10:38Z</time>
      </trkpt>
      <trkpt lat="41.40398649013990" lon="-81.73991866186884">
        <ele>264.3142407533</ele>
        <time>2026-04-21T14:11:13Z</time>
      </trkpt>
      <trkpt lat="41.40398576435481" lon="-81.73930264751458">
        <ele>264.7373597232</ele>
        <time>2026-04-21T14:11:45Z</time>
      </trkpt>
      <trkpt lat="41.40397778566351" lon="-81.73877220582871">
        <ele>265.4827061683</ele>
        <time>2026-04-21T14:12:28Z</time>
      </trkpt>
      <trkpt lat="41.40352923730754" lon="-81.73878060205202">
        <ele>265.8065490825</ele>
        <time>2026-04-21T14:13:03Z</time>
      </trkpt>
      <trkpt lat="41.40309091552611" lon="-81.73877784682882">
        <ele>266.2769835224</ele>
        <time>2026-04-21T14:13:45Z</time>
      </trkpt>
      <trkpt lat="41.40263385145632" lon="-81.73877315195723">
        <ele>266.8225147271</ele>
        <time>2026-04-21T14:14:41Z</time>
      </trkpt>
      <trkpt lat="41.40222206041646" lon="-81.73877357577769">
        <ele>267.3874683950</ele>
        <time>2026-04-21T14:15:27Z</time>
      </trkpt>
      <trkpt lat="41.40221801121120" lon="-81.73827086246017">
        <ele>266.9477557187</ele>
        <time>2026-04-21T14:16:03Z</time>
      </trkpt>
      <trkpt lat="41.40176448112091" lon="-81.73828068389439">
        <ele>267.6822382244</ele>
        <time>2026-04-21T14:16:40Z</time>
      </trkpt>
      <trkpt lat="41.40133509920574" lon="-81.73826704565920">
        <ele>267.6411633121</ele>
        <time>2026-04-21T14:17:10Z</time>
      </trkpt>
      <trkpt lat="41.40133419546525" lon="-81.73887324689696">
        <ele>267.4879207150</ele>
        <time>2026-04-21T14:17:52Z</time>
      </trkpt>
      <trkpt lat="41.40133926764374" lon="-81.73946098283983">
        <ele>266.9343874524</ele>
        <time>2026-04-21T14:18:34Z</time>
      </trkpt>
      <trkpt lat="41.40133605830959" lon="-81.74006355225661">
        <ele>266.7577672387</ele>
        <time>2026-04-21T14:19:20Z</time>
      </trkpt>
      <trkpt lat="41.40133110736926" lon="-81.74020689721256">
        <ele>266.6102188292</ele>
        <time>2026-04-21T14:19:30Z</time>
      </trkpt>
    </trkseg>
  </trk>
</gpx>