<?xml version='1.0' encoding='UTF-8'?>
<gpx xmlns="http://www.topografix.com/GPX/1/1" creator="https://gpx.studio" version="1.1">
  <metadata>
    <name>Dog Walk - 2026-08-02 #1</name>
  </metadata>
  <trk>
    <name>Dog Walk - 2026-08-02 #1</name>
    <type>dog walk</type>
    <trkseg>
      <trkpt lat="41.40133363940051" lon="-81.74023443719840">
        <ele>266.5694144157</ele>
        <time>2026-08-02T09:39:23Z</time>
      </trkpt>
      <trkpt lat="41.40134880877873" lon="-81.74083899020462">
        <ele>266.0574916820</ele>
        <time>2026-08-02T09:40:01Z</time>
      </trkpt>
      <trkpt lat="41.40135563825788" lon="-81.74144315081431">
        <ele>265.7211910792</ele>
        <time>2026-08-02T09:41:20Z</time>
      </trkpt>
      <trkpt lat="41.40134742734251" lon="-81.74204212205129">
        <ele>265.2294455112</ele>
        <time>2026-08-02T09:41:54Z</time>
      </trkpt>
      <trkpt lat="41.40135370999705" lon="-81.74242480259706">
        <ele>264.6484958534</ele>
        <time>2026-08-02T09:42:21Z</time>
      </trkpt>
      <trkpt lat="41.40176947614270" lon="-81.74261858024150">
        <ele>264.3107751780</ele>
        <time>2026-08-02T09:43:00Z</time>
      </trkpt>
      <trkpt lat="41.40219249168828" lon="-81.74282971213403">
        <ele>263.5088710260</ele>
        <time>2026-08-02T09:43:50Z</time>
      </trkpt>
      <trkpt lat="41.40260741497308" lon="-81.74302875769922">
        <ele>263.1516270175</ele>
        <time>2026-08-02T09:44:24Z</time>
      </trkpt>
      <trkpt lat="41.40303519454891" lon="-81.74322812466130">
        <ele>262.3889312899</ele>
        <time>2026-08-02T09:44:57Z</time>
      </trkpt>
      <trkpt lat="41.40311306116864" lon="-81.74325235391136">
        <ele>262.3236523251</ele>
        <time>2026-08-02T09:45:05Z</time>
      </trkpt>
      <trkpt lat="41.40311498672133" lon="-81.74265931575552">
        <ele>263.1456333650</ele>
        <time>2026-08-02T09:45:46Z</time>
      </trkpt>
      <trkpt lat="41.40311891669450" lon="-81.74203949710775">
        <ele>263.6893092013</ele>
        <time>2026-08-02T09:46:34Z</time>
      </trkpt>
      <trkpt lat="41.40311343393774" lon="-81.74145900513780">
        <ele>264.2034563122</ele>
        <time>2026-08-02T09:47:32Z</time>
      </trkpt>
      <trkpt lat="41.40310591847647" lon="-81.74086240664414">
        <ele>264.7281865685</ele>
        <time>2026-08-02T09:48:19Z</time>
      </trkpt>
      <trkpt lat="41.40310211125487" lon="-81.74025993026032">
        <ele>265.5126325928</ele>
        <time>2026-08-02T09:49:14Z</time>
      </trkpt>
      <trkpt lat="41.40311646737096" lon="-81.73965815101540">
        <ele>265.7546697322</ele>
        <time>2026-08-02T09:49:47Z</time>
      </trkpt>
      <trkpt lat="41.40310149998731" lon="-81.73906290311872">
        <ele>265.9504916447</ele>
        <time>2026-08-02T09:50:19Z</time>
      </trkpt>
      <trkpt lat="41.40310053907478" lon="-81.73878333984591">
        <ele>266.2087163229</ele>
        <time>2026-08-02T09:50:39Z</time>
      </trkpt>
      <trkpt lat="41.40265453210392" lon="-81.73878245204804">
        <ele>266.5115441478</ele>
        <time>2026-08-02T09:51:28Z</time>
      </trkpt>
      <trkpt lat="41.40223063438072" lon="-81.73879080117084">
        <ele>267.0942236245</ele>
        <time>2026-08-02T09:52:05Z</time>
      </trkpt>
      <trkpt lat="41.40222840943709" lon="-81.73817989302573">
        <ele>267.1879027359</ele>
        <time>2026-08-02T09:52:50Z</time>
      </trkpt>
      <trkpt lat="41.40223146103877" lon="-81.73758078653204">
        <ele>266.9978145556</ele>
        <time>2026-08-02T09:53:32Z</time>
      </trkpt>
      <trkpt lat="41.40223360395786" lon="-81.73697447608151">
        <ele>267.3588353462</ele>
        <time>2026-08-02T09:54:12Z</time>
      </trkpt>
      <trkpt lat="41.40223137088075" lon="-81.73638505897650">
        <ele>267.2080329127</ele>
        <time>2026-08-02T09:54:48Z</time>
      </trkpt>
      <trkpt lat="41.40222882854614" lon="-81.73578635974471">
        <ele>267.2850909747</ele>
        <time>2026-08-02T09:55:21Z</time>
      </trkpt>
      <trkpt lat="41.40221883362027" lon="-81.73517828598952">
        <ele>267.1435730082</ele>
        <time>2026-08-02T09:56:09Z</time>
      </trkpt>
      <trkpt lat="41.40222292128489" lon="-81.73465731235045">
        <ele>267.1395854866</ele>
        <time>2026-08-02T09:56:42Z</time>
      </trkpt>
      <trkpt lat="41.40177078415479" lon="-81.73463701925883">
        <ele>267.2359942466</ele>
        <time>2026-08-02T09:57:21Z</time>
      </trkpt>
      <trkpt lat="41.40131991768210" lon="-81.73464053049747">
        <ele>267.3092141691</ele>
        <time>2026-08-02T09:57:53Z</time>
      </trkpt>
      <trkpt lat="41.40133017125603" lon="-81.73462694048010">
        <ele>267.4765881610</ele>
        <time>2026-08-02T09:57:54Z</time>
      </trkpt>
      <trkpt lat="41.40131134946194" lon="-81.73523472491489">
        <ele>267.9624484784</ele>
        <time>2026-08-02T09:58:30Z</time>
      </trkpt>
      <trkpt lat="41.40132177196713" lon="-81.73583060809716">
        <ele>268.1048584894</ele>
        <time>2026-08-02T09:59:16Z</time>
      </trkpt>
      <trkpt lat="41.40133303053882" lon="-81.73643821865120">
        <ele>268.1019231993</ele>
        <time>2026-08-02T09:59:50Z</time>
      </trkpt>
      <trkpt lat="41.40132800225448" lon="-81.73704135864496">
        <ele>268.0778269266</ele>
        <time>2026-08-02T10:00:31Z</time>
      </trkpt>
      <trkpt lat="41.40133038918254" lon="-81.73764180283763">
        <ele>267.9742534463</ele>
        <time>2026-08-02T10:01:19Z</time>
      </trkpt>
      <trkpt lat="41.40133645061613" lon="-81.73824435625491">
        <ele>267.6238565896</ele>
        <time>2026-08-02T10:01:57Z</time>
      </trkpt>
      <trkpt lat="41.40134107332153" lon="-81.73883350107218">
        <ele>267.5261287331</ele>
        <time>2026-08-02T10:02:30Z</time>
      </trkpt>
      <trkpt lat="41.40134015966744" lon="-81.73943243285521">
        <ele>267.2786782474</ele>
        <time>2026-08-02T10:03:19Z</time>
      </trkpt>
      <trkpt lat="41.40134800838690" lon="-81.74003388022710">
        <ele>266.3455127983</ele>
        <time>2026-08-02T10:03:59Z</time>
      </trkpt>
      <trkpt lat="41.40134613662082" lon="-81.74015772869056">
        <ele>266.4336928336</ele>
        <time>2026-08-02T10:04:06Z</time>
      </trkpt>
    </trkseg>
  </trk>
</gpx>