<?xml version='1.0' encoding='UTF-8'?>
<gpx xmlns="http://www.topografix.com/GPX/1/1" creator="https://gpx.studio" version="1.1">
  <metadata>
    <name>Dog Walk - 2026-04-13 #2</name>
  </metadata>
  <trk>
    <name>Dog Walk - 2026-04-13 #2</name>
    <type>dog walk</type>
    <trkseg>
      <trkpt lat="41.40133185791284" lon="-81.74023205810076">
        <ele>266.6143384119</ele>
        <time>2026-04-13T09:51:35Z</time>
      </trkpt>
      <trkpt lat="41.40133680208728" lon="-81.74083566106097">
        <ele>266.3044069122</ele>
        <time>2026-04-13T09:52:11Z</time>
      </trkpt>
      <trkpt lat="41.40132067734304" lon="-81.74143947344336">
        <ele>265.6515087243</ele>
        <time>2026-04-13T09:52:41Z</time>
      </trkpt>
      <trkpt lat="41.40132460730155" lon="-81.74203535107375">
        <ele>265.2881064362</ele>
        <time>2026-04-13T09:53:28Z</time>
      </trkpt>
      <trkpt lat="41.40132861187639" lon="-81.74239479832052">
        <ele>264.6192245398</ele>
        <time>2026-04-13T09:53:52Z</time>
      </trkpt>
      <trkpt lat="41.40090113956335" lon="-81.74219895984396">
        <ele>264.9585647867</ele>
        <time>2026-04-13T09:54:33Z</time>
      </trkpt>
      <trkpt lat="41.40047510932326" lon="-81.74201023130095">
        <ele>265.0204941022</ele>
        <time>2026-04-13T09:55:10Z</time>
      </trkpt>
      <trkpt lat="41.40004680389928" lon="-81.74179994609879">
        <ele>265.3602904385</ele>
        <time>2026-04-13T09:55:52Z</time>
      </trkpt>
      <trkpt lat="41.39962816338607" lon="-81.74160932181962">
        <ele>264.8370845919</ele>
        <time>2026-04-13T09:56:27Z</time>
      </trkpt>
      <trkpt lat="41.39953867317950" lon="-81.74157587132920">
        <ele>264.7769257631</ele>
        <time>2026-04-13T09:56:35Z</time>
      </trkpt>
      <trkpt lat="41.39953298230311" lon="-81.74096069411762">
        <ele>265.5825020497</ele>
        <time>2026-04-13T09:57:30Z</time>
      </trkpt>
      <trkpt lat="41.39953224790593" lon="-81.74037840403339">
        <ele>266.0603836373</ele>
        <time>2026-04-13T09:58:00Z</time>
      </trkpt>
      <trkpt lat="41.39953007186006" lon="-81.73977154458635">
        <ele>266.5088711300</ele>
        <time>2026-04-13T09:58:50Z</time>
      </trkpt>
      <trkpt lat="41.39953574249129" lon="-81.73917704352034">
        <ele>266.8220583093</ele>
        <time>2026-04-13T09:59:43Z</time>
      </trkpt>
      <trkpt lat="41.39953494043823" lon="-81.73856928875438">
        <ele>266.8527000367</ele>
        <time>2026-04-13T10:00:16Z</time>
      </trkpt>
      <trkpt lat="41.39953444624588" lon="-81.73798066409496">
        <ele>267.1788081110</ele>
        <time>2026-04-13T10:00:46Z</time>
      </trkpt>
      <trkpt lat="41.39953540445753" lon="-81.73738587505116">
        <ele>267.4490852626</ele>
        <time>2026-04-13T10:01:22Z</time>
      </trkpt>
      <trkpt lat="41.39953217323412" lon="-81.73678920633795">
        <ele>267.5432093269</ele>
        <time>2026-04-13T10:02:03Z</time>
      </trkpt>
      <trkpt lat="41.39952684483789" lon="-81.73618343743865">
        <ele>267.4037534547</ele>
        <time>2026-04-13T10:02:50Z</time>
      </trkpt>
      <trkpt lat="41.39951963390079" lon="-81.73558267558403">
        <ele>267.3213636740</ele>
        <time>2026-04-13T10:03:29Z</time>
      </trkpt>
      <trkpt lat="41.39952036524978" lon="-81.73497431628027">
        <ele>267.1152631992</ele>
        <time>2026-04-13T10:04:10Z</time>
      </trkpt>
      <trkpt lat="41.39953245538363" lon="-81.73461426535272">
        <ele>267.1505236082</ele>
        <time>2026-04-13T10:04:31Z</time>
      </trkpt>
      <trkpt lat="41.39997427284993" lon="-81.73462158011442">
        <ele>267.0546616704</ele>
        <time>2026-04-13T10:05:24Z</time>
      </trkpt>
      <trkpt lat="41.40042784635416" lon="-81.73462587822678">
        <ele>267.3942318653</ele>
        <time>2026-04-13T10:06:13Z</time>
      </trkpt>
      <trkpt lat="41.40087506076189" lon="-81.73463653893742">
        <ele>267.1981933797</ele>
        <time>2026-04-13T10:06:46Z</time>
      </trkpt>
      <trkpt lat="41.40132114615059" lon="-81.73464056854935">
        <ele>267.4518399591</ele>
        <time>2026-04-13T10:07:31Z</time>
      </trkpt>
      <trkpt lat="41.40131074474446" lon="-81.73523971597299">
        <ele>268.0789030683</ele>
        <time>2026-04-13T10:08:15Z</time>
      </trkpt>
      <trkpt lat="41.40132720498163" lon="-81.73584559952312">
        <ele>268.1606765562</ele>
        <time>2026-04-13T10:08:53Z</time>
      </trkpt>
      <trkpt lat="41.40132856759330" lon="-81.73643795119686">
        <ele>268.2220896052</ele>
        <time>2026-04-13T10:09:23Z</time>
      </trkpt>
      <trkpt lat="41.40132473754917" lon="-81.73704668957146">
        <ele>267.9390571173</ele>
        <time>2026-04-13T10:10:14Z</time>
      </trkpt>
      <trkpt lat="41.40132308550655" lon="-81.73763260887779">
        <ele>267.8884695913</ele>
        <time>2026-04-13T10:10:55Z</time>
      </trkpt>
      <trkpt lat="41.40132537447300" lon="-81.73823272064757">
        <ele>267.3688426327</ele>
        <time>2026-04-13T10:11:28Z</time>
      </trkpt>
      <trkpt lat="41.40133730600745" lon="-81.73883008924471">
        <ele>267.3071522013</ele>
        <time>2026-04-13T10:12:09Z</time>
      </trkpt>
      <trkpt lat="41.40133470268920" lon="-81.73943958872857">
        <ele>267.3235080804</ele>
        <time>2026-04-13T10:12:44Z</time>
      </trkpt>
      <trkpt lat="41.40132860034930" lon="-81.74003617629143">
        <ele>266.5978380855</ele>
        <time>2026-04-13T10:13:22Z</time>
      </trkpt>
      <trkpt lat="41.40132650429300" lon="-81.74021711270716">
        <ele>266.6546454485</ele>
        <time>2026-04-13T10:13:36Z</time>
      </trkpt>
    </trkseg>
  </trk>
</gpx>