<?xml version='1.0' encoding='UTF-8'?>
<gpx xmlns="http://www.topografix.com/GPX/1/1" creator="https://gpx.studio" version="1.1">
  <metadata>
    <name>Dog Walk - 2026-02-22 #2</name>
  </metadata>
  <trk>
    <name>Dog Walk - 2026-02-22 #2</name>
    <type>dog walk</type>
    <trkseg>
      <trkpt lat="41.40133013714681" lon="-81.74023838939162">
        <ele>266.5063102620</ele>
        <time>2026-02-22T19:04:26Z</time>
      </trkpt>
      <trkpt lat="41.40133665886678" lon="-81.74082524985445">
        <ele>266.2426543757</ele>
        <time>2026-02-22T19:05:11Z</time>
      </trkpt>
      <trkpt lat="41.40133701897597" lon="-81.74142759010277">
        <ele>265.7940843853</ele>
        <time>2026-02-22T19:06:00Z</time>
      </trkpt>
      <trkpt lat="41.40135244871841" lon="-81.74202490293310">
        <ele>265.2207848965</ele>
        <time>2026-02-22T19:06:43Z</time>
      </trkpt>
      <trkpt lat="41.40134909648853" lon="-81.74240606836457">
        <ele>264.8744355425</ele>
        <time>2026-02-22T19:07:06Z</time>
      </trkpt>
      <trkpt lat="41.40176466233169" lon="-81.74263989704303">
        <ele>264.1862258071</ele>
        <time>2026-02-22T19:07:41Z</time>
      </trkpt>
      <trkpt lat="41.40218641198718" lon="-81.74283405515919">
        <ele>263.4981613567</ele>
        <time>2026-02-22T19:08:35Z</time>
      </trkpt>
      <trkpt lat="41.40261065582698" lon="-81.74304943916306">
        <ele>263.1496496185</ele>
        <time>2026-02-22T19:09:16Z</time>
      </trkpt>
      <trkpt lat="41.40302896765534" lon="-81.74326976347947">
        <ele>262.7821191257</ele>
        <time>2026-02-22T19:09:54Z</time>
      </trkpt>
      <trkpt lat="41.40344806689458" lon="-81.74348151072826">
        <ele>261.8809928904</ele>
        <time>2026-02-22T19:10:37Z</time>
      </trkpt>
      <trkpt lat="41.40348661002587" lon="-81.74349915171270">
        <ele>262.0646963502</ele>
        <time>2026-02-22T19:10:40Z</time>
      </trkpt>
      <trkpt lat="41.40360279185619" lon="-81.74351331034599">
        <ele>261.6352332101</ele>
        <time>2026-02-22T19:11:08Z</time>
      </trkpt>
      <trkpt lat="41.40399634408429" lon="-81.74350695307932">
        <ele>260.5878374761</ele>
        <time>2026-02-22T19:11:44Z</time>
      </trkpt>
      <trkpt lat="41.40398954368284" lon="-81.74290573446191">
        <ele>261.4254649311</ele>
        <time>2026-02-22T19:12:20Z</time>
      </trkpt>
      <trkpt lat="41.40399984436783" lon="-81.74230794459027">
        <ele>262.1249658281</ele>
        <time>2026-02-22T19:12:59Z</time>
      </trkpt>
      <trkpt lat="41.40399762886160" lon="-81.74171175087379">
        <ele>262.4492321784</ele>
        <time>2026-02-22T19:13:38Z</time>
      </trkpt>
      <trkpt lat="41.40399728123990" lon="-81.74110826787695">
        <ele>262.9199404622</ele>
        <time>2026-02-22T19:14:23Z</time>
      </trkpt>
      <trkpt lat="41.40398694423598" lon="-81.74051454118010">
        <ele>263.7148765184</ele>
        <time>2026-02-22T19:15:19Z</time>
      </trkpt>
      <trkpt lat="41.40399622392443" lon="-81.73990236278784">
        <ele>264.2757809700</ele>
        <time>2026-02-22T19:16:13Z</time>
      </trkpt>
      <trkpt lat="41.40398487691601" lon="-81.73931574624962">
        <ele>264.9728174993</ele>
        <time>2026-02-22T19:16:58Z</time>
      </trkpt>
      <trkpt lat="41.40398892022720" lon="-81.73878354034267">
        <ele>265.4632974329</ele>
        <time>2026-02-22T19:17:25Z</time>
      </trkpt>
      <trkpt lat="41.40353463523126" lon="-81.73876449485664">
        <ele>265.9576866280</ele>
        <time>2026-02-22T19:18:12Z</time>
      </trkpt>
      <trkpt lat="41.40308889291857" lon="-81.73877724706382">
        <ele>266.2701233038</ele>
        <time>2026-02-22T19:19:01Z</time>
      </trkpt>
      <trkpt lat="41.40264285004195" lon="-81.73877672766973">
        <ele>266.9268128002</ele>
        <time>2026-02-22T19:19:37Z</time>
      </trkpt>
      <trkpt lat="41.40222702924466" lon="-81.73878486872353">
        <ele>267.1950557187</ele>
        <time>2026-02-22T19:20:30Z</time>
      </trkpt>
      <trkpt lat="41.40221710383222" lon="-81.73827501870129">
        <ele>267.1832761710</ele>
        <time>2026-02-22T19:21:11Z</time>
      </trkpt>
      <trkpt lat="41.40176890362023" lon="-81.73827413583265">
        <ele>267.6292612129</ele>
        <time>2026-02-22T19:21:49Z</time>
      </trkpt>
      <trkpt lat="41.40132873955534" lon="-81.73825966948658">
        <ele>267.7635341228</ele>
        <time>2026-02-22T19:22:24Z</time>
      </trkpt>
      <trkpt lat="41.40133620413909" lon="-81.73885726434064">
        <ele>267.3633060415</ele>
        <time>2026-02-22T19:23:10Z</time>
      </trkpt>
      <trkpt lat="41.40133060728643" lon="-81.73945754543506">
        <ele>267.1796354544</ele>
        <time>2026-02-22T19:23:58Z</time>
      </trkpt>
      <trkpt lat="41.40133224548557" lon="-81.74006155005215">
        <ele>266.7757974929</ele>
        <time>2026-02-22T19:24:31Z</time>
      </trkpt>
      <trkpt lat="41.40134354094830" lon="-81.74020528702444">
        <ele>266.4923400714</ele>
        <time>2026-02-22T19:24:45Z</time>
      </trkpt>
    </trkseg>
  </trk>
</gpx>