<?xml version='1.0' encoding='UTF-8'?>
<gpx xmlns="http://www.topografix.com/GPX/1/1" creator="https://gpx.studio" version="1.1">
  <metadata>
    <name>Dog Walk - 2026-03-26 #3</name>
  </metadata>
  <trk>
    <name>Dog Walk - 2026-03-26 #3</name>
    <type>dog walk</type>
    <trkseg>
      <trkpt lat="41.40133213995994" lon="-81.74024436499428">
        <ele>266.7115660196</ele>
        <time>2026-03-26T16:52:59Z</time>
      </trkpt>
      <trkpt lat="41.40132612940170" lon="-81.74083611464562">
        <ele>266.3131634782</ele>
        <time>2026-03-26T16:53:56Z</time>
      </trkpt>
      <trkpt lat="41.40133408138039" lon="-81.74143299215952">
        <ele>265.9202205195</ele>
        <time>2026-03-26T16:54:34Z</time>
      </trkpt>
      <trkpt lat="41.40133307523229" lon="-81.74203151311386">
        <ele>265.4024459081</ele>
        <time>2026-03-26T16:55:16Z</time>
      </trkpt>
      <trkpt lat="41.40133727236125" lon="-81.74239513344457">
        <ele>264.6509204589</ele>
        <time>2026-03-26T16:55:47Z</time>
      </trkpt>
      <trkpt lat="41.40089978584965" lon="-81.74219179538782">
        <ele>265.0275585072</ele>
        <time>2026-03-26T16:56:30Z</time>
      </trkpt>
      <trkpt lat="41.40047892942184" lon="-81.74201213026387">
        <ele>265.3274443986</ele>
        <time>2026-03-26T16:57:12Z</time>
      </trkpt>
      <trkpt lat="41.40004762303076" lon="-81.74180691693839">
        <ele>265.5805526620</ele>
        <time>2026-03-26T16:57:53Z</time>
      </trkpt>
      <trkpt lat="41.39962559023694" lon="-81.74161342238624">
        <ele>264.5111450630</ele>
        <time>2026-03-26T16:58:34Z</time>
      </trkpt>
      <trkpt lat="41.39953451762142" lon="-81.74156455958006">
        <ele>264.6849702545</ele>
        <time>2026-03-26T16:58:43Z</time>
      </trkpt>
      <trkpt lat="41.39952883497253" lon="-81.74098079365704">
        <ele>265.6010333429</ele>
        <time>2026-03-26T16:59:22Z</time>
      </trkpt>
      <trkpt lat="41.39953350226199" lon="-81.74036850478542">
        <ele>266.2456880995</ele>
        <time>2026-03-26T17:00:00Z</time>
      </trkpt>
      <trkpt lat="41.39952707737434" lon="-81.73977852164906">
        <ele>266.5961418454</ele>
        <time>2026-03-26T17:00:42Z</time>
      </trkpt>
      <trkpt lat="41.39952932203121" lon="-81.73917315038713">
        <ele>266.8290441479</ele>
        <time>2026-03-26T17:01:23Z</time>
      </trkpt>
      <trkpt lat="41.39952935233430" lon="-81.73856955625176">
        <ele>266.7517008888</ele>
        <time>2026-03-26T17:02:09Z</time>
      </trkpt>
      <trkpt lat="41.39952042630097" lon="-81.73797793530953">
        <ele>267.2009049790</ele>
        <time>2026-03-26T17:02:49Z</time>
      </trkpt>
      <trkpt lat="41.39952621043078" lon="-81.73737723201107">
        <ele>267.3646482755</ele>
        <time>2026-03-26T17:03:32Z</time>
      </trkpt>
      <trkpt lat="41.39952833575551" lon="-81.73676885227229">
        <ele>267.2515378439</ele>
        <time>2026-03-26T17:04:23Z</time>
      </trkpt>
      <trkpt lat="41.39952969306635" lon="-81.73618271261664">
        <ele>267.5360124852</ele>
        <time>2026-03-26T17:05:02Z</time>
      </trkpt>
      <trkpt lat="41.39952996600621" lon="-81.73557713011499">
        <ele>267.2087223139</ele>
        <time>2026-03-26T17:05:47Z</time>
      </trkpt>
      <trkpt lat="41.39952318841021" lon="-81.73497609028942">
        <ele>267.4652960488</ele>
        <time>2026-03-26T17:06:45Z</time>
      </trkpt>
      <trkpt lat="41.39952558164092" lon="-81.73460961587702">
        <ele>267.1641700611</ele>
        <time>2026-03-26T17:07:03Z</time>
      </trkpt>
      <trkpt lat="41.39997873239962" lon="-81.73462390604742">
        <ele>266.9519570363</ele>
        <time>2026-03-26T17:07:49Z</time>
      </trkpt>
      <trkpt lat="41.40042240914531" lon="-81.73462717425765">
        <ele>267.1568747071</ele>
        <time>2026-03-26T17:08:46Z</time>
      </trkpt>
      <trkpt lat="41.40087177561001" lon="-81.73462361288497">
        <ele>267.4283721214</ele>
        <time>2026-03-26T17:09:41Z</time>
      </trkpt>
      <trkpt lat="41.40131827470741" lon="-81.73463431475908">
        <ele>267.2237743591</ele>
        <time>2026-03-26T17:10:28Z</time>
      </trkpt>
      <trkpt lat="41.40132968072759" lon="-81.73524577260501">
        <ele>267.8933534799</ele>
        <time>2026-03-26T17:11:07Z</time>
      </trkpt>
      <trkpt lat="41.40131830205554" lon="-81.73584310478084">
        <ele>268.1629318680</ele>
        <time>2026-03-26T17:11:46Z</time>
      </trkpt>
      <trkpt lat="41.40132058453379" lon="-81.73643871544265">
        <ele>268.1219380806</ele>
        <time>2026-03-26T17:12:27Z</time>
      </trkpt>
      <trkpt lat="41.40132390231219" lon="-81.73704473249855">
        <ele>267.9545402697</ele>
        <time>2026-03-26T17:12:59Z</time>
      </trkpt>
      <trkpt lat="41.40133564624465" lon="-81.73763852852566">
        <ele>268.0083919509</ele>
        <time>2026-03-26T17:13:41Z</time>
      </trkpt>
      <trkpt lat="41.40133578374532" lon="-81.73823723907051">
        <ele>267.5485772304</ele>
        <time>2026-03-26T17:14:24Z</time>
      </trkpt>
      <trkpt lat="41.40132422851394" lon="-81.73883206230192">
        <ele>267.2384948215</ele>
        <time>2026-03-26T17:15:08Z</time>
      </trkpt>
      <trkpt lat="41.40133799409610" lon="-81.73944539182206">
        <ele>267.1739025914</ele>
        <time>2026-03-26T17:15:55Z</time>
      </trkpt>
      <trkpt lat="41.40132904299364" lon="-81.74004240124015">
        <ele>266.5140641266</ele>
        <time>2026-03-26T17:16:37Z</time>
      </trkpt>
      <trkpt lat="41.40132695358249" lon="-81.74020682166955">
        <ele>266.5968885063</ele>
        <time>2026-03-26T17:16:47Z</time>
      </trkpt>
    </trkseg>
  </trk>
</gpx>