<?xml version='1.0' encoding='UTF-8'?>
<gpx xmlns="http://www.topografix.com/GPX/1/1" creator="https://gpx.studio" version="1.1">
  <metadata>
    <name>Dog Walk - 2026-02-24 #5</name>
  </metadata>
  <trk>
    <name>Dog Walk - 2026-02-24 #5</name>
    <type>dog walk</type>
    <trkseg>
      <trkpt lat="41.40133446093883" lon="-81.74025066134054">
        <ele>266.6416304958</ele>
        <time>2026-02-24T19:12:53Z</time>
      </trkpt>
      <trkpt lat="41.40133244361784" lon="-81.74025312889901">
        <ele>266.6216895414</ele>
        <time>2026-02-24T19:12:54Z</time>
      </trkpt>
      <trkpt lat="41.40133928252817" lon="-81.74085604098831">
        <ele>266.2983307533</ele>
        <time>2026-02-24T19:13:43Z</time>
      </trkpt>
      <trkpt lat="41.40133278887740" lon="-81.74144811443159">
        <ele>266.2186928709</ele>
        <time>2026-02-24T19:14:13Z</time>
      </trkpt>
      <trkpt lat="41.40132207230344" lon="-81.74205946686423">
        <ele>265.3707493600</ele>
        <time>2026-02-24T19:15:03Z</time>
      </trkpt>
      <trkpt lat="41.40132786503915" lon="-81.74236927414574">
        <ele>264.8740960469</ele>
        <time>2026-02-24T19:15:18Z</time>
      </trkpt>
      <trkpt lat="41.40132815905619" lon="-81.74237154069768">
        <ele>264.7159743123</ele>
        <time>2026-02-24T19:15:19Z</time>
      </trkpt>
      <trkpt lat="41.40090270503166" lon="-81.74219360521273">
        <ele>265.0297501307</ele>
        <time>2026-02-24T19:15:54Z</time>
      </trkpt>
      <trkpt lat="41.40047380150094" lon="-81.74199059187823">
        <ele>265.0229772751</ele>
        <time>2026-02-24T19:16:35Z</time>
      </trkpt>
      <trkpt lat="41.40005726345383" lon="-81.74180188740621">
        <ele>265.3920409911</ele>
        <time>2026-02-24T19:17:09Z</time>
      </trkpt>
      <trkpt lat="41.39962235341591" lon="-81.74160789474477">
        <ele>264.7889036930</ele>
        <time>2026-02-24T19:17:49Z</time>
      </trkpt>
      <trkpt lat="41.39955279118953" lon="-81.74156987156751">
        <ele>265.0104707543</ele>
        <time>2026-02-24T19:17:56Z</time>
      </trkpt>
      <trkpt lat="41.39953897958916" lon="-81.74098245736852">
        <ele>265.5763998563</ele>
        <time>2026-02-24T19:18:30Z</time>
      </trkpt>
      <trkpt lat="41.39953817395215" lon="-81.74037876955438">
        <ele>265.9941911404</ele>
        <time>2026-02-24T19:19:12Z</time>
      </trkpt>
      <trkpt lat="41.39953771011089" lon="-81.73977855347120">
        <ele>266.6251978930</ele>
        <time>2026-02-24T19:19:48Z</time>
      </trkpt>
      <trkpt lat="41.39954234346718" lon="-81.73916547252250">
        <ele>266.9363513982</ele>
        <time>2026-02-24T19:20:23Z</time>
      </trkpt>
      <trkpt lat="41.39952692407998" lon="-81.73857292091405">
        <ele>266.9721136002</ele>
        <time>2026-02-24T19:21:13Z</time>
      </trkpt>
      <trkpt lat="41.39953224405731" lon="-81.73829326329221">
        <ele>266.8253918988</ele>
        <time>2026-02-24T19:21:28Z</time>
      </trkpt>
      <trkpt lat="41.39954234933968" lon="-81.73829384523742">
        <ele>266.8213844045</ele>
        <time>2026-02-24T19:21:29Z</time>
      </trkpt>
      <trkpt lat="41.39997902088140" lon="-81.73830479380737">
        <ele>267.0672802983</ele>
        <time>2026-02-24T19:22:14Z</time>
      </trkpt>
      <trkpt lat="41.40042882818804" lon="-81.73829683287678">
        <ele>267.1846826628</ele>
        <time>2026-02-24T19:22:51Z</time>
      </trkpt>
      <trkpt lat="41.40088157147834" lon="-81.73830183767677">
        <ele>267.3458993931</ele>
        <time>2026-02-24T19:23:29Z</time>
      </trkpt>
      <trkpt lat="41.40132592824659" lon="-81.73830391839091">
        <ele>267.3476083095</ele>
        <time>2026-02-24T19:24:18Z</time>
      </trkpt>
      <trkpt lat="41.40133050099992" lon="-81.73889889661059">
        <ele>267.4296507389</ele>
        <time>2026-02-24T19:24:53Z</time>
      </trkpt>
      <trkpt lat="41.40133560981018" lon="-81.73949992545373">
        <ele>267.2737120575</ele>
        <time>2026-02-24T19:25:35Z</time>
      </trkpt>
      <trkpt lat="41.40134016027948" lon="-81.74010768406181">
        <ele>266.5551041987</ele>
        <time>2026-02-24T19:26:25Z</time>
      </trkpt>
      <trkpt lat="41.40134575426503" lon="-81.74015507187963">
        <ele>266.4938510193</ele>
        <time>2026-02-24T19:26:28Z</time>
      </trkpt>
    </trkseg>
  </trk>
</gpx>