<?xml version='1.0' encoding='UTF-8'?>
<gpx xmlns="http://www.topografix.com/GPX/1/1" creator="https://gpx.studio" version="1.1">
  <metadata>
    <name>Dog Walk - 2026-03-02 #1</name>
  </metadata>
  <trk>
    <name>Dog Walk - 2026-03-02 #1</name>
    <type>dog walk</type>
    <trkseg>
      <trkpt lat="41.40133228660431" lon="-81.74025307092167">
        <ele>266.4790474633</ele>
        <time>2026-03-02T07:44:19Z</time>
      </trkpt>
      <trkpt lat="41.40133781140522" lon="-81.74025915937682">
        <ele>266.3820359882</ele>
        <time>2026-03-02T07:44:20Z</time>
      </trkpt>
      <trkpt lat="41.40133342259195" lon="-81.74085877399312">
        <ele>266.6058069727</ele>
        <time>2026-03-02T07:45:00Z</time>
      </trkpt>
      <trkpt lat="41.40133326767230" lon="-81.74144639928431">
        <ele>265.8179595953</ele>
        <time>2026-03-02T07:45:32Z</time>
      </trkpt>
      <trkpt lat="41.40132821480984" lon="-81.74205438035374">
        <ele>265.2481051827</ele>
        <time>2026-03-02T07:46:00Z</time>
      </trkpt>
      <trkpt lat="41.40132911551158" lon="-81.74237125616440">
        <ele>264.5994651542</ele>
        <time>2026-03-02T07:46:29Z</time>
      </trkpt>
      <trkpt lat="41.40132566151467" lon="-81.74237972541290">
        <ele>264.7566166967</ele>
        <time>2026-03-02T07:46:30Z</time>
      </trkpt>
      <trkpt lat="41.40089409262707" lon="-81.74217804436127">
        <ele>265.3608629964</ele>
        <time>2026-03-02T07:47:04Z</time>
      </trkpt>
      <trkpt lat="41.40047304130142" lon="-81.74200321311828">
        <ele>265.2729606116</ele>
        <time>2026-03-02T07:47:41Z</time>
      </trkpt>
      <trkpt lat="41.40004784147681" lon="-81.74179594221903">
        <ele>265.4690231555</ele>
        <time>2026-03-02T07:48:23Z</time>
      </trkpt>
      <trkpt lat="41.39961498329057" lon="-81.74162211240269">
        <ele>264.6970354478</ele>
        <time>2026-03-02T07:48:59Z</time>
      </trkpt>
      <trkpt lat="41.39953814112052" lon="-81.74157847890434">
        <ele>264.9372487729</ele>
        <time>2026-03-02T07:49:05Z</time>
      </trkpt>
      <trkpt lat="41.39955340613635" lon="-81.74097043145106">
        <ele>265.8725603786</ele>
        <time>2026-03-02T07:49:55Z</time>
      </trkpt>
      <trkpt lat="41.39954017152227" lon="-81.74037183621191">
        <ele>266.2283685282</ele>
        <time>2026-03-02T07:50:30Z</time>
      </trkpt>
      <trkpt lat="41.39954240295235" lon="-81.73976735295794">
        <ele>266.4608215270</ele>
        <time>2026-03-02T07:51:28Z</time>
      </trkpt>
      <trkpt lat="41.39954096504763" lon="-81.73917097068694">
        <ele>266.7821765384</ele>
        <time>2026-03-02T07:52:11Z</time>
      </trkpt>
      <trkpt lat="41.39953823309014" lon="-81.73857173299494">
        <ele>266.8852404648</ele>
        <time>2026-03-02T07:52:45Z</time>
      </trkpt>
      <trkpt lat="41.39952757132206" lon="-81.73828457001547">
        <ele>266.8061854688</ele>
        <time>2026-03-02T07:53:04Z</time>
      </trkpt>
      <trkpt lat="41.39953712372390" lon="-81.73829799257395">
        <ele>266.8490142220</ele>
        <time>2026-03-02T07:53:05Z</time>
      </trkpt>
      <trkpt lat="41.39997754252270" lon="-81.73829337995204">
        <ele>267.1148047355</ele>
        <time>2026-03-02T07:53:42Z</time>
      </trkpt>
      <trkpt lat="41.40043864304992" lon="-81.73828992122330">
        <ele>267.1003992785</ele>
        <time>2026-03-02T07:54:27Z</time>
      </trkpt>
      <trkpt lat="41.40088842624236" lon="-81.73830049720779">
        <ele>267.5000315518</ele>
        <time>2026-03-02T07:55:00Z</time>
      </trkpt>
      <trkpt lat="41.40132626026440" lon="-81.73830381245338">
        <ele>267.5947878436</ele>
        <time>2026-03-02T07:55:40Z</time>
      </trkpt>
      <trkpt lat="41.40133006458817" lon="-81.73890553696269">
        <ele>267.5245176076</ele>
        <time>2026-03-02T07:56:18Z</time>
      </trkpt>
      <trkpt lat="41.40133444395938" lon="-81.73950264880015">
        <ele>267.2132991187</ele>
        <time>2026-03-02T07:57:08Z</time>
      </trkpt>
      <trkpt lat="41.40134300819078" lon="-81.74009770775544">
        <ele>266.4994267522</ele>
        <time>2026-03-02T07:57:42Z</time>
      </trkpt>
      <trkpt lat="41.40134923117629" lon="-81.74015143230667">
        <ele>266.7329802008</ele>
        <time>2026-03-02T07:57:46Z</time>
      </trkpt>
    </trkseg>
  </trk>
</gpx>