<?xml version='1.0' encoding='UTF-8'?>
<gpx xmlns="http://www.topografix.com/GPX/1/1" creator="https://gpx.studio" version="1.1">
  <metadata>
    <name>Dog Walk - 2026-09-09 #2</name>
  </metadata>
  <trk>
    <name>Dog Walk - 2026-09-09 #2</name>
    <type>dog walk</type>
    <trkseg>
      <trkpt lat="41.40133667030123" lon="-81.74022502485610">
        <ele>266.5205348577</ele>
        <time>2026-09-09T12:01:04Z</time>
      </trkpt>
      <trkpt lat="41.40133983467912" lon="-81.74083139142951">
        <ele>266.3102813967</ele>
        <time>2026-09-09T12:01:44Z</time>
      </trkpt>
      <trkpt lat="41.40134263051019" lon="-81.74142904346873">
        <ele>265.8876451019</ele>
        <time>2026-09-09T12:02:23Z</time>
      </trkpt>
      <trkpt lat="41.40134870253638" lon="-81.74203044326528">
        <ele>265.4043391865</ele>
        <time>2026-09-09T12:03:02Z</time>
      </trkpt>
      <trkpt lat="41.40134965853706" lon="-81.74241061942293">
        <ele>264.5868346977</ele>
        <time>2026-09-09T12:03:24Z</time>
      </trkpt>
      <trkpt lat="41.40176666843317" lon="-81.74262220236399">
        <ele>264.3067257811</ele>
        <time>2026-09-09T12:04:11Z</time>
      </trkpt>
      <trkpt lat="41.40219852302327" lon="-81.74283732785868">
        <ele>263.4641721928</ele>
        <time>2026-09-09T12:04:52Z</time>
      </trkpt>
      <trkpt lat="41.40261072046782" lon="-81.74305200985346">
        <ele>263.0973675579</ele>
        <time>2026-09-09T12:05:34Z</time>
      </trkpt>
      <trkpt lat="41.40303218782010" lon="-81.74326667318554">
        <ele>262.3912780430</ele>
        <time>2026-09-09T12:06:22Z</time>
      </trkpt>
      <trkpt lat="41.40345102841197" lon="-81.74348109981817">
        <ele>261.7916189939</ele>
        <time>2026-09-09T12:06:59Z</time>
      </trkpt>
      <trkpt lat="41.40349025338767" lon="-81.74349688303860">
        <ele>261.9427582207</ele>
        <time>2026-09-09T12:07:04Z</time>
      </trkpt>
      <trkpt lat="41.40359319373197" lon="-81.74352263978497">
        <ele>261.7222910690</ele>
        <time>2026-09-09T12:07:11Z</time>
      </trkpt>
      <trkpt lat="41.40399848988307" lon="-81.74351082664694">
        <ele>260.7455548241</ele>
        <time>2026-09-09T12:07:42Z</time>
      </trkpt>
      <trkpt lat="41.40399327673294" lon="-81.74290595334375">
        <ele>261.6170624086</ele>
        <time>2026-09-09T12:08:15Z</time>
      </trkpt>
      <trkpt lat="41.40399324557700" lon="-81.74230793236835">
        <ele>262.1250875537</ele>
        <time>2026-09-09T12:08:51Z</time>
      </trkpt>
      <trkpt lat="41.40399188233459" lon="-81.74172117453321">
        <ele>262.3662331707</ele>
        <time>2026-09-09T12:09:19Z</time>
      </trkpt>
      <trkpt lat="41.40399253508767" lon="-81.74110892274429">
        <ele>262.8182451605</ele>
        <time>2026-09-09T12:10:04Z</time>
      </trkpt>
      <trkpt lat="41.40398097171613" lon="-81.74051230780005">
        <ele>263.6082304886</ele>
        <time>2026-09-09T12:10:45Z</time>
      </trkpt>
      <trkpt lat="41.40399489563008" lon="-81.73991383167058">
        <ele>264.3684199827</ele>
        <time>2026-09-09T12:11:23Z</time>
      </trkpt>
      <trkpt lat="41.40398566426379" lon="-81.73931040317240">
        <ele>264.9001408390</ele>
        <time>2026-09-09T12:12:10Z</time>
      </trkpt>
      <trkpt lat="41.40398752233449" lon="-81.73877061941376">
        <ele>265.2245555551</ele>
        <time>2026-09-09T12:12:43Z</time>
      </trkpt>
      <trkpt lat="41.40353854659924" lon="-81.73877345849689">
        <ele>265.9108182528</ele>
        <time>2026-09-09T12:13:23Z</time>
      </trkpt>
      <trkpt lat="41.40308914288839" lon="-81.73877689112091">
        <ele>266.0798336953</ele>
        <time>2026-09-09T12:14:21Z</time>
      </trkpt>
      <trkpt lat="41.40263567421474" lon="-81.73877824917351">
        <ele>266.5781787377</ele>
        <time>2026-09-09T12:14:55Z</time>
      </trkpt>
      <trkpt lat="41.40223140934263" lon="-81.73878126866242">
        <ele>266.8297620377</ele>
        <time>2026-09-09T12:15:29Z</time>
      </trkpt>
      <trkpt lat="41.40221885738855" lon="-81.73828280490208">
        <ele>267.1486627805</ele>
        <time>2026-09-09T12:16:12Z</time>
      </trkpt>
      <trkpt lat="41.40175708425937" lon="-81.73826429568211">
        <ele>267.6566566849</ele>
        <time>2026-09-09T12:16:53Z</time>
      </trkpt>
      <trkpt lat="41.40132767489657" lon="-81.73825312789272">
        <ele>267.3675287845</ele>
        <time>2026-09-09T12:17:41Z</time>
      </trkpt>
      <trkpt lat="41.40132672144519" lon="-81.73887170086910">
        <ele>267.4277219143</ele>
        <time>2026-09-09T12:18:17Z</time>
      </trkpt>
      <trkpt lat="41.40133971318996" lon="-81.73946873101136">
        <ele>267.3590189454</ele>
        <time>2026-09-09T12:18:56Z</time>
      </trkpt>
      <trkpt lat="41.40133752532851" lon="-81.74006120204356">
        <ele>266.6711450388</ele>
        <time>2026-09-09T12:20:11Z</time>
      </trkpt>
      <trkpt lat="41.40133759457076" lon="-81.74021831955115">
        <ele>266.4176483259</ele>
        <time>2026-09-09T12:20:20Z</time>
      </trkpt>
    </trkseg>
  </trk>
</gpx>