<?xml version='1.0' encoding='UTF-8'?>
<gpx xmlns="http://www.topografix.com/GPX/1/1" creator="https://gpx.studio" version="1.1">
  <metadata>
    <name>Dog Walk - 2026-03-21 #4</name>
  </metadata>
  <trk>
    <name>Dog Walk - 2026-03-21 #4</name>
    <type>dog walk</type>
    <trkseg>
      <trkpt lat="41.40133069082604" lon="-81.74024936017658">
        <ele>266.6015340529</ele>
        <time>2026-03-21T16:59:09Z</time>
      </trkpt>
      <trkpt lat="41.40133599950686" lon="-81.74025636352296">
        <ele>266.5756048744</ele>
        <time>2026-03-21T16:59:10Z</time>
      </trkpt>
      <trkpt lat="41.40132681707733" lon="-81.74085899300890">
        <ele>266.3659504770</ele>
        <time>2026-03-21T16:59:44Z</time>
      </trkpt>
      <trkpt lat="41.40132900007568" lon="-81.74146988988346">
        <ele>265.7179853045</ele>
        <time>2026-03-21T17:00:23Z</time>
      </trkpt>
      <trkpt lat="41.40132961647772" lon="-81.74204728270485">
        <ele>265.4708130989</ele>
        <time>2026-03-21T17:01:06Z</time>
      </trkpt>
      <trkpt lat="41.40132201782498" lon="-81.74236693552449">
        <ele>264.6762657242</ele>
        <time>2026-03-21T17:01:24Z</time>
      </trkpt>
      <trkpt lat="41.40133179151408" lon="-81.74237921740689">
        <ele>264.6187508656</ele>
        <time>2026-03-21T17:01:36Z</time>
      </trkpt>
      <trkpt lat="41.40089171040918" lon="-81.74218569699055">
        <ele>265.2422545643</ele>
        <time>2026-03-21T17:02:19Z</time>
      </trkpt>
      <trkpt lat="41.40048127318084" lon="-81.74199313859293">
        <ele>265.3506581121</ele>
        <time>2026-03-21T17:02:54Z</time>
      </trkpt>
      <trkpt lat="41.40005031916729" lon="-81.74178314558813">
        <ele>265.3096395844</ele>
        <time>2026-03-21T17:03:39Z</time>
      </trkpt>
      <trkpt lat="41.39961468738392" lon="-81.74160284513751">
        <ele>264.8548524184</ele>
        <time>2026-03-21T17:04:22Z</time>
      </trkpt>
      <trkpt lat="41.39954924056426" lon="-81.74157365797060">
        <ele>264.9796130650</ele>
        <time>2026-03-21T17:04:40Z</time>
      </trkpt>
      <trkpt lat="41.39953454759871" lon="-81.74096957340588">
        <ele>265.7298023980</ele>
        <time>2026-03-21T17:05:15Z</time>
      </trkpt>
      <trkpt lat="41.39953575945542" lon="-81.74036834183471">
        <ele>266.1624064345</ele>
        <time>2026-03-21T17:05:53Z</time>
      </trkpt>
      <trkpt lat="41.39953443145928" lon="-81.73976511333535">
        <ele>266.7087247925</ele>
        <time>2026-03-21T17:06:43Z</time>
      </trkpt>
      <trkpt lat="41.39953432050252" lon="-81.73917563534069">
        <ele>267.0687378757</ele>
        <time>2026-03-21T17:07:19Z</time>
      </trkpt>
      <trkpt lat="41.39953431862638" lon="-81.73857597678840">
        <ele>267.1490547492</ele>
        <time>2026-03-21T17:07:53Z</time>
      </trkpt>
      <trkpt lat="41.39952979313484" lon="-81.73829696504910">
        <ele>266.9733285917</ele>
        <time>2026-03-21T17:08:12Z</time>
      </trkpt>
      <trkpt lat="41.39953302020140" lon="-81.73829404775113">
        <ele>266.9275459529</ele>
        <time>2026-03-21T17:08:13Z</time>
      </trkpt>
      <trkpt lat="41.39998414364995" lon="-81.73828032142943">
        <ele>267.1223316142</ele>
        <time>2026-03-21T17:09:02Z</time>
      </trkpt>
      <trkpt lat="41.40043772655647" lon="-81.73829010451061">
        <ele>267.2823873798</ele>
        <time>2026-03-21T17:09:44Z</time>
      </trkpt>
      <trkpt lat="41.40088875632127" lon="-81.73830243319848">
        <ele>267.4509435404</ele>
        <time>2026-03-21T17:10:24Z</time>
      </trkpt>
      <trkpt lat="41.40132471869351" lon="-81.73830012708777">
        <ele>267.5522594452</ele>
        <time>2026-03-21T17:11:32Z</time>
      </trkpt>
      <trkpt lat="41.40133690733055" lon="-81.73890437290969">
        <ele>267.4094983481</ele>
        <time>2026-03-21T17:12:20Z</time>
      </trkpt>
      <trkpt lat="41.40132808676508" lon="-81.73950809638953">
        <ele>267.3249501073</ele>
        <time>2026-03-21T17:13:01Z</time>
      </trkpt>
      <trkpt lat="41.40134023127628" lon="-81.74008524695087">
        <ele>266.5984193020</ele>
        <time>2026-03-21T17:13:41Z</time>
      </trkpt>
      <trkpt lat="41.40134688738796" lon="-81.74015419308144">
        <ele>266.7335514092</ele>
        <time>2026-03-21T17:13:44Z</time>
      </trkpt>
    </trkseg>
  </trk>
</gpx>