<?xml version='1.0' encoding='UTF-8'?>
<gpx xmlns="http://www.topografix.com/GPX/1/1" creator="https://gpx.studio" version="1.1">
  <metadata>
    <name>Dog Walk - 2026-06-24 #3</name>
  </metadata>
  <trk>
    <name>Dog Walk - 2026-06-24 #3</name>
    <type>dog walk</type>
    <trkseg>
      <trkpt lat="41.40134298664598" lon="-81.74023364625376">
        <ele>266.4750130720</ele>
        <time>2026-06-24T19:00:37Z</time>
      </trkpt>
      <trkpt lat="41.40133524065103" lon="-81.74083272576208">
        <ele>266.0193704820</ele>
        <time>2026-06-24T19:01:12Z</time>
      </trkpt>
      <trkpt lat="41.40133717907072" lon="-81.74143807684979">
        <ele>265.6230143280</ele>
        <time>2026-06-24T19:01:54Z</time>
      </trkpt>
      <trkpt lat="41.40135295626073" lon="-81.74203032155917">
        <ele>265.3488777352</ele>
        <time>2026-06-24T19:02:29Z</time>
      </trkpt>
      <trkpt lat="41.40134683097839" lon="-81.74242809030815">
        <ele>264.6314635603</ele>
        <time>2026-06-24T19:02:59Z</time>
      </trkpt>
      <trkpt lat="41.40176365170730" lon="-81.74263317396698">
        <ele>264.2670938572</ele>
        <time>2026-06-24T19:03:37Z</time>
      </trkpt>
      <trkpt lat="41.40218688342429" lon="-81.74285337051795">
        <ele>263.4835813576</ele>
        <time>2026-06-24T19:04:17Z</time>
      </trkpt>
      <trkpt lat="41.40221826473228" lon="-81.74286195814879">
        <ele>263.1708620322</ele>
        <time>2026-06-24T19:04:20Z</time>
      </trkpt>
      <trkpt lat="41.40221268323771" lon="-81.74226410880810">
        <ele>264.3102003502</ele>
        <time>2026-06-24T19:04:55Z</time>
      </trkpt>
      <trkpt lat="41.40222121178437" lon="-81.74166766847996">
        <ele>264.8177767418</ele>
        <time>2026-06-24T19:05:30Z</time>
      </trkpt>
      <trkpt lat="41.40221508919774" lon="-81.74106850593971">
        <ele>265.5501708442</ele>
        <time>2026-06-24T19:06:10Z</time>
      </trkpt>
      <trkpt lat="41.40221962981376" lon="-81.74047030505703">
        <ele>266.2936441402</ele>
        <time>2026-06-24T19:07:03Z</time>
      </trkpt>
      <trkpt lat="41.40222433684448" lon="-81.73986276965978">
        <ele>266.7343012106</ele>
        <time>2026-06-24T19:07:35Z</time>
      </trkpt>
      <trkpt lat="41.40222861006053" lon="-81.73926417940518">
        <ele>266.9008434298</ele>
        <time>2026-06-24T19:08:16Z</time>
      </trkpt>
      <trkpt lat="41.40221975601516" lon="-81.73866262667340">
        <ele>267.2619987070</ele>
        <time>2026-06-24T19:08:55Z</time>
      </trkpt>
      <trkpt lat="41.40222229843489" lon="-81.73826275102844">
        <ele>267.1098967128</ele>
        <time>2026-06-24T19:09:32Z</time>
      </trkpt>
      <trkpt lat="41.40176712593468" lon="-81.73825980660666">
        <ele>267.8130819057</ele>
        <time>2026-06-24T19:10:15Z</time>
      </trkpt>
      <trkpt lat="41.40133425351419" lon="-81.73826169571012">
        <ele>267.4253784562</ele>
        <time>2026-06-24T19:10:47Z</time>
      </trkpt>
      <trkpt lat="41.40134094186359" lon="-81.73884840720071">
        <ele>267.4630782994</ele>
        <time>2026-06-24T19:11:23Z</time>
      </trkpt>
      <trkpt lat="41.40134248306158" lon="-81.73946511793712">
        <ele>267.1775748118</ele>
        <time>2026-06-24T19:11:58Z</time>
      </trkpt>
      <trkpt lat="41.40133383532508" lon="-81.74005926428886">
        <ele>266.6686903176</ele>
        <time>2026-06-24T19:12:39Z</time>
      </trkpt>
      <trkpt lat="41.40133291671400" lon="-81.74019052840053">
        <ele>266.4429032186</ele>
        <time>2026-06-24T19:12:47Z</time>
      </trkpt>
    </trkseg>
  </trk>
</gpx>