<?xml version='1.0' encoding='UTF-8'?>
<gpx xmlns="http://www.topografix.com/GPX/1/1" creator="https://gpx.studio" version="1.1">
  <metadata>
    <name>Dog Walk - 2026-09-17 #3</name>
  </metadata>
  <trk>
    <name>Dog Walk - 2026-09-17 #3</name>
    <type>dog walk</type>
    <trkseg>
      <trkpt lat="41.40134560937305" lon="-81.74023269537365">
        <ele>266.4402328000</ele>
        <time>2026-09-17T19:46:43Z</time>
      </trkpt>
      <trkpt lat="41.40133244518803" lon="-81.74083105052675">
        <ele>266.2290189334</ele>
        <time>2026-09-17T19:47:17Z</time>
      </trkpt>
      <trkpt lat="41.40133927362504" lon="-81.74142155724495">
        <ele>265.8719543976</ele>
        <time>2026-09-17T19:47:58Z</time>
      </trkpt>
      <trkpt lat="41.40133640326847" lon="-81.74203129983444">
        <ele>265.2823177474</ele>
        <time>2026-09-17T19:48:33Z</time>
      </trkpt>
      <trkpt lat="41.40133417833724" lon="-81.74238994189592">
        <ele>265.0725044880</ele>
        <time>2026-09-17T19:49:02Z</time>
      </trkpt>
      <trkpt lat="41.40090816141050" lon="-81.74217675525229">
        <ele>265.5156495549</ele>
        <time>2026-09-17T19:49:51Z</time>
      </trkpt>
      <trkpt lat="41.40049850475091" lon="-81.74197151481677">
        <ele>265.2557865933</ele>
        <time>2026-09-17T19:50:25Z</time>
      </trkpt>
      <trkpt lat="41.40044611770906" lon="-81.74194760440072">
        <ele>265.2227063791</ele>
        <time>2026-09-17T19:50:50Z</time>
      </trkpt>
      <trkpt lat="41.40044986756161" lon="-81.74135577674141">
        <ele>266.1831801138</ele>
        <time>2026-09-17T19:51:39Z</time>
      </trkpt>
      <trkpt lat="41.40044098168907" lon="-81.74075487441290">
        <ele>266.3822520829</ele>
        <time>2026-09-17T19:52:16Z</time>
      </trkpt>
      <trkpt lat="41.40043312317945" lon="-81.74015052123416">
        <ele>266.7529519441</ele>
        <time>2026-09-17T19:52:55Z</time>
      </trkpt>
      <trkpt lat="41.40043178465800" lon="-81.73955106662090">
        <ele>267.0415534196</ele>
        <time>2026-09-17T19:53:33Z</time>
      </trkpt>
      <trkpt lat="41.40042408040633" lon="-81.73895834074150">
        <ele>266.8020369304</ele>
        <time>2026-09-17T19:54:16Z</time>
      </trkpt>
      <trkpt lat="41.40041408148622" lon="-81.73835184555361">
        <ele>267.0944942354</ele>
        <time>2026-09-17T19:55:09Z</time>
      </trkpt>
      <trkpt lat="41.40041866270205" lon="-81.73774879947193">
        <ele>267.5254240734</ele>
        <time>2026-09-17T19:56:04Z</time>
      </trkpt>
      <trkpt lat="41.40041143427434" lon="-81.73715750966583">
        <ele>267.9395644015</ele>
        <time>2026-09-17T19:56:45Z</time>
      </trkpt>
      <trkpt lat="41.40041388022625" lon="-81.73656435778689">
        <ele>267.8847144224</ele>
        <time>2026-09-17T19:57:25Z</time>
      </trkpt>
      <trkpt lat="41.40040166364540" lon="-81.73594983446823">
        <ele>267.9743233137</ele>
        <time>2026-09-17T19:58:10Z</time>
      </trkpt>
      <trkpt lat="41.40040270155437" lon="-81.73534667675200">
        <ele>267.9344009629</ele>
        <time>2026-09-17T19:58:42Z</time>
      </trkpt>
      <trkpt lat="41.40039772256139" lon="-81.73475610695859">
        <ele>267.5360252285</ele>
        <time>2026-09-17T19:59:36Z</time>
      </trkpt>
      <trkpt lat="41.40039789065844" lon="-81.73462000797004">
        <ele>267.3404241301</ele>
        <time>2026-09-17T19:59:46Z</time>
      </trkpt>
      <trkpt lat="41.40084669363282" lon="-81.73462385051485">
        <ele>267.3785396938</ele>
        <time>2026-09-17T20:00:32Z</time>
      </trkpt>
      <trkpt lat="41.40129191734435" lon="-81.73463930522863">
        <ele>267.4676506030</ele>
        <time>2026-09-17T20:01:14Z</time>
      </trkpt>
      <trkpt lat="41.40131699642178" lon="-81.73462598629951">
        <ele>267.2569935153</ele>
        <time>2026-09-17T20:01:16Z</time>
      </trkpt>
      <trkpt lat="41.40132041374873" lon="-81.73522861255989">
        <ele>267.8447529005</ele>
        <time>2026-09-17T20:02:07Z</time>
      </trkpt>
      <trkpt lat="41.40132478233281" lon="-81.73583358958531">
        <ele>268.3757966011</ele>
        <time>2026-09-17T20:03:04Z</time>
      </trkpt>
      <trkpt lat="41.40132983333547" lon="-81.73642324719637">
        <ele>268.4698528478</ele>
        <time>2026-09-17T20:03:42Z</time>
      </trkpt>
      <trkpt lat="41.40133286317688" lon="-81.73703242562847">
        <ele>267.8129745885</ele>
        <time>2026-09-17T20:04:28Z</time>
      </trkpt>
      <trkpt lat="41.40133396172914" lon="-81.73762223084823">
        <ele>267.8767649253</ele>
        <time>2026-09-17T20:05:04Z</time>
      </trkpt>
      <trkpt lat="41.40133562217498" lon="-81.73822758570519">
        <ele>267.6564817407</ele>
        <time>2026-09-17T20:05:48Z</time>
      </trkpt>
      <trkpt lat="41.40134279105916" lon="-81.73883035551756">
        <ele>267.3171640359</ele>
        <time>2026-09-17T20:06:45Z</time>
      </trkpt>
      <trkpt lat="41.40134706511136" lon="-81.73942096488672">
        <ele>267.1063141257</ele>
        <time>2026-09-17T20:07:21Z</time>
      </trkpt>
      <trkpt lat="41.40133884382965" lon="-81.74002763785911">
        <ele>266.4909772611</ele>
        <time>2026-09-17T20:08:01Z</time>
      </trkpt>
      <trkpt lat="41.40134166367623" lon="-81.74019368881279">
        <ele>266.5827238694</ele>
        <time>2026-09-17T20:08:13Z</time>
      </trkpt>
    </trkseg>
  </trk>
</gpx>