<?xml version='1.0' encoding='UTF-8'?>
<gpx xmlns="http://www.topografix.com/GPX/1/1" creator="https://gpx.studio" version="1.1">
  <metadata>
    <name>Dog Walk - 2026-08-14 #1</name>
  </metadata>
  <trk>
    <name>Dog Walk - 2026-08-14 #1</name>
    <type>dog walk</type>
    <trkseg>
      <trkpt lat="41.40134164292783" lon="-81.74023687070203">
        <ele>266.6183320321</ele>
        <time>2026-08-14T08:03:57Z</time>
      </trkpt>
      <trkpt lat="41.40134031753684" lon="-81.74083108206638">
        <ele>266.0954830653</ele>
        <time>2026-08-14T08:04:28Z</time>
      </trkpt>
      <trkpt lat="41.40133657600808" lon="-81.74142656455037">
        <ele>265.9897005056</ele>
        <time>2026-08-14T08:05:36Z</time>
      </trkpt>
      <trkpt lat="41.40132842392700" lon="-81.74202669496984">
        <ele>265.4457954003</ele>
        <time>2026-08-14T08:06:20Z</time>
      </trkpt>
      <trkpt lat="41.40132816874335" lon="-81.74239264382523">
        <ele>264.8920826698</ele>
        <time>2026-08-14T08:06:44Z</time>
      </trkpt>
      <trkpt lat="41.40090459962776" lon="-81.74217436141554">
        <ele>265.4319306911</ele>
        <time>2026-08-14T08:07:21Z</time>
      </trkpt>
      <trkpt lat="41.40048164167455" lon="-81.74197322185906">
        <ele>265.2369190592</ele>
        <time>2026-08-14T08:07:58Z</time>
      </trkpt>
      <trkpt lat="41.40044823665679" lon="-81.74194886793437">
        <ele>265.1511599349</ele>
        <time>2026-08-14T08:08:01Z</time>
      </trkpt>
      <trkpt lat="41.40044261407957" lon="-81.74134473811162">
        <ele>266.0893985555</ele>
        <time>2026-08-14T08:08:40Z</time>
      </trkpt>
      <trkpt lat="41.40044153614026" lon="-81.74074849521838">
        <ele>266.2444723135</ele>
        <time>2026-08-14T08:09:18Z</time>
      </trkpt>
      <trkpt lat="41.40044178280431" lon="-81.74015668406305">
        <ele>266.6561063843</ele>
        <time>2026-08-14T08:09:54Z</time>
      </trkpt>
      <trkpt lat="41.40043485365867" lon="-81.73955178531718">
        <ele>266.8168442476</ele>
        <time>2026-08-14T08:10:29Z</time>
      </trkpt>
      <trkpt lat="41.40043283597734" lon="-81.73894403782921">
        <ele>266.9978100073</ele>
        <time>2026-08-14T08:11:06Z</time>
      </trkpt>
      <trkpt lat="41.40042794949749" lon="-81.73834852976361">
        <ele>267.1570632281</ele>
        <time>2026-08-14T08:11:42Z</time>
      </trkpt>
      <trkpt lat="41.40041260684950" lon="-81.73775988176264">
        <ele>267.5635457592</ele>
        <time>2026-08-14T08:12:19Z</time>
      </trkpt>
      <trkpt lat="41.40041322380805" lon="-81.73715308267843">
        <ele>267.9196602916</ele>
        <time>2026-08-14T08:12:55Z</time>
      </trkpt>
      <trkpt lat="41.40041052059780" lon="-81.73654786415248">
        <ele>268.1400076581</ele>
        <time>2026-08-14T08:13:31Z</time>
      </trkpt>
      <trkpt lat="41.40040703606523" lon="-81.73595224448300">
        <ele>267.8449124185</ele>
        <time>2026-08-14T08:14:18Z</time>
      </trkpt>
      <trkpt lat="41.40039765250558" lon="-81.73535774905713">
        <ele>267.6462370456</ele>
        <time>2026-08-14T08:15:04Z</time>
      </trkpt>
      <trkpt lat="41.40039312701715" lon="-81.73475217300100">
        <ele>267.4822622307</ele>
        <time>2026-08-14T08:15:39Z</time>
      </trkpt>
      <trkpt lat="41.40040146714261" lon="-81.73463086187516">
        <ele>267.1417339543</ele>
        <time>2026-08-14T08:15:47Z</time>
      </trkpt>
      <trkpt lat="41.40083942917305" lon="-81.73463956237507">
        <ele>267.4692283969</ele>
        <time>2026-08-14T08:16:21Z</time>
      </trkpt>
      <trkpt lat="41.40129251004472" lon="-81.73463071873722">
        <ele>267.3865552186</ele>
        <time>2026-08-14T08:17:00Z</time>
      </trkpt>
      <trkpt lat="41.40131586280241" lon="-81.73461927732014">
        <ele>267.3842475858</ele>
        <time>2026-08-14T08:17:02Z</time>
      </trkpt>
      <trkpt lat="41.40131742186391" lon="-81.73523900547072">
        <ele>267.8987258049</ele>
        <time>2026-08-14T08:17:37Z</time>
      </trkpt>
      <trkpt lat="41.40132891623930" lon="-81.73583601407853">
        <ele>268.1928608469</ele>
        <time>2026-08-14T08:18:24Z</time>
      </trkpt>
      <trkpt lat="41.40133382697419" lon="-81.73643464659102">
        <ele>268.1512526072</ele>
        <time>2026-08-14T08:19:12Z</time>
      </trkpt>
      <trkpt lat="41.40133014458976" lon="-81.73702852555613">
        <ele>267.8965699146</ele>
        <time>2026-08-14T08:20:06Z</time>
      </trkpt>
      <trkpt lat="41.40133417454935" lon="-81.73762983654433">
        <ele>267.9531287535</ele>
        <time>2026-08-14T08:20:49Z</time>
      </trkpt>
      <trkpt lat="41.40133500782747" lon="-81.73822610690551">
        <ele>267.3845568530</ele>
        <time>2026-08-14T08:21:28Z</time>
      </trkpt>
      <trkpt lat="41.40133576655945" lon="-81.73882751834020">
        <ele>267.3395096516</ele>
        <time>2026-08-14T08:22:18Z</time>
      </trkpt>
      <trkpt lat="41.40133774411706" lon="-81.73943794329230">
        <ele>267.3191890939</ele>
        <time>2026-08-14T08:22:58Z</time>
      </trkpt>
      <trkpt lat="41.40134251820695" lon="-81.74003003949780">
        <ele>266.5710241184</ele>
        <time>2026-08-14T08:23:33Z</time>
      </trkpt>
      <trkpt lat="41.40134113515424" lon="-81.74019289823242">
        <ele>266.5546398616</ele>
        <time>2026-08-14T08:23:43Z</time>
      </trkpt>
    </trkseg>
  </trk>
</gpx>