<?xml version='1.0' encoding='UTF-8'?>
<gpx xmlns="http://www.topografix.com/GPX/1/1" creator="https://gpx.studio" version="1.1">
  <metadata>
    <name>Dog Walk - 2026-08-03 #3</name>
  </metadata>
  <trk>
    <name>Dog Walk - 2026-08-03 #3</name>
    <type>dog walk</type>
    <trkseg>
      <trkpt lat="41.40134144070341" lon="-81.74023396697970">
        <ele>266.5852305908</ele>
        <time>2026-08-03T13:54:39Z</time>
      </trkpt>
      <trkpt lat="41.40133937306703" lon="-81.74083958904774">
        <ele>266.1980944933</ele>
        <time>2026-08-03T13:55:12Z</time>
      </trkpt>
      <trkpt lat="41.40134026998071" lon="-81.74144305402454">
        <ele>265.8933297314</ele>
        <time>2026-08-03T13:55:48Z</time>
      </trkpt>
      <trkpt lat="41.40135187822514" lon="-81.74204050979958">
        <ele>265.2113881275</ele>
        <time>2026-08-03T13:56:27Z</time>
      </trkpt>
      <trkpt lat="41.40134350409719" lon="-81.74242136884644">
        <ele>264.6943142770</ele>
        <time>2026-08-03T13:56:53Z</time>
      </trkpt>
      <trkpt lat="41.40176486224731" lon="-81.74263690015630">
        <ele>264.3952839196</ele>
        <time>2026-08-03T13:57:38Z</time>
      </trkpt>
      <trkpt lat="41.40218751008035" lon="-81.74285201448295">
        <ele>263.5855461149</ele>
        <time>2026-08-03T13:58:17Z</time>
      </trkpt>
      <trkpt lat="41.40221656190310" lon="-81.74286425640942">
        <ele>263.4531991345</ele>
        <time>2026-08-03T13:58:19Z</time>
      </trkpt>
      <trkpt lat="41.40221552504196" lon="-81.74226279090635">
        <ele>264.2901438734</ele>
        <time>2026-08-03T13:59:07Z</time>
      </trkpt>
      <trkpt lat="41.40221492295753" lon="-81.74166629134083">
        <ele>264.7643613229</ele>
        <time>2026-08-03T13:59:35Z</time>
      </trkpt>
      <trkpt lat="41.40221911749052" lon="-81.74106596170837">
        <ele>265.6634550226</ele>
        <time>2026-08-03T14:00:10Z</time>
      </trkpt>
      <trkpt lat="41.40221921868419" lon="-81.74047197591912">
        <ele>266.0264718773</ele>
        <time>2026-08-03T14:00:49Z</time>
      </trkpt>
      <trkpt lat="41.40222627733964" lon="-81.73986743117749">
        <ele>266.5663667435</ele>
        <time>2026-08-03T14:01:29Z</time>
      </trkpt>
      <trkpt lat="41.40221855607459" lon="-81.73926856438564">
        <ele>267.0544756993</ele>
        <time>2026-08-03T14:02:14Z</time>
      </trkpt>
      <trkpt lat="41.40221948697916" lon="-81.73866946826261">
        <ele>267.2412824037</ele>
        <time>2026-08-03T14:02:48Z</time>
      </trkpt>
      <trkpt lat="41.40220949223210" lon="-81.73826702873055">
        <ele>266.9469342356</ele>
        <time>2026-08-03T14:03:15Z</time>
      </trkpt>
      <trkpt lat="41.40176447395372" lon="-81.73827300660827">
        <ele>267.7919924394</ele>
        <time>2026-08-03T14:03:50Z</time>
      </trkpt>
      <trkpt lat="41.40133306047885" lon="-81.73826429026883">
        <ele>267.6182015303</ele>
        <time>2026-08-03T14:04:25Z</time>
      </trkpt>
      <trkpt lat="41.40134601059963" lon="-81.73886420434476">
        <ele>267.2344004821</ele>
        <time>2026-08-03T14:05:00Z</time>
      </trkpt>
      <trkpt lat="41.40134066046281" lon="-81.73945415116000">
        <ele>267.0275667793</ele>
        <time>2026-08-03T14:05:41Z</time>
      </trkpt>
      <trkpt lat="41.40134561509614" lon="-81.74005842087374">
        <ele>266.6434824586</ele>
        <time>2026-08-03T14:06:22Z</time>
      </trkpt>
      <trkpt lat="41.40134309879740" lon="-81.74017790234751">
        <ele>266.7675268956</ele>
        <time>2026-08-03T14:06:28Z</time>
      </trkpt>
    </trkseg>
  </trk>
</gpx>