<?xml version='1.0' encoding='UTF-8'?>
<gpx xmlns="http://www.topografix.com/GPX/1/1" creator="https://gpx.studio" version="1.1">
  <metadata>
    <name>Dog Walk - 2026-06-22 #2</name>
  </metadata>
  <trk>
    <name>Dog Walk - 2026-06-22 #2</name>
    <type>dog walk</type>
    <trkseg>
      <trkpt lat="41.40134100811968" lon="-81.74023051499304">
        <ele>266.4563616601</ele>
        <time>2026-06-22T10:29:45Z</time>
      </trkpt>
      <trkpt lat="41.40132938314943" lon="-81.74082950174117">
        <ele>266.1647225094</ele>
        <time>2026-06-22T10:30:19Z</time>
      </trkpt>
      <trkpt lat="41.40133027857983" lon="-81.74144037187274">
        <ele>265.8295068623</ele>
        <time>2026-06-22T10:30:51Z</time>
      </trkpt>
      <trkpt lat="41.40134198190593" lon="-81.74202282899175">
        <ele>265.2918893182</ele>
        <time>2026-06-22T10:31:33Z</time>
      </trkpt>
      <trkpt lat="41.40132899815568" lon="-81.74239755364955">
        <ele>264.7707607500</ele>
        <time>2026-06-22T10:32:17Z</time>
      </trkpt>
      <trkpt lat="41.40091013423051" lon="-81.74220259129382">
        <ele>265.1003750145</ele>
        <time>2026-06-22T10:33:02Z</time>
      </trkpt>
      <trkpt lat="41.40047978505554" lon="-81.74199751665073">
        <ele>265.1021347260</ele>
        <time>2026-06-22T10:33:38Z</time>
      </trkpt>
      <trkpt lat="41.40004532022253" lon="-81.74181117647939">
        <ele>265.4377785565</ele>
        <time>2026-06-22T10:34:24Z</time>
      </trkpt>
      <trkpt lat="41.39962726906059" lon="-81.74161936491485">
        <ele>264.6177717768</ele>
        <time>2026-06-22T10:34:58Z</time>
      </trkpt>
      <trkpt lat="41.39953881548571" lon="-81.74156881816259">
        <ele>264.8369234446</ele>
        <time>2026-06-22T10:35:06Z</time>
      </trkpt>
      <trkpt lat="41.39953240237251" lon="-81.74095845746788">
        <ele>265.7300512007</ele>
        <time>2026-06-22T10:35:44Z</time>
      </trkpt>
      <trkpt lat="41.39954070710948" lon="-81.74038364289711">
        <ele>266.2008467047</ele>
        <time>2026-06-22T10:36:23Z</time>
      </trkpt>
      <trkpt lat="41.39952527916189" lon="-81.73976876073699">
        <ele>266.5810415426</ele>
        <time>2026-06-22T10:36:57Z</time>
      </trkpt>
      <trkpt lat="41.39953181878762" lon="-81.73917432298228">
        <ele>266.7244464050</ele>
        <time>2026-06-22T10:37:37Z</time>
      </trkpt>
      <trkpt lat="41.39952904643344" lon="-81.73858895398448">
        <ele>267.0280484559</ele>
        <time>2026-06-22T10:38:11Z</time>
      </trkpt>
      <trkpt lat="41.39952716533669" lon="-81.73797105535415">
        <ele>267.0442693148</ele>
        <time>2026-06-22T10:38:52Z</time>
      </trkpt>
      <trkpt lat="41.39952813437057" lon="-81.73737673232898">
        <ele>267.3427497611</ele>
        <time>2026-06-22T10:39:24Z</time>
      </trkpt>
      <trkpt lat="41.39953417733564" lon="-81.73677887035801">
        <ele>267.3318431502</ele>
        <time>2026-06-22T10:40:02Z</time>
      </trkpt>
      <trkpt lat="41.39953209268509" lon="-81.73618148733715">
        <ele>267.5209374292</ele>
        <time>2026-06-22T10:40:46Z</time>
      </trkpt>
      <trkpt lat="41.39953675881134" lon="-81.73557762651711">
        <ele>267.6772654056</ele>
        <time>2026-06-22T10:41:21Z</time>
      </trkpt>
      <trkpt lat="41.39952950117635" lon="-81.73498169234018">
        <ele>267.3438603459</ele>
        <time>2026-06-22T10:42:01Z</time>
      </trkpt>
      <trkpt lat="41.39952537252292" lon="-81.73461535450252">
        <ele>267.1628890350</ele>
        <time>2026-06-22T10:42:34Z</time>
      </trkpt>
      <trkpt lat="41.39997359053259" lon="-81.73462024699855">
        <ele>267.0174241468</ele>
        <time>2026-06-22T10:43:05Z</time>
      </trkpt>
      <trkpt lat="41.40041935316124" lon="-81.73462347449501">
        <ele>267.2534444829</ele>
        <time>2026-06-22T10:43:41Z</time>
      </trkpt>
      <trkpt lat="41.40087039865733" lon="-81.73463690774879">
        <ele>267.4075811214</ele>
        <time>2026-06-22T10:44:32Z</time>
      </trkpt>
      <trkpt lat="41.40131803322725" lon="-81.73464454756119">
        <ele>267.3672400444</ele>
        <time>2026-06-22T10:45:17Z</time>
      </trkpt>
      <trkpt lat="41.40131701002271" lon="-81.73524700739924">
        <ele>267.9408253371</ele>
        <time>2026-06-22T10:45:52Z</time>
      </trkpt>
      <trkpt lat="41.40132825995531" lon="-81.73584209673059">
        <ele>268.0712661366</ele>
        <time>2026-06-22T10:46:30Z</time>
      </trkpt>
      <trkpt lat="41.40132727646686" lon="-81.73644320777375">
        <ele>268.0928764946</ele>
        <time>2026-06-22T10:47:13Z</time>
      </trkpt>
      <trkpt lat="41.40132698777337" lon="-81.73704218134692">
        <ele>268.0378291766</ele>
        <time>2026-06-22T10:48:02Z</time>
      </trkpt>
      <trkpt lat="41.40132477902341" lon="-81.73763539982487">
        <ele>267.9786951566</ele>
        <time>2026-06-22T10:48:57Z</time>
      </trkpt>
      <trkpt lat="41.40132399409277" lon="-81.73823729548867">
        <ele>267.6821439471</ele>
        <time>2026-06-22T10:49:45Z</time>
      </trkpt>
      <trkpt lat="41.40132973779689" lon="-81.73884322787657">
        <ele>267.7649820119</ele>
        <time>2026-06-22T10:50:29Z</time>
      </trkpt>
      <trkpt lat="41.40132951318727" lon="-81.73943368809918">
        <ele>267.3362867085</ele>
        <time>2026-06-22T10:51:08Z</time>
      </trkpt>
      <trkpt lat="41.40132713077310" lon="-81.74003732480536">
        <ele>266.5472510855</ele>
        <time>2026-06-22T10:51:57Z</time>
      </trkpt>
      <trkpt lat="41.40133835949599" lon="-81.74020976429702">
        <ele>266.6356507458</ele>
        <time>2026-06-22T10:52:07Z</time>
      </trkpt>
    </trkseg>
  </trk>
</gpx>