<?xml version='1.0' encoding='UTF-8'?>
<gpx xmlns="http://www.topografix.com/GPX/1/1" creator="https://gpx.studio" version="1.1">
  <metadata>
    <name>Dog Walk - 2026-05-09 #2</name>
  </metadata>
  <trk>
    <name>Dog Walk - 2026-05-09 #2</name>
    <type>dog walk</type>
    <trkseg>
      <trkpt lat="41.40134382593323" lon="-81.74022901095876">
        <ele>266.6021122916</ele>
        <time>2026-05-09T12:20:32Z</time>
      </trkpt>
      <trkpt lat="41.40134983137959" lon="-81.74082849453173">
        <ele>266.3351753590</ele>
        <time>2026-05-09T12:21:23Z</time>
      </trkpt>
      <trkpt lat="41.40134452828887" lon="-81.74143292378517">
        <ele>265.9597472292</ele>
        <time>2026-05-09T12:22:16Z</time>
      </trkpt>
      <trkpt lat="41.40133078886603" lon="-81.74201947682707">
        <ele>265.3338855043</ele>
        <time>2026-05-09T12:22:48Z</time>
      </trkpt>
      <trkpt lat="41.40133581298684" lon="-81.74239371371173">
        <ele>264.8930509183</ele>
        <time>2026-05-09T12:23:17Z</time>
      </trkpt>
      <trkpt lat="41.40089718449592" lon="-81.74217713109250">
        <ele>265.0351100789</ele>
        <time>2026-05-09T12:24:01Z</time>
      </trkpt>
      <trkpt lat="41.40048380290676" lon="-81.74196023855100">
        <ele>265.2199015509</ele>
        <time>2026-05-09T12:24:49Z</time>
      </trkpt>
      <trkpt lat="41.40045170974867" lon="-81.74194793372274">
        <ele>265.3903138051</ele>
        <time>2026-05-09T12:24:53Z</time>
      </trkpt>
      <trkpt lat="41.40044584838094" lon="-81.74135236877132">
        <ele>266.0098415232</ele>
        <time>2026-05-09T12:25:52Z</time>
      </trkpt>
      <trkpt lat="41.40043921813989" lon="-81.74075515111278">
        <ele>266.2480879296</ele>
        <time>2026-05-09T12:26:43Z</time>
      </trkpt>
      <trkpt lat="41.40043314052084" lon="-81.74016188934586">
        <ele>266.6506051727</ele>
        <time>2026-05-09T12:27:24Z</time>
      </trkpt>
      <trkpt lat="41.40042967164744" lon="-81.73956053387781">
        <ele>266.9484299868</ele>
        <time>2026-05-09T12:28:03Z</time>
      </trkpt>
      <trkpt lat="41.40043579374330" lon="-81.73895008727331">
        <ele>267.2000935058</ele>
        <time>2026-05-09T12:28:40Z</time>
      </trkpt>
      <trkpt lat="41.40042516411904" lon="-81.73834900702549">
        <ele>267.3301598362</ele>
        <time>2026-05-09T12:29:38Z</time>
      </trkpt>
      <trkpt lat="41.40042450338589" lon="-81.73775482022067">
        <ele>267.5888260090</ele>
        <time>2026-05-09T12:30:14Z</time>
      </trkpt>
      <trkpt lat="41.40040953791640" lon="-81.73715327723527">
        <ele>267.9225568684</ele>
        <time>2026-05-09T12:31:08Z</time>
      </trkpt>
      <trkpt lat="41.40041010589031" lon="-81.73655924324989">
        <ele>267.9975793898</ele>
        <time>2026-05-09T12:32:19Z</time>
      </trkpt>
      <trkpt lat="41.40040395565884" lon="-81.73596420043663">
        <ele>267.9436630855</ele>
        <time>2026-05-09T12:32:58Z</time>
      </trkpt>
      <trkpt lat="41.40040436078046" lon="-81.73535714446766">
        <ele>267.9231694037</ele>
        <time>2026-05-09T12:33:49Z</time>
      </trkpt>
      <trkpt lat="41.40039153101768" lon="-81.73475796057745">
        <ele>267.1918770012</ele>
        <time>2026-05-09T12:34:25Z</time>
      </trkpt>
      <trkpt lat="41.40039031924747" lon="-81.73463488363612">
        <ele>267.4586635720</ele>
        <time>2026-05-09T12:34:35Z</time>
      </trkpt>
      <trkpt lat="41.40084979800455" lon="-81.73462010066093">
        <ele>267.2452202447</ele>
        <time>2026-05-09T12:35:19Z</time>
      </trkpt>
      <trkpt lat="41.40129571611385" lon="-81.73463040806335">
        <ele>267.2635013335</ele>
        <time>2026-05-09T12:36:05Z</time>
      </trkpt>
      <trkpt lat="41.40131185114860" lon="-81.73462393854173">
        <ele>267.6286402312</ele>
        <time>2026-05-09T12:36:07Z</time>
      </trkpt>
      <trkpt lat="41.40132295824755" lon="-81.73522891408139">
        <ele>267.7702805579</ele>
        <time>2026-05-09T12:36:53Z</time>
      </trkpt>
      <trkpt lat="41.40133110868477" lon="-81.73583157142069">
        <ele>268.0517177346</ele>
        <time>2026-05-09T12:37:25Z</time>
      </trkpt>
      <trkpt lat="41.40131997413129" lon="-81.73642429705336">
        <ele>268.1332704274</ele>
        <time>2026-05-09T12:38:33Z</time>
      </trkpt>
      <trkpt lat="41.40132737628965" lon="-81.73703526320398">
        <ele>267.9122100471</ele>
        <time>2026-05-09T12:39:26Z</time>
      </trkpt>
      <trkpt lat="41.40133490299809" lon="-81.73762775500244">
        <ele>267.6712046298</ele>
        <time>2026-05-09T12:40:08Z</time>
      </trkpt>
      <trkpt lat="41.40132989059884" lon="-81.73823304429961">
        <ele>267.5905346975</ele>
        <time>2026-05-09T12:40:48Z</time>
      </trkpt>
      <trkpt lat="41.40134218546989" lon="-81.73882416001229">
        <ele>267.4702745691</ele>
        <time>2026-05-09T12:41:18Z</time>
      </trkpt>
      <trkpt lat="41.40134415579649" lon="-81.73943603570241">
        <ele>267.2913010152</ele>
        <time>2026-05-09T12:42:00Z</time>
      </trkpt>
      <trkpt lat="41.40134725669671" lon="-81.74002514020538">
        <ele>266.5555911620</ele>
        <time>2026-05-09T12:42:38Z</time>
      </trkpt>
      <trkpt lat="41.40134170409920" lon="-81.74019948133896">
        <ele>266.3425722325</ele>
        <time>2026-05-09T12:42:48Z</time>
      </trkpt>
    </trkseg>
  </trk>
</gpx>