<?xml version='1.0' encoding='UTF-8'?>
<gpx xmlns="http://www.topografix.com/GPX/1/1" creator="https://gpx.studio" version="1.1">
  <metadata>
    <name>Dog Walk - 2026-06-21 #2</name>
  </metadata>
  <trk>
    <name>Dog Walk - 2026-06-21 #2</name>
    <type>dog walk</type>
    <trkseg>
      <trkpt lat="41.40133101349714" lon="-81.74023040145461">
        <ele>266.5440423227</ele>
        <time>2026-06-21T12:38:03Z</time>
      </trkpt>
      <trkpt lat="41.40133241527440" lon="-81.74083678242992">
        <ele>266.3802249313</ele>
        <time>2026-06-21T12:38:37Z</time>
      </trkpt>
      <trkpt lat="41.40133297745162" lon="-81.74142929738076">
        <ele>265.6587773582</ele>
        <time>2026-06-21T12:39:20Z</time>
      </trkpt>
      <trkpt lat="41.40133023387597" lon="-81.74203594835294">
        <ele>265.4472097594</ele>
        <time>2026-06-21T12:39:58Z</time>
      </trkpt>
      <trkpt lat="41.40133575172091" lon="-81.74240195881461">
        <ele>264.7109660455</ele>
        <time>2026-06-21T12:40:24Z</time>
      </trkpt>
      <trkpt lat="41.40090256786768" lon="-81.74219426251030">
        <ele>265.0001526600</ele>
        <time>2026-06-21T12:40:59Z</time>
      </trkpt>
      <trkpt lat="41.40048044443740" lon="-81.74201076324655">
        <ele>265.0831043341</ele>
        <time>2026-06-21T12:41:48Z</time>
      </trkpt>
      <trkpt lat="41.40005750790440" lon="-81.74180898326769">
        <ele>265.6226965349</ele>
        <time>2026-06-21T12:42:30Z</time>
      </trkpt>
      <trkpt lat="41.39962487769437" lon="-81.74161561937541">
        <ele>264.5821619683</ele>
        <time>2026-06-21T12:43:01Z</time>
      </trkpt>
      <trkpt lat="41.39953817016244" lon="-81.74157634085684">
        <ele>264.7646417184</ele>
        <time>2026-06-21T12:43:10Z</time>
      </trkpt>
      <trkpt lat="41.39953033313114" lon="-81.74097556247078">
        <ele>265.5346615527</ele>
        <time>2026-06-21T12:43:48Z</time>
      </trkpt>
      <trkpt lat="41.39953703982238" lon="-81.74037702060265">
        <ele>266.1891172433</ele>
        <time>2026-06-21T12:44:24Z</time>
      </trkpt>
      <trkpt lat="41.39953055613164" lon="-81.73978317249473">
        <ele>266.5771671662</ele>
        <time>2026-06-21T12:45:03Z</time>
      </trkpt>
      <trkpt lat="41.39953301861291" lon="-81.73917697894788">
        <ele>266.8706512324</ele>
        <time>2026-06-21T12:45:40Z</time>
      </trkpt>
      <trkpt lat="41.39953357520626" lon="-81.73858144661159">
        <ele>267.0757398629</ele>
        <time>2026-06-21T12:46:25Z</time>
      </trkpt>
      <trkpt lat="41.39953295851717" lon="-81.73797701762339">
        <ele>267.1806863950</ele>
        <time>2026-06-21T12:47:13Z</time>
      </trkpt>
      <trkpt lat="41.39952950587457" lon="-81.73738299711363">
        <ele>267.3944798042</ele>
        <time>2026-06-21T12:48:00Z</time>
      </trkpt>
      <trkpt lat="41.39952375658036" lon="-81.73678049657016">
        <ele>267.4214508260</ele>
        <time>2026-06-21T12:48:35Z</time>
      </trkpt>
      <trkpt lat="41.39952880253433" lon="-81.73617792946136">
        <ele>267.4547691838</ele>
        <time>2026-06-21T12:49:16Z</time>
      </trkpt>
      <trkpt lat="41.39953276223881" lon="-81.73558082898518">
        <ele>267.3888246747</ele>
        <time>2026-06-21T12:49:51Z</time>
      </trkpt>
      <trkpt lat="41.39951945312588" lon="-81.73498550677644">
        <ele>267.2499400605</ele>
        <time>2026-06-21T12:50:37Z</time>
      </trkpt>
      <trkpt lat="41.39952534009127" lon="-81.73462028702725">
        <ele>267.1553069247</ele>
        <time>2026-06-21T12:51:03Z</time>
      </trkpt>
      <trkpt lat="41.39997711259277" lon="-81.73461631448077">
        <ele>267.0932950416</ele>
        <time>2026-06-21T12:51:59Z</time>
      </trkpt>
      <trkpt lat="41.40042809595924" lon="-81.73463440828417">
        <ele>267.2186397348</ele>
        <time>2026-06-21T12:52:44Z</time>
      </trkpt>
      <trkpt lat="41.40087986634226" lon="-81.73463030123725">
        <ele>267.4045066518</ele>
        <time>2026-06-21T12:53:28Z</time>
      </trkpt>
      <trkpt lat="41.40131693798848" lon="-81.73464994123111">
        <ele>267.3410381341</ele>
        <time>2026-06-21T12:54:01Z</time>
      </trkpt>
      <trkpt lat="41.40132168923335" lon="-81.73524805202275">
        <ele>267.8087587177</ele>
        <time>2026-06-21T12:54:37Z</time>
      </trkpt>
      <trkpt lat="41.40132582901182" lon="-81.73584108191882">
        <ele>268.2308484018</ele>
        <time>2026-06-21T12:55:13Z</time>
      </trkpt>
      <trkpt lat="41.40132744101604" lon="-81.73643922286740">
        <ele>268.1554776543</ele>
        <time>2026-06-21T12:55:49Z</time>
      </trkpt>
      <trkpt lat="41.40132367096601" lon="-81.73704031366465">
        <ele>267.9641390587</ele>
        <time>2026-06-21T12:56:28Z</time>
      </trkpt>
      <trkpt lat="41.40132856135011" lon="-81.73764707623168">
        <ele>268.0918811142</ele>
        <time>2026-06-21T12:57:12Z</time>
      </trkpt>
      <trkpt lat="41.40133012303848" lon="-81.73822413745310">
        <ele>267.7677029730</ele>
        <time>2026-06-21T12:57:50Z</time>
      </trkpt>
      <trkpt lat="41.40133104886658" lon="-81.73883674123816">
        <ele>267.3992289492</ele>
        <time>2026-06-21T12:58:29Z</time>
      </trkpt>
      <trkpt lat="41.40133535560660" lon="-81.73944092567014">
        <ele>266.9615560352</ele>
        <time>2026-06-21T12:59:17Z</time>
      </trkpt>
      <trkpt lat="41.40133101531401" lon="-81.74003441545796">
        <ele>266.4527496199</ele>
        <time>2026-06-21T12:59:58Z</time>
      </trkpt>
      <trkpt lat="41.40133110238536" lon="-81.74021387454167">
        <ele>266.5683764559</ele>
        <time>2026-06-21T13:00:24Z</time>
      </trkpt>
    </trkseg>
  </trk>
</gpx>