<?xml version='1.0' encoding='UTF-8'?>
<gpx xmlns="http://www.topografix.com/GPX/1/1" creator="https://gpx.studio" version="1.1">
  <metadata>
    <name>Dog Walk - 2026-05-09 #3</name>
  </metadata>
  <trk>
    <name>Dog Walk - 2026-05-09 #3</name>
    <type>dog walk</type>
    <trkseg>
      <trkpt lat="41.40134318211167" lon="-81.74024579364574">
        <ele>266.4573833190</ele>
        <time>2026-05-09T15:12:02Z</time>
      </trkpt>
      <trkpt lat="41.40134572887484" lon="-81.74083131940455">
        <ele>266.0887982805</ele>
        <time>2026-05-09T15:12:34Z</time>
      </trkpt>
      <trkpt lat="41.40134459281222" lon="-81.74143682474934">
        <ele>265.8444354317</ele>
        <time>2026-05-09T15:13:25Z</time>
      </trkpt>
      <trkpt lat="41.40133726509389" lon="-81.74203396190366">
        <ele>265.4525640227</ele>
        <time>2026-05-09T15:14:11Z</time>
      </trkpt>
      <trkpt lat="41.40134672893463" lon="-81.74242616671256">
        <ele>264.4309544092</ele>
        <time>2026-05-09T15:14:46Z</time>
      </trkpt>
      <trkpt lat="41.40176535407184" lon="-81.74263111742435">
        <ele>264.3593760587</ele>
        <time>2026-05-09T15:15:34Z</time>
      </trkpt>
      <trkpt lat="41.40218975603083" lon="-81.74285707332885">
        <ele>263.3237009288</ele>
        <time>2026-05-09T15:16:05Z</time>
      </trkpt>
      <trkpt lat="41.40222143380977" lon="-81.74286466207063">
        <ele>263.3990635463</ele>
        <time>2026-05-09T15:16:08Z</time>
      </trkpt>
      <trkpt lat="41.40222242479312" lon="-81.74226344441496">
        <ele>264.0888296160</ele>
        <time>2026-05-09T15:16:41Z</time>
      </trkpt>
      <trkpt lat="41.40222602128092" lon="-81.74166693898678">
        <ele>264.8130602976</ele>
        <time>2026-05-09T15:17:34Z</time>
      </trkpt>
      <trkpt lat="41.40222146283457" lon="-81.74107774979350">
        <ele>265.6984167668</ele>
        <time>2026-05-09T15:18:16Z</time>
      </trkpt>
      <trkpt lat="41.40221284510476" lon="-81.74046812303204">
        <ele>266.0787369932</ele>
        <time>2026-05-09T15:19:01Z</time>
      </trkpt>
      <trkpt lat="41.40222305672393" lon="-81.73986407869621">
        <ele>266.4302450462</ele>
        <time>2026-05-09T15:19:55Z</time>
      </trkpt>
      <trkpt lat="41.40221181877312" lon="-81.73927512608958">
        <ele>266.6648432811</ele>
        <time>2026-05-09T15:20:37Z</time>
      </trkpt>
      <trkpt lat="41.40221293228937" lon="-81.73866516084021">
        <ele>267.0458668975</ele>
        <time>2026-05-09T15:21:32Z</time>
      </trkpt>
      <trkpt lat="41.40222501543499" lon="-81.73825559236127">
        <ele>267.1659616359</ele>
        <time>2026-05-09T15:22:08Z</time>
      </trkpt>
      <trkpt lat="41.40177921950697" lon="-81.73826282152513">
        <ele>268.1250255273</ele>
        <time>2026-05-09T15:22:40Z</time>
      </trkpt>
      <trkpt lat="41.40133464896375" lon="-81.73825777063787">
        <ele>267.7314909339</ele>
        <time>2026-05-09T15:23:14Z</time>
      </trkpt>
      <trkpt lat="41.40133681902525" lon="-81.73885729611946">
        <ele>267.1784446110</ele>
        <time>2026-05-09T15:23:58Z</time>
      </trkpt>
      <trkpt lat="41.40133483776225" lon="-81.73946575650400">
        <ele>267.1117351401</ele>
        <time>2026-05-09T15:24:40Z</time>
      </trkpt>
      <trkpt lat="41.40134032687824" lon="-81.74006512282325">
        <ele>266.3846536643</ele>
        <time>2026-05-09T15:25:19Z</time>
      </trkpt>
      <trkpt lat="41.40133743034615" lon="-81.74019005514674">
        <ele>266.3886770994</ele>
        <time>2026-05-09T15:25:27Z</time>
      </trkpt>
    </trkseg>
  </trk>
</gpx>