<?xml version='1.0' encoding='UTF-8'?>
<gpx xmlns="http://www.topografix.com/GPX/1/1" creator="https://gpx.studio" version="1.1">
  <metadata>
    <name>Dog Walk - 2026-06-15</name>
  </metadata>
  <trk>
    <name>Dog Walk - 2026-06-15</name>
    <type>dog walk</type>
    <trkseg>
      <trkpt lat="41.40133975712514" lon="-81.74023163829341">
        <ele>266.3395145338</ele>
        <time>2026-06-15T17:52:18Z</time>
      </trkpt>
      <trkpt lat="41.40133987968604" lon="-81.74081693371136">
        <ele>266.1551712743</ele>
        <time>2026-06-15T17:53:05Z</time>
      </trkpt>
      <trkpt lat="41.40132715954479" lon="-81.74143431975270">
        <ele>265.5643892450</ele>
        <time>2026-06-15T17:53:51Z</time>
      </trkpt>
      <trkpt lat="41.40132770922595" lon="-81.74202901832977">
        <ele>265.0749483473</ele>
        <time>2026-06-15T17:54:34Z</time>
      </trkpt>
      <trkpt lat="41.40133553309019" lon="-81.74238605090869">
        <ele>264.6698182866</ele>
        <time>2026-06-15T17:55:03Z</time>
      </trkpt>
      <trkpt lat="41.40090669315961" lon="-81.74217789828135">
        <ele>265.2163770889</ele>
        <time>2026-06-15T17:55:52Z</time>
      </trkpt>
      <trkpt lat="41.40048851180503" lon="-81.74196673052907">
        <ele>265.3056008871</ele>
        <time>2026-06-15T17:56:28Z</time>
      </trkpt>
      <trkpt lat="41.40044830803495" lon="-81.74195278822640">
        <ele>265.2289201032</ele>
        <time>2026-06-15T17:56:31Z</time>
      </trkpt>
      <trkpt lat="41.40044264619078" lon="-81.74135376796751">
        <ele>265.9702013519</ele>
        <time>2026-06-15T17:57:27Z</time>
      </trkpt>
      <trkpt lat="41.40044087675006" lon="-81.74075050436538">
        <ele>266.3970243873</ele>
        <time>2026-06-15T17:58:01Z</time>
      </trkpt>
      <trkpt lat="41.40043497478768" lon="-81.74015236530710">
        <ele>266.6902562534</ele>
        <time>2026-06-15T17:58:31Z</time>
      </trkpt>
      <trkpt lat="41.40042497100054" lon="-81.73955204731584">
        <ele>266.7462975892</ele>
        <time>2026-06-15T17:59:11Z</time>
      </trkpt>
      <trkpt lat="41.40043600152495" lon="-81.73895876853915">
        <ele>267.2896508051</ele>
        <time>2026-06-15T18:00:01Z</time>
      </trkpt>
      <trkpt lat="41.40042062661414" lon="-81.73835485395566">
        <ele>267.3180273661</ele>
        <time>2026-06-15T18:00:44Z</time>
      </trkpt>
      <trkpt lat="41.40041098183195" lon="-81.73774879187360">
        <ele>267.3851511172</ele>
        <time>2026-06-15T18:01:17Z</time>
      </trkpt>
      <trkpt lat="41.40040877901896" lon="-81.73714787543479">
        <ele>268.0173640902</ele>
        <time>2026-06-15T18:01:56Z</time>
      </trkpt>
      <trkpt lat="41.40040648115071" lon="-81.73654517994198">
        <ele>267.9364773845</ele>
        <time>2026-06-15T18:02:46Z</time>
      </trkpt>
      <trkpt lat="41.40040752880312" lon="-81.73595277564206">
        <ele>267.9963747168</ele>
        <time>2026-06-15T18:03:24Z</time>
      </trkpt>
      <trkpt lat="41.40039661257732" lon="-81.73535798635838">
        <ele>267.6570810234</ele>
        <time>2026-06-15T18:04:02Z</time>
      </trkpt>
      <trkpt lat="41.40039361445518" lon="-81.73476104198926">
        <ele>267.2853379066</ele>
        <time>2026-06-15T18:04:35Z</time>
      </trkpt>
      <trkpt lat="41.40039107888582" lon="-81.73462918455829">
        <ele>267.2832944262</ele>
        <time>2026-06-15T18:04:44Z</time>
      </trkpt>
      <trkpt lat="41.40084264296834" lon="-81.73464167191239">
        <ele>267.4251029405</ele>
        <time>2026-06-15T18:05:33Z</time>
      </trkpt>
      <trkpt lat="41.40129199808485" lon="-81.73463297215928">
        <ele>267.2673142726</ele>
        <time>2026-06-15T18:06:23Z</time>
      </trkpt>
      <trkpt lat="41.40132370924555" lon="-81.73463079329237">
        <ele>267.5441114298</ele>
        <time>2026-06-15T18:06:26Z</time>
      </trkpt>
      <trkpt lat="41.40132646500545" lon="-81.73522700261444">
        <ele>267.8687107724</ele>
        <time>2026-06-15T18:07:00Z</time>
      </trkpt>
      <trkpt lat="41.40133323332361" lon="-81.73583215762693">
        <ele>268.2959765193</ele>
        <time>2026-06-15T18:07:35Z</time>
      </trkpt>
      <trkpt lat="41.40132839469153" lon="-81.73643989040944">
        <ele>268.3671311686</ele>
        <time>2026-06-15T18:08:20Z</time>
      </trkpt>
      <trkpt lat="41.40133950517230" lon="-81.73703423655623">
        <ele>268.2599393649</ele>
        <time>2026-06-15T18:09:13Z</time>
      </trkpt>
      <trkpt lat="41.40133391295542" lon="-81.73763934897005">
        <ele>267.5791398702</ele>
        <time>2026-06-15T18:09:53Z</time>
      </trkpt>
      <trkpt lat="41.40133454064665" lon="-81.73823011541494">
        <ele>267.6486486768</ele>
        <time>2026-06-15T18:10:27Z</time>
      </trkpt>
      <trkpt lat="41.40133676799764" lon="-81.73883074693228">
        <ele>267.4565241097</ele>
        <time>2026-06-15T18:11:15Z</time>
      </trkpt>
      <trkpt lat="41.40133885171669" lon="-81.73942109144832">
        <ele>267.0815809858</ele>
        <time>2026-06-15T18:11:58Z</time>
      </trkpt>
      <trkpt lat="41.40133648663719" lon="-81.74004239503876">
        <ele>266.8499380885</ele>
        <time>2026-06-15T18:12:36Z</time>
      </trkpt>
      <trkpt lat="41.40133920181527" lon="-81.74019389112550">
        <ele>266.5982347396</ele>
        <time>2026-06-15T18:12:46Z</time>
      </trkpt>
    </trkseg>
  </trk>
</gpx>