<?xml version='1.0' encoding='UTF-8'?>
<gpx xmlns="http://www.topografix.com/GPX/1/1" creator="https://gpx.studio" version="1.1">
  <metadata>
    <name>Dog Walk - 2026-03-12 #1</name>
  </metadata>
  <trk>
    <name>Dog Walk - 2026-03-12 #1</name>
    <type>dog walk</type>
    <trkseg>
      <trkpt lat="41.40133199015673" lon="-81.74026015388729">
        <ele>266.5043358371</ele>
        <time>2026-03-12T07:02:59Z</time>
      </trkpt>
      <trkpt lat="41.40132631720467" lon="-81.74025321238700">
        <ele>266.6358347219</ele>
        <time>2026-03-12T07:03:00Z</time>
      </trkpt>
      <trkpt lat="41.40132884664083" lon="-81.74085674999789">
        <ele>266.2942400252</ele>
        <time>2026-03-12T07:03:40Z</time>
      </trkpt>
      <trkpt lat="41.40133608363940" lon="-81.74145784647473">
        <ele>265.9301234141</ele>
        <time>2026-03-12T07:04:17Z</time>
      </trkpt>
      <trkpt lat="41.40132204391500" lon="-81.74205545395839">
        <ele>265.5344007613</ele>
        <time>2026-03-12T07:04:59Z</time>
      </trkpt>
      <trkpt lat="41.40132285615492" lon="-81.74237463600799">
        <ele>264.6396620539</ele>
        <time>2026-03-12T07:05:16Z</time>
      </trkpt>
      <trkpt lat="41.40132923972418" lon="-81.74237555814828">
        <ele>264.9827203208</ele>
        <time>2026-03-12T07:05:17Z</time>
      </trkpt>
      <trkpt lat="41.40089134534514" lon="-81.74218123445584">
        <ele>265.3774193946</ele>
        <time>2026-03-12T07:06:04Z</time>
      </trkpt>
      <trkpt lat="41.40047509401284" lon="-81.74199269313168">
        <ele>264.9826611278</ele>
        <time>2026-03-12T07:06:36Z</time>
      </trkpt>
      <trkpt lat="41.40005802940031" lon="-81.74180203873551">
        <ele>265.4970924800</ele>
        <time>2026-03-12T07:07:17Z</time>
      </trkpt>
      <trkpt lat="41.39962442494628" lon="-81.74159819774445">
        <ele>264.7257594183</ele>
        <time>2026-03-12T07:08:00Z</time>
      </trkpt>
      <trkpt lat="41.39954191378381" lon="-81.74155694844438">
        <ele>264.8667729233</ele>
        <time>2026-03-12T07:08:08Z</time>
      </trkpt>
      <trkpt lat="41.39953214633958" lon="-81.74097487207139">
        <ele>265.8304944777</ele>
        <time>2026-03-12T07:08:45Z</time>
      </trkpt>
      <trkpt lat="41.39954163746179" lon="-81.74036639735689">
        <ele>266.1855705642</ele>
        <time>2026-03-12T07:09:32Z</time>
      </trkpt>
      <trkpt lat="41.39953438877667" lon="-81.73977030878318">
        <ele>266.6393946640</ele>
        <time>2026-03-12T07:10:35Z</time>
      </trkpt>
      <trkpt lat="41.39953788987682" lon="-81.73918155855560">
        <ele>266.9967153796</ele>
        <time>2026-03-12T07:11:35Z</time>
      </trkpt>
      <trkpt lat="41.39954070749271" lon="-81.73856685138425">
        <ele>266.9440869608</ele>
        <time>2026-03-12T07:12:18Z</time>
      </trkpt>
      <trkpt lat="41.39953771827455" lon="-81.73829527221319">
        <ele>266.9844142773</ele>
        <time>2026-03-12T07:12:34Z</time>
      </trkpt>
      <trkpt lat="41.39953986524930" lon="-81.73830105226224">
        <ele>266.9074095872</ele>
        <time>2026-03-12T07:12:35Z</time>
      </trkpt>
      <trkpt lat="41.39998674177758" lon="-81.73829398751242">
        <ele>267.2094086190</ele>
        <time>2026-03-12T07:13:32Z</time>
      </trkpt>
      <trkpt lat="41.40043879525121" lon="-81.73829955009754">
        <ele>267.2445347201</ele>
        <time>2026-03-12T07:14:11Z</time>
      </trkpt>
      <trkpt lat="41.40088489052344" lon="-81.73829389370763">
        <ele>267.2873945990</ele>
        <time>2026-03-12T07:15:11Z</time>
      </trkpt>
      <trkpt lat="41.40131858391933" lon="-81.73829549753884">
        <ele>267.5505923269</ele>
        <time>2026-03-12T07:15:48Z</time>
      </trkpt>
      <trkpt lat="41.40132380796124" lon="-81.73890350715442">
        <ele>267.3612672925</ele>
        <time>2026-03-12T07:16:25Z</time>
      </trkpt>
      <trkpt lat="41.40133826775179" lon="-81.73950567540435">
        <ele>267.0459829210</ele>
        <time>2026-03-12T07:17:04Z</time>
      </trkpt>
      <trkpt lat="41.40134020834836" lon="-81.74010771012064">
        <ele>266.5137622526</ele>
        <time>2026-03-12T07:17:59Z</time>
      </trkpt>
      <trkpt lat="41.40133901391334" lon="-81.74016038639684">
        <ele>266.7128999390</ele>
        <time>2026-03-12T07:18:02Z</time>
      </trkpt>
    </trkseg>
  </trk>
</gpx>