<?xml version='1.0' encoding='UTF-8'?>
<gpx xmlns="http://www.topografix.com/GPX/1/1" creator="https://gpx.studio" version="1.1">
  <metadata>
    <name>Dog Walk - 2026-07-28 #3</name>
  </metadata>
  <trk>
    <name>Dog Walk - 2026-07-28 #3</name>
    <type>dog walk</type>
    <trkseg>
      <trkpt lat="41.40133497143457" lon="-81.74022930547896">
        <ele>266.5847738205</ele>
        <time>2026-07-28T14:22:01Z</time>
      </trkpt>
      <trkpt lat="41.40134056123708" lon="-81.74084091494917">
        <ele>266.0134815302</ele>
        <time>2026-07-28T14:22:40Z</time>
      </trkpt>
      <trkpt lat="41.40134672263873" lon="-81.74143004914505">
        <ele>265.7705365288</ele>
        <time>2026-07-28T14:23:25Z</time>
      </trkpt>
      <trkpt lat="41.40134474579937" lon="-81.74201702668744">
        <ele>265.1707914478</ele>
        <time>2026-07-28T14:24:07Z</time>
      </trkpt>
      <trkpt lat="41.40134832347402" lon="-81.74241449762725">
        <ele>264.9534150148</ele>
        <time>2026-07-28T14:24:34Z</time>
      </trkpt>
      <trkpt lat="41.40177386766683" lon="-81.74262871399625">
        <ele>264.2306072013</ele>
        <time>2026-07-28T14:25:21Z</time>
      </trkpt>
      <trkpt lat="41.40218397444711" lon="-81.74283562419588">
        <ele>263.6629823960</ele>
        <time>2026-07-28T14:26:05Z</time>
      </trkpt>
      <trkpt lat="41.40261633309821" lon="-81.74305169710348">
        <ele>262.7369367813</ele>
        <time>2026-07-28T14:26:49Z</time>
      </trkpt>
      <trkpt lat="41.40302798986443" lon="-81.74326567238421">
        <ele>262.3759800639</ele>
        <time>2026-07-28T14:27:24Z</time>
      </trkpt>
      <trkpt lat="41.40344725391563" lon="-81.74347977537484">
        <ele>261.8963618260</ele>
        <time>2026-07-28T14:28:07Z</time>
      </trkpt>
      <trkpt lat="41.40350145765993" lon="-81.74349693369437">
        <ele>262.0083709641</ele>
        <time>2026-07-28T14:28:12Z</time>
      </trkpt>
      <trkpt lat="41.40359865577545" lon="-81.74351478316818">
        <ele>261.7090929705</ele>
        <time>2026-07-28T14:28:19Z</time>
      </trkpt>
      <trkpt lat="41.40400093307288" lon="-81.74350422301472">
        <ele>260.6336719695</ele>
        <time>2026-07-28T14:28:57Z</time>
      </trkpt>
      <trkpt lat="41.40398968743333" lon="-81.74290870165350">
        <ele>261.5208165901</ele>
        <time>2026-07-28T14:29:45Z</time>
      </trkpt>
      <trkpt lat="41.40399227555966" lon="-81.74231329380979">
        <ele>262.1958878200</ele>
        <time>2026-07-28T14:30:18Z</time>
      </trkpt>
      <trkpt lat="41.40399699154013" lon="-81.74171125462266">
        <ele>262.5576423537</ele>
        <time>2026-07-28T14:30:52Z</time>
      </trkpt>
      <trkpt lat="41.40398955109347" lon="-81.74110531270240">
        <ele>262.8705403305</ele>
        <time>2026-07-28T14:31:25Z</time>
      </trkpt>
      <trkpt lat="41.40399163389421" lon="-81.74050500107001">
        <ele>263.6313753593</ele>
        <time>2026-07-28T14:32:01Z</time>
      </trkpt>
      <trkpt lat="41.40398874114887" lon="-81.73991250598728">
        <ele>264.2640433656</ele>
        <time>2026-07-28T14:32:45Z</time>
      </trkpt>
      <trkpt lat="41.40398623195938" lon="-81.73930047294292">
        <ele>264.9625634115</ele>
        <time>2026-07-28T14:33:18Z</time>
      </trkpt>
      <trkpt lat="41.40398591153053" lon="-81.73877688176346">
        <ele>265.3902811895</ele>
        <time>2026-07-28T14:33:48Z</time>
      </trkpt>
      <trkpt lat="41.40353548492664" lon="-81.73877293302779">
        <ele>265.6771050537</ele>
        <time>2026-07-28T14:34:29Z</time>
      </trkpt>
      <trkpt lat="41.40308193750906" lon="-81.73877774434537">
        <ele>266.1279276060</ele>
        <time>2026-07-28T14:35:11Z</time>
      </trkpt>
      <trkpt lat="41.40263344346648" lon="-81.73879304406381">
        <ele>266.5755022339</ele>
        <time>2026-07-28T14:35:58Z</time>
      </trkpt>
      <trkpt lat="41.40222313492968" lon="-81.73877201733049">
        <ele>267.0390379678</ele>
        <time>2026-07-28T14:36:44Z</time>
      </trkpt>
      <trkpt lat="41.40221461636703" lon="-81.73827049213757">
        <ele>267.0182538504</ele>
        <time>2026-07-28T14:37:16Z</time>
      </trkpt>
      <trkpt lat="41.40176182800038" lon="-81.73827776759951">
        <ele>267.6650131358</ele>
        <time>2026-07-28T14:37:55Z</time>
      </trkpt>
      <trkpt lat="41.40133225883266" lon="-81.73826283356493">
        <ele>267.4762467291</ele>
        <time>2026-07-28T14:38:33Z</time>
      </trkpt>
      <trkpt lat="41.40133407151518" lon="-81.73886496658052">
        <ele>267.2113195252</ele>
        <time>2026-07-28T14:39:10Z</time>
      </trkpt>
      <trkpt lat="41.40132887504106" lon="-81.73947017857651">
        <ele>267.0628837599</ele>
        <time>2026-07-28T14:39:56Z</time>
      </trkpt>
      <trkpt lat="41.40133760489199" lon="-81.74006647734083">
        <ele>266.4883158633</ele>
        <time>2026-07-28T14:40:38Z</time>
      </trkpt>
      <trkpt lat="41.40134079263301" lon="-81.74020666027835">
        <ele>266.5517160429</ele>
        <time>2026-07-28T14:40:57Z</time>
      </trkpt>
    </trkseg>
  </trk>
</gpx>