<?xml version='1.0' encoding='UTF-8'?>
<gpx xmlns="http://www.topografix.com/GPX/1/1" creator="https://gpx.studio" version="1.1">
  <metadata>
    <name>Dog Walk - 2026-04-03 #2</name>
  </metadata>
  <trk>
    <name>Dog Walk - 2026-04-03 #2</name>
    <type>dog walk</type>
    <trkseg>
      <trkpt lat="41.40133571048815" lon="-81.74021207533789">
        <ele>266.7541003819</ele>
        <time>2026-04-03T18:19:29Z</time>
      </trkpt>
      <trkpt lat="41.40133675904412" lon="-81.74082612391032">
        <ele>266.2973912362</ele>
        <time>2026-04-03T18:20:05Z</time>
      </trkpt>
      <trkpt lat="41.40135183213600" lon="-81.74143406797221">
        <ele>265.8127663060</ele>
        <time>2026-04-03T18:20:44Z</time>
      </trkpt>
      <trkpt lat="41.40134720552103" lon="-81.74202743386294">
        <ele>265.2833913575</ele>
        <time>2026-04-03T18:21:26Z</time>
      </trkpt>
      <trkpt lat="41.40134476227059" lon="-81.74241597355882">
        <ele>264.6725178826</ele>
        <time>2026-04-03T18:21:53Z</time>
      </trkpt>
      <trkpt lat="41.40176821511910" lon="-81.74261587546795">
        <ele>264.2471947903</ele>
        <time>2026-04-03T18:22:51Z</time>
      </trkpt>
      <trkpt lat="41.40219640521684" lon="-81.74283991490523">
        <ele>263.5484475251</ele>
        <time>2026-04-03T18:23:36Z</time>
      </trkpt>
      <trkpt lat="41.40260849779276" lon="-81.74304738702709">
        <ele>262.9945313611</ele>
        <time>2026-04-03T18:24:11Z</time>
      </trkpt>
      <trkpt lat="41.40302609480345" lon="-81.74327254233620">
        <ele>262.4464341356</ele>
        <time>2026-04-03T18:24:56Z</time>
      </trkpt>
      <trkpt lat="41.40345260488579" lon="-81.74347596381007">
        <ele>261.8035495215</ele>
        <time>2026-04-03T18:25:30Z</time>
      </trkpt>
      <trkpt lat="41.40348291335864" lon="-81.74350523272069">
        <ele>261.8152170052</ele>
        <time>2026-04-03T18:25:34Z</time>
      </trkpt>
      <trkpt lat="41.40358730758110" lon="-81.74351053191675">
        <ele>261.4716717922</ele>
        <time>2026-04-03T18:25:40Z</time>
      </trkpt>
      <trkpt lat="41.40398832007594" lon="-81.74350679619074">
        <ele>260.8584763646</ele>
        <time>2026-04-03T18:26:24Z</time>
      </trkpt>
      <trkpt lat="41.40398678792326" lon="-81.74290562408012">
        <ele>261.5282143615</ele>
        <time>2026-04-03T18:27:05Z</time>
      </trkpt>
      <trkpt lat="41.40398604343294" lon="-81.74230880093758">
        <ele>262.1107258111</ele>
        <time>2026-04-03T18:27:51Z</time>
      </trkpt>
      <trkpt lat="41.40398740114788" lon="-81.74171617872960">
        <ele>262.4188284077</ele>
        <time>2026-04-03T18:28:28Z</time>
      </trkpt>
      <trkpt lat="41.40398578909298" lon="-81.74111643203307">
        <ele>262.9466941687</ele>
        <time>2026-04-03T18:29:31Z</time>
      </trkpt>
      <trkpt lat="41.40398636677656" lon="-81.74051069040273">
        <ele>263.5892944798</ele>
        <time>2026-04-03T18:30:18Z</time>
      </trkpt>
      <trkpt lat="41.40398829616262" lon="-81.73990387205104">
        <ele>264.2471124580</ele>
        <time>2026-04-03T18:30:53Z</time>
      </trkpt>
      <trkpt lat="41.40398744120165" lon="-81.73931055072222">
        <ele>264.9242665422</ele>
        <time>2026-04-03T18:31:24Z</time>
      </trkpt>
      <trkpt lat="41.40399123285068" lon="-81.73877962440602">
        <ele>265.1033168925</ele>
        <time>2026-04-03T18:31:57Z</time>
      </trkpt>
      <trkpt lat="41.40353853317443" lon="-81.73877648178153">
        <ele>265.8421886999</ele>
        <time>2026-04-03T18:32:34Z</time>
      </trkpt>
      <trkpt lat="41.40308431869040" lon="-81.73877781500953">
        <ele>266.1769155612</ele>
        <time>2026-04-03T18:33:12Z</time>
      </trkpt>
      <trkpt lat="41.40263357476082" lon="-81.73877864420025">
        <ele>266.8211651999</ele>
        <time>2026-04-03T18:33:50Z</time>
      </trkpt>
      <trkpt lat="41.40222401615468" lon="-81.73877351068295">
        <ele>267.1625667658</ele>
        <time>2026-04-03T18:34:32Z</time>
      </trkpt>
      <trkpt lat="41.40220590726106" lon="-81.73827171361238">
        <ele>267.0518733143</ele>
        <time>2026-04-03T18:35:09Z</time>
      </trkpt>
      <trkpt lat="41.40175676248759" lon="-81.73827261550730">
        <ele>267.8747147179</ele>
        <time>2026-04-03T18:35:51Z</time>
      </trkpt>
      <trkpt lat="41.40133859821126" lon="-81.73825533065559">
        <ele>267.4512944942</ele>
        <time>2026-04-03T18:36:34Z</time>
      </trkpt>
      <trkpt lat="41.40133748369392" lon="-81.73885784748074">
        <ele>267.2100021344</ele>
        <time>2026-04-03T18:37:20Z</time>
      </trkpt>
      <trkpt lat="41.40134207455567" lon="-81.73945902711672">
        <ele>267.0910722477</ele>
        <time>2026-04-03T18:37:55Z</time>
      </trkpt>
      <trkpt lat="41.40133604972670" lon="-81.74006241013424">
        <ele>266.5480300535</ele>
        <time>2026-04-03T18:38:28Z</time>
      </trkpt>
      <trkpt lat="41.40133547639785" lon="-81.74021067038582">
        <ele>266.7099402249</ele>
        <time>2026-04-03T18:38:44Z</time>
      </trkpt>
    </trkseg>
  </trk>
</gpx>