<?xml version='1.0' encoding='UTF-8'?>
<gpx xmlns="http://www.topografix.com/GPX/1/1" creator="https://gpx.studio" version="1.1">
  <metadata>
    <name>Dog Walk - 2026-09-11 #2</name>
  </metadata>
  <trk>
    <name>Dog Walk - 2026-09-11 #2</name>
    <type>dog walk</type>
    <trkseg>
      <trkpt lat="41.40133419891946" lon="-81.74023605433703">
        <ele>266.5645721175</ele>
        <time>2026-09-11T19:43:12Z</time>
      </trkpt>
      <trkpt lat="41.40133768053374" lon="-81.74083158837487">
        <ele>266.1623163239</ele>
        <time>2026-09-11T19:43:54Z</time>
      </trkpt>
      <trkpt lat="41.40134632404100" lon="-81.74142866789335">
        <ele>265.9056627425</ele>
        <time>2026-09-11T19:44:27Z</time>
      </trkpt>
      <trkpt lat="41.40133682187766" lon="-81.74203640349644">
        <ele>265.2797926561</ele>
        <time>2026-09-11T19:45:04Z</time>
      </trkpt>
      <trkpt lat="41.40134907922101" lon="-81.74242119855761">
        <ele>264.6709866552</ele>
        <time>2026-09-11T19:45:30Z</time>
      </trkpt>
      <trkpt lat="41.40176788774676" lon="-81.74263489685096">
        <ele>264.3306499163</ele>
        <time>2026-09-11T19:46:15Z</time>
      </trkpt>
      <trkpt lat="41.40218664827407" lon="-81.74285460999496">
        <ele>263.4279262853</ele>
        <time>2026-09-11T19:46:53Z</time>
      </trkpt>
      <trkpt lat="41.40221141981414" lon="-81.74286835167253">
        <ele>263.3799703106</ele>
        <time>2026-09-11T19:46:55Z</time>
      </trkpt>
      <trkpt lat="41.40221906924233" lon="-81.74225727421866">
        <ele>264.2019191514</ele>
        <time>2026-09-11T19:47:30Z</time>
      </trkpt>
      <trkpt lat="41.40222565347661" lon="-81.74166736107343">
        <ele>264.4394904596</ele>
        <time>2026-09-11T19:48:06Z</time>
      </trkpt>
      <trkpt lat="41.40221078252311" lon="-81.74106014989259">
        <ele>265.3370567993</ele>
        <time>2026-09-11T19:48:45Z</time>
      </trkpt>
      <trkpt lat="41.40221696851391" lon="-81.74046172339958">
        <ele>266.1118570877</ele>
        <time>2026-09-11T19:49:28Z</time>
      </trkpt>
      <trkpt lat="41.40222080804319" lon="-81.73986024684342">
        <ele>266.3132857202</ele>
        <time>2026-09-11T19:50:15Z</time>
      </trkpt>
      <trkpt lat="41.40222455935913" lon="-81.73928001159112">
        <ele>266.7720710451</ele>
        <time>2026-09-11T19:50:52Z</time>
      </trkpt>
      <trkpt lat="41.40221963332214" lon="-81.73866654384200">
        <ele>267.0794548412</ele>
        <time>2026-09-11T19:51:44Z</time>
      </trkpt>
      <trkpt lat="41.40221627398588" lon="-81.73826787123110">
        <ele>267.0968281980</ele>
        <time>2026-09-11T19:52:10Z</time>
      </trkpt>
      <trkpt lat="41.40176438413687" lon="-81.73826917697650">
        <ele>267.6833522814</ele>
        <time>2026-09-11T19:52:41Z</time>
      </trkpt>
      <trkpt lat="41.40134332270808" lon="-81.73826109323760">
        <ele>267.4083265719</ele>
        <time>2026-09-11T19:53:17Z</time>
      </trkpt>
      <trkpt lat="41.40134125738950" lon="-81.73885768583641">
        <ele>267.1709774815</ele>
        <time>2026-09-11T19:53:53Z</time>
      </trkpt>
      <trkpt lat="41.40133999020595" lon="-81.73946300853177">
        <ele>267.3610844882</ele>
        <time>2026-09-11T19:54:39Z</time>
      </trkpt>
      <trkpt lat="41.40133532662215" lon="-81.74006074611336">
        <ele>266.4670244912</ele>
        <time>2026-09-11T19:55:32Z</time>
      </trkpt>
      <trkpt lat="41.40133170715967" lon="-81.74019615514709">
        <ele>266.4893627994</ele>
        <time>2026-09-11T19:55:41Z</time>
      </trkpt>
    </trkseg>
  </trk>
</gpx>