<?xml version='1.0' encoding='UTF-8'?>
<gpx xmlns="http://www.topografix.com/GPX/1/1" creator="https://gpx.studio" version="1.1">
  <metadata>
    <name>Dog Walk - 2026-06-10 #1</name>
  </metadata>
  <trk>
    <name>Dog Walk - 2026-06-10 #1</name>
    <type>dog walk</type>
    <trkseg>
      <trkpt lat="41.40133560121209" lon="-81.74022861324539">
        <ele>266.5858180118</ele>
        <time>2026-06-10T08:52:38Z</time>
      </trkpt>
      <trkpt lat="41.40133967272677" lon="-81.74083734737475">
        <ele>266.1814437398</ele>
        <time>2026-06-10T08:53:21Z</time>
      </trkpt>
      <trkpt lat="41.40134514115383" lon="-81.74143846763850">
        <ele>265.7079974674</ele>
        <time>2026-06-10T08:54:24Z</time>
      </trkpt>
      <trkpt lat="41.40134457558610" lon="-81.74203245846785">
        <ele>265.4551984925</ele>
        <time>2026-06-10T08:54:58Z</time>
      </trkpt>
      <trkpt lat="41.40135438782374" lon="-81.74242187636666">
        <ele>264.7308319882</ele>
        <time>2026-06-10T08:55:23Z</time>
      </trkpt>
      <trkpt lat="41.40176608000456" lon="-81.74261818014512">
        <ele>264.2700688054</ele>
        <time>2026-06-10T08:56:07Z</time>
      </trkpt>
      <trkpt lat="41.40218987350723" lon="-81.74281765312706">
        <ele>263.5986301258</ele>
        <time>2026-06-10T08:56:54Z</time>
      </trkpt>
      <trkpt lat="41.40261534691647" lon="-81.74301600689790">
        <ele>262.7797980430</ele>
        <time>2026-06-10T08:57:31Z</time>
      </trkpt>
      <trkpt lat="41.40304072964588" lon="-81.74322731953370">
        <ele>262.5024094778</ele>
        <time>2026-06-10T08:58:34Z</time>
      </trkpt>
      <trkpt lat="41.40312030384396" lon="-81.74325254655210">
        <ele>262.2894412743</ele>
        <time>2026-06-10T08:58:42Z</time>
      </trkpt>
      <trkpt lat="41.40311852838483" lon="-81.74265090629193">
        <ele>263.0157405084</ele>
        <time>2026-06-10T08:59:25Z</time>
      </trkpt>
      <trkpt lat="41.40311529617624" lon="-81.74206123929352">
        <ele>263.7083659860</ele>
        <time>2026-06-10T09:00:07Z</time>
      </trkpt>
      <trkpt lat="41.40311295340014" lon="-81.74145759009077">
        <ele>264.0840965021</ele>
        <time>2026-06-10T09:00:56Z</time>
      </trkpt>
      <trkpt lat="41.40310198933604" lon="-81.74085813301193">
        <ele>264.8445496628</ele>
        <time>2026-06-10T09:01:33Z</time>
      </trkpt>
      <trkpt lat="41.40310444886477" lon="-81.74024917185756">
        <ele>265.3250914059</ele>
        <time>2026-06-10T09:02:09Z</time>
      </trkpt>
      <trkpt lat="41.40310370948394" lon="-81.73965541949875">
        <ele>265.7285235128</ele>
        <time>2026-06-10T09:02:48Z</time>
      </trkpt>
      <trkpt lat="41.40310127673275" lon="-81.73905937653063">
        <ele>266.0948240674</ele>
        <time>2026-06-10T09:03:38Z</time>
      </trkpt>
      <trkpt lat="41.40309234150718" lon="-81.73877784802072">
        <ele>266.0767880997</ele>
        <time>2026-06-10T09:03:54Z</time>
      </trkpt>
      <trkpt lat="41.40264605379035" lon="-81.73879161811429">
        <ele>267.0403989719</ele>
        <time>2026-06-10T09:04:43Z</time>
      </trkpt>
      <trkpt lat="41.40223299564135" lon="-81.73878747737255">
        <ele>267.0961606050</ele>
        <time>2026-06-10T09:05:28Z</time>
      </trkpt>
      <trkpt lat="41.40224035154392" lon="-81.73818197116017">
        <ele>267.0877742413</ele>
        <time>2026-06-10T09:06:11Z</time>
      </trkpt>
      <trkpt lat="41.40222734631906" lon="-81.73758848900454">
        <ele>267.0577044978</ele>
        <time>2026-06-10T09:07:03Z</time>
      </trkpt>
      <trkpt lat="41.40223354635318" lon="-81.73699290317255">
        <ele>267.2667676477</ele>
        <time>2026-06-10T09:07:34Z</time>
      </trkpt>
      <trkpt lat="41.40222171325464" lon="-81.73638342256301">
        <ele>267.0704673257</ele>
        <time>2026-06-10T09:08:11Z</time>
      </trkpt>
      <trkpt lat="41.40222243017010" lon="-81.73577940361857">
        <ele>267.3712958579</ele>
        <time>2026-06-10T09:09:07Z</time>
      </trkpt>
      <trkpt lat="41.40222509235507" lon="-81.73517597014816">
        <ele>267.0669441868</ele>
        <time>2026-06-10T09:09:43Z</time>
      </trkpt>
      <trkpt lat="41.40222194999384" lon="-81.73464273635751">
        <ele>267.0314305014</ele>
        <time>2026-06-10T09:10:30Z</time>
      </trkpt>
      <trkpt lat="41.40176853918512" lon="-81.73463943287064">
        <ele>267.0225541551</ele>
        <time>2026-06-10T09:11:09Z</time>
      </trkpt>
      <trkpt lat="41.40131815998017" lon="-81.73463402204992">
        <ele>267.3533325972</ele>
        <time>2026-06-10T09:11:42Z</time>
      </trkpt>
      <trkpt lat="41.40131287276185" lon="-81.73463548518831">
        <ele>267.2699245872</ele>
        <time>2026-06-10T09:11:43Z</time>
      </trkpt>
      <trkpt lat="41.40131737529845" lon="-81.73524273266585">
        <ele>267.8589239931</ele>
        <time>2026-06-10T09:12:15Z</time>
      </trkpt>
      <trkpt lat="41.40132775325692" lon="-81.73583857779701">
        <ele>268.2579550497</ele>
        <time>2026-06-10T09:12:48Z</time>
      </trkpt>
      <trkpt lat="41.40132287556557" lon="-81.73643295390893">
        <ele>268.2525345329</ele>
        <time>2026-06-10T09:13:20Z</time>
      </trkpt>
      <trkpt lat="41.40133617599874" lon="-81.73704363911274">
        <ele>267.9728776072</ele>
        <time>2026-06-10T09:13:56Z</time>
      </trkpt>
      <trkpt lat="41.40133298628687" lon="-81.73764634709570">
        <ele>267.9348609547</ele>
        <time>2026-06-10T09:14:39Z</time>
      </trkpt>
      <trkpt lat="41.40134005811649" lon="-81.73823737672035">
        <ele>267.6951888956</ele>
        <time>2026-06-10T09:15:13Z</time>
      </trkpt>
      <trkpt lat="41.40134913437972" lon="-81.73882566855947">
        <ele>267.2984239873</ele>
        <time>2026-06-10T09:15:50Z</time>
      </trkpt>
      <trkpt lat="41.40134676200348" lon="-81.73943644822175">
        <ele>267.1553343756</ele>
        <time>2026-06-10T09:16:35Z</time>
      </trkpt>
      <trkpt lat="41.40134678496850" lon="-81.74003159599177">
        <ele>266.5161764276</ele>
        <time>2026-06-10T09:17:20Z</time>
      </trkpt>
      <trkpt lat="41.40134673227094" lon="-81.74015593281935">
        <ele>266.2726427759</ele>
        <time>2026-06-10T09:17:29Z</time>
      </trkpt>
    </trkseg>
  </trk>
</gpx>