<?xml version='1.0' encoding='UTF-8'?>
<gpx xmlns="http://www.topografix.com/GPX/1/1" creator="https://gpx.studio" version="1.1">
  <metadata>
    <name>Dog Walk - 2026-02-17 #1</name>
  </metadata>
  <trk>
    <name>Dog Walk - 2026-02-17 #1</name>
    <type>dog walk</type>
    <trkseg>
      <trkpt lat="41.40134050721861" lon="-81.74025922070678">
        <ele>266.5046569141</ele>
        <time>2026-02-17T07:36:57Z</time>
      </trkpt>
      <trkpt lat="41.40133527691133" lon="-81.74025360177268">
        <ele>266.4894448936</ele>
        <time>2026-02-17T07:36:58Z</time>
      </trkpt>
      <trkpt lat="41.40132465404040" lon="-81.74086804802630">
        <ele>266.2268585828</ele>
        <time>2026-02-17T07:37:34Z</time>
      </trkpt>
      <trkpt lat="41.40133563539921" lon="-81.74145289389624">
        <ele>265.7286345925</ele>
        <time>2026-02-17T07:38:10Z</time>
      </trkpt>
      <trkpt lat="41.40132600160546" lon="-81.74206248830131">
        <ele>265.4056299295</ele>
        <time>2026-02-17T07:38:55Z</time>
      </trkpt>
      <trkpt lat="41.40132369485445" lon="-81.74237883808107">
        <ele>264.6836257712</ele>
        <time>2026-02-17T07:39:17Z</time>
      </trkpt>
      <trkpt lat="41.40131924923986" lon="-81.74237400778397">
        <ele>264.6471092433</ele>
        <time>2026-02-17T07:39:18Z</time>
      </trkpt>
      <trkpt lat="41.40090122175228" lon="-81.74218151974799">
        <ele>265.2193046966</ele>
        <time>2026-02-17T07:39:55Z</time>
      </trkpt>
      <trkpt lat="41.40047222781433" lon="-81.74199773718577">
        <ele>265.2286395389</ele>
        <time>2026-02-17T07:40:31Z</time>
      </trkpt>
      <trkpt lat="41.40005480903551" lon="-81.74179773883743">
        <ele>265.3237490269</ele>
        <time>2026-02-17T07:41:29Z</time>
      </trkpt>
      <trkpt lat="41.39962356050671" lon="-81.74160904097748">
        <ele>264.6367503615</ele>
        <time>2026-02-17T07:42:33Z</time>
      </trkpt>
      <trkpt lat="41.39954053180067" lon="-81.74156398798570">
        <ele>264.7219401967</ele>
        <time>2026-02-17T07:42:42Z</time>
      </trkpt>
      <trkpt lat="41.39954539759973" lon="-81.74096160676777">
        <ele>265.6102859697</ele>
        <time>2026-02-17T07:43:22Z</time>
      </trkpt>
      <trkpt lat="41.39953856916931" lon="-81.74036445457678">
        <ele>266.1552728121</ele>
        <time>2026-02-17T07:44:16Z</time>
      </trkpt>
      <trkpt lat="41.39953645100418" lon="-81.73976328501328">
        <ele>266.4796070322</ele>
        <time>2026-02-17T07:44:59Z</time>
      </trkpt>
      <trkpt lat="41.39954027416661" lon="-81.73917411487857">
        <ele>266.9793460599</ele>
        <time>2026-02-17T07:45:41Z</time>
      </trkpt>
      <trkpt lat="41.39953832529662" lon="-81.73857850022277">
        <ele>267.0647419922</ele>
        <time>2026-02-17T07:46:19Z</time>
      </trkpt>
      <trkpt lat="41.39953166256873" lon="-81.73829882361467">
        <ele>266.7713162722</ele>
        <time>2026-02-17T07:46:39Z</time>
      </trkpt>
      <trkpt lat="41.39953742893201" lon="-81.73829750176424">
        <ele>266.8339727262</ele>
        <time>2026-02-17T07:46:40Z</time>
      </trkpt>
      <trkpt lat="41.39998862694468" lon="-81.73830340887342">
        <ele>267.2380059255</ele>
        <time>2026-02-17T07:47:16Z</time>
      </trkpt>
      <trkpt lat="41.40043520985620" lon="-81.73830603193018">
        <ele>267.4738912392</ele>
        <time>2026-02-17T07:47:47Z</time>
      </trkpt>
      <trkpt lat="41.40087723119387" lon="-81.73828752432097">
        <ele>267.5480614885</ele>
        <time>2026-02-17T07:48:28Z</time>
      </trkpt>
      <trkpt lat="41.40132694972591" lon="-81.73830544249827">
        <ele>267.5354803436</ele>
        <time>2026-02-17T07:49:16Z</time>
      </trkpt>
      <trkpt lat="41.40133120475716" lon="-81.73889436400088">
        <ele>267.5135481519</ele>
        <time>2026-02-17T07:50:07Z</time>
      </trkpt>
      <trkpt lat="41.40132135913076" lon="-81.73949476291939">
        <ele>267.3207161971</ele>
        <time>2026-02-17T07:50:39Z</time>
      </trkpt>
      <trkpt lat="41.40134114879369" lon="-81.74010693593547">
        <ele>266.5037438122</ele>
        <time>2026-02-17T07:51:26Z</time>
      </trkpt>
      <trkpt lat="41.40133610168907" lon="-81.74015957607664">
        <ele>266.7039203837</ele>
        <time>2026-02-17T07:51:29Z</time>
      </trkpt>
    </trkseg>
  </trk>
</gpx>