<?xml version='1.0' encoding='UTF-8'?>
<gpx xmlns="http://www.topografix.com/GPX/1/1" creator="https://gpx.studio" version="1.1">
  <metadata>
    <name>Dog Walk - 2026-06-17 #2</name>
  </metadata>
  <trk>
    <name>Dog Walk - 2026-06-17 #2</name>
    <type>dog walk</type>
    <trkseg>
      <trkpt lat="41.40134274676436" lon="-81.74022827079399">
        <ele>266.5080319124</ele>
        <time>2026-06-17T12:08:17Z</time>
      </trkpt>
      <trkpt lat="41.40133890349320" lon="-81.74082947063020">
        <ele>266.3502960332</ele>
        <time>2026-06-17T12:08:51Z</time>
      </trkpt>
      <trkpt lat="41.40134508926294" lon="-81.74143599899107">
        <ele>265.7530574513</ele>
        <time>2026-06-17T12:09:28Z</time>
      </trkpt>
      <trkpt lat="41.40134960147545" lon="-81.74203285711810">
        <ele>265.2892705075</ele>
        <time>2026-06-17T12:10:16Z</time>
      </trkpt>
      <trkpt lat="41.40134912041869" lon="-81.74240546654755">
        <ele>264.7878254915</ele>
        <time>2026-06-17T12:10:51Z</time>
      </trkpt>
      <trkpt lat="41.40176922490732" lon="-81.74261972105394">
        <ele>264.1134082296</ele>
        <time>2026-06-17T12:11:26Z</time>
      </trkpt>
      <trkpt lat="41.40218980921214" lon="-81.74284416342627">
        <ele>263.5605281173</ele>
        <time>2026-06-17T12:12:14Z</time>
      </trkpt>
      <trkpt lat="41.40261851664145" lon="-81.74305053001187">
        <ele>262.8691723813</ele>
        <time>2026-06-17T12:13:01Z</time>
      </trkpt>
      <trkpt lat="41.40302352291268" lon="-81.74326285131291">
        <ele>262.3905624224</ele>
        <time>2026-06-17T12:13:44Z</time>
      </trkpt>
      <trkpt lat="41.40345188475074" lon="-81.74348159405980">
        <ele>262.0200288096</ele>
        <time>2026-06-17T12:14:36Z</time>
      </trkpt>
      <trkpt lat="41.40349142565739" lon="-81.74350989168352">
        <ele>261.8797157971</ele>
        <time>2026-06-17T12:14:42Z</time>
      </trkpt>
      <trkpt lat="41.40359647242288" lon="-81.74352372608995">
        <ele>261.7379914788</ele>
        <time>2026-06-17T12:14:52Z</time>
      </trkpt>
      <trkpt lat="41.40399070871053" lon="-81.74350752360317">
        <ele>260.5940489908</ele>
        <time>2026-06-17T12:15:29Z</time>
      </trkpt>
      <trkpt lat="41.40399292295157" lon="-81.74291098653659">
        <ele>261.6178669770</ele>
        <time>2026-06-17T12:16:40Z</time>
      </trkpt>
      <trkpt lat="41.40398974863899" lon="-81.74231230123500">
        <ele>262.1250475416</ele>
        <time>2026-06-17T12:17:24Z</time>
      </trkpt>
      <trkpt lat="41.40399132926271" lon="-81.74170991102206">
        <ele>262.4062249346</ele>
        <time>2026-06-17T12:18:20Z</time>
      </trkpt>
      <trkpt lat="41.40398838963768" lon="-81.74111587989357">
        <ele>262.8688476661</ele>
        <time>2026-06-17T12:18:55Z</time>
      </trkpt>
      <trkpt lat="41.40399363547353" lon="-81.74050558909269">
        <ele>263.4275662472</ele>
        <time>2026-06-17T12:20:00Z</time>
      </trkpt>
      <trkpt lat="41.40398387779640" lon="-81.73991415158930">
        <ele>264.3460493307</ele>
        <time>2026-06-17T12:20:33Z</time>
      </trkpt>
      <trkpt lat="41.40399260664746" lon="-81.73931797591371">
        <ele>264.7465882716</ele>
        <time>2026-06-17T12:21:06Z</time>
      </trkpt>
      <trkpt lat="41.40399317054175" lon="-81.73877231539055">
        <ele>265.4922765203</ele>
        <time>2026-06-17T12:21:58Z</time>
      </trkpt>
      <trkpt lat="41.40353534104980" lon="-81.73877782744437">
        <ele>265.7854420438</ele>
        <time>2026-06-17T12:22:32Z</time>
      </trkpt>
      <trkpt lat="41.40308745062164" lon="-81.73877542205135">
        <ele>266.2560078460</ele>
        <time>2026-06-17T12:23:10Z</time>
      </trkpt>
      <trkpt lat="41.40264127028969" lon="-81.73877500747217">
        <ele>267.0884323338</ele>
        <time>2026-06-17T12:23:45Z</time>
      </trkpt>
      <trkpt lat="41.40222096743205" lon="-81.73878165617786">
        <ele>267.2459489808</ele>
        <time>2026-06-17T12:24:26Z</time>
      </trkpt>
      <trkpt lat="41.40222024178392" lon="-81.73827011930865">
        <ele>267.1883742801</ele>
        <time>2026-06-17T12:24:55Z</time>
      </trkpt>
      <trkpt lat="41.40176495684818" lon="-81.73825503937729">
        <ele>267.6742049658</ele>
        <time>2026-06-17T12:25:28Z</time>
      </trkpt>
      <trkpt lat="41.40132801348068" lon="-81.73827345245721">
        <ele>267.6124475272</ele>
        <time>2026-06-17T12:25:59Z</time>
      </trkpt>
      <trkpt lat="41.40132533161642" lon="-81.73887961153464">
        <ele>267.3410280713</ele>
        <time>2026-06-17T12:26:37Z</time>
      </trkpt>
      <trkpt lat="41.40133845216113" lon="-81.73946656366650">
        <ele>267.2739153275</ele>
        <time>2026-06-17T12:27:10Z</time>
      </trkpt>
      <trkpt lat="41.40133647995579" lon="-81.74006764705514">
        <ele>266.6817309483</ele>
        <time>2026-06-17T12:27:46Z</time>
      </trkpt>
      <trkpt lat="41.40133360138868" lon="-81.74021026569470">
        <ele>266.2851919443</ele>
        <time>2026-06-17T12:27:55Z</time>
      </trkpt>
    </trkseg>
  </trk>
</gpx>