<?xml version='1.0' encoding='UTF-8'?>
<gpx xmlns="http://www.topografix.com/GPX/1/1" creator="https://gpx.studio" version="1.1">
  <metadata>
    <name>Dog Walk - 2026-05-09 #1</name>
  </metadata>
  <trk>
    <name>Dog Walk - 2026-05-09 #1</name>
    <type>dog walk</type>
    <trkseg>
      <trkpt lat="41.40133994177656" lon="-81.74026449388602">
        <ele>266.6950595752</ele>
        <time>2026-05-09T08:36:50Z</time>
      </trkpt>
      <trkpt lat="41.40133481326343" lon="-81.74025316310305">
        <ele>266.4103710981</ele>
        <time>2026-05-09T08:36:51Z</time>
      </trkpt>
      <trkpt lat="41.40132479174108" lon="-81.74086542677320">
        <ele>266.1541271363</ele>
        <time>2026-05-09T08:37:37Z</time>
      </trkpt>
      <trkpt lat="41.40132130594039" lon="-81.74145903596371">
        <ele>265.8909882486</ele>
        <time>2026-05-09T08:38:30Z</time>
      </trkpt>
      <trkpt lat="41.40133174951679" lon="-81.74205694232346">
        <ele>265.3517146754</ele>
        <time>2026-05-09T08:39:05Z</time>
      </trkpt>
      <trkpt lat="41.40132880482957" lon="-81.74237596994769">
        <ele>264.8082674290</ele>
        <time>2026-05-09T08:39:25Z</time>
      </trkpt>
      <trkpt lat="41.40132146450620" lon="-81.74238443161579">
        <ele>264.7045476562</ele>
        <time>2026-05-09T08:39:26Z</time>
      </trkpt>
      <trkpt lat="41.40090671193726" lon="-81.74217587305809">
        <ele>265.1589365194</ele>
        <time>2026-05-09T08:40:03Z</time>
      </trkpt>
      <trkpt lat="41.40047979472102" lon="-81.74199438868121">
        <ele>265.0882951153</ele>
        <time>2026-05-09T08:40:37Z</time>
      </trkpt>
      <trkpt lat="41.40004727436390" lon="-81.74179874227676">
        <ele>265.5038160988</ele>
        <time>2026-05-09T08:41:15Z</time>
      </trkpt>
      <trkpt lat="41.39961945437948" lon="-81.74160448433821">
        <ele>264.6981859104</ele>
        <time>2026-05-09T08:41:53Z</time>
      </trkpt>
      <trkpt lat="41.39954462833960" lon="-81.74156960905768">
        <ele>264.6969234514</ele>
        <time>2026-05-09T08:42:00Z</time>
      </trkpt>
      <trkpt lat="41.39953884649754" lon="-81.74097287927464">
        <ele>265.4565107062</ele>
        <time>2026-05-09T08:42:32Z</time>
      </trkpt>
      <trkpt lat="41.39954319990667" lon="-81.74037125834199">
        <ele>266.1956843469</ele>
        <time>2026-05-09T08:43:04Z</time>
      </trkpt>
      <trkpt lat="41.39953484290246" lon="-81.73978265046027">
        <ele>266.6307985096</ele>
        <time>2026-05-09T08:43:43Z</time>
      </trkpt>
      <trkpt lat="41.39953526085954" lon="-81.73917719103657">
        <ele>266.7614728440</ele>
        <time>2026-05-09T08:44:24Z</time>
      </trkpt>
      <trkpt lat="41.39953607986686" lon="-81.73856185151516">
        <ele>266.8822709144</ele>
        <time>2026-05-09T08:45:03Z</time>
      </trkpt>
      <trkpt lat="41.39953477028755" lon="-81.73829680814120">
        <ele>266.8362818890</ele>
        <time>2026-05-09T08:45:19Z</time>
      </trkpt>
      <trkpt lat="41.39952959097032" lon="-81.73828961591815">
        <ele>266.9630458727</ele>
        <time>2026-05-09T08:45:20Z</time>
      </trkpt>
      <trkpt lat="41.39998150676185" lon="-81.73829105641838">
        <ele>267.0896984239</ele>
        <time>2026-05-09T08:45:58Z</time>
      </trkpt>
      <trkpt lat="41.40043457865595" lon="-81.73829614205010">
        <ele>267.0256339785</ele>
        <time>2026-05-09T08:46:41Z</time>
      </trkpt>
      <trkpt lat="41.40088125844501" lon="-81.73829203244040">
        <ele>267.5907130534</ele>
        <time>2026-05-09T08:47:22Z</time>
      </trkpt>
      <trkpt lat="41.40131703976427" lon="-81.73830131454727">
        <ele>267.3661610807</ele>
        <time>2026-05-09T08:48:01Z</time>
      </trkpt>
      <trkpt lat="41.40133604302016" lon="-81.73890839320256">
        <ele>267.4032265014</ele>
        <time>2026-05-09T08:48:34Z</time>
      </trkpt>
      <trkpt lat="41.40133441064780" lon="-81.73951114543172">
        <ele>267.1082478600</ele>
        <time>2026-05-09T08:49:18Z</time>
      </trkpt>
      <trkpt lat="41.40134314260391" lon="-81.74010081488650">
        <ele>266.4796313627</ele>
        <time>2026-05-09T08:49:49Z</time>
      </trkpt>
      <trkpt lat="41.40133885197412" lon="-81.74015602254306">
        <ele>266.5998304348</ele>
        <time>2026-05-09T08:49:53Z</time>
      </trkpt>
    </trkseg>
  </trk>
</gpx>