<?xml version='1.0' encoding='UTF-8'?>
<gpx xmlns="http://www.topografix.com/GPX/1/1" creator="https://gpx.studio" version="1.1">
  <metadata>
    <name>Dog Walk - 2026-07-02 #3</name>
  </metadata>
  <trk>
    <name>Dog Walk - 2026-07-02 #3</name>
    <type>dog walk</type>
    <trkseg>
      <trkpt lat="41.40133308919691" lon="-81.74023543720976">
        <ele>266.6173593434</ele>
        <time>2026-07-02T16:55:34Z</time>
      </trkpt>
      <trkpt lat="41.40133194763035" lon="-81.74083693412386">
        <ele>266.1074760802</ele>
        <time>2026-07-02T16:56:10Z</time>
      </trkpt>
      <trkpt lat="41.40133072891540" lon="-81.74143698491216">
        <ele>265.6435394020</ele>
        <time>2026-07-02T16:56:46Z</time>
      </trkpt>
      <trkpt lat="41.40132785538432" lon="-81.74203334412906">
        <ele>265.2701555227</ele>
        <time>2026-07-02T16:57:29Z</time>
      </trkpt>
      <trkpt lat="41.40132653523658" lon="-81.74239301187588">
        <ele>264.6854552770</ele>
        <time>2026-07-02T16:57:56Z</time>
      </trkpt>
      <trkpt lat="41.40089491953325" lon="-81.74220072694436">
        <ele>265.1123754113</ele>
        <time>2026-07-02T16:58:33Z</time>
      </trkpt>
      <trkpt lat="41.40048038139506" lon="-81.74200686736245">
        <ele>265.3992232724</ele>
        <time>2026-07-02T16:59:14Z</time>
      </trkpt>
      <trkpt lat="41.40005416912581" lon="-81.74181390237625">
        <ele>265.6970739915</ele>
        <time>2026-07-02T16:59:53Z</time>
      </trkpt>
      <trkpt lat="41.39963290150801" lon="-81.74160154729046">
        <ele>264.7423535805</ele>
        <time>2026-07-02T17:00:39Z</time>
      </trkpt>
      <trkpt lat="41.39953095980160" lon="-81.74157243318922">
        <ele>264.6607617017</ele>
        <time>2026-07-02T17:00:53Z</time>
      </trkpt>
      <trkpt lat="41.39953443062497" lon="-81.74097059397289">
        <ele>265.5535875248</ele>
        <time>2026-07-02T17:01:30Z</time>
      </trkpt>
      <trkpt lat="41.39952842606940" lon="-81.74038545990426">
        <ele>265.9799225099</ele>
        <time>2026-07-02T17:02:07Z</time>
      </trkpt>
      <trkpt lat="41.39953965732925" lon="-81.73976808743951">
        <ele>266.5818190745</ele>
        <time>2026-07-02T17:03:04Z</time>
      </trkpt>
      <trkpt lat="41.39954067391538" lon="-81.73917859080285">
        <ele>266.8762400408</ele>
        <time>2026-07-02T17:03:54Z</time>
      </trkpt>
      <trkpt lat="41.39952504751796" lon="-81.73857461089928">
        <ele>266.8669832162</ele>
        <time>2026-07-02T17:04:39Z</time>
      </trkpt>
      <trkpt lat="41.39952775688110" lon="-81.73798058116346">
        <ele>267.1562582536</ele>
        <time>2026-07-02T17:05:29Z</time>
      </trkpt>
      <trkpt lat="41.39952602962214" lon="-81.73736908053506">
        <ele>267.3011930131</ele>
        <time>2026-07-02T17:06:00Z</time>
      </trkpt>
      <trkpt lat="41.39954215108668" lon="-81.73677719911545">
        <ele>267.1687594287</ele>
        <time>2026-07-02T17:06:34Z</time>
      </trkpt>
      <trkpt lat="41.39952382270636" lon="-81.73617458090040">
        <ele>267.7048227413</ele>
        <time>2026-07-02T17:07:14Z</time>
      </trkpt>
      <trkpt lat="41.39953842845322" lon="-81.73558377478660">
        <ele>267.3582785695</ele>
        <time>2026-07-02T17:07:54Z</time>
      </trkpt>
      <trkpt lat="41.39953004314385" lon="-81.73497077362694">
        <ele>267.1685265967</ele>
        <time>2026-07-02T17:08:44Z</time>
      </trkpt>
      <trkpt lat="41.39952570554859" lon="-81.73461336302286">
        <ele>267.1238346795</ele>
        <time>2026-07-02T17:09:02Z</time>
      </trkpt>
      <trkpt lat="41.39997069174646" lon="-81.73462730103532">
        <ele>266.9381536514</ele>
        <time>2026-07-02T17:09:39Z</time>
      </trkpt>
      <trkpt lat="41.40042381960855" lon="-81.73462584509763">
        <ele>267.2085877822</ele>
        <time>2026-07-02T17:10:19Z</time>
      </trkpt>
      <trkpt lat="41.40087443235046" lon="-81.73463409759577">
        <ele>267.0157262713</ele>
        <time>2026-07-02T17:11:03Z</time>
      </trkpt>
      <trkpt lat="41.40131195529439" lon="-81.73463930460248">
        <ele>267.1328551521</ele>
        <time>2026-07-02T17:11:44Z</time>
      </trkpt>
      <trkpt lat="41.40132715434187" lon="-81.73523867292202">
        <ele>267.7762386759</ele>
        <time>2026-07-02T17:12:19Z</time>
      </trkpt>
      <trkpt lat="41.40132468651475" lon="-81.73584189143530">
        <ele>268.2313780084</ele>
        <time>2026-07-02T17:12:53Z</time>
      </trkpt>
      <trkpt lat="41.40132543098567" lon="-81.73642791301330">
        <ele>267.9480945046</ele>
        <time>2026-07-02T17:13:42Z</time>
      </trkpt>
      <trkpt lat="41.40133120673602" lon="-81.73703845431751">
        <ele>268.0993965860</ele>
        <time>2026-07-02T17:14:22Z</time>
      </trkpt>
      <trkpt lat="41.40133107132005" lon="-81.73763719133301">
        <ele>267.8924533346</ele>
        <time>2026-07-02T17:14:59Z</time>
      </trkpt>
      <trkpt lat="41.40133262685759" lon="-81.73823412372967">
        <ele>267.7037560620</ele>
        <time>2026-07-02T17:15:46Z</time>
      </trkpt>
      <trkpt lat="41.40132719896918" lon="-81.73884375421274">
        <ele>267.1352816998</ele>
        <time>2026-07-02T17:16:20Z</time>
      </trkpt>
      <trkpt lat="41.40133430310325" lon="-81.73943629592944">
        <ele>267.2072674487</ele>
        <time>2026-07-02T17:17:01Z</time>
      </trkpt>
      <trkpt lat="41.40132203163058" lon="-81.74003316753958">
        <ele>266.8028918327</ele>
        <time>2026-07-02T17:17:36Z</time>
      </trkpt>
      <trkpt lat="41.40133140640737" lon="-81.74022054588535">
        <ele>266.4712458313</ele>
        <time>2026-07-02T17:17:48Z</time>
      </trkpt>
    </trkseg>
  </trk>
</gpx>