<?xml version='1.0' encoding='UTF-8'?>
<gpx xmlns="http://www.topografix.com/GPX/1/1" creator="https://gpx.studio" version="1.1">
  <metadata>
    <name>Dog Walk - 2026-04-20 #1</name>
  </metadata>
  <trk>
    <name>Dog Walk - 2026-04-20 #1</name>
    <type>dog walk</type>
    <trkseg>
      <trkpt lat="41.40134140716589" lon="-81.74024133089907">
        <ele>266.5149086241</ele>
        <time>2026-04-20T06:45:26Z</time>
      </trkpt>
      <trkpt lat="41.40134325650685" lon="-81.74083595682107">
        <ele>266.1382902384</ele>
        <time>2026-04-20T06:46:11Z</time>
      </trkpt>
      <trkpt lat="41.40133619894497" lon="-81.74143183239804">
        <ele>265.6141838113</ele>
        <time>2026-04-20T06:46:53Z</time>
      </trkpt>
      <trkpt lat="41.40134409837858" lon="-81.74203136117266">
        <ele>265.2718908112</ele>
        <time>2026-04-20T06:47:27Z</time>
      </trkpt>
      <trkpt lat="41.40134979141182" lon="-81.74241594877314">
        <ele>264.6884199613</ele>
        <time>2026-04-20T06:47:51Z</time>
      </trkpt>
      <trkpt lat="41.40176840507787" lon="-81.74260737734893">
        <ele>264.2731703451</ele>
        <time>2026-04-20T06:48:20Z</time>
      </trkpt>
      <trkpt lat="41.40219590615923" lon="-81.74282151702485">
        <ele>263.4444474292</ele>
        <time>2026-04-20T06:49:11Z</time>
      </trkpt>
      <trkpt lat="41.40262100817834" lon="-81.74301183520417">
        <ele>263.1659000219</ele>
        <time>2026-04-20T06:50:07Z</time>
      </trkpt>
      <trkpt lat="41.40304422610322" lon="-81.74322321366995">
        <ele>262.4955308822</ele>
        <time>2026-04-20T06:50:45Z</time>
      </trkpt>
      <trkpt lat="41.40311668028140" lon="-81.74324632541271">
        <ele>262.2193968355</ele>
        <time>2026-04-20T06:50:49Z</time>
      </trkpt>
      <trkpt lat="41.40311381032832" lon="-81.74265402651127">
        <ele>263.0871332823</ele>
        <time>2026-04-20T06:51:25Z</time>
      </trkpt>
      <trkpt lat="41.40311220788686" lon="-81.74205496399019">
        <ele>263.8249407064</ele>
        <time>2026-04-20T06:52:00Z</time>
      </trkpt>
      <trkpt lat="41.40311521266294" lon="-81.74145743225688">
        <ele>264.3071617410</ele>
        <time>2026-04-20T06:52:35Z</time>
      </trkpt>
      <trkpt lat="41.40310676990199" lon="-81.74085705844657">
        <ele>264.7151317200</ele>
        <time>2026-04-20T06:53:11Z</time>
      </trkpt>
      <trkpt lat="41.40309632519676" lon="-81.74024937583101">
        <ele>265.3649214736</ele>
        <time>2026-04-20T06:54:02Z</time>
      </trkpt>
      <trkpt lat="41.40310590300587" lon="-81.73965597786980">
        <ele>265.9851231345</ele>
        <time>2026-04-20T06:54:43Z</time>
      </trkpt>
      <trkpt lat="41.40310349495783" lon="-81.73905711948048">
        <ele>266.0150622042</ele>
        <time>2026-04-20T06:55:34Z</time>
      </trkpt>
      <trkpt lat="41.40309699835442" lon="-81.73879303945553">
        <ele>266.1629027733</ele>
        <time>2026-04-20T06:55:48Z</time>
      </trkpt>
      <trkpt lat="41.40265306234658" lon="-81.73878038718279">
        <ele>266.7620177796</ele>
        <time>2026-04-20T06:56:30Z</time>
      </trkpt>
      <trkpt lat="41.40223369538084" lon="-81.73877967391462">
        <ele>267.2571499315</ele>
        <time>2026-04-20T06:57:07Z</time>
      </trkpt>
      <trkpt lat="41.40223646851405" lon="-81.73817361313327">
        <ele>267.3342940668</ele>
        <time>2026-04-20T06:57:42Z</time>
      </trkpt>
      <trkpt lat="41.40222583456010" lon="-81.73758973053748">
        <ele>266.9856445631</ele>
        <time>2026-04-20T06:58:25Z</time>
      </trkpt>
      <trkpt lat="41.40223046798167" lon="-81.73698537155390">
        <ele>267.2405608618</ele>
        <time>2026-04-20T06:59:12Z</time>
      </trkpt>
      <trkpt lat="41.40222591135664" lon="-81.73637797171210">
        <ele>267.1737970714</ele>
        <time>2026-04-20T06:59:51Z</time>
      </trkpt>
      <trkpt lat="41.40222403411685" lon="-81.73577146350216">
        <ele>267.2704678906</ele>
        <time>2026-04-20T07:00:40Z</time>
      </trkpt>
      <trkpt lat="41.40222168496742" lon="-81.73518521710190">
        <ele>267.0509145326</ele>
        <time>2026-04-20T07:01:11Z</time>
      </trkpt>
      <trkpt lat="41.40222458323150" lon="-81.73465911184786">
        <ele>266.8481528158</ele>
        <time>2026-04-20T07:01:48Z</time>
      </trkpt>
      <trkpt lat="41.40177654343380" lon="-81.73465384269088">
        <ele>267.1649885950</ele>
        <time>2026-04-20T07:02:24Z</time>
      </trkpt>
      <trkpt lat="41.40132717251757" lon="-81.73463863939128">
        <ele>267.3894018479</ele>
        <time>2026-04-20T07:03:09Z</time>
      </trkpt>
      <trkpt lat="41.40131847015288" lon="-81.73463046376665">
        <ele>267.3199820040</ele>
        <time>2026-04-20T07:03:10Z</time>
      </trkpt>
      <trkpt lat="41.40132408702995" lon="-81.73523850499397">
        <ele>267.7599474599</ele>
        <time>2026-04-20T07:03:57Z</time>
      </trkpt>
      <trkpt lat="41.40131436805292" lon="-81.73583968446042">
        <ele>268.4037858866</ele>
        <time>2026-04-20T07:04:33Z</time>
      </trkpt>
      <trkpt lat="41.40132738381917" lon="-81.73643727923451">
        <ele>268.2519488351</ele>
        <time>2026-04-20T07:05:05Z</time>
      </trkpt>
      <trkpt lat="41.40133061102506" lon="-81.73703954424757">
        <ele>268.0121208285</ele>
        <time>2026-04-20T07:05:55Z</time>
      </trkpt>
      <trkpt lat="41.40132686345467" lon="-81.73763790960599">
        <ele>268.0037770553</ele>
        <time>2026-04-20T07:06:27Z</time>
      </trkpt>
      <trkpt lat="41.40133191336466" lon="-81.73823874767673">
        <ele>267.4856440470</ele>
        <time>2026-04-20T07:06:57Z</time>
      </trkpt>
      <trkpt lat="41.40134359345907" lon="-81.73882808419111">
        <ele>267.3099038263</ele>
        <time>2026-04-20T07:07:45Z</time>
      </trkpt>
      <trkpt lat="41.40134231757191" lon="-81.73942878745747">
        <ele>267.0399255564</ele>
        <time>2026-04-20T07:08:35Z</time>
      </trkpt>
      <trkpt lat="41.40134612936104" lon="-81.74002841384100">
        <ele>266.6216586852</ele>
        <time>2026-04-20T07:09:17Z</time>
      </trkpt>
      <trkpt lat="41.40134571461513" lon="-81.74016044288364">
        <ele>266.7370876354</ele>
        <time>2026-04-20T07:09:25Z</time>
      </trkpt>
    </trkseg>
  </trk>
</gpx>