<?xml version='1.0' encoding='UTF-8'?>
<gpx xmlns="http://www.topografix.com/GPX/1/1" creator="https://gpx.studio" version="1.1">
  <metadata>
    <name>Dog Walk - 2026-04-04 #3</name>
  </metadata>
  <trk>
    <name>Dog Walk - 2026-04-04 #3</name>
    <type>dog walk</type>
    <trkseg>
      <trkpt lat="41.40132817057878" lon="-81.74024466007549">
        <ele>266.7296328892</ele>
        <time>2026-04-04T19:33:18Z</time>
      </trkpt>
      <trkpt lat="41.40132851619975" lon="-81.74083662938328">
        <ele>266.3584057948</ele>
        <time>2026-04-04T19:33:59Z</time>
      </trkpt>
      <trkpt lat="41.40132582035616" lon="-81.74143649889233">
        <ele>265.8412711536</ele>
        <time>2026-04-04T19:34:42Z</time>
      </trkpt>
      <trkpt lat="41.40133722943596" lon="-81.74203480171468">
        <ele>265.2628571346</ele>
        <time>2026-04-04T19:35:17Z</time>
      </trkpt>
      <trkpt lat="41.40132816140672" lon="-81.74238905620398">
        <ele>264.7379253472</ele>
        <time>2026-04-04T19:35:43Z</time>
      </trkpt>
      <trkpt lat="41.40090159106081" lon="-81.74219356998654">
        <ele>264.9738180694</ele>
        <time>2026-04-04T19:36:13Z</time>
      </trkpt>
      <trkpt lat="41.40047576039328" lon="-81.74199678015610">
        <ele>265.1483603765</ele>
        <time>2026-04-04T19:36:51Z</time>
      </trkpt>
      <trkpt lat="41.40005090791798" lon="-81.74180907490548">
        <ele>265.3729992194</ele>
        <time>2026-04-04T19:37:28Z</time>
      </trkpt>
      <trkpt lat="41.39963110382090" lon="-81.74161302939601">
        <ele>264.5478249976</ele>
        <time>2026-04-04T19:38:18Z</time>
      </trkpt>
      <trkpt lat="41.39953395317208" lon="-81.74157985562587">
        <ele>264.7509521964</ele>
        <time>2026-04-04T19:38:26Z</time>
      </trkpt>
      <trkpt lat="41.39952591387313" lon="-81.74097655307150">
        <ele>265.6598436602</ele>
        <time>2026-04-04T19:39:05Z</time>
      </trkpt>
      <trkpt lat="41.39953826953487" lon="-81.74037483405401">
        <ele>265.8802472308</ele>
        <time>2026-04-04T19:39:45Z</time>
      </trkpt>
      <trkpt lat="41.39953363737579" lon="-81.73977619925358">
        <ele>266.6249544141</ele>
        <time>2026-04-04T19:40:16Z</time>
      </trkpt>
      <trkpt lat="41.39952969166474" lon="-81.73917378068876">
        <ele>267.0342382508</ele>
        <time>2026-04-04T19:40:53Z</time>
      </trkpt>
      <trkpt lat="41.39954529366415" lon="-81.73857874277343">
        <ele>266.9601410079</ele>
        <time>2026-04-04T19:41:30Z</time>
      </trkpt>
      <trkpt lat="41.39952153065121" lon="-81.73797106886462">
        <ele>266.9650010557</ele>
        <time>2026-04-04T19:42:15Z</time>
      </trkpt>
      <trkpt lat="41.39953550303669" lon="-81.73737905918350">
        <ele>267.5429332289</ele>
        <time>2026-04-04T19:42:56Z</time>
      </trkpt>
      <trkpt lat="41.39952946426046" lon="-81.73677241100143">
        <ele>267.4723615121</ele>
        <time>2026-04-04T19:43:40Z</time>
      </trkpt>
      <trkpt lat="41.39952447486425" lon="-81.73618644627791">
        <ele>267.4064899235</ele>
        <time>2026-04-04T19:44:15Z</time>
      </trkpt>
      <trkpt lat="41.39952519167036" lon="-81.73557332816669">
        <ele>267.4627638072</ele>
        <time>2026-04-04T19:45:03Z</time>
      </trkpt>
      <trkpt lat="41.39952215132254" lon="-81.73497530028848">
        <ele>267.1651010893</ele>
        <time>2026-04-04T19:45:58Z</time>
      </trkpt>
      <trkpt lat="41.39951782045461" lon="-81.73461362460498">
        <ele>267.3151151323</ele>
        <time>2026-04-04T19:46:24Z</time>
      </trkpt>
      <trkpt lat="41.39997622324115" lon="-81.73460952637339">
        <ele>267.2797777304</ele>
        <time>2026-04-04T19:46:56Z</time>
      </trkpt>
      <trkpt lat="41.40043469911799" lon="-81.73463297491776">
        <ele>267.1059263956</ele>
        <time>2026-04-04T19:47:34Z</time>
      </trkpt>
      <trkpt lat="41.40086762386940" lon="-81.73463079562269">
        <ele>267.1501788153</ele>
        <time>2026-04-04T19:48:07Z</time>
      </trkpt>
      <trkpt lat="41.40132547643790" lon="-81.73463533320088">
        <ele>267.1272781588</ele>
        <time>2026-04-04T19:48:55Z</time>
      </trkpt>
      <trkpt lat="41.40132991880120" lon="-81.73524027758658">
        <ele>267.7615428310</ele>
        <time>2026-04-04T19:49:28Z</time>
      </trkpt>
      <trkpt lat="41.40132800177769" lon="-81.73583563486129">
        <ele>268.2359115376</ele>
        <time>2026-04-04T19:50:14Z</time>
      </trkpt>
      <trkpt lat="41.40132428257525" lon="-81.73643868707542">
        <ele>268.2151217874</ele>
        <time>2026-04-04T19:50:45Z</time>
      </trkpt>
      <trkpt lat="41.40131844077627" lon="-81.73703682446494">
        <ele>267.8908217884</ele>
        <time>2026-04-04T19:51:15Z</time>
      </trkpt>
      <trkpt lat="41.40132613180061" lon="-81.73764159412993">
        <ele>267.8350850451</ele>
        <time>2026-04-04T19:51:53Z</time>
      </trkpt>
      <trkpt lat="41.40131889234770" lon="-81.73823331246099">
        <ele>267.5151160483</ele>
        <time>2026-04-04T19:52:31Z</time>
      </trkpt>
      <trkpt lat="41.40132830719475" lon="-81.73884843017292">
        <ele>267.3040111618</ele>
        <time>2026-04-04T19:53:41Z</time>
      </trkpt>
      <trkpt lat="41.40133595260754" lon="-81.73943678992181">
        <ele>267.2396491891</ele>
        <time>2026-04-04T19:54:19Z</time>
      </trkpt>
      <trkpt lat="41.40134167765855" lon="-81.74004346429352">
        <ele>266.7011607131</ele>
        <time>2026-04-04T19:54:59Z</time>
      </trkpt>
      <trkpt lat="41.40133604475673" lon="-81.74022985292464">
        <ele>266.4449772524</ele>
        <time>2026-04-04T19:55:13Z</time>
      </trkpt>
    </trkseg>
  </trk>
</gpx>