<?xml version='1.0' encoding='UTF-8'?>
<gpx xmlns="http://www.topografix.com/GPX/1/1" creator="https://gpx.studio" version="1.1">
  <metadata>
    <name>Dog Walk - 2026-03-02 #3</name>
  </metadata>
  <trk>
    <name>Dog Walk - 2026-03-02 #3</name>
    <type>dog walk</type>
    <trkseg>
      <trkpt lat="41.40133395504668" lon="-81.74024736874048">
        <ele>266.6156316692</ele>
        <time>2026-03-02T16:59:50Z</time>
      </trkpt>
      <trkpt lat="41.40134391184557" lon="-81.74084205383230">
        <ele>266.3518323211</ele>
        <time>2026-03-02T17:00:36Z</time>
      </trkpt>
      <trkpt lat="41.40134975809077" lon="-81.74143709166695">
        <ele>265.6352180876</ele>
        <time>2026-03-02T17:01:11Z</time>
      </trkpt>
      <trkpt lat="41.40135315102835" lon="-81.74203608462031">
        <ele>265.2389131771</ele>
        <time>2026-03-02T17:01:50Z</time>
      </trkpt>
      <trkpt lat="41.40134370664195" lon="-81.74241758703330">
        <ele>264.8886695751</ele>
        <time>2026-03-02T17:02:23Z</time>
      </trkpt>
      <trkpt lat="41.40176892338078" lon="-81.74261993819579">
        <ele>264.1713662508</ele>
        <time>2026-03-02T17:02:55Z</time>
      </trkpt>
      <trkpt lat="41.40219366191622" lon="-81.74282367177535">
        <ele>263.5399980248</ele>
        <time>2026-03-02T17:03:31Z</time>
      </trkpt>
      <trkpt lat="41.40261526678653" lon="-81.74303268298684">
        <ele>263.0932481140</ele>
        <time>2026-03-02T17:04:09Z</time>
      </trkpt>
      <trkpt lat="41.40305022074681" lon="-81.74321710531375">
        <ele>262.1049621688</ele>
        <time>2026-03-02T17:05:01Z</time>
      </trkpt>
      <trkpt lat="41.40312336851017" lon="-81.74325650056079">
        <ele>262.4665029973</ele>
        <time>2026-03-02T17:05:07Z</time>
      </trkpt>
      <trkpt lat="41.40311600701010" lon="-81.74265592244818">
        <ele>263.0331347321</ele>
        <time>2026-03-02T17:05:48Z</time>
      </trkpt>
      <trkpt lat="41.40311208879606" lon="-81.74204909831880">
        <ele>263.5975756776</ele>
        <time>2026-03-02T17:06:27Z</time>
      </trkpt>
      <trkpt lat="41.40311506445047" lon="-81.74146059500853">
        <ele>264.1206969459</ele>
        <time>2026-03-02T17:06:59Z</time>
      </trkpt>
      <trkpt lat="41.40310341663604" lon="-81.74084556749939">
        <ele>265.1019362424</ele>
        <time>2026-03-02T17:07:58Z</time>
      </trkpt>
      <trkpt lat="41.40310669115070" lon="-81.74025662302513">
        <ele>265.5596511166</ele>
        <time>2026-03-02T17:08:40Z</time>
      </trkpt>
      <trkpt lat="41.40309976148640" lon="-81.73965130780212">
        <ele>265.6016768544</ele>
        <time>2026-03-02T17:09:27Z</time>
      </trkpt>
      <trkpt lat="41.40310163094874" lon="-81.73904424363154">
        <ele>266.1653397280</ele>
        <time>2026-03-02T17:10:17Z</time>
      </trkpt>
      <trkpt lat="41.40309720728172" lon="-81.73878919205490">
        <ele>266.0898369163</ele>
        <time>2026-03-02T17:10:33Z</time>
      </trkpt>
      <trkpt lat="41.40264616021977" lon="-81.73877798392984">
        <ele>266.7479095793</ele>
        <time>2026-03-02T17:11:30Z</time>
      </trkpt>
      <trkpt lat="41.40224342137000" lon="-81.73877863688870">
        <ele>267.1729810498</ele>
        <time>2026-03-02T17:12:11Z</time>
      </trkpt>
      <trkpt lat="41.40223387703151" lon="-81.73818054055474">
        <ele>267.3016772927</ele>
        <time>2026-03-02T17:12:50Z</time>
      </trkpt>
      <trkpt lat="41.40222935885252" lon="-81.73758431187609">
        <ele>266.9821633387</ele>
        <time>2026-03-02T17:13:29Z</time>
      </trkpt>
      <trkpt lat="41.40223182647174" lon="-81.73698863478202">
        <ele>267.2799395850</ele>
        <time>2026-03-02T17:14:28Z</time>
      </trkpt>
      <trkpt lat="41.40222527796402" lon="-81.73639057892977">
        <ele>267.2936494310</ele>
        <time>2026-03-02T17:15:12Z</time>
      </trkpt>
      <trkpt lat="41.40222793909143" lon="-81.73577888166884">
        <ele>267.1918417265</ele>
        <time>2026-03-02T17:15:48Z</time>
      </trkpt>
      <trkpt lat="41.40221535170438" lon="-81.73518225196776">
        <ele>267.1465827582</ele>
        <time>2026-03-02T17:16:30Z</time>
      </trkpt>
      <trkpt lat="41.40222359405691" lon="-81.73465920550284">
        <ele>266.9603135109</ele>
        <time>2026-03-02T17:17:00Z</time>
      </trkpt>
      <trkpt lat="41.40177719648926" lon="-81.73465072136382">
        <ele>267.1547747927</ele>
        <time>2026-03-02T17:17:36Z</time>
      </trkpt>
      <trkpt lat="41.40131769653767" lon="-81.73463534973646">
        <ele>267.1608499227</ele>
        <time>2026-03-02T17:18:14Z</time>
      </trkpt>
      <trkpt lat="41.40131538121417" lon="-81.73464409001826">
        <ele>267.2885579107</ele>
        <time>2026-03-02T17:18:15Z</time>
      </trkpt>
      <trkpt lat="41.40132181494048" lon="-81.73523459066966">
        <ele>268.0852069875</ele>
        <time>2026-03-02T17:18:45Z</time>
      </trkpt>
      <trkpt lat="41.40132277334120" lon="-81.73583655076106">
        <ele>268.2900534900</ele>
        <time>2026-03-02T17:19:14Z</time>
      </trkpt>
      <trkpt lat="41.40132385401381" lon="-81.73643993970641">
        <ele>268.1235890193</ele>
        <time>2026-03-02T17:20:06Z</time>
      </trkpt>
      <trkpt lat="41.40132758478000" lon="-81.73703668254271">
        <ele>268.0878795137</ele>
        <time>2026-03-02T17:20:45Z</time>
      </trkpt>
      <trkpt lat="41.40133942011826" lon="-81.73764360089650">
        <ele>267.9022294856</ele>
        <time>2026-03-02T17:21:26Z</time>
      </trkpt>
      <trkpt lat="41.40134005453403" lon="-81.73823619939813">
        <ele>267.7215443086</ele>
        <time>2026-03-02T17:22:10Z</time>
      </trkpt>
      <trkpt lat="41.40134118745237" lon="-81.73883237694341">
        <ele>267.2387124497</ele>
        <time>2026-03-02T17:22:54Z</time>
      </trkpt>
      <trkpt lat="41.40134534374456" lon="-81.73943014537193">
        <ele>267.3544712667</ele>
        <time>2026-03-02T17:23:38Z</time>
      </trkpt>
      <trkpt lat="41.40134018958262" lon="-81.74002765008773">
        <ele>266.4559288092</ele>
        <time>2026-03-02T17:24:15Z</time>
      </trkpt>
      <trkpt lat="41.40134139390891" lon="-81.74016587006456">
        <ele>266.4625806896</ele>
        <time>2026-03-02T17:24:23Z</time>
      </trkpt>
    </trkseg>
  </trk>
</gpx>