<?xml version='1.0' encoding='UTF-8'?>
<gpx xmlns="http://www.topografix.com/GPX/1/1" creator="https://gpx.studio" version="1.1">
  <metadata>
    <name>Dog Walk - 2026-04-15 #2</name>
  </metadata>
  <trk>
    <name>Dog Walk - 2026-04-15 #2</name>
    <type>dog walk</type>
    <trkseg>
      <trkpt lat="41.40135079266017" lon="-81.74024339161728">
        <ele>266.4868521175</ele>
        <time>2026-04-15T12:02:32Z</time>
      </trkpt>
      <trkpt lat="41.40133395038858" lon="-81.74083595668897">
        <ele>266.1686073536</ele>
        <time>2026-04-15T12:03:08Z</time>
      </trkpt>
      <trkpt lat="41.40134803489174" lon="-81.74143172207677">
        <ele>265.7302660133</ele>
        <time>2026-04-15T12:03:43Z</time>
      </trkpt>
      <trkpt lat="41.40134820608420" lon="-81.74203823440531">
        <ele>265.1891003445</ele>
        <time>2026-04-15T12:04:32Z</time>
      </trkpt>
      <trkpt lat="41.40134770621718" lon="-81.74240702028460">
        <ele>264.7754474869</ele>
        <time>2026-04-15T12:04:56Z</time>
      </trkpt>
      <trkpt lat="41.40176962223781" lon="-81.74264254540951">
        <ele>264.2037782857</ele>
        <time>2026-04-15T12:05:38Z</time>
      </trkpt>
      <trkpt lat="41.40219374629141" lon="-81.74284546030378">
        <ele>263.3844573012</ele>
        <time>2026-04-15T12:06:19Z</time>
      </trkpt>
      <trkpt lat="41.40222002897894" lon="-81.74286551518564">
        <ele>263.1404283709</ele>
        <time>2026-04-15T12:06:21Z</time>
      </trkpt>
      <trkpt lat="41.40221675419836" lon="-81.74226790201398">
        <ele>264.3856121053</ele>
        <time>2026-04-15T12:06:58Z</time>
      </trkpt>
      <trkpt lat="41.40222204872390" lon="-81.74167052424683">
        <ele>264.6895350720</ele>
        <time>2026-04-15T12:07:49Z</time>
      </trkpt>
      <trkpt lat="41.40222122409682" lon="-81.74106743652528">
        <ele>265.6570522244</ele>
        <time>2026-04-15T12:08:28Z</time>
      </trkpt>
      <trkpt lat="41.40221744020168" lon="-81.74046879406139">
        <ele>265.9903790620</ele>
        <time>2026-04-15T12:08:59Z</time>
      </trkpt>
      <trkpt lat="41.40221939545395" lon="-81.73986773143315">
        <ele>266.6366837941</ele>
        <time>2026-04-15T12:09:35Z</time>
      </trkpt>
      <trkpt lat="41.40222407493490" lon="-81.73927545943701">
        <ele>266.9010678525</ele>
        <time>2026-04-15T12:10:13Z</time>
      </trkpt>
      <trkpt lat="41.40221376232498" lon="-81.73866381984341">
        <ele>267.1127166532</ele>
        <time>2026-04-15T12:10:46Z</time>
      </trkpt>
      <trkpt lat="41.40222033397164" lon="-81.73827613133551">
        <ele>267.3119648548</ele>
        <time>2026-04-15T12:11:18Z</time>
      </trkpt>
      <trkpt lat="41.40177167540916" lon="-81.73826602990917">
        <ele>267.9807007536</ele>
        <time>2026-04-15T12:12:03Z</time>
      </trkpt>
      <trkpt lat="41.40134098117569" lon="-81.73825857094639">
        <ele>267.5229548159</ele>
        <time>2026-04-15T12:12:44Z</time>
      </trkpt>
      <trkpt lat="41.40132823960399" lon="-81.73886495368207">
        <ele>267.2599002291</ele>
        <time>2026-04-15T12:13:13Z</time>
      </trkpt>
      <trkpt lat="41.40134052881266" lon="-81.73945646143547">
        <ele>267.1613117875</ele>
        <time>2026-04-15T12:13:49Z</time>
      </trkpt>
      <trkpt lat="41.40133498110220" lon="-81.74005612179650">
        <ele>266.7956808708</ele>
        <time>2026-04-15T12:14:34Z</time>
      </trkpt>
      <trkpt lat="41.40134150140791" lon="-81.74018572577762">
        <ele>266.4693612689</ele>
        <time>2026-04-15T12:14:40Z</time>
      </trkpt>
    </trkseg>
  </trk>
</gpx>