<?xml version='1.0' encoding='UTF-8'?>
<gpx xmlns="http://www.topografix.com/GPX/1/1" creator="https://gpx.studio" version="1.1">
  <metadata>
    <name>Dog Walk - 2026-04-20 #4</name>
  </metadata>
  <trk>
    <name>Dog Walk - 2026-04-20 #4</name>
    <type>dog walk</type>
    <trkseg>
      <trkpt lat="41.40133491733418" lon="-81.74024294315488">
        <ele>266.2079632722</ele>
        <time>2026-04-20T16:50:02Z</time>
      </trkpt>
      <trkpt lat="41.40134257982908" lon="-81.74083422627727">
        <ele>266.1604269870</ele>
        <time>2026-04-20T16:50:34Z</time>
      </trkpt>
      <trkpt lat="41.40134239405656" lon="-81.74143080723508">
        <ele>265.7452001837</ele>
        <time>2026-04-20T16:51:14Z</time>
      </trkpt>
      <trkpt lat="41.40135492837240" lon="-81.74203324679898">
        <ele>265.3239150902</ele>
        <time>2026-04-20T16:51:51Z</time>
      </trkpt>
      <trkpt lat="41.40134393202506" lon="-81.74240600683169">
        <ele>264.7128962463</ele>
        <time>2026-04-20T16:52:20Z</time>
      </trkpt>
      <trkpt lat="41.40177044655785" lon="-81.74261932276234">
        <ele>264.4260702210</ele>
        <time>2026-04-20T16:53:03Z</time>
      </trkpt>
      <trkpt lat="41.40219592917641" lon="-81.74280787671732">
        <ele>263.8086718097</ele>
        <time>2026-04-20T16:54:05Z</time>
      </trkpt>
      <trkpt lat="41.40261622226727" lon="-81.74301619530299">
        <ele>263.0900113682</ele>
        <time>2026-04-20T16:54:42Z</time>
      </trkpt>
      <trkpt lat="41.40303639113041" lon="-81.74320677758040">
        <ele>262.5183378661</ele>
        <time>2026-04-20T16:55:17Z</time>
      </trkpt>
      <trkpt lat="41.40312123514940" lon="-81.74324368255091">
        <ele>262.1802399175</ele>
        <time>2026-04-20T16:55:25Z</time>
      </trkpt>
      <trkpt lat="41.40311346181222" lon="-81.74265261577958">
        <ele>263.0475362344</ele>
        <time>2026-04-20T16:56:04Z</time>
      </trkpt>
      <trkpt lat="41.40310667848930" lon="-81.74205697632692">
        <ele>263.6415683037</ele>
        <time>2026-04-20T16:56:50Z</time>
      </trkpt>
      <trkpt lat="41.40310563805170" lon="-81.74145888818219">
        <ele>264.3099083958</ele>
        <time>2026-04-20T16:57:24Z</time>
      </trkpt>
      <trkpt lat="41.40311704778306" lon="-81.74085603593127">
        <ele>264.8745339906</ele>
        <time>2026-04-20T16:58:13Z</time>
      </trkpt>
      <trkpt lat="41.40310875351078" lon="-81.74024922229346">
        <ele>265.4089152974</ele>
        <time>2026-04-20T16:59:01Z</time>
      </trkpt>
      <trkpt lat="41.40309290591763" lon="-81.73965565816520">
        <ele>265.9993870390</ele>
        <time>2026-04-20T16:59:43Z</time>
      </trkpt>
      <trkpt lat="41.40310324500363" lon="-81.73905219509069">
        <ele>266.0269868691</ele>
        <time>2026-04-20T17:00:16Z</time>
      </trkpt>
      <trkpt lat="41.40310858160439" lon="-81.73879010102152">
        <ele>266.2880696135</ele>
        <time>2026-04-20T17:00:31Z</time>
      </trkpt>
      <trkpt lat="41.40264726030015" lon="-81.73878254354094">
        <ele>266.7871426256</ele>
        <time>2026-04-20T17:01:01Z</time>
      </trkpt>
      <trkpt lat="41.40224071595291" lon="-81.73878191450416">
        <ele>267.2750579505</ele>
        <time>2026-04-20T17:01:58Z</time>
      </trkpt>
      <trkpt lat="41.40223003760565" lon="-81.73817420759376">
        <ele>267.1340477089</ele>
        <time>2026-04-20T17:02:41Z</time>
      </trkpt>
      <trkpt lat="41.40223185745982" lon="-81.73757958286946">
        <ele>267.2206996331</ele>
        <time>2026-04-20T17:03:11Z</time>
      </trkpt>
      <trkpt lat="41.40223235167115" lon="-81.73697636415410">
        <ele>267.1900848917</ele>
        <time>2026-04-20T17:03:44Z</time>
      </trkpt>
      <trkpt lat="41.40223003238485" lon="-81.73638475285716">
        <ele>267.1377716886</ele>
        <time>2026-04-20T17:04:31Z</time>
      </trkpt>
      <trkpt lat="41.40222358691052" lon="-81.73578123623844">
        <ele>267.2772849304</ele>
        <time>2026-04-20T17:05:14Z</time>
      </trkpt>
      <trkpt lat="41.40221562404002" lon="-81.73518381608605">
        <ele>267.1845012944</ele>
        <time>2026-04-20T17:06:02Z</time>
      </trkpt>
      <trkpt lat="41.40222219372974" lon="-81.73464339043666">
        <ele>266.9253828463</ele>
        <time>2026-04-20T17:06:46Z</time>
      </trkpt>
      <trkpt lat="41.40177303895774" lon="-81.73463725150815">
        <ele>267.2438690107</ele>
        <time>2026-04-20T17:07:28Z</time>
      </trkpt>
      <trkpt lat="41.40132853225301" lon="-81.73462787435332">
        <ele>267.2002119707</ele>
        <time>2026-04-20T17:08:01Z</time>
      </trkpt>
      <trkpt lat="41.40132350267431" lon="-81.73462759705384">
        <ele>267.3634507768</ele>
        <time>2026-04-20T17:08:14Z</time>
      </trkpt>
      <trkpt lat="41.40133011307523" lon="-81.73524615020520">
        <ele>268.0517350650</ele>
        <time>2026-04-20T17:08:53Z</time>
      </trkpt>
      <trkpt lat="41.40131769032009" lon="-81.73583756861588">
        <ele>268.4375264514</ele>
        <time>2026-04-20T17:09:37Z</time>
      </trkpt>
      <trkpt lat="41.40132215200200" lon="-81.73644042515080">
        <ele>268.0031706124</ele>
        <time>2026-04-20T17:10:16Z</time>
      </trkpt>
      <trkpt lat="41.40132470955339" lon="-81.73702485616141">
        <ele>267.9595440167</ele>
        <time>2026-04-20T17:10:44Z</time>
      </trkpt>
      <trkpt lat="41.40132711380791" lon="-81.73764417602101">
        <ele>267.7604426281</ele>
        <time>2026-04-20T17:11:22Z</time>
      </trkpt>
      <trkpt lat="41.40133689407489" lon="-81.73822705652782">
        <ele>267.7620964118</ele>
        <time>2026-04-20T17:12:02Z</time>
      </trkpt>
      <trkpt lat="41.40134294807218" lon="-81.73883971056996">
        <ele>267.1729757884</ele>
        <time>2026-04-20T17:12:49Z</time>
      </trkpt>
      <trkpt lat="41.40134412595148" lon="-81.73944105865964">
        <ele>267.2853351428</ele>
        <time>2026-04-20T17:13:30Z</time>
      </trkpt>
      <trkpt lat="41.40133904126214" lon="-81.74002949356743">
        <ele>266.5450415562</ele>
        <time>2026-04-20T17:14:14Z</time>
      </trkpt>
      <trkpt lat="41.40134258903291" lon="-81.74016016999826">
        <ele>266.5446277033</ele>
        <time>2026-04-20T17:14:22Z</time>
      </trkpt>
    </trkseg>
  </trk>
</gpx>