<?xml version='1.0' encoding='UTF-8'?>
<gpx xmlns="http://www.topografix.com/GPX/1/1" creator="https://gpx.studio" version="1.1">
  <metadata>
    <name>Dog Walk - 2026-09-18 #2</name>
  </metadata>
  <trk>
    <name>Dog Walk - 2026-09-18 #2</name>
    <type>dog walk</type>
    <trkseg>
      <trkpt lat="41.40133557394326" lon="-81.74023111369173">
        <ele>266.6604285033</ele>
        <time>2026-09-18T14:28:38Z</time>
      </trkpt>
      <trkpt lat="41.40133113793042" lon="-81.74083243226005">
        <ele>266.2517070218</ele>
        <time>2026-09-18T14:29:30Z</time>
      </trkpt>
      <trkpt lat="41.40132724260919" lon="-81.74142684113380">
        <ele>265.8369009813</ele>
        <time>2026-09-18T14:30:12Z</time>
      </trkpt>
      <trkpt lat="41.40133086618656" lon="-81.74203757523337">
        <ele>265.3606959824</ele>
        <time>2026-09-18T14:30:53Z</time>
      </trkpt>
      <trkpt lat="41.40133947677541" lon="-81.74239389388289">
        <ele>264.6933362994</ele>
        <time>2026-09-18T14:31:19Z</time>
      </trkpt>
      <trkpt lat="41.40090818663739" lon="-81.74219766345703">
        <ele>265.1158626640</ele>
        <time>2026-09-18T14:32:05Z</time>
      </trkpt>
      <trkpt lat="41.40047985018769" lon="-81.74201112362643">
        <ele>265.5430886786</ele>
        <time>2026-09-18T14:32:44Z</time>
      </trkpt>
      <trkpt lat="41.40004513582101" lon="-81.74181519018447">
        <ele>265.3790864821</ele>
        <time>2026-09-18T14:33:18Z</time>
      </trkpt>
      <trkpt lat="41.39963165215776" lon="-81.74162416264546">
        <ele>264.5139617176</ele>
        <time>2026-09-18T14:34:22Z</time>
      </trkpt>
      <trkpt lat="41.39954511043772" lon="-81.74158447419737">
        <ele>264.5984552515</ele>
        <time>2026-09-18T14:34:30Z</time>
      </trkpt>
      <trkpt lat="41.39953052704002" lon="-81.74097941687556">
        <ele>265.8447493328</ele>
        <time>2026-09-18T14:35:18Z</time>
      </trkpt>
      <trkpt lat="41.39953645380538" lon="-81.74037295411264">
        <ele>266.0464318087</ele>
        <time>2026-09-18T14:35:47Z</time>
      </trkpt>
      <trkpt lat="41.39952871099060" lon="-81.73976591579134">
        <ele>266.5960879564</ele>
        <time>2026-09-18T14:36:30Z</time>
      </trkpt>
      <trkpt lat="41.39952784632872" lon="-81.73917049985437">
        <ele>266.8562612520</ele>
        <time>2026-09-18T14:37:16Z</time>
      </trkpt>
      <trkpt lat="41.39953192834889" lon="-81.73858130654304">
        <ele>267.0678046334</ele>
        <time>2026-09-18T14:37:53Z</time>
      </trkpt>
      <trkpt lat="41.39953713836424" lon="-81.73798301606475">
        <ele>267.2033060231</ele>
        <time>2026-09-18T14:38:41Z</time>
      </trkpt>
      <trkpt lat="41.39952590205872" lon="-81.73738063953395">
        <ele>267.3451439224</ele>
        <time>2026-09-18T14:39:19Z</time>
      </trkpt>
      <trkpt lat="41.39952936081461" lon="-81.73677793368988">
        <ele>267.2221241792</ele>
        <time>2026-09-18T14:40:02Z</time>
      </trkpt>
      <trkpt lat="41.39952181190470" lon="-81.73617946138565">
        <ele>267.1222336909</ele>
        <time>2026-09-18T14:40:45Z</time>
      </trkpt>
      <trkpt lat="41.39952349521936" lon="-81.73558305576522">
        <ele>267.4813396831</ele>
        <time>2026-09-18T14:41:22Z</time>
      </trkpt>
      <trkpt lat="41.39951973665169" lon="-81.73498615808148">
        <ele>266.9757586643</ele>
        <time>2026-09-18T14:42:05Z</time>
      </trkpt>
      <trkpt lat="41.39952027644352" lon="-81.73461016279745">
        <ele>267.1180056776</ele>
        <time>2026-09-18T14:42:27Z</time>
      </trkpt>
      <trkpt lat="41.39997643773159" lon="-81.73462230600855">
        <ele>267.2849788761</ele>
        <time>2026-09-18T14:43:23Z</time>
      </trkpt>
      <trkpt lat="41.40042965420411" lon="-81.73462824176653">
        <ele>267.3406793278</ele>
        <time>2026-09-18T14:43:58Z</time>
      </trkpt>
      <trkpt lat="41.40087229945226" lon="-81.73463976656106">
        <ele>267.3243074946</ele>
        <time>2026-09-18T14:44:35Z</time>
      </trkpt>
      <trkpt lat="41.40132940524246" lon="-81.73464442986563">
        <ele>267.2509391736</ele>
        <time>2026-09-18T14:45:07Z</time>
      </trkpt>
      <trkpt lat="41.40132035166366" lon="-81.73524344210377">
        <ele>267.7150413315</ele>
        <time>2026-09-18T14:45:46Z</time>
      </trkpt>
      <trkpt lat="41.40132132398966" lon="-81.73585042977868">
        <ele>268.3565441458</ele>
        <time>2026-09-18T14:46:28Z</time>
      </trkpt>
      <trkpt lat="41.40132588447152" lon="-81.73644272686076">
        <ele>268.1221476118</ele>
        <time>2026-09-18T14:47:12Z</time>
      </trkpt>
      <trkpt lat="41.40132189965783" lon="-81.73704448873991">
        <ele>267.9799164278</ele>
        <time>2026-09-18T14:47:45Z</time>
      </trkpt>
      <trkpt lat="41.40132428819353" lon="-81.73763669311074">
        <ele>267.9769698717</ele>
        <time>2026-09-18T14:48:21Z</time>
      </trkpt>
      <trkpt lat="41.40132843943848" lon="-81.73823618855899">
        <ele>267.6351435880</ele>
        <time>2026-09-18T14:48:59Z</time>
      </trkpt>
      <trkpt lat="41.40132385722614" lon="-81.73884258577675">
        <ele>267.4577430840</ele>
        <time>2026-09-18T14:49:49Z</time>
      </trkpt>
      <trkpt lat="41.40132926574420" lon="-81.73943483233630">
        <ele>267.2223906772</ele>
        <time>2026-09-18T14:50:28Z</time>
      </trkpt>
      <trkpt lat="41.40133505392691" lon="-81.74003871062035">
        <ele>266.8462833912</ele>
        <time>2026-09-18T14:51:04Z</time>
      </trkpt>
      <trkpt lat="41.40132948953834" lon="-81.74020956283250">
        <ele>266.6014195306</ele>
        <time>2026-09-18T14:51:19Z</time>
      </trkpt>
    </trkseg>
  </trk>
</gpx>