<?xml version='1.0' encoding='UTF-8'?>
<gpx xmlns="http://www.topografix.com/GPX/1/1" creator="https://gpx.studio" version="1.1">
  <metadata>
    <name>Dog Walk - 2026-08-12 #2</name>
  </metadata>
  <trk>
    <name>Dog Walk - 2026-08-12 #2</name>
    <type>dog walk</type>
    <trkseg>
      <trkpt lat="41.40133164589164" lon="-81.74025705498642">
        <ele>266.5551986298</ele>
        <time>2026-08-12T17:53:25Z</time>
      </trkpt>
      <trkpt lat="41.40132970840384" lon="-81.74026131324156">
        <ele>266.4815843923</ele>
        <time>2026-08-12T17:53:26Z</time>
      </trkpt>
      <trkpt lat="41.40134150458712" lon="-81.74086301670937">
        <ele>266.1964208724</ele>
        <time>2026-08-12T17:54:04Z</time>
      </trkpt>
      <trkpt lat="41.40132798538682" lon="-81.74146128637001">
        <ele>265.9040442959</ele>
        <time>2026-08-12T17:54:48Z</time>
      </trkpt>
      <trkpt lat="41.40133358639147" lon="-81.74205953677495">
        <ele>265.2469302287</ele>
        <time>2026-08-12T17:55:38Z</time>
      </trkpt>
      <trkpt lat="41.40132141479368" lon="-81.74238787972939">
        <ele>264.8184355651</ele>
        <time>2026-08-12T17:56:00Z</time>
      </trkpt>
      <trkpt lat="41.40132667153669" lon="-81.74237359366636">
        <ele>264.9242527776</ele>
        <time>2026-08-12T17:56:01Z</time>
      </trkpt>
      <trkpt lat="41.40089518164789" lon="-81.74218448077013">
        <ele>265.0843937267</ele>
        <time>2026-08-12T17:56:42Z</time>
      </trkpt>
      <trkpt lat="41.40046809400369" lon="-81.74199221273129">
        <ele>265.3547792621</ele>
        <time>2026-08-12T17:57:16Z</time>
      </trkpt>
      <trkpt lat="41.40004661958586" lon="-81.74179721163141">
        <ele>265.2452004777</ele>
        <time>2026-08-12T17:58:19Z</time>
      </trkpt>
      <trkpt lat="41.39962307479716" lon="-81.74161120313472">
        <ele>264.7988514255</ele>
        <time>2026-08-12T17:59:01Z</time>
      </trkpt>
      <trkpt lat="41.39954413666809" lon="-81.74158372822887">
        <ele>264.6542795245</ele>
        <time>2026-08-12T17:59:09Z</time>
      </trkpt>
      <trkpt lat="41.39953802955709" lon="-81.74097916202066">
        <ele>265.8422970947</ele>
        <time>2026-08-12T17:59:56Z</time>
      </trkpt>
      <trkpt lat="41.39953888281416" lon="-81.74037349628493">
        <ele>266.2318375972</ele>
        <time>2026-08-12T18:00:39Z</time>
      </trkpt>
      <trkpt lat="41.39953721832817" lon="-81.73977539706055">
        <ele>266.5888971215</ele>
        <time>2026-08-12T18:01:34Z</time>
      </trkpt>
      <trkpt lat="41.39954246514859" lon="-81.73917351629650">
        <ele>266.9862420231</ele>
        <time>2026-08-12T18:02:17Z</time>
      </trkpt>
      <trkpt lat="41.39953132380785" lon="-81.73857398628678">
        <ele>266.9629478355</ele>
        <time>2026-08-12T18:02:54Z</time>
      </trkpt>
      <trkpt lat="41.39953329160183" lon="-81.73829410513127">
        <ele>266.8832988380</ele>
        <time>2026-08-12T18:03:08Z</time>
      </trkpt>
      <trkpt lat="41.39953506201038" lon="-81.73829463213565">
        <ele>266.8457287175</ele>
        <time>2026-08-12T18:03:09Z</time>
      </trkpt>
      <trkpt lat="41.39998545012750" lon="-81.73829813852851">
        <ele>267.0246288800</ele>
        <time>2026-08-12T18:03:45Z</time>
      </trkpt>
      <trkpt lat="41.40043066360829" lon="-81.73829310926209">
        <ele>267.2374449198</ele>
        <time>2026-08-12T18:04:27Z</time>
      </trkpt>
      <trkpt lat="41.40089347772005" lon="-81.73829109386590">
        <ele>267.3308721986</ele>
        <time>2026-08-12T18:05:17Z</time>
      </trkpt>
      <trkpt lat="41.40132333096594" lon="-81.73831078849398">
        <ele>267.4852667888</ele>
        <time>2026-08-12T18:05:47Z</time>
      </trkpt>
      <trkpt lat="41.40133500322590" lon="-81.73889403189023">
        <ele>267.5704583666</ele>
        <time>2026-08-12T18:06:22Z</time>
      </trkpt>
      <trkpt lat="41.40133865178055" lon="-81.73951380644176">
        <ele>267.2066915219</ele>
        <time>2026-08-12T18:07:00Z</time>
      </trkpt>
      <trkpt lat="41.40133944721450" lon="-81.74010609929326">
        <ele>266.5157495925</ele>
        <time>2026-08-12T18:07:50Z</time>
      </trkpt>
      <trkpt lat="41.40133414302909" lon="-81.74016183552399">
        <ele>266.6344840010</ele>
        <time>2026-08-12T18:08:11Z</time>
      </trkpt>
    </trkseg>
  </trk>
</gpx>