<?xml version='1.0' encoding='UTF-8'?>
<gpx xmlns="http://www.topografix.com/GPX/1/1" creator="https://gpx.studio" version="1.1">
  <metadata>
    <name>Dog Walk - 2026-04-21 #4</name>
  </metadata>
  <trk>
    <name>Dog Walk - 2026-04-21 #4</name>
    <type>dog walk</type>
    <trkseg>
      <trkpt lat="41.40134540658952" lon="-81.74022726299901">
        <ele>266.5201651479</ele>
        <time>2026-04-21T17:03:55Z</time>
      </trkpt>
      <trkpt lat="41.40134473259823" lon="-81.74082688415251">
        <ele>265.9375954415</ele>
        <time>2026-04-21T17:04:36Z</time>
      </trkpt>
      <trkpt lat="41.40134265727389" lon="-81.74143413316774">
        <ele>265.9360229789</ele>
        <time>2026-04-21T17:05:15Z</time>
      </trkpt>
      <trkpt lat="41.40135209388815" lon="-81.74202906705389">
        <ele>265.3563757515</ele>
        <time>2026-04-21T17:06:02Z</time>
      </trkpt>
      <trkpt lat="41.40134931823033" lon="-81.74242036949371">
        <ele>264.6913674204</ele>
        <time>2026-04-21T17:06:31Z</time>
      </trkpt>
      <trkpt lat="41.40176358732774" lon="-81.74263561181674">
        <ele>264.1989178279</ele>
        <time>2026-04-21T17:07:05Z</time>
      </trkpt>
      <trkpt lat="41.40218766347340" lon="-81.74285321689014">
        <ele>263.6152631094</ele>
        <time>2026-04-21T17:07:46Z</time>
      </trkpt>
      <trkpt lat="41.40221519022476" lon="-81.74287027550680">
        <ele>263.0423626256</ele>
        <time>2026-04-21T17:07:49Z</time>
      </trkpt>
      <trkpt lat="41.40222591854975" lon="-81.74226853308323">
        <ele>264.1060145007</ele>
        <time>2026-04-21T17:08:36Z</time>
      </trkpt>
      <trkpt lat="41.40223085392883" lon="-81.74165744560739">
        <ele>264.7646306985</ele>
        <time>2026-04-21T17:09:09Z</time>
      </trkpt>
      <trkpt lat="41.40221128088276" lon="-81.74106518040394">
        <ele>265.6264271398</ele>
        <time>2026-04-21T17:09:45Z</time>
      </trkpt>
      <trkpt lat="41.40222038619247" lon="-81.74046793994306">
        <ele>266.0601779911</ele>
        <time>2026-04-21T17:10:34Z</time>
      </trkpt>
      <trkpt lat="41.40221950371048" lon="-81.73986971265046">
        <ele>266.5845443596</ele>
        <time>2026-04-21T17:11:14Z</time>
      </trkpt>
      <trkpt lat="41.40221845368460" lon="-81.73926562955894">
        <ele>266.6453950434</ele>
        <time>2026-04-21T17:11:53Z</time>
      </trkpt>
      <trkpt lat="41.40222432293879" lon="-81.73866625934535">
        <ele>267.1111621390</ele>
        <time>2026-04-21T17:12:40Z</time>
      </trkpt>
      <trkpt lat="41.40221453136739" lon="-81.73826731170000">
        <ele>267.1818916180</ele>
        <time>2026-04-21T17:13:09Z</time>
      </trkpt>
      <trkpt lat="41.40176992049504" lon="-81.73826312233352">
        <ele>267.6769199560</ele>
        <time>2026-04-21T17:13:44Z</time>
      </trkpt>
      <trkpt lat="41.40134512867848" lon="-81.73826657806320">
        <ele>267.5954102065</ele>
        <time>2026-04-21T17:14:18Z</time>
      </trkpt>
      <trkpt lat="41.40132804054809" lon="-81.73885262604728">
        <ele>267.2437399839</ele>
        <time>2026-04-21T17:14:56Z</time>
      </trkpt>
      <trkpt lat="41.40134155276165" lon="-81.73946159248064">
        <ele>267.3392113702</ele>
        <time>2026-04-21T17:15:30Z</time>
      </trkpt>
      <trkpt lat="41.40134011064247" lon="-81.74005995085967">
        <ele>266.5389270522</ele>
        <time>2026-04-21T17:16:20Z</time>
      </trkpt>
      <trkpt lat="41.40133997114075" lon="-81.74018754545646">
        <ele>266.6809221453</ele>
        <time>2026-04-21T17:16:28Z</time>
      </trkpt>
    </trkseg>
  </trk>
</gpx>