<?xml version='1.0' encoding='UTF-8'?>
<gpx xmlns="http://www.topografix.com/GPX/1/1" creator="https://gpx.studio" version="1.1">
  <metadata>
    <name>Dog Walk - 2026-04-19 #2</name>
  </metadata>
  <trk>
    <name>Dog Walk - 2026-04-19 #2</name>
    <type>dog walk</type>
    <trkseg>
      <trkpt lat="41.40133209046589" lon="-81.74022191726603">
        <ele>266.7070315917</ele>
        <time>2026-04-19T11:08:22Z</time>
      </trkpt>
      <trkpt lat="41.40134484566766" lon="-81.74082741412576">
        <ele>266.3011486803</ele>
        <time>2026-04-19T11:09:03Z</time>
      </trkpt>
      <trkpt lat="41.40133987639621" lon="-81.74143273182132">
        <ele>265.6714511041</ele>
        <time>2026-04-19T11:09:51Z</time>
      </trkpt>
      <trkpt lat="41.40134697609475" lon="-81.74203104007742">
        <ele>265.1911880077</ele>
        <time>2026-04-19T11:10:44Z</time>
      </trkpt>
      <trkpt lat="41.40135239577626" lon="-81.74241601363659">
        <ele>264.7593592417</ele>
        <time>2026-04-19T11:11:16Z</time>
      </trkpt>
      <trkpt lat="41.40176608490857" lon="-81.74263030897019">
        <ele>264.4402198575</ele>
        <time>2026-04-19T11:12:04Z</time>
      </trkpt>
      <trkpt lat="41.40219287239761" lon="-81.74284473693969">
        <ele>263.4501194016</ele>
        <time>2026-04-19T11:12:44Z</time>
      </trkpt>
      <trkpt lat="41.40261925256126" lon="-81.74305332403712">
        <ele>262.8200414578</ele>
        <time>2026-04-19T11:13:25Z</time>
      </trkpt>
      <trkpt lat="41.40303622196249" lon="-81.74326370896837">
        <ele>262.2503991970</ele>
        <time>2026-04-19T11:14:18Z</time>
      </trkpt>
      <trkpt lat="41.40345230572670" lon="-81.74348651831873">
        <ele>261.8896417899</ele>
        <time>2026-04-19T11:15:16Z</time>
      </trkpt>
      <trkpt lat="41.40349296095826" lon="-81.74349854603987">
        <ele>261.8235601946</ele>
        <time>2026-04-19T11:15:20Z</time>
      </trkpt>
      <trkpt lat="41.40359147442031" lon="-81.74351521432092">
        <ele>261.6981889472</ele>
        <time>2026-04-19T11:15:28Z</time>
      </trkpt>
      <trkpt lat="41.40399275739870" lon="-81.74350423411855">
        <ele>260.9151743798</ele>
        <time>2026-04-19T11:16:02Z</time>
      </trkpt>
      <trkpt lat="41.40399562959234" lon="-81.74290914626711">
        <ele>261.5078076310</ele>
        <time>2026-04-19T11:16:40Z</time>
      </trkpt>
      <trkpt lat="41.40399571815716" lon="-81.74231635871725">
        <ele>262.0519551310</ele>
        <time>2026-04-19T11:17:17Z</time>
      </trkpt>
      <trkpt lat="41.40399559052237" lon="-81.74171703616345">
        <ele>262.5027048267</ele>
        <time>2026-04-19T11:17:51Z</time>
      </trkpt>
      <trkpt lat="41.40398690528968" lon="-81.74110522000124">
        <ele>262.8630265042</ele>
        <time>2026-04-19T11:18:26Z</time>
      </trkpt>
      <trkpt lat="41.40398795079974" lon="-81.74052001699478">
        <ele>263.7797013805</ele>
        <time>2026-04-19T11:19:17Z</time>
      </trkpt>
      <trkpt lat="41.40399014141509" lon="-81.73990761688457">
        <ele>264.3496317304</ele>
        <time>2026-04-19T11:20:07Z</time>
      </trkpt>
      <trkpt lat="41.40398742450102" lon="-81.73931956070095">
        <ele>265.2828245043</ele>
        <time>2026-04-19T11:20:46Z</time>
      </trkpt>
      <trkpt lat="41.40398541366130" lon="-81.73878006204173">
        <ele>265.5899136736</ele>
        <time>2026-04-19T11:21:26Z</time>
      </trkpt>
      <trkpt lat="41.40353303024776" lon="-81.73876870943405">
        <ele>265.8250742748</ele>
        <time>2026-04-19T11:22:04Z</time>
      </trkpt>
      <trkpt lat="41.40308575972235" lon="-81.73877159676648">
        <ele>266.1373106495</ele>
        <time>2026-04-19T11:22:39Z</time>
      </trkpt>
      <trkpt lat="41.40264169121618" lon="-81.73878278651371">
        <ele>266.8794267352</ele>
        <time>2026-04-19T11:23:32Z</time>
      </trkpt>
      <trkpt lat="41.40222984983428" lon="-81.73878420157354">
        <ele>267.1058855278</ele>
        <time>2026-04-19T11:24:06Z</time>
      </trkpt>
      <trkpt lat="41.40222195057166" lon="-81.73828248325012">
        <ele>267.0562626702</ele>
        <time>2026-04-19T11:24:41Z</time>
      </trkpt>
      <trkpt lat="41.40176802713319" lon="-81.73827212697645">
        <ele>267.9232581942</ele>
        <time>2026-04-19T11:25:13Z</time>
      </trkpt>
      <trkpt lat="41.40133055446663" lon="-81.73826826770927">
        <ele>267.5079897965</ele>
        <time>2026-04-19T11:25:53Z</time>
      </trkpt>
      <trkpt lat="41.40133401813961" lon="-81.73886969549916">
        <ele>267.3550638029</ele>
        <time>2026-04-19T11:26:36Z</time>
      </trkpt>
      <trkpt lat="41.40133352965494" lon="-81.73945929333051">
        <ele>267.1755197714</ele>
        <time>2026-04-19T11:27:15Z</time>
      </trkpt>
      <trkpt lat="41.40134574912721" lon="-81.74005292938310">
        <ele>266.6442449745</ele>
        <time>2026-04-19T11:28:26Z</time>
      </trkpt>
      <trkpt lat="41.40133532499038" lon="-81.74020883334143">
        <ele>266.3575979138</ele>
        <time>2026-04-19T11:28:37Z</time>
      </trkpt>
    </trkseg>
  </trk>
</gpx>