<?xml version='1.0' encoding='UTF-8'?>
<gpx xmlns="http://www.topografix.com/GPX/1/1" creator="https://gpx.studio" version="1.1">
  <metadata>
    <name>Dog Walk - 2026-03-12 #3</name>
  </metadata>
  <trk>
    <name>Dog Walk - 2026-03-12 #3</name>
    <type>dog walk</type>
    <trkseg>
      <trkpt lat="41.40133308306431" lon="-81.74025845378668">
        <ele>266.4302488166</ele>
        <time>2026-03-12T14:22:08Z</time>
      </trkpt>
      <trkpt lat="41.40133437147836" lon="-81.74025911325025">
        <ele>266.6545667666</ele>
        <time>2026-03-12T14:22:09Z</time>
      </trkpt>
      <trkpt lat="41.40133091396115" lon="-81.74085094679066">
        <ele>266.2740183481</ele>
        <time>2026-03-12T14:23:01Z</time>
      </trkpt>
      <trkpt lat="41.40132887928200" lon="-81.74146566126606">
        <ele>265.9728948539</ele>
        <time>2026-03-12T14:23:39Z</time>
      </trkpt>
      <trkpt lat="41.40132986435084" lon="-81.74205656680131">
        <ele>265.4160889789</ele>
        <time>2026-03-12T14:24:21Z</time>
      </trkpt>
      <trkpt lat="41.40132789460746" lon="-81.74237910183463">
        <ele>264.7123399870</ele>
        <time>2026-03-12T14:24:45Z</time>
      </trkpt>
      <trkpt lat="41.40132281268153" lon="-81.74237053032485">
        <ele>264.7805131000</ele>
        <time>2026-03-12T14:25:02Z</time>
      </trkpt>
      <trkpt lat="41.40089827269406" lon="-81.74218775049397">
        <ele>265.2339008023</ele>
        <time>2026-03-12T14:25:32Z</time>
      </trkpt>
      <trkpt lat="41.40047516049457" lon="-81.74199675713412">
        <ele>265.3919340177</ele>
        <time>2026-03-12T14:26:16Z</time>
      </trkpt>
      <trkpt lat="41.40004453768053" lon="-81.74179091624829">
        <ele>265.3448418660</ele>
        <time>2026-03-12T14:26:49Z</time>
      </trkpt>
      <trkpt lat="41.39962982249074" lon="-81.74161488877569">
        <ele>264.9418563122</ele>
        <time>2026-03-12T14:27:34Z</time>
      </trkpt>
      <trkpt lat="41.39953414676226" lon="-81.74158282580677">
        <ele>264.6104632481</ele>
        <time>2026-03-12T14:27:44Z</time>
      </trkpt>
      <trkpt lat="41.39954153953982" lon="-81.74097960214301">
        <ele>265.7210921409</ele>
        <time>2026-03-12T14:28:19Z</time>
      </trkpt>
      <trkpt lat="41.39954343564886" lon="-81.74037795377036">
        <ele>266.2619370301</ele>
        <time>2026-03-12T14:29:04Z</time>
      </trkpt>
      <trkpt lat="41.39954571805691" lon="-81.73976420983576">
        <ele>266.8408604732</ele>
        <time>2026-03-12T14:29:51Z</time>
      </trkpt>
      <trkpt lat="41.39953705031460" lon="-81.73917839750132">
        <ele>266.8542229885</ele>
        <time>2026-03-12T14:30:24Z</time>
      </trkpt>
      <trkpt lat="41.39954260029607" lon="-81.73856821908325">
        <ele>266.9522704061</ele>
        <time>2026-03-12T14:31:04Z</time>
      </trkpt>
      <trkpt lat="41.39953247272859" lon="-81.73828815797974">
        <ele>266.9795493899</ele>
        <time>2026-03-12T14:31:27Z</time>
      </trkpt>
      <trkpt lat="41.39953540888305" lon="-81.73829026545309">
        <ele>266.8099497526</ele>
        <time>2026-03-12T14:31:28Z</time>
      </trkpt>
      <trkpt lat="41.39998522655236" lon="-81.73830758961178">
        <ele>267.0688101757</ele>
        <time>2026-03-12T14:32:05Z</time>
      </trkpt>
      <trkpt lat="41.40043209602328" lon="-81.73829900840852">
        <ele>267.4878344238</ele>
        <time>2026-03-12T14:32:39Z</time>
      </trkpt>
      <trkpt lat="41.40088466182952" lon="-81.73830946462569">
        <ele>267.3782859665</ele>
        <time>2026-03-12T14:33:36Z</time>
      </trkpt>
      <trkpt lat="41.40132418820937" lon="-81.73831323084443">
        <ele>267.4415386752</ele>
        <time>2026-03-12T14:34:28Z</time>
      </trkpt>
      <trkpt lat="41.40133311471705" lon="-81.73890364549663">
        <ele>267.5223091041</ele>
        <time>2026-03-12T14:35:13Z</time>
      </trkpt>
      <trkpt lat="41.40133343572955" lon="-81.73949144351590">
        <ele>267.4111219804</ele>
        <time>2026-03-12T14:35:58Z</time>
      </trkpt>
      <trkpt lat="41.40134211723389" lon="-81.74011118695739">
        <ele>266.7159067827</ele>
        <time>2026-03-12T14:36:39Z</time>
      </trkpt>
      <trkpt lat="41.40134876229547" lon="-81.74015647465667">
        <ele>266.5453247935</ele>
        <time>2026-03-12T14:36:43Z</time>
      </trkpt>
    </trkseg>
  </trk>
</gpx>