<?xml version='1.0' encoding='UTF-8'?>
<gpx xmlns="http://www.topografix.com/GPX/1/1" creator="https://gpx.studio" version="1.1">
  <metadata>
    <name>Dog Walk - 2026-06-23 #1</name>
  </metadata>
  <trk>
    <name>Dog Walk - 2026-06-23 #1</name>
    <type>dog walk</type>
    <trkseg>
      <trkpt lat="41.40133390972592" lon="-81.74022725414909">
        <ele>266.6205788808</ele>
        <time>2026-06-23T07:37:58Z</time>
      </trkpt>
      <trkpt lat="41.40134083797705" lon="-81.74084096043607">
        <ele>266.0769802706</ele>
        <time>2026-06-23T07:38:40Z</time>
      </trkpt>
      <trkpt lat="41.40133844585595" lon="-81.74143750438665">
        <ele>265.6649109781</ele>
        <time>2026-06-23T07:39:23Z</time>
      </trkpt>
      <trkpt lat="41.40134834633428" lon="-81.74202796618873">
        <ele>265.3178418248</ele>
        <time>2026-06-23T07:40:02Z</time>
      </trkpt>
      <trkpt lat="41.40134989061681" lon="-81.74241415432421">
        <ele>264.8842041581</ele>
        <time>2026-06-23T07:40:26Z</time>
      </trkpt>
      <trkpt lat="41.40176545601611" lon="-81.74262458257490">
        <ele>264.2329696135</ele>
        <time>2026-06-23T07:41:01Z</time>
      </trkpt>
      <trkpt lat="41.40218181266280" lon="-81.74283663320443">
        <ele>263.3002055847</ele>
        <time>2026-06-23T07:41:57Z</time>
      </trkpt>
      <trkpt lat="41.40260333217133" lon="-81.74305991489062">
        <ele>262.9014036246</ele>
        <time>2026-06-23T07:42:41Z</time>
      </trkpt>
      <trkpt lat="41.40303241488553" lon="-81.74326416741010">
        <ele>262.4344809895</ele>
        <time>2026-06-23T07:43:20Z</time>
      </trkpt>
      <trkpt lat="41.40345076518696" lon="-81.74347187604403">
        <ele>261.9324916183</ele>
        <time>2026-06-23T07:44:08Z</time>
      </trkpt>
      <trkpt lat="41.40348979374573" lon="-81.74350322799638">
        <ele>261.7354528062</ele>
        <time>2026-06-23T07:44:12Z</time>
      </trkpt>
      <trkpt lat="41.40359255188854" lon="-81.74352192560856">
        <ele>261.6548763080</ele>
        <time>2026-06-23T07:44:19Z</time>
      </trkpt>
      <trkpt lat="41.40399210972691" lon="-81.74350037185295">
        <ele>260.8543077919</ele>
        <time>2026-06-23T07:44:56Z</time>
      </trkpt>
      <trkpt lat="41.40399832128440" lon="-81.74290217569282">
        <ele>261.2636815433</ele>
        <time>2026-06-23T07:45:35Z</time>
      </trkpt>
      <trkpt lat="41.40398674675294" lon="-81.74231264945125">
        <ele>262.0865774995</ele>
        <time>2026-06-23T07:46:17Z</time>
      </trkpt>
      <trkpt lat="41.40399374142955" lon="-81.74170835167590">
        <ele>262.2374051476</ele>
        <time>2026-06-23T07:46:45Z</time>
      </trkpt>
      <trkpt lat="41.40399267414786" lon="-81.74111451560117">
        <ele>262.8529791146</ele>
        <time>2026-06-23T07:47:23Z</time>
      </trkpt>
      <trkpt lat="41.40399561407414" lon="-81.74051471659271">
        <ele>263.7280317154</ele>
        <time>2026-06-23T07:47:57Z</time>
      </trkpt>
      <trkpt lat="41.40398989344123" lon="-81.73990086037270">
        <ele>264.0993115483</ele>
        <time>2026-06-23T07:48:35Z</time>
      </trkpt>
      <trkpt lat="41.40399357952307" lon="-81.73931521873304">
        <ele>264.8945790266</ele>
        <time>2026-06-23T07:49:11Z</time>
      </trkpt>
      <trkpt lat="41.40398728088621" lon="-81.73877702268695">
        <ele>265.4658567569</ele>
        <time>2026-06-23T07:50:01Z</time>
      </trkpt>
      <trkpt lat="41.40353771712676" lon="-81.73877113621400">
        <ele>265.9005316516</ele>
        <time>2026-06-23T07:50:36Z</time>
      </trkpt>
      <trkpt lat="41.40308490607965" lon="-81.73877243774049">
        <ele>266.1988670835</ele>
        <time>2026-06-23T07:51:13Z</time>
      </trkpt>
      <trkpt lat="41.40263497836686" lon="-81.73877331028467">
        <ele>266.7171463759</ele>
        <time>2026-06-23T07:52:00Z</time>
      </trkpt>
      <trkpt lat="41.40222575743080" lon="-81.73876764766270">
        <ele>266.8625864524</ele>
        <time>2026-06-23T07:52:45Z</time>
      </trkpt>
      <trkpt lat="41.40222748538309" lon="-81.73828213624675">
        <ele>267.1392447498</ele>
        <time>2026-06-23T07:53:15Z</time>
      </trkpt>
      <trkpt lat="41.40176082219156" lon="-81.73827344589368">
        <ele>267.8514116363</ele>
        <time>2026-06-23T07:53:58Z</time>
      </trkpt>
      <trkpt lat="41.40133282239193" lon="-81.73826191357153">
        <ele>267.7579751230</ele>
        <time>2026-06-23T07:54:33Z</time>
      </trkpt>
      <trkpt lat="41.40133019286253" lon="-81.73886836120587">
        <ele>267.2360961312</ele>
        <time>2026-06-23T07:55:05Z</time>
      </trkpt>
      <trkpt lat="41.40134176803809" lon="-81.73946340940373">
        <ele>267.2108232570</ele>
        <time>2026-06-23T07:55:57Z</time>
      </trkpt>
      <trkpt lat="41.40133197574428" lon="-81.74006524213364">
        <ele>266.6476860268</ele>
        <time>2026-06-23T07:56:44Z</time>
      </trkpt>
      <trkpt lat="41.40134548622859" lon="-81.74021099766276">
        <ele>266.5619453210</ele>
        <time>2026-06-23T07:56:53Z</time>
      </trkpt>
    </trkseg>
  </trk>
</gpx>