<?xml version='1.0' encoding='UTF-8'?>
<gpx xmlns="http://www.topografix.com/GPX/1/1" creator="https://gpx.studio" version="1.1">
  <metadata>
    <name>Dog Walk - 2026-02-20 #4</name>
  </metadata>
  <trk>
    <name>Dog Walk - 2026-02-20 #4</name>
    <type>dog walk</type>
    <trkseg>
      <trkpt lat="41.40134351845949" lon="-81.74023482289628">
        <ele>266.7651223289</ele>
        <time>2026-02-20T19:44:10Z</time>
      </trkpt>
      <trkpt lat="41.40133611905223" lon="-81.74082781083793">
        <ele>266.3543712891</ele>
        <time>2026-02-20T19:44:40Z</time>
      </trkpt>
      <trkpt lat="41.40134871895115" lon="-81.74143262486663">
        <ele>265.6086547344</ele>
        <time>2026-02-20T19:45:15Z</time>
      </trkpt>
      <trkpt lat="41.40134267035767" lon="-81.74204353027733">
        <ele>265.3737803536</ele>
        <time>2026-02-20T19:45:58Z</time>
      </trkpt>
      <trkpt lat="41.40134125380535" lon="-81.74241572299231">
        <ele>264.6577541917</ele>
        <time>2026-02-20T19:46:22Z</time>
      </trkpt>
      <trkpt lat="41.40178052104655" lon="-81.74262491599428">
        <ele>264.4271243058</ele>
        <time>2026-02-20T19:47:15Z</time>
      </trkpt>
      <trkpt lat="41.40219476221040" lon="-81.74281294981314">
        <ele>263.4151490241</ele>
        <time>2026-02-20T19:47:52Z</time>
      </trkpt>
      <trkpt lat="41.40262053691572" lon="-81.74302227036131">
        <ele>263.1111247599</ele>
        <time>2026-02-20T19:48:29Z</time>
      </trkpt>
      <trkpt lat="41.40304648814744" lon="-81.74321315514678">
        <ele>262.7683902887</ele>
        <time>2026-02-20T19:49:06Z</time>
      </trkpt>
      <trkpt lat="41.40311604451697" lon="-81.74326198614946">
        <ele>262.4873461735</ele>
        <time>2026-02-20T19:49:12Z</time>
      </trkpt>
      <trkpt lat="41.40311378708391" lon="-81.74264994394818">
        <ele>262.9526736103</ele>
        <time>2026-02-20T19:49:51Z</time>
      </trkpt>
      <trkpt lat="41.40310801245417" lon="-81.74206283222863">
        <ele>263.5623586452</ele>
        <time>2026-02-20T19:50:37Z</time>
      </trkpt>
      <trkpt lat="41.40311173577857" lon="-81.74144891961596">
        <ele>264.1397936682</ele>
        <time>2026-02-20T19:51:20Z</time>
      </trkpt>
      <trkpt lat="41.40310955842813" lon="-81.74085556579553">
        <ele>264.6966473349</ele>
        <time>2026-02-20T19:51:57Z</time>
      </trkpt>
      <trkpt lat="41.40310123140087" lon="-81.74025674121670">
        <ele>265.4860115953</ele>
        <time>2026-02-20T19:52:37Z</time>
      </trkpt>
      <trkpt lat="41.40310346879326" lon="-81.73964876708438">
        <ele>265.8179148880</ele>
        <time>2026-02-20T19:53:15Z</time>
      </trkpt>
      <trkpt lat="41.40310277994656" lon="-81.73904911012559">
        <ele>266.1300493154</ele>
        <time>2026-02-20T19:54:02Z</time>
      </trkpt>
      <trkpt lat="41.40309818819023" lon="-81.73878301872959">
        <ele>266.3274716360</ele>
        <time>2026-02-20T19:54:22Z</time>
      </trkpt>
      <trkpt lat="41.40264815884807" lon="-81.73877683819623">
        <ele>266.7923499833</ele>
        <time>2026-02-20T19:55:01Z</time>
      </trkpt>
      <trkpt lat="41.40223449532587" lon="-81.73876764319061">
        <ele>266.9943621004</ele>
        <time>2026-02-20T19:55:35Z</time>
      </trkpt>
      <trkpt lat="41.40223771680336" lon="-81.73818341202997">
        <ele>267.2452924185</ele>
        <time>2026-02-20T19:56:15Z</time>
      </trkpt>
      <trkpt lat="41.40222114984427" lon="-81.73758327024373">
        <ele>266.9110357096</ele>
        <time>2026-02-20T19:56:50Z</time>
      </trkpt>
      <trkpt lat="41.40222523835973" lon="-81.73696363875433">
        <ele>266.9761244058</ele>
        <time>2026-02-20T19:57:40Z</time>
      </trkpt>
      <trkpt lat="41.40222891279322" lon="-81.73638104410638">
        <ele>267.1135813146</ele>
        <time>2026-02-20T19:58:23Z</time>
      </trkpt>
      <trkpt lat="41.40223165235845" lon="-81.73578522091270">
        <ele>267.3262066047</ele>
        <time>2026-02-20T19:59:11Z</time>
      </trkpt>
      <trkpt lat="41.40222843913435" lon="-81.73517542811697">
        <ele>267.1387185275</ele>
        <time>2026-02-20T20:00:11Z</time>
      </trkpt>
      <trkpt lat="41.40221983401442" lon="-81.73465119547849">
        <ele>267.2835375671</ele>
        <time>2026-02-20T20:00:38Z</time>
      </trkpt>
      <trkpt lat="41.40177672021746" lon="-81.73464055888581">
        <ele>267.3496779888</ele>
        <time>2026-02-20T20:01:23Z</time>
      </trkpt>
      <trkpt lat="41.40132714949193" lon="-81.73464009051753">
        <ele>267.3970924042</ele>
        <time>2026-02-20T20:02:09Z</time>
      </trkpt>
      <trkpt lat="41.40131119439778" lon="-81.73463501327068">
        <ele>267.6109790004</ele>
        <time>2026-02-20T20:02:11Z</time>
      </trkpt>
      <trkpt lat="41.40131299756951" lon="-81.73524377835327">
        <ele>267.8979749954</ele>
        <time>2026-02-20T20:03:09Z</time>
      </trkpt>
      <trkpt lat="41.40132141315502" lon="-81.73583111084749">
        <ele>268.2388041984</ele>
        <time>2026-02-20T20:03:51Z</time>
      </trkpt>
      <trkpt lat="41.40132806114076" lon="-81.73643174419607">
        <ele>268.1438527797</ele>
        <time>2026-02-20T20:04:35Z</time>
      </trkpt>
      <trkpt lat="41.40133132467943" lon="-81.73702881258073">
        <ele>267.9890419341</ele>
        <time>2026-02-20T20:06:22Z</time>
      </trkpt>
      <trkpt lat="41.40132677836328" lon="-81.73763255693160">
        <ele>267.9926702628</ele>
        <time>2026-02-20T20:07:10Z</time>
      </trkpt>
      <trkpt lat="41.40133521261494" lon="-81.73823679043834">
        <ele>267.5718635803</ele>
        <time>2026-02-20T20:08:03Z</time>
      </trkpt>
      <trkpt lat="41.40134184931325" lon="-81.73883818396916">
        <ele>267.2724510859</ele>
        <time>2026-02-20T20:08:46Z</time>
      </trkpt>
      <trkpt lat="41.40134151966407" lon="-81.73942303521120">
        <ele>267.2626678083</ele>
        <time>2026-02-20T20:09:23Z</time>
      </trkpt>
      <trkpt lat="41.40134561450937" lon="-81.74004003482065">
        <ele>266.6192632172</ele>
        <time>2026-02-20T20:09:59Z</time>
      </trkpt>
      <trkpt lat="41.40135067825155" lon="-81.74015555847178">
        <ele>266.4812133596</ele>
        <time>2026-02-20T20:10:05Z</time>
      </trkpt>
    </trkseg>
  </trk>
</gpx>