<?xml version='1.0' encoding='UTF-8'?>
<gpx xmlns="http://www.topografix.com/GPX/1/1" creator="https://gpx.studio" version="1.1">
  <metadata>
    <name>Dog Walk - 2026-09-03 #1</name>
  </metadata>
  <trk>
    <name>Dog Walk - 2026-09-03 #1</name>
    <type>dog walk</type>
    <trkseg>
      <trkpt lat="41.40133086123916" lon="-81.74023803255551">
        <ele>266.3943701533</ele>
        <time>2026-09-03T10:33:47Z</time>
      </trkpt>
      <trkpt lat="41.40134509306488" lon="-81.74083769685647">
        <ele>266.0625423817</ele>
        <time>2026-09-03T10:34:29Z</time>
      </trkpt>
      <trkpt lat="41.40133995831004" lon="-81.74142855229192">
        <ele>265.5949450072</ele>
        <time>2026-09-03T10:35:08Z</time>
      </trkpt>
      <trkpt lat="41.40134226144929" lon="-81.74202549658467">
        <ele>265.3003976691</ele>
        <time>2026-09-03T10:35:46Z</time>
      </trkpt>
      <trkpt lat="41.40135236924480" lon="-81.74240751065062">
        <ele>264.6580828546</ele>
        <time>2026-09-03T10:36:11Z</time>
      </trkpt>
      <trkpt lat="41.40177322746216" lon="-81.74262231286814">
        <ele>264.3033064017</ele>
        <time>2026-09-03T10:36:56Z</time>
      </trkpt>
      <trkpt lat="41.40218595676617" lon="-81.74284334943603">
        <ele>263.3154894014</ele>
        <time>2026-09-03T10:37:38Z</time>
      </trkpt>
      <trkpt lat="41.40260820281780" lon="-81.74305155070464">
        <ele>262.8331401298</ele>
        <time>2026-09-03T10:38:20Z</time>
      </trkpt>
      <trkpt lat="41.40303220537667" lon="-81.74326706097341">
        <ele>262.1375405963</ele>
        <time>2026-09-03T10:39:12Z</time>
      </trkpt>
      <trkpt lat="41.40345780334771" lon="-81.74347080060178">
        <ele>262.0545403136</ele>
        <time>2026-09-03T10:39:59Z</time>
      </trkpt>
      <trkpt lat="41.40348749171108" lon="-81.74350984059022">
        <ele>261.8141033404</ele>
        <time>2026-09-03T10:40:02Z</time>
      </trkpt>
      <trkpt lat="41.40360275637172" lon="-81.74351383286411">
        <ele>261.5836837209</ele>
        <time>2026-09-03T10:40:10Z</time>
      </trkpt>
      <trkpt lat="41.40399880855655" lon="-81.74350726107816">
        <ele>260.8144547218</ele>
        <time>2026-09-03T10:40:43Z</time>
      </trkpt>
      <trkpt lat="41.40398744234474" lon="-81.74291306005611">
        <ele>261.4839819371</ele>
        <time>2026-09-03T10:41:32Z</time>
      </trkpt>
      <trkpt lat="41.40399419876510" lon="-81.74231307081463">
        <ele>261.9469028847</ele>
        <time>2026-09-03T10:42:07Z</time>
      </trkpt>
      <trkpt lat="41.40399190666682" lon="-81.74171404806737">
        <ele>262.5534783445</ele>
        <time>2026-09-03T10:42:52Z</time>
      </trkpt>
      <trkpt lat="41.40398878896612" lon="-81.74110960509206">
        <ele>262.9911810138</ele>
        <time>2026-09-03T10:43:41Z</time>
      </trkpt>
      <trkpt lat="41.40398575165322" lon="-81.74050426233650">
        <ele>263.7294701310</ele>
        <time>2026-09-03T10:44:09Z</time>
      </trkpt>
      <trkpt lat="41.40398329255887" lon="-81.73990838634757">
        <ele>264.6374635486</ele>
        <time>2026-09-03T10:44:47Z</time>
      </trkpt>
      <trkpt lat="41.40398595155908" lon="-81.73930985414106">
        <ele>264.9565985948</ele>
        <time>2026-09-03T10:45:21Z</time>
      </trkpt>
      <trkpt lat="41.40398506200005" lon="-81.73877590734524">
        <ele>265.3800545958</ele>
        <time>2026-09-03T10:46:09Z</time>
      </trkpt>
      <trkpt lat="41.40353252485884" lon="-81.73877758128984">
        <ele>265.9425441755</ele>
        <time>2026-09-03T10:46:57Z</time>
      </trkpt>
      <trkpt lat="41.40308735251357" lon="-81.73877207798944">
        <ele>266.4047250062</ele>
        <time>2026-09-03T10:47:49Z</time>
      </trkpt>
      <trkpt lat="41.40262844843214" lon="-81.73876822803399">
        <ele>266.5300304236</ele>
        <time>2026-09-03T10:48:41Z</time>
      </trkpt>
      <trkpt lat="41.40223271832628" lon="-81.73878100145387">
        <ele>267.2175921231</ele>
        <time>2026-09-03T10:49:16Z</time>
      </trkpt>
      <trkpt lat="41.40221501607109" lon="-81.73828114827919">
        <ele>267.1151746913</ele>
        <time>2026-09-03T10:50:04Z</time>
      </trkpt>
      <trkpt lat="41.40176404402865" lon="-81.73827485072070">
        <ele>267.7090140086</ele>
        <time>2026-09-03T10:50:40Z</time>
      </trkpt>
      <trkpt lat="41.40132777004151" lon="-81.73826165657009">
        <ele>267.4334257663</ele>
        <time>2026-09-03T10:51:16Z</time>
      </trkpt>
      <trkpt lat="41.40133281641302" lon="-81.73886307418580">
        <ele>267.4310312906</ele>
        <time>2026-09-03T10:51:49Z</time>
      </trkpt>
      <trkpt lat="41.40132851276275" lon="-81.73946261605057">
        <ele>267.2048567645</ele>
        <time>2026-09-03T10:52:34Z</time>
      </trkpt>
      <trkpt lat="41.40133494399427" lon="-81.74005349027307">
        <ele>266.6213851000</ele>
        <time>2026-09-03T10:53:13Z</time>
      </trkpt>
      <trkpt lat="41.40133545409939" lon="-81.74021047373317">
        <ele>266.6339145318</ele>
        <time>2026-09-03T10:53:22Z</time>
      </trkpt>
    </trkseg>
  </trk>
</gpx>