<?xml version='1.0' encoding='UTF-8'?>
<gpx xmlns="http://www.topografix.com/GPX/1/1" creator="https://gpx.studio" version="1.1">
  <metadata>
    <name>Dog Walk - 2026-05-30 #5</name>
  </metadata>
  <trk>
    <name>Dog Walk - 2026-05-30 #5</name>
    <type>dog walk</type>
    <trkseg>
      <trkpt lat="41.40133544689515" lon="-81.74023345194819">
        <ele>266.7044485573</ele>
        <time>2026-05-30T21:00:35Z</time>
      </trkpt>
      <trkpt lat="41.40133927930691" lon="-81.74083675063439">
        <ele>266.0912928584</ele>
        <time>2026-05-30T21:01:08Z</time>
      </trkpt>
      <trkpt lat="41.40134733896529" lon="-81.74143497142985">
        <ele>265.8805970603</ele>
        <time>2026-05-30T21:01:47Z</time>
      </trkpt>
      <trkpt lat="41.40135300771193" lon="-81.74203069420440">
        <ele>265.2169574580</ele>
        <time>2026-05-30T21:02:28Z</time>
      </trkpt>
      <trkpt lat="41.40135005238201" lon="-81.74241809473186">
        <ele>264.2984257671</ele>
        <time>2026-05-30T21:02:51Z</time>
      </trkpt>
      <trkpt lat="41.40176675442955" lon="-81.74263648764170">
        <ele>264.1557017045</ele>
        <time>2026-05-30T21:03:35Z</time>
      </trkpt>
      <trkpt lat="41.40218008417713" lon="-81.74285145735161">
        <ele>263.3904485594</ele>
        <time>2026-05-30T21:04:11Z</time>
      </trkpt>
      <trkpt lat="41.40222503022118" lon="-81.74285918543232">
        <ele>263.6981386717</ele>
        <time>2026-05-30T21:04:15Z</time>
      </trkpt>
      <trkpt lat="41.40221010585871" lon="-81.74225305518571">
        <ele>264.2741755318</ele>
        <time>2026-05-30T21:04:59Z</time>
      </trkpt>
      <trkpt lat="41.40222217947900" lon="-81.74167530243385">
        <ele>264.5644106259</ele>
        <time>2026-05-30T21:05:52Z</time>
      </trkpt>
      <trkpt lat="41.40221817988949" lon="-81.74107333091841">
        <ele>265.6104585822</ele>
        <time>2026-05-30T21:06:34Z</time>
      </trkpt>
      <trkpt lat="41.40222013098129" lon="-81.74047889849918">
        <ele>266.0614669160</ele>
        <time>2026-05-30T21:07:11Z</time>
      </trkpt>
      <trkpt lat="41.40221907709639" lon="-81.73985617148222">
        <ele>266.5133738654</ele>
        <time>2026-05-30T21:08:00Z</time>
      </trkpt>
      <trkpt lat="41.40220684866534" lon="-81.73927312149898">
        <ele>266.9527376242</ele>
        <time>2026-05-30T21:08:55Z</time>
      </trkpt>
      <trkpt lat="41.40221411288237" lon="-81.73867897570705">
        <ele>266.9832003112</ele>
        <time>2026-05-30T21:09:48Z</time>
      </trkpt>
      <trkpt lat="41.40221604352501" lon="-81.73826431755116">
        <ele>266.9617373452</ele>
        <time>2026-05-30T21:10:15Z</time>
      </trkpt>
      <trkpt lat="41.40177188252862" lon="-81.73825937715611">
        <ele>267.8808719190</ele>
        <time>2026-05-30T21:11:08Z</time>
      </trkpt>
      <trkpt lat="41.40133538114012" lon="-81.73826250159306">
        <ele>267.5550894575</ele>
        <time>2026-05-30T21:11:45Z</time>
      </trkpt>
      <trkpt lat="41.40134039358694" lon="-81.73886680832165">
        <ele>267.2977970147</ele>
        <time>2026-05-30T21:12:37Z</time>
      </trkpt>
      <trkpt lat="41.40133897958294" lon="-81.73946264203990">
        <ele>267.0152158922</ele>
        <time>2026-05-30T21:13:06Z</time>
      </trkpt>
      <trkpt lat="41.40133838738094" lon="-81.74005901143983">
        <ele>266.4743368215</ele>
        <time>2026-05-30T21:13:54Z</time>
      </trkpt>
      <trkpt lat="41.40133230248420" lon="-81.74019352259135">
        <ele>266.7433904005</ele>
        <time>2026-05-30T21:14:04Z</time>
      </trkpt>
    </trkseg>
  </trk>
</gpx>