<?xml version='1.0' encoding='UTF-8'?>
<gpx xmlns="http://www.topografix.com/GPX/1/1" creator="https://gpx.studio" version="1.1">
  <metadata>
    <name>Dog Walk - 2026-02-14 #3</name>
  </metadata>
  <trk>
    <name>Dog Walk - 2026-02-14 #3</name>
    <type>dog walk</type>
    <trkseg>
      <trkpt lat="41.40133351525620" lon="-81.74024881071070">
        <ele>266.2732284063</ele>
        <time>2026-02-14T14:43:43Z</time>
      </trkpt>
      <trkpt lat="41.40134088361795" lon="-81.74084490331798">
        <ele>266.2159234070</ele>
        <time>2026-02-14T14:44:16Z</time>
      </trkpt>
      <trkpt lat="41.40134920055096" lon="-81.74143419822342">
        <ele>265.8642489762</ele>
        <time>2026-02-14T14:44:48Z</time>
      </trkpt>
      <trkpt lat="41.40134827961650" lon="-81.74203657665922">
        <ele>265.2376185530</ele>
        <time>2026-02-14T14:45:25Z</time>
      </trkpt>
      <trkpt lat="41.40134738404402" lon="-81.74242364479953">
        <ele>264.6559314368</ele>
        <time>2026-02-14T14:45:51Z</time>
      </trkpt>
      <trkpt lat="41.40177149017863" lon="-81.74261836184516">
        <ele>264.4254289447</ele>
        <time>2026-02-14T14:46:43Z</time>
      </trkpt>
      <trkpt lat="41.40219752370638" lon="-81.74283009525507">
        <ele>263.5646502416</ele>
        <time>2026-02-14T14:47:16Z</time>
      </trkpt>
      <trkpt lat="41.40261674660878" lon="-81.74301838270968">
        <ele>263.0171910904</ele>
        <time>2026-02-14T14:47:55Z</time>
      </trkpt>
      <trkpt lat="41.40304716925205" lon="-81.74321427186636">
        <ele>262.4943603568</ele>
        <time>2026-02-14T14:48:35Z</time>
      </trkpt>
      <trkpt lat="41.40311871393924" lon="-81.74325222540347">
        <ele>262.6180553870</ele>
        <time>2026-02-14T14:48:44Z</time>
      </trkpt>
      <trkpt lat="41.40311039785463" lon="-81.74265779608268">
        <ele>263.0440264267</ele>
        <time>2026-02-14T14:49:37Z</time>
      </trkpt>
      <trkpt lat="41.40311008767360" lon="-81.74205176388841">
        <ele>263.6454219012</ele>
        <time>2026-02-14T14:50:16Z</time>
      </trkpt>
      <trkpt lat="41.40311254179286" lon="-81.74145131387564">
        <ele>264.3372930930</ele>
        <time>2026-02-14T14:50:50Z</time>
      </trkpt>
      <trkpt lat="41.40310555782123" lon="-81.74084546440388">
        <ele>264.9479420934</ele>
        <time>2026-02-14T14:51:30Z</time>
      </trkpt>
      <trkpt lat="41.40310300182835" lon="-81.74026486750624">
        <ele>265.6813767776</ele>
        <time>2026-02-14T14:52:12Z</time>
      </trkpt>
      <trkpt lat="41.40310088266762" lon="-81.73966170585352">
        <ele>265.7668136388</ele>
        <time>2026-02-14T14:52:55Z</time>
      </trkpt>
      <trkpt lat="41.40310627053517" lon="-81.73905574897667">
        <ele>266.0864738289</ele>
        <time>2026-02-14T14:53:32Z</time>
      </trkpt>
      <trkpt lat="41.40309460019383" lon="-81.73878524396886">
        <ele>266.2562156066</ele>
        <time>2026-02-14T14:53:48Z</time>
      </trkpt>
      <trkpt lat="41.40265146216381" lon="-81.73878833810446">
        <ele>266.8707485559</ele>
        <time>2026-02-14T14:54:28Z</time>
      </trkpt>
      <trkpt lat="41.40223348544218" lon="-81.73878496117997">
        <ele>267.1559685066</ele>
        <time>2026-02-14T14:55:15Z</time>
      </trkpt>
      <trkpt lat="41.40223759639493" lon="-81.73818297349439">
        <ele>267.2239246631</ele>
        <time>2026-02-14T14:55:49Z</time>
      </trkpt>
      <trkpt lat="41.40222716136883" lon="-81.73757780502702">
        <ele>267.0240103016</ele>
        <time>2026-02-14T14:56:33Z</time>
      </trkpt>
      <trkpt lat="41.40222612689460" lon="-81.73698173935523">
        <ele>267.2086911943</ele>
        <time>2026-02-14T14:57:06Z</time>
      </trkpt>
      <trkpt lat="41.40222470747244" lon="-81.73638265943869">
        <ele>267.0849251792</ele>
        <time>2026-02-14T14:57:49Z</time>
      </trkpt>
      <trkpt lat="41.40222733728638" lon="-81.73577223849853">
        <ele>267.3709315853</ele>
        <time>2026-02-14T14:58:33Z</time>
      </trkpt>
      <trkpt lat="41.40222965817475" lon="-81.73517916187102">
        <ele>267.0127971260</ele>
        <time>2026-02-14T14:59:13Z</time>
      </trkpt>
      <trkpt lat="41.40222204010279" lon="-81.73465474333477">
        <ele>267.0302267228</ele>
        <time>2026-02-14T14:59:47Z</time>
      </trkpt>
      <trkpt lat="41.40177867308080" lon="-81.73464270693783">
        <ele>267.2472478980</ele>
        <time>2026-02-14T15:00:32Z</time>
      </trkpt>
      <trkpt lat="41.40132156137955" lon="-81.73465235799439">
        <ele>267.1395437967</ele>
        <time>2026-02-14T15:01:20Z</time>
      </trkpt>
      <trkpt lat="41.40131826693245" lon="-81.73463587947566">
        <ele>267.2670193229</ele>
        <time>2026-02-14T15:01:21Z</time>
      </trkpt>
      <trkpt lat="41.40132123281036" lon="-81.73524086800880">
        <ele>267.8665331023</ele>
        <time>2026-02-14T15:02:05Z</time>
      </trkpt>
      <trkpt lat="41.40132152008474" lon="-81.73583393808367">
        <ele>268.3191633489</ele>
        <time>2026-02-14T15:02:51Z</time>
      </trkpt>
      <trkpt lat="41.40132564565891" lon="-81.73643318642794">
        <ele>268.0120148441</ele>
        <time>2026-02-14T15:03:40Z</time>
      </trkpt>
      <trkpt lat="41.40132045547984" lon="-81.73702484498800">
        <ele>268.2418470139</ele>
        <time>2026-02-14T15:04:22Z</time>
      </trkpt>
      <trkpt lat="41.40132511626672" lon="-81.73764287541744">
        <ele>267.9111093048</ele>
        <time>2026-02-14T15:04:57Z</time>
      </trkpt>
      <trkpt lat="41.40133510661809" lon="-81.73823143228472">
        <ele>267.5321719655</ele>
        <time>2026-02-14T15:05:27Z</time>
      </trkpt>
      <trkpt lat="41.40135150539346" lon="-81.73883535528553">
        <ele>267.3707444565</ele>
        <time>2026-02-14T15:05:56Z</time>
      </trkpt>
      <trkpt lat="41.40134452844278" lon="-81.73943503886453">
        <ele>267.1859082253</ele>
        <time>2026-02-14T15:06:58Z</time>
      </trkpt>
      <trkpt lat="41.40133947870212" lon="-81.74003868033452">
        <ele>266.6418941015</ele>
        <time>2026-02-14T15:07:27Z</time>
      </trkpt>
      <trkpt lat="41.40134936278140" lon="-81.74015206380859">
        <ele>266.5225602717</ele>
        <time>2026-02-14T15:07:34Z</time>
      </trkpt>
    </trkseg>
  </trk>
</gpx>