<?xml version='1.0' encoding='UTF-8'?>
<gpx xmlns="http://www.topografix.com/GPX/1/1" creator="https://gpx.studio" version="1.1">
  <metadata>
    <name>Dog Walk - 2026-07-28 #2</name>
  </metadata>
  <trk>
    <name>Dog Walk - 2026-07-28 #2</name>
    <type>dog walk</type>
    <trkseg>
      <trkpt lat="41.40133144422702" lon="-81.74025113228136">
        <ele>266.5004898729</ele>
        <time>2026-07-28T10:58:34Z</time>
      </trkpt>
      <trkpt lat="41.40133539107203" lon="-81.74025584031858">
        <ele>266.5448875178</ele>
        <time>2026-07-28T10:58:35Z</time>
      </trkpt>
      <trkpt lat="41.40133096623152" lon="-81.74085718339450">
        <ele>266.2743533554</ele>
        <time>2026-07-28T10:59:09Z</time>
      </trkpt>
      <trkpt lat="41.40132624311443" lon="-81.74145793741961">
        <ele>265.8916359176</ele>
        <time>2026-07-28T10:59:46Z</time>
      </trkpt>
      <trkpt lat="41.40132841788082" lon="-81.74206228218405">
        <ele>265.4974032222</ele>
        <time>2026-07-28T11:00:30Z</time>
      </trkpt>
      <trkpt lat="41.40132028205839" lon="-81.74237381921499">
        <ele>264.7841702653</ele>
        <time>2026-07-28T11:00:50Z</time>
      </trkpt>
      <trkpt lat="41.40132941883672" lon="-81.74236936047849">
        <ele>264.6681505979</ele>
        <time>2026-07-28T11:00:51Z</time>
      </trkpt>
      <trkpt lat="41.40090188932365" lon="-81.74217413428400">
        <ele>265.1872483053</ele>
        <time>2026-07-28T11:01:23Z</time>
      </trkpt>
      <trkpt lat="41.40046837906916" lon="-81.74199017467831">
        <ele>265.2733198746</ele>
        <time>2026-07-28T11:02:13Z</time>
      </trkpt>
      <trkpt lat="41.40004200611290" lon="-81.74179000188096">
        <ele>265.2522273371</ele>
        <time>2026-07-28T11:02:56Z</time>
      </trkpt>
      <trkpt lat="41.39962265721184" lon="-81.74160262396055">
        <ele>264.5711546063</ele>
        <time>2026-07-28T11:03:37Z</time>
      </trkpt>
      <trkpt lat="41.39955110907304" lon="-81.74157804373449">
        <ele>264.8565302353</ele>
        <time>2026-07-28T11:03:44Z</time>
      </trkpt>
      <trkpt lat="41.39953283141711" lon="-81.74096986460872">
        <ele>265.8304589634</ele>
        <time>2026-07-28T11:04:21Z</time>
      </trkpt>
      <trkpt lat="41.39954651374504" lon="-81.74037382272220">
        <ele>266.2335599999</ele>
        <time>2026-07-28T11:05:14Z</time>
      </trkpt>
      <trkpt lat="41.39953438975891" lon="-81.73978611599772">
        <ele>266.8442060788</ele>
        <time>2026-07-28T11:05:48Z</time>
      </trkpt>
      <trkpt lat="41.39953411308084" lon="-81.73917758040905">
        <ele>266.9662658264</ele>
        <time>2026-07-28T11:06:26Z</time>
      </trkpt>
      <trkpt lat="41.39953653224588" lon="-81.73856916503539">
        <ele>266.9456884972</ele>
        <time>2026-07-28T11:07:00Z</time>
      </trkpt>
      <trkpt lat="41.39953811554596" lon="-81.73830165937143">
        <ele>266.8892895134</ele>
        <time>2026-07-28T11:07:17Z</time>
      </trkpt>
      <trkpt lat="41.39953842181134" lon="-81.73828796722499">
        <ele>266.9464068685</ele>
        <time>2026-07-28T11:07:18Z</time>
      </trkpt>
      <trkpt lat="41.39999243077391" lon="-81.73829319508033">
        <ele>267.1111027171</ele>
        <time>2026-07-28T11:08:04Z</time>
      </trkpt>
      <trkpt lat="41.40043648153155" lon="-81.73829948713606">
        <ele>267.2640479729</ele>
        <time>2026-07-28T11:08:48Z</time>
      </trkpt>
      <trkpt lat="41.40087952191315" lon="-81.73830604814012">
        <ele>267.5032512852</ele>
        <time>2026-07-28T11:09:26Z</time>
      </trkpt>
      <trkpt lat="41.40132143341960" lon="-81.73831135490906">
        <ele>267.5459355779</ele>
        <time>2026-07-28T11:10:15Z</time>
      </trkpt>
      <trkpt lat="41.40133108715219" lon="-81.73891499449032">
        <ele>267.3653490830</ele>
        <time>2026-07-28T11:11:11Z</time>
      </trkpt>
      <trkpt lat="41.40133752235455" lon="-81.73950580832607">
        <ele>267.4107386409</ele>
        <time>2026-07-28T11:11:43Z</time>
      </trkpt>
      <trkpt lat="41.40133935369571" lon="-81.74011634231182">
        <ele>266.9527585952</ele>
        <time>2026-07-28T11:12:20Z</time>
      </trkpt>
      <trkpt lat="41.40133585574327" lon="-81.74016536975583">
        <ele>266.6603114382</ele>
        <time>2026-07-28T11:12:23Z</time>
      </trkpt>
    </trkseg>
  </trk>
</gpx>