<?xml version='1.0' encoding='UTF-8'?>
<gpx xmlns="http://www.topografix.com/GPX/1/1" creator="https://gpx.studio" version="1.1">
  <metadata>
    <name>Dog Walk - 2026-07-24 #2</name>
  </metadata>
  <trk>
    <name>Dog Walk - 2026-07-24 #2</name>
    <type>dog walk</type>
    <trkseg>
      <trkpt lat="41.40133924071475" lon="-81.74022945735095">
        <ele>266.4428144520</ele>
        <time>2026-07-24T11:36:18Z</time>
      </trkpt>
      <trkpt lat="41.40134601945820" lon="-81.74083821028346">
        <ele>266.1407876898</ele>
        <time>2026-07-24T11:36:56Z</time>
      </trkpt>
      <trkpt lat="41.40134119248665" lon="-81.74142518951842">
        <ele>265.7659735127</ele>
        <time>2026-07-24T11:37:30Z</time>
      </trkpt>
      <trkpt lat="41.40135045285680" lon="-81.74203220172809">
        <ele>265.1067594290</ele>
        <time>2026-07-24T11:38:09Z</time>
      </trkpt>
      <trkpt lat="41.40134807303111" lon="-81.74241523902585">
        <ele>264.9080509906</ele>
        <time>2026-07-24T11:38:46Z</time>
      </trkpt>
      <trkpt lat="41.40177528134425" lon="-81.74262742361276">
        <ele>264.2959248580</ele>
        <time>2026-07-24T11:39:28Z</time>
      </trkpt>
      <trkpt lat="41.40219017478468" lon="-81.74285120600103">
        <ele>263.4235602982</ele>
        <time>2026-07-24T11:40:05Z</time>
      </trkpt>
      <trkpt lat="41.40260778273326" lon="-81.74304675931459">
        <ele>262.9433329873</ele>
        <time>2026-07-24T11:40:50Z</time>
      </trkpt>
      <trkpt lat="41.40303571845267" lon="-81.74326321770964">
        <ele>262.4327144056</ele>
        <time>2026-07-24T11:41:31Z</time>
      </trkpt>
      <trkpt lat="41.40344795168670" lon="-81.74347693351007">
        <ele>261.8655256713</ele>
        <time>2026-07-24T11:42:11Z</time>
      </trkpt>
      <trkpt lat="41.40348695038350" lon="-81.74349782138763">
        <ele>262.0040556777</ele>
        <time>2026-07-24T11:42:15Z</time>
      </trkpt>
      <trkpt lat="41.40359330593411" lon="-81.74351511504555">
        <ele>261.9709415717</ele>
        <time>2026-07-24T11:42:24Z</time>
      </trkpt>
      <trkpt lat="41.40399573753929" lon="-81.74351401074415">
        <ele>260.8447177790</ele>
        <time>2026-07-24T11:43:08Z</time>
      </trkpt>
      <trkpt lat="41.40398914396790" lon="-81.74290753419905">
        <ele>261.5550874310</ele>
        <time>2026-07-24T11:43:44Z</time>
      </trkpt>
      <trkpt lat="41.40399003075432" lon="-81.74230751285889">
        <ele>262.1106987435</ele>
        <time>2026-07-24T11:44:19Z</time>
      </trkpt>
      <trkpt lat="41.40399149110782" lon="-81.74170387162654">
        <ele>262.5200466132</ele>
        <time>2026-07-24T11:45:03Z</time>
      </trkpt>
      <trkpt lat="41.40399358765895" lon="-81.74111068888993">
        <ele>262.8119809110</ele>
        <time>2026-07-24T11:45:47Z</time>
      </trkpt>
      <trkpt lat="41.40399148652368" lon="-81.74050060107231">
        <ele>263.5000092269</ele>
        <time>2026-07-24T11:46:44Z</time>
      </trkpt>
      <trkpt lat="41.40398132949015" lon="-81.73989664743006">
        <ele>264.4523230382</ele>
        <time>2026-07-24T11:47:32Z</time>
      </trkpt>
      <trkpt lat="41.40399142724460" lon="-81.73931196459372">
        <ele>264.9029205023</ele>
        <time>2026-07-24T11:48:10Z</time>
      </trkpt>
      <trkpt lat="41.40397697076362" lon="-81.73876845290752">
        <ele>265.3647023594</ele>
        <time>2026-07-24T11:48:43Z</time>
      </trkpt>
      <trkpt lat="41.40354436049653" lon="-81.73876956476248">
        <ele>265.7840020918</ele>
        <time>2026-07-24T11:49:23Z</time>
      </trkpt>
      <trkpt lat="41.40308468255565" lon="-81.73877621947548">
        <ele>266.0748370285</ele>
        <time>2026-07-24T11:50:18Z</time>
      </trkpt>
      <trkpt lat="41.40263451746179" lon="-81.73877713003834">
        <ele>266.7647778443</ele>
        <time>2026-07-24T11:51:03Z</time>
      </trkpt>
      <trkpt lat="41.40222747628394" lon="-81.73877420883575">
        <ele>267.1501665456</ele>
        <time>2026-07-24T11:51:30Z</time>
      </trkpt>
      <trkpt lat="41.40220687046993" lon="-81.73828430562338">
        <ele>267.0505115174</ele>
        <time>2026-07-24T11:52:09Z</time>
      </trkpt>
      <trkpt lat="41.40177210744277" lon="-81.73827906782419">
        <ele>267.7977756053</ele>
        <time>2026-07-24T11:52:51Z</time>
      </trkpt>
      <trkpt lat="41.40133142180604" lon="-81.73826518126887">
        <ele>267.4246319817</ele>
        <time>2026-07-24T11:53:23Z</time>
      </trkpt>
      <trkpt lat="41.40133089485836" lon="-81.73886641363445">
        <ele>267.4844442827</ele>
        <time>2026-07-24T11:54:11Z</time>
      </trkpt>
      <trkpt lat="41.40133552471344" lon="-81.73945885322630">
        <ele>267.2482581286</ele>
        <time>2026-07-24T11:54:42Z</time>
      </trkpt>
      <trkpt lat="41.40133344796001" lon="-81.74005637356882">
        <ele>266.4667415299</ele>
        <time>2026-07-24T11:55:26Z</time>
      </trkpt>
      <trkpt lat="41.40133872971828" lon="-81.74021189747425">
        <ele>266.7216695214</ele>
        <time>2026-07-24T11:55:34Z</time>
      </trkpt>
    </trkseg>
  </trk>
</gpx>