<?xml version='1.0' encoding='UTF-8'?>
<gpx xmlns="http://www.topografix.com/GPX/1/1" creator="https://gpx.studio" version="1.1">
  <metadata>
    <name>Dog Walk - 2026-06-25 #2</name>
  </metadata>
  <trk>
    <name>Dog Walk - 2026-06-25 #2</name>
    <type>dog walk</type>
    <trkseg>
      <trkpt lat="41.40134971650731" lon="-81.74022524810697">
        <ele>266.6316563972</ele>
        <time>2026-06-25T17:35:55Z</time>
      </trkpt>
      <trkpt lat="41.40134129825221" lon="-81.74083626504118">
        <ele>266.1144948770</ele>
        <time>2026-06-25T17:37:03Z</time>
      </trkpt>
      <trkpt lat="41.40133818977446" lon="-81.74143323867419">
        <ele>265.6533704689</ele>
        <time>2026-06-25T17:37:40Z</time>
      </trkpt>
      <trkpt lat="41.40133392065385" lon="-81.74202754220885">
        <ele>265.2791379213</ele>
        <time>2026-06-25T17:38:20Z</time>
      </trkpt>
      <trkpt lat="41.40133311080806" lon="-81.74238665714076">
        <ele>264.5689065518</ele>
        <time>2026-06-25T17:38:46Z</time>
      </trkpt>
      <trkpt lat="41.40091492461308" lon="-81.74218693432719">
        <ele>265.2789776823</ele>
        <time>2026-06-25T17:39:20Z</time>
      </trkpt>
      <trkpt lat="41.40048621381974" lon="-81.74197337224734">
        <ele>265.3733440691</ele>
        <time>2026-06-25T17:40:04Z</time>
      </trkpt>
      <trkpt lat="41.40045064361932" lon="-81.74195399731833">
        <ele>265.5352027804</ele>
        <time>2026-06-25T17:40:08Z</time>
      </trkpt>
      <trkpt lat="41.40043811906629" lon="-81.74135355822331">
        <ele>265.8667941731</ele>
        <time>2026-06-25T17:40:53Z</time>
      </trkpt>
      <trkpt lat="41.40043702675848" lon="-81.74076573643276">
        <ele>266.2596291154</ele>
        <time>2026-06-25T17:41:39Z</time>
      </trkpt>
      <trkpt lat="41.40043675456793" lon="-81.74014672003877">
        <ele>266.8354446453</ele>
        <time>2026-06-25T17:42:27Z</time>
      </trkpt>
      <trkpt lat="41.40042606504832" lon="-81.73955963796399">
        <ele>266.9939378057</ele>
        <time>2026-06-25T17:42:57Z</time>
      </trkpt>
      <trkpt lat="41.40042514632817" lon="-81.73895092520232">
        <ele>266.9921040503</ele>
        <time>2026-06-25T17:43:36Z</time>
      </trkpt>
      <trkpt lat="41.40042125246089" lon="-81.73835480917212">
        <ele>267.1007980550</ele>
        <time>2026-06-25T17:44:51Z</time>
      </trkpt>
      <trkpt lat="41.40042055782424" lon="-81.73776200006598">
        <ele>267.7995037688</ele>
        <time>2026-06-25T17:45:30Z</time>
      </trkpt>
      <trkpt lat="41.40042208192395" lon="-81.73715344736040">
        <ele>267.8085787890</ele>
        <time>2026-06-25T17:46:17Z</time>
      </trkpt>
      <trkpt lat="41.40041316704919" lon="-81.73655151122746">
        <ele>268.1196777624</ele>
        <time>2026-06-25T17:46:58Z</time>
      </trkpt>
      <trkpt lat="41.40040764127473" lon="-81.73595634461063">
        <ele>267.9231818904</ele>
        <time>2026-06-25T17:47:42Z</time>
      </trkpt>
      <trkpt lat="41.40040399259765" lon="-81.73535103223780">
        <ele>267.7624560700</ele>
        <time>2026-06-25T17:48:14Z</time>
      </trkpt>
      <trkpt lat="41.40039864479726" lon="-81.73476561375091">
        <ele>267.4440073268</ele>
        <time>2026-06-25T17:49:03Z</time>
      </trkpt>
      <trkpt lat="41.40038989729147" lon="-81.73461588750506">
        <ele>267.4238913488</ele>
        <time>2026-06-25T17:49:13Z</time>
      </trkpt>
      <trkpt lat="41.40083797247103" lon="-81.73463344614134">
        <ele>267.3080561683</ele>
        <time>2026-06-25T17:49:46Z</time>
      </trkpt>
      <trkpt lat="41.40130068162010" lon="-81.73462804064839">
        <ele>266.9942340260</ele>
        <time>2026-06-25T17:50:29Z</time>
      </trkpt>
      <trkpt lat="41.40132073485717" lon="-81.73464096039342">
        <ele>267.3810092443</ele>
        <time>2026-06-25T17:50:31Z</time>
      </trkpt>
      <trkpt lat="41.40132455522826" lon="-81.73523302601313">
        <ele>267.8656860282</ele>
        <time>2026-06-25T17:51:11Z</time>
      </trkpt>
      <trkpt lat="41.40131635622298" lon="-81.73583215173564">
        <ele>268.1735553123</ele>
        <time>2026-06-25T17:51:53Z</time>
      </trkpt>
      <trkpt lat="41.40132948748579" lon="-81.73644161302887">
        <ele>267.9502654213</ele>
        <time>2026-06-25T17:52:38Z</time>
      </trkpt>
      <trkpt lat="41.40133845558449" lon="-81.73702703631871">
        <ele>267.9125362469</ele>
        <time>2026-06-25T17:53:09Z</time>
      </trkpt>
      <trkpt lat="41.40133728729095" lon="-81.73761958805765">
        <ele>267.9527197066</ele>
        <time>2026-06-25T17:53:43Z</time>
      </trkpt>
      <trkpt lat="41.40133465071197" lon="-81.73822887878750">
        <ele>267.5738113727</ele>
        <time>2026-06-25T17:54:26Z</time>
      </trkpt>
      <trkpt lat="41.40133459782855" lon="-81.73883206845979">
        <ele>267.2759350944</ele>
        <time>2026-06-25T17:55:09Z</time>
      </trkpt>
      <trkpt lat="41.40133631107378" lon="-81.73942870168908">
        <ele>267.1006809502</ele>
        <time>2026-06-25T17:55:43Z</time>
      </trkpt>
      <trkpt lat="41.40134432924452" lon="-81.74002797537146">
        <ele>266.5805830654</ele>
        <time>2026-06-25T17:56:21Z</time>
      </trkpt>
      <trkpt lat="41.40135140854691" lon="-81.74019702125808">
        <ele>266.5742510746</ele>
        <time>2026-06-25T17:56:30Z</time>
      </trkpt>
    </trkseg>
  </trk>
</gpx>