<?xml version='1.0' encoding='UTF-8'?>
<gpx xmlns="http://www.topografix.com/GPX/1/1" creator="https://gpx.studio" version="1.1">
  <metadata>
    <name>Dog Walk - 2026-03-28 #2</name>
  </metadata>
  <trk>
    <name>Dog Walk - 2026-03-28 #2</name>
    <type>dog walk</type>
    <trkseg>
      <trkpt lat="41.40133038914603" lon="-81.74022225239948">
        <ele>266.4502354890</ele>
        <time>2026-03-28T12:06:40Z</time>
      </trkpt>
      <trkpt lat="41.40133282596887" lon="-81.74083314054042">
        <ele>266.2142366132</ele>
        <time>2026-03-28T12:07:27Z</time>
      </trkpt>
      <trkpt lat="41.40133036653903" lon="-81.74143290066002">
        <ele>265.8801442457</ele>
        <time>2026-03-28T12:08:05Z</time>
      </trkpt>
      <trkpt lat="41.40133530983106" lon="-81.74203579191557">
        <ele>265.5050189487</ele>
        <time>2026-03-28T12:08:42Z</time>
      </trkpt>
      <trkpt lat="41.40132587584417" lon="-81.74238346185018">
        <ele>264.8123618513</ele>
        <time>2026-03-28T12:09:11Z</time>
      </trkpt>
      <trkpt lat="41.40090276867636" lon="-81.74219562815522">
        <ele>265.0187649117</ele>
        <time>2026-03-28T12:10:16Z</time>
      </trkpt>
      <trkpt lat="41.40048212016890" lon="-81.74199870932470">
        <ele>265.1789274610</ele>
        <time>2026-03-28T12:10:54Z</time>
      </trkpt>
      <trkpt lat="41.40004770470942" lon="-81.74180466686072">
        <ele>265.3895523988</ele>
        <time>2026-03-28T12:11:26Z</time>
      </trkpt>
      <trkpt lat="41.39962804934832" lon="-81.74160724333426">
        <ele>264.6936271973</ele>
        <time>2026-03-28T12:12:06Z</time>
      </trkpt>
      <trkpt lat="41.39954989093747" lon="-81.74158110340061">
        <ele>264.5443839750</ele>
        <time>2026-03-28T12:12:13Z</time>
      </trkpt>
      <trkpt lat="41.39953325164175" lon="-81.74098094014973">
        <ele>265.7333475161</ele>
        <time>2026-03-28T12:12:47Z</time>
      </trkpt>
      <trkpt lat="41.39952930553065" lon="-81.74037717821462">
        <ele>265.9169518679</ele>
        <time>2026-03-28T12:13:50Z</time>
      </trkpt>
      <trkpt lat="41.39953237141352" lon="-81.73977771798704">
        <ele>266.5898668138</ele>
        <time>2026-03-28T12:14:23Z</time>
      </trkpt>
      <trkpt lat="41.39953154194500" lon="-81.73917432382187">
        <ele>266.7195132834</ele>
        <time>2026-03-28T12:14:56Z</time>
      </trkpt>
      <trkpt lat="41.39952930917735" lon="-81.73857875491292">
        <ele>266.9168607073</ele>
        <time>2026-03-28T12:15:47Z</time>
      </trkpt>
      <trkpt lat="41.39952721130516" lon="-81.73797400699884">
        <ele>266.9642202409</ele>
        <time>2026-03-28T12:16:21Z</time>
      </trkpt>
      <trkpt lat="41.39952561598091" lon="-81.73738336475854">
        <ele>267.2694925898</ele>
        <time>2026-03-28T12:17:08Z</time>
      </trkpt>
      <trkpt lat="41.39952728358607" lon="-81.73678419019323">
        <ele>267.6621712598</ele>
        <time>2026-03-28T12:17:39Z</time>
      </trkpt>
      <trkpt lat="41.39952446052825" lon="-81.73618169163103">
        <ele>267.4342459684</ele>
        <time>2026-03-28T12:18:17Z</time>
      </trkpt>
      <trkpt lat="41.39952879434107" lon="-81.73558163926425">
        <ele>267.3363450441</ele>
        <time>2026-03-28T12:18:46Z</time>
      </trkpt>
      <trkpt lat="41.39952616561381" lon="-81.73497101525884">
        <ele>267.2612778933</ele>
        <time>2026-03-28T12:19:22Z</time>
      </trkpt>
      <trkpt lat="41.39952427376211" lon="-81.73460499904270">
        <ele>267.1373074435</ele>
        <time>2026-03-28T12:19:44Z</time>
      </trkpt>
      <trkpt lat="41.39997610220571" lon="-81.73462760377832">
        <ele>267.2961213790</ele>
        <time>2026-03-28T12:20:17Z</time>
      </trkpt>
      <trkpt lat="41.40041966762184" lon="-81.73462663647651">
        <ele>267.3948001876</ele>
        <time>2026-03-28T12:21:00Z</time>
      </trkpt>
      <trkpt lat="41.40087738920717" lon="-81.73463454969739">
        <ele>267.2594479703</ele>
        <time>2026-03-28T12:21:38Z</time>
      </trkpt>
      <trkpt lat="41.40131164494369" lon="-81.73464848087201">
        <ele>267.3502180435</ele>
        <time>2026-03-28T12:22:22Z</time>
      </trkpt>
      <trkpt lat="41.40132342549619" lon="-81.73523554252452">
        <ele>267.9253615501</ele>
        <time>2026-03-28T12:23:01Z</time>
      </trkpt>
      <trkpt lat="41.40132306455016" lon="-81.73584503894446">
        <ele>268.2020750066</ele>
        <time>2026-03-28T12:23:47Z</time>
      </trkpt>
      <trkpt lat="41.40132944013798" lon="-81.73643934190244">
        <ele>268.3214564397</ele>
        <time>2026-03-28T12:24:25Z</time>
      </trkpt>
      <trkpt lat="41.40132470837496" lon="-81.73704176375087">
        <ele>267.9365111575</ele>
        <time>2026-03-28T12:25:06Z</time>
      </trkpt>
      <trkpt lat="41.40132627054775" lon="-81.73764535366334">
        <ele>267.8344053070</ele>
        <time>2026-03-28T12:25:45Z</time>
      </trkpt>
      <trkpt lat="41.40133045283719" lon="-81.73824075004904">
        <ele>267.4927262945</ele>
        <time>2026-03-28T12:26:30Z</time>
      </trkpt>
      <trkpt lat="41.40132807082213" lon="-81.73884012321176">
        <ele>267.3197120079</ele>
        <time>2026-03-28T12:27:29Z</time>
      </trkpt>
      <trkpt lat="41.40132720287512" lon="-81.73943836834137">
        <ele>267.1911090634</ele>
        <time>2026-03-28T12:28:37Z</time>
      </trkpt>
      <trkpt lat="41.40133334234475" lon="-81.74003152763883">
        <ele>266.7162700713</ele>
        <time>2026-03-28T12:29:21Z</time>
      </trkpt>
      <trkpt lat="41.40133500163918" lon="-81.74021995361318">
        <ele>266.3818208506</ele>
        <time>2026-03-28T12:29:32Z</time>
      </trkpt>
    </trkseg>
  </trk>
</gpx>