<?xml version='1.0' encoding='UTF-8'?>
<gpx xmlns="http://www.topografix.com/GPX/1/1" creator="https://gpx.studio" version="1.1">
  <metadata>
    <name>Dog Walk - 2026-04-09 #3</name>
  </metadata>
  <trk>
    <name>Dog Walk - 2026-04-09 #3</name>
    <type>dog walk</type>
    <trkseg>
      <trkpt lat="41.40134315586581" lon="-81.74024044690692">
        <ele>266.5764203633</ele>
        <time>2026-04-09T15:56:52Z</time>
      </trkpt>
      <trkpt lat="41.40134729489574" lon="-81.74084112801877">
        <ele>266.1864442432</ele>
        <time>2026-04-09T15:57:30Z</time>
      </trkpt>
      <trkpt lat="41.40133866511480" lon="-81.74143236271122">
        <ele>265.6886290046</ele>
        <time>2026-04-09T15:58:02Z</time>
      </trkpt>
      <trkpt lat="41.40135237807758" lon="-81.74204206768523">
        <ele>265.3462129623</ele>
        <time>2026-04-09T15:58:41Z</time>
      </trkpt>
      <trkpt lat="41.40135297990601" lon="-81.74241995837650">
        <ele>264.6819552419</ele>
        <time>2026-04-09T15:59:05Z</time>
      </trkpt>
      <trkpt lat="41.40177461812129" lon="-81.74261812995942">
        <ele>264.1258743458</ele>
        <time>2026-04-09T15:59:49Z</time>
      </trkpt>
      <trkpt lat="41.40219571556157" lon="-81.74281250106776">
        <ele>263.4246485253</ele>
        <time>2026-04-09T16:01:01Z</time>
      </trkpt>
      <trkpt lat="41.40262239205085" lon="-81.74302817968379">
        <ele>263.2010742232</ele>
        <time>2026-04-09T16:01:43Z</time>
      </trkpt>
      <trkpt lat="41.40304737902495" lon="-81.74321584523865">
        <ele>262.4146214154</ele>
        <time>2026-04-09T16:02:17Z</time>
      </trkpt>
      <trkpt lat="41.40311186434172" lon="-81.74326246234320">
        <ele>262.2747968028</ele>
        <time>2026-04-09T16:02:26Z</time>
      </trkpt>
      <trkpt lat="41.40311595719125" lon="-81.74264860659922">
        <ele>263.0244021403</ele>
        <time>2026-04-09T16:03:16Z</time>
      </trkpt>
      <trkpt lat="41.40311297442707" lon="-81.74205095194917">
        <ele>263.8775815169</ele>
        <time>2026-04-09T16:04:00Z</time>
      </trkpt>
      <trkpt lat="41.40310151312430" lon="-81.74145306105306">
        <ele>264.0825559918</ele>
        <time>2026-04-09T16:04:45Z</time>
      </trkpt>
      <trkpt lat="41.40311599424734" lon="-81.74085732163475">
        <ele>264.9437828882</ele>
        <time>2026-04-09T16:05:22Z</time>
      </trkpt>
      <trkpt lat="41.40310082279413" lon="-81.74025880662458">
        <ele>265.4644116894</ele>
        <time>2026-04-09T16:05:56Z</time>
      </trkpt>
      <trkpt lat="41.40309575061843" lon="-81.73965616806603">
        <ele>265.9797721840</ele>
        <time>2026-04-09T16:06:35Z</time>
      </trkpt>
      <trkpt lat="41.40310340970162" lon="-81.73905907194954">
        <ele>266.3507824430</ele>
        <time>2026-04-09T16:07:12Z</time>
      </trkpt>
      <trkpt lat="41.40309823267840" lon="-81.73878108685328">
        <ele>266.1685819316</ele>
        <time>2026-04-09T16:07:33Z</time>
      </trkpt>
      <trkpt lat="41.40265105920860" lon="-81.73878494830899">
        <ele>266.6240233556</ele>
        <time>2026-04-09T16:08:15Z</time>
      </trkpt>
      <trkpt lat="41.40223837405200" lon="-81.73877534018692">
        <ele>267.0543168061</ele>
        <time>2026-04-09T16:08:51Z</time>
      </trkpt>
      <trkpt lat="41.40223202469519" lon="-81.73817531620924">
        <ele>267.0771955628</ele>
        <time>2026-04-09T16:09:34Z</time>
      </trkpt>
      <trkpt lat="41.40223427532636" lon="-81.73757849837085">
        <ele>267.1080430818</ele>
        <time>2026-04-09T16:10:19Z</time>
      </trkpt>
      <trkpt lat="41.40222766570934" lon="-81.73697737907221">
        <ele>267.2470404906</ele>
        <time>2026-04-09T16:11:08Z</time>
      </trkpt>
      <trkpt lat="41.40222873041687" lon="-81.73638567613797">
        <ele>267.1829988164</ele>
        <time>2026-04-09T16:11:38Z</time>
      </trkpt>
      <trkpt lat="41.40222644230704" lon="-81.73578751855045">
        <ele>267.3955475833</ele>
        <time>2026-04-09T16:12:23Z</time>
      </trkpt>
      <trkpt lat="41.40222446658831" lon="-81.73517671148426">
        <ele>267.0932093646</ele>
        <time>2026-04-09T16:13:22Z</time>
      </trkpt>
      <trkpt lat="41.40222912130190" lon="-81.73465774708549">
        <ele>267.2153032082</ele>
        <time>2026-04-09T16:13:53Z</time>
      </trkpt>
      <trkpt lat="41.40177424929352" lon="-81.73464862456137">
        <ele>267.3444959602</ele>
        <time>2026-04-09T16:14:31Z</time>
      </trkpt>
      <trkpt lat="41.40132696781065" lon="-81.73463415014942">
        <ele>267.5670018396</ele>
        <time>2026-04-09T16:15:13Z</time>
      </trkpt>
      <trkpt lat="41.40131831938771" lon="-81.73464225055761">
        <ele>267.3465531967</ele>
        <time>2026-04-09T16:15:14Z</time>
      </trkpt>
      <trkpt lat="41.40131888910931" lon="-81.73523294739014">
        <ele>267.8383731784</ele>
        <time>2026-04-09T16:15:59Z</time>
      </trkpt>
      <trkpt lat="41.40131865428466" lon="-81.73583183929541">
        <ele>268.1341508222</ele>
        <time>2026-04-09T16:16:44Z</time>
      </trkpt>
      <trkpt lat="41.40132489730435" lon="-81.73643613661324">
        <ele>268.4075614573</ele>
        <time>2026-04-09T16:17:38Z</time>
      </trkpt>
      <trkpt lat="41.40133312335719" lon="-81.73703864926078">
        <ele>267.8975897241</ele>
        <time>2026-04-09T16:18:21Z</time>
      </trkpt>
      <trkpt lat="41.40133239162959" lon="-81.73762717576516">
        <ele>267.7203139261</ele>
        <time>2026-04-09T16:19:22Z</time>
      </trkpt>
      <trkpt lat="41.40134348744960" lon="-81.73824200588510">
        <ele>267.4804251508</ele>
        <time>2026-04-09T16:20:11Z</time>
      </trkpt>
      <trkpt lat="41.40133840965850" lon="-81.73882803441457">
        <ele>267.5444968084</ele>
        <time>2026-04-09T16:20:50Z</time>
      </trkpt>
      <trkpt lat="41.40133958618069" lon="-81.73942819203471">
        <ele>266.9951437316</ele>
        <time>2026-04-09T16:21:38Z</time>
      </trkpt>
      <trkpt lat="41.40134429870513" lon="-81.74002965194694">
        <ele>266.7123817164</ele>
        <time>2026-04-09T16:22:08Z</time>
      </trkpt>
      <trkpt lat="41.40134931824881" lon="-81.74015660033517">
        <ele>266.5059647056</ele>
        <time>2026-04-09T16:22:17Z</time>
      </trkpt>
    </trkseg>
  </trk>
</gpx>