<?xml version='1.0' encoding='UTF-8'?>
<gpx xmlns="http://www.topografix.com/GPX/1/1" creator="https://gpx.studio" version="1.1">
  <metadata>
    <name>Dog Walk - 2026-06-22 #4</name>
  </metadata>
  <trk>
    <name>Dog Walk - 2026-06-22 #4</name>
    <type>dog walk</type>
    <trkseg>
      <trkpt lat="41.40133668070904" lon="-81.74023307260454">
        <ele>266.3375810596</ele>
        <time>2026-06-22T20:08:33Z</time>
      </trkpt>
      <trkpt lat="41.40133322152016" lon="-81.74083468347018">
        <ele>266.2870784159</ele>
        <time>2026-06-22T20:09:03Z</time>
      </trkpt>
      <trkpt lat="41.40132669826531" lon="-81.74142939444069">
        <ele>265.9045448330</ele>
        <time>2026-06-22T20:09:49Z</time>
      </trkpt>
      <trkpt lat="41.40132805776359" lon="-81.74203161818302">
        <ele>265.4226274420</ele>
        <time>2026-06-22T20:10:23Z</time>
      </trkpt>
      <trkpt lat="41.40132978674219" lon="-81.74238852052763">
        <ele>264.8705557463</ele>
        <time>2026-06-22T20:10:45Z</time>
      </trkpt>
      <trkpt lat="41.40091048075637" lon="-81.74220378466821">
        <ele>265.1165847199</ele>
        <time>2026-06-22T20:11:24Z</time>
      </trkpt>
      <trkpt lat="41.40047736792862" lon="-81.74201369869694">
        <ele>265.2186414449</ele>
        <time>2026-06-22T20:12:05Z</time>
      </trkpt>
      <trkpt lat="41.40004275326380" lon="-81.74181048534265">
        <ele>265.4186327883</ele>
        <time>2026-06-22T20:12:41Z</time>
      </trkpt>
      <trkpt lat="41.39963712402525" lon="-81.74162612840712">
        <ele>264.6713972699</ele>
        <time>2026-06-22T20:13:18Z</time>
      </trkpt>
      <trkpt lat="41.39953727050084" lon="-81.74156448321543">
        <ele>264.8923564595</ele>
        <time>2026-06-22T20:13:35Z</time>
      </trkpt>
      <trkpt lat="41.39953087795047" lon="-81.74096044018880">
        <ele>265.6201970917</ele>
        <time>2026-06-22T20:14:37Z</time>
      </trkpt>
      <trkpt lat="41.39953347895531" lon="-81.74037950534232">
        <ele>265.9861107899</ele>
        <time>2026-06-22T20:15:23Z</time>
      </trkpt>
      <trkpt lat="41.39953675135062" lon="-81.73977094295509">
        <ele>266.6887657011</ele>
        <time>2026-06-22T20:16:04Z</time>
      </trkpt>
      <trkpt lat="41.39953643164954" lon="-81.73918179570006">
        <ele>266.7748537826</ele>
        <time>2026-06-22T20:16:49Z</time>
      </trkpt>
      <trkpt lat="41.39952991956596" lon="-81.73857158840191">
        <ele>267.0060334282</ele>
        <time>2026-06-22T20:17:26Z</time>
      </trkpt>
      <trkpt lat="41.39953645058912" lon="-81.73796876019404">
        <ele>267.2073571377</ele>
        <time>2026-06-22T20:18:18Z</time>
      </trkpt>
      <trkpt lat="41.39952692255433" lon="-81.73737564834080">
        <ele>267.4079277665</ele>
        <time>2026-06-22T20:19:01Z</time>
      </trkpt>
      <trkpt lat="41.39953032400044" lon="-81.73677244646460">
        <ele>267.2159309210</ele>
        <time>2026-06-22T20:19:49Z</time>
      </trkpt>
      <trkpt lat="41.39953317434728" lon="-81.73618415645426">
        <ele>267.5516865924</ele>
        <time>2026-06-22T20:20:23Z</time>
      </trkpt>
      <trkpt lat="41.39952609382666" lon="-81.73557678790436">
        <ele>267.4497161541</ele>
        <time>2026-06-22T20:21:04Z</time>
      </trkpt>
      <trkpt lat="41.39952242086641" lon="-81.73498243774534">
        <ele>266.9809873376</ele>
        <time>2026-06-22T20:21:46Z</time>
      </trkpt>
      <trkpt lat="41.39952328014780" lon="-81.73459937409173">
        <ele>267.2343305323</ele>
        <time>2026-06-22T20:22:10Z</time>
      </trkpt>
      <trkpt lat="41.39997474366389" lon="-81.73462164480151">
        <ele>267.2298803436</ele>
        <time>2026-06-22T20:22:53Z</time>
      </trkpt>
      <trkpt lat="41.40042339709962" lon="-81.73463583060207">
        <ele>267.4893380565</ele>
        <time>2026-06-22T20:23:35Z</time>
      </trkpt>
      <trkpt lat="41.40087158274485" lon="-81.73463176533774">
        <ele>267.3040358245</ele>
        <time>2026-06-22T20:24:13Z</time>
      </trkpt>
      <trkpt lat="41.40132369459955" lon="-81.73464750432368">
        <ele>267.2894644857</ele>
        <time>2026-06-22T20:25:08Z</time>
      </trkpt>
      <trkpt lat="41.40132360693894" lon="-81.73524310063421">
        <ele>267.8259132508</ele>
        <time>2026-06-22T20:25:43Z</time>
      </trkpt>
      <trkpt lat="41.40132403640710" lon="-81.73583667528483">
        <ele>268.2882731093</ele>
        <time>2026-06-22T20:26:23Z</time>
      </trkpt>
      <trkpt lat="41.40133208623276" lon="-81.73644792328552">
        <ele>268.0543442235</ele>
        <time>2026-06-22T20:27:11Z</time>
      </trkpt>
      <trkpt lat="41.40132737177682" lon="-81.73704408018212">
        <ele>268.3173852114</ele>
        <time>2026-06-22T20:27:54Z</time>
      </trkpt>
      <trkpt lat="41.40132457272725" lon="-81.73763656906387">
        <ele>267.7893144017</ele>
        <time>2026-06-22T20:28:40Z</time>
      </trkpt>
      <trkpt lat="41.40132893537638" lon="-81.73823502789165">
        <ele>267.7518750895</ele>
        <time>2026-06-22T20:29:24Z</time>
      </trkpt>
      <trkpt lat="41.40133417494765" lon="-81.73883370143170">
        <ele>267.4329771246</ele>
        <time>2026-06-22T20:30:15Z</time>
      </trkpt>
      <trkpt lat="41.40132917560819" lon="-81.73942840986531">
        <ele>266.9668348747</ele>
        <time>2026-06-22T20:30:54Z</time>
      </trkpt>
      <trkpt lat="41.40133658964447" lon="-81.74003389546606">
        <ele>266.7458895168</ele>
        <time>2026-06-22T20:31:25Z</time>
      </trkpt>
      <trkpt lat="41.40133528132942" lon="-81.74021927269064">
        <ele>266.6109821450</ele>
        <time>2026-06-22T20:31:36Z</time>
      </trkpt>
    </trkseg>
  </trk>
</gpx>