<?xml version='1.0' encoding='UTF-8'?>
<gpx xmlns="http://www.topografix.com/GPX/1/1" creator="https://gpx.studio" version="1.1">
  <metadata>
    <name>Dog Walk - 2026-05-19 #2</name>
  </metadata>
  <trk>
    <name>Dog Walk - 2026-05-19 #2</name>
    <type>dog walk</type>
    <trkseg>
      <trkpt lat="41.40134494487044" lon="-81.74022930960315">
        <ele>266.6977061244</ele>
        <time>2026-05-19T17:27:04Z</time>
      </trkpt>
      <trkpt lat="41.40134891827942" lon="-81.74083890949811">
        <ele>266.2851564840</ele>
        <time>2026-05-19T17:27:48Z</time>
      </trkpt>
      <trkpt lat="41.40132732378001" lon="-81.74142424747205">
        <ele>266.0036159792</ele>
        <time>2026-05-19T17:28:24Z</time>
      </trkpt>
      <trkpt lat="41.40133372470294" lon="-81.74202810542553">
        <ele>265.4186656303</ele>
        <time>2026-05-19T17:29:05Z</time>
      </trkpt>
      <trkpt lat="41.40132758480006" lon="-81.74238656911920">
        <ele>264.9695645803</ele>
        <time>2026-05-19T17:29:38Z</time>
      </trkpt>
      <trkpt lat="41.40090858479887" lon="-81.74218154887321">
        <ele>265.3535903299</ele>
        <time>2026-05-19T17:30:21Z</time>
      </trkpt>
      <trkpt lat="41.40048129675539" lon="-81.74196666597244">
        <ele>265.2728161968</ele>
        <time>2026-05-19T17:30:57Z</time>
      </trkpt>
      <trkpt lat="41.40044924328109" lon="-81.74195192760314">
        <ele>265.3628495674</ele>
        <time>2026-05-19T17:31:00Z</time>
      </trkpt>
      <trkpt lat="41.40045139229279" lon="-81.74136254732923">
        <ele>266.1416417766</ele>
        <time>2026-05-19T17:31:47Z</time>
      </trkpt>
      <trkpt lat="41.40044987095216" lon="-81.74075183853441">
        <ele>266.3449334465</ele>
        <time>2026-05-19T17:32:27Z</time>
      </trkpt>
      <trkpt lat="41.40043784496135" lon="-81.74015544972535">
        <ele>266.6262479993</ele>
        <time>2026-05-19T17:33:14Z</time>
      </trkpt>
      <trkpt lat="41.40043719400404" lon="-81.73955316882054">
        <ele>267.1955386750</ele>
        <time>2026-05-19T17:33:50Z</time>
      </trkpt>
      <trkpt lat="41.40042656238597" lon="-81.73895745778961">
        <ele>267.1109771765</ele>
        <time>2026-05-19T17:34:24Z</time>
      </trkpt>
      <trkpt lat="41.40042443994987" lon="-81.73835233293084">
        <ele>267.3988165031</ele>
        <time>2026-05-19T17:35:02Z</time>
      </trkpt>
      <trkpt lat="41.40042314269349" lon="-81.73775891980841">
        <ele>267.6708229839</ele>
        <time>2026-05-19T17:35:46Z</time>
      </trkpt>
      <trkpt lat="41.40041045895008" lon="-81.73714969449961">
        <ele>268.1385687868</ele>
        <time>2026-05-19T17:36:29Z</time>
      </trkpt>
      <trkpt lat="41.40040492786087" lon="-81.73655549741879">
        <ele>268.1137055080</ele>
        <time>2026-05-19T17:37:11Z</time>
      </trkpt>
      <trkpt lat="41.40040796321834" lon="-81.73595045182171">
        <ele>267.9311946554</ele>
        <time>2026-05-19T17:38:06Z</time>
      </trkpt>
      <trkpt lat="41.40040035670198" lon="-81.73533836498663">
        <ele>267.7316240978</ele>
        <time>2026-05-19T17:38:56Z</time>
      </trkpt>
      <trkpt lat="41.40039856640603" lon="-81.73475657824659">
        <ele>267.5307612631</ele>
        <time>2026-05-19T17:39:39Z</time>
      </trkpt>
      <trkpt lat="41.40039589450304" lon="-81.73462582432110">
        <ele>267.3388340700</ele>
        <time>2026-05-19T17:39:48Z</time>
      </trkpt>
      <trkpt lat="41.40084846515261" lon="-81.73462471406822">
        <ele>267.2477211337</ele>
        <time>2026-05-19T17:40:31Z</time>
      </trkpt>
      <trkpt lat="41.40129545037691" lon="-81.73462816098289">
        <ele>267.2106356457</ele>
        <time>2026-05-19T17:41:07Z</time>
      </trkpt>
      <trkpt lat="41.40132146786971" lon="-81.73463477154004">
        <ele>267.3944364789</ele>
        <time>2026-05-19T17:41:09Z</time>
      </trkpt>
      <trkpt lat="41.40132266773994" lon="-81.73523180264884">
        <ele>267.9778302741</ele>
        <time>2026-05-19T17:41:55Z</time>
      </trkpt>
      <trkpt lat="41.40133478452389" lon="-81.73583018196159">
        <ele>268.3080404230</ele>
        <time>2026-05-19T17:42:39Z</time>
      </trkpt>
      <trkpt lat="41.40133648166355" lon="-81.73642162327191">
        <ele>268.2184250863</ele>
        <time>2026-05-19T17:43:26Z</time>
      </trkpt>
      <trkpt lat="41.40132754247766" lon="-81.73703109236224">
        <ele>267.8313549978</ele>
        <time>2026-05-19T17:43:59Z</time>
      </trkpt>
      <trkpt lat="41.40133020219587" lon="-81.73763230165336">
        <ele>267.9253374385</ele>
        <time>2026-05-19T17:44:48Z</time>
      </trkpt>
      <trkpt lat="41.40133759159422" lon="-81.73822644192177">
        <ele>267.6357696988</ele>
        <time>2026-05-19T17:45:26Z</time>
      </trkpt>
      <trkpt lat="41.40133555825442" lon="-81.73882230961331">
        <ele>267.4808155014</ele>
        <time>2026-05-19T17:46:03Z</time>
      </trkpt>
      <trkpt lat="41.40134789835325" lon="-81.73944039030371">
        <ele>267.0327741128</ele>
        <time>2026-05-19T17:47:01Z</time>
      </trkpt>
      <trkpt lat="41.40134387520337" lon="-81.74002747714732">
        <ele>266.5499430651</ele>
        <time>2026-05-19T17:47:35Z</time>
      </trkpt>
      <trkpt lat="41.40134197669003" lon="-81.74019964533095">
        <ele>266.3530731831</ele>
        <time>2026-05-19T17:47:48Z</time>
      </trkpt>
    </trkseg>
  </trk>
</gpx>