<?xml version='1.0' encoding='UTF-8'?>
<gpx xmlns="http://www.topografix.com/GPX/1/1" creator="https://gpx.studio" version="1.1">
  <metadata>
    <name>Dog Walk - 2026-04-10 #1</name>
  </metadata>
  <trk>
    <name>Dog Walk - 2026-04-10 #1</name>
    <type>dog walk</type>
    <trkseg>
      <trkpt lat="41.40133737602237" lon="-81.74023091655572">
        <ele>266.4713999482</ele>
        <time>2026-04-10T08:21:59Z</time>
      </trkpt>
      <trkpt lat="41.40134548771609" lon="-81.74083458596826">
        <ele>266.1441998756</ele>
        <time>2026-04-10T08:22:46Z</time>
      </trkpt>
      <trkpt lat="41.40134770724504" lon="-81.74143231245711">
        <ele>265.5675525512</ele>
        <time>2026-04-10T08:23:40Z</time>
      </trkpt>
      <trkpt lat="41.40135086841662" lon="-81.74202926595694">
        <ele>265.0921339284</ele>
        <time>2026-04-10T08:24:28Z</time>
      </trkpt>
      <trkpt lat="41.40135166838081" lon="-81.74241471472547">
        <ele>264.6838238908</ele>
        <time>2026-04-10T08:24:53Z</time>
      </trkpt>
      <trkpt lat="41.40176926879766" lon="-81.74261857303574">
        <ele>264.0097115541</ele>
        <time>2026-04-10T08:25:36Z</time>
      </trkpt>
      <trkpt lat="41.40219503085653" lon="-81.74281161189639">
        <ele>263.4595247303</ele>
        <time>2026-04-10T08:26:21Z</time>
      </trkpt>
      <trkpt lat="41.40261193585656" lon="-81.74302338961766">
        <ele>263.2217159552</ele>
        <time>2026-04-10T08:27:04Z</time>
      </trkpt>
      <trkpt lat="41.40304128976162" lon="-81.74321396164295">
        <ele>262.5103309124</ele>
        <time>2026-04-10T08:27:42Z</time>
      </trkpt>
      <trkpt lat="41.40311431891688" lon="-81.74324680022723">
        <ele>262.2506937048</ele>
        <time>2026-04-10T08:27:50Z</time>
      </trkpt>
      <trkpt lat="41.40311302794733" lon="-81.74265366119859">
        <ele>263.0936447322</ele>
        <time>2026-04-10T08:28:28Z</time>
      </trkpt>
      <trkpt lat="41.40311232681587" lon="-81.74205313430505">
        <ele>263.5388497860</ele>
        <time>2026-04-10T08:29:13Z</time>
      </trkpt>
      <trkpt lat="41.40311729470390" lon="-81.74145405754346">
        <ele>264.0289445011</ele>
        <time>2026-04-10T08:29:51Z</time>
      </trkpt>
      <trkpt lat="41.40311091127844" lon="-81.74086600441025">
        <ele>264.7933299912</ele>
        <time>2026-04-10T08:30:33Z</time>
      </trkpt>
      <trkpt lat="41.40310538797905" lon="-81.74025675232420">
        <ele>265.1918805520</ele>
        <time>2026-04-10T08:31:15Z</time>
      </trkpt>
      <trkpt lat="41.40309871529067" lon="-81.73964650023881">
        <ele>265.7941973102</ele>
        <time>2026-04-10T08:31:48Z</time>
      </trkpt>
      <trkpt lat="41.40309631943656" lon="-81.73905568244133">
        <ele>266.0894616553</ele>
        <time>2026-04-10T08:32:35Z</time>
      </trkpt>
      <trkpt lat="41.40309866265160" lon="-81.73879078695299">
        <ele>266.0161468913</ele>
        <time>2026-04-10T08:32:48Z</time>
      </trkpt>
      <trkpt lat="41.40264632252610" lon="-81.73877903882645">
        <ele>266.7126188821</ele>
        <time>2026-04-10T08:33:26Z</time>
      </trkpt>
      <trkpt lat="41.40224598354289" lon="-81.73878501582112">
        <ele>267.0045975425</ele>
        <time>2026-04-10T08:33:54Z</time>
      </trkpt>
      <trkpt lat="41.40223055194967" lon="-81.73818516053440">
        <ele>267.0162728276</ele>
        <time>2026-04-10T08:34:33Z</time>
      </trkpt>
      <trkpt lat="41.40222494421186" lon="-81.73757832642373">
        <ele>267.1534641480</ele>
        <time>2026-04-10T08:35:23Z</time>
      </trkpt>
      <trkpt lat="41.40222563041891" lon="-81.73699299785386">
        <ele>267.0748722080</ele>
        <time>2026-04-10T08:35:55Z</time>
      </trkpt>
      <trkpt lat="41.40223264689268" lon="-81.73637452210335">
        <ele>267.2065291052</ele>
        <time>2026-04-10T08:36:39Z</time>
      </trkpt>
      <trkpt lat="41.40222911538069" lon="-81.73578274257309">
        <ele>267.3510888734</ele>
        <time>2026-04-10T08:37:11Z</time>
      </trkpt>
      <trkpt lat="41.40222450425646" lon="-81.73519665250500">
        <ele>266.9443550078</ele>
        <time>2026-04-10T08:37:41Z</time>
      </trkpt>
      <trkpt lat="41.40222509511055" lon="-81.73466130916792">
        <ele>267.1168330904</ele>
        <time>2026-04-10T08:38:12Z</time>
      </trkpt>
      <trkpt lat="41.40177273730265" lon="-81.73464341476704">
        <ele>267.4114422679</ele>
        <time>2026-04-10T08:38:47Z</time>
      </trkpt>
      <trkpt lat="41.40132788096822" lon="-81.73462338890573">
        <ele>267.3269454172</ele>
        <time>2026-04-10T08:39:23Z</time>
      </trkpt>
      <trkpt lat="41.40131148017583" lon="-81.73464004028298">
        <ele>267.4490271450</ele>
        <time>2026-04-10T08:39:25Z</time>
      </trkpt>
      <trkpt lat="41.40132126937608" lon="-81.73524163775392">
        <ele>268.0173227253</ele>
        <time>2026-04-10T08:40:15Z</time>
      </trkpt>
      <trkpt lat="41.40132237779915" lon="-81.73584713777933">
        <ele>268.4192458089</ele>
        <time>2026-04-10T08:40:48Z</time>
      </trkpt>
      <trkpt lat="41.40132193415442" lon="-81.73643247282236">
        <ele>268.2244527650</ele>
        <time>2026-04-10T08:41:22Z</time>
      </trkpt>
      <trkpt lat="41.40132503346415" lon="-81.73702849785235">
        <ele>267.9693657371</ele>
        <time>2026-04-10T08:41:56Z</time>
      </trkpt>
      <trkpt lat="41.40133576749687" lon="-81.73764594814538">
        <ele>267.8814053021</ele>
        <time>2026-04-10T08:42:34Z</time>
      </trkpt>
      <trkpt lat="41.40134308464851" lon="-81.73823148390889">
        <ele>267.5887680411</ele>
        <time>2026-04-10T08:43:27Z</time>
      </trkpt>
      <trkpt lat="41.40134644953250" lon="-81.73883334865710">
        <ele>267.4572542761</ele>
        <time>2026-04-10T08:44:10Z</time>
      </trkpt>
      <trkpt lat="41.40134165744993" lon="-81.73943043223539">
        <ele>267.2415992350</ele>
        <time>2026-04-10T08:44:52Z</time>
      </trkpt>
      <trkpt lat="41.40134781723388" lon="-81.74003310319215">
        <ele>266.6946975288</ele>
        <time>2026-04-10T08:45:41Z</time>
      </trkpt>
      <trkpt lat="41.40135256194381" lon="-81.74015388992429">
        <ele>266.5021144041</ele>
        <time>2026-04-10T08:45:48Z</time>
      </trkpt>
    </trkseg>
  </trk>
</gpx>