<?xml version='1.0' encoding='UTF-8'?>
<gpx xmlns="http://www.topografix.com/GPX/1/1" creator="https://gpx.studio" version="1.1">
  <metadata>
    <name>Dog Walk - 2026-04-23</name>
  </metadata>
  <trk>
    <name>Dog Walk - 2026-04-23</name>
    <type>dog walk</type>
    <trkseg>
      <trkpt lat="41.40133873194372" lon="-81.74022665818161">
        <ele>266.3283148288</ele>
        <time>2026-04-23T08:19:24Z</time>
      </trkpt>
      <trkpt lat="41.40133353526266" lon="-81.74083870168384">
        <ele>266.1576351182</ele>
        <time>2026-04-23T08:19:56Z</time>
      </trkpt>
      <trkpt lat="41.40134107849772" lon="-81.74143192384503">
        <ele>265.7725686926</ele>
        <time>2026-04-23T08:20:37Z</time>
      </trkpt>
      <trkpt lat="41.40133088851167" lon="-81.74203515593948">
        <ele>265.3349923138</ele>
        <time>2026-04-23T08:21:21Z</time>
      </trkpt>
      <trkpt lat="41.40132031084166" lon="-81.74239115770364">
        <ele>264.9718706438</ele>
        <time>2026-04-23T08:21:46Z</time>
      </trkpt>
      <trkpt lat="41.40091215663438" lon="-81.74218107123785">
        <ele>265.3692842256</ele>
        <time>2026-04-23T08:22:42Z</time>
      </trkpt>
      <trkpt lat="41.40048759561122" lon="-81.74197180509061">
        <ele>265.2978261459</ele>
        <time>2026-04-23T08:23:16Z</time>
      </trkpt>
      <trkpt lat="41.40044619258120" lon="-81.74193830388450">
        <ele>264.9739818003</ele>
        <time>2026-04-23T08:23:22Z</time>
      </trkpt>
      <trkpt lat="41.40045153932898" lon="-81.74135552021022">
        <ele>266.2488951115</ele>
        <time>2026-04-23T08:24:08Z</time>
      </trkpt>
      <trkpt lat="41.40044645626541" lon="-81.74075770131574">
        <ele>266.2604468139</ele>
        <time>2026-04-23T08:25:01Z</time>
      </trkpt>
      <trkpt lat="41.40043897606357" lon="-81.74015216897902">
        <ele>266.6845962050</ele>
        <time>2026-04-23T08:26:00Z</time>
      </trkpt>
      <trkpt lat="41.40042750539991" lon="-81.73955110439870">
        <ele>267.0148393824</ele>
        <time>2026-04-23T08:26:36Z</time>
      </trkpt>
      <trkpt lat="41.40042443254092" lon="-81.73895720593893">
        <ele>267.3272128764</ele>
        <time>2026-04-23T08:27:23Z</time>
      </trkpt>
      <trkpt lat="41.40042191924238" lon="-81.73834457265154">
        <ele>267.1674143907</ele>
        <time>2026-04-23T08:28:07Z</time>
      </trkpt>
      <trkpt lat="41.40041774202541" lon="-81.73775044441328">
        <ele>267.6375698281</ele>
        <time>2026-04-23T08:28:38Z</time>
      </trkpt>
      <trkpt lat="41.40041547934563" lon="-81.73716447275854">
        <ele>267.8824757311</ele>
        <time>2026-04-23T08:29:19Z</time>
      </trkpt>
      <trkpt lat="41.40040855918630" lon="-81.73655810558633">
        <ele>268.1084219920</ele>
        <time>2026-04-23T08:30:09Z</time>
      </trkpt>
      <trkpt lat="41.40040540812993" lon="-81.73595541326513">
        <ele>267.9189074002</ele>
        <time>2026-04-23T08:31:00Z</time>
      </trkpt>
      <trkpt lat="41.40039864492264" lon="-81.73535485631083">
        <ele>267.8818123977</ele>
        <time>2026-04-23T08:31:34Z</time>
      </trkpt>
      <trkpt lat="41.40039629794992" lon="-81.73475212204002">
        <ele>267.4073857964</ele>
        <time>2026-04-23T08:32:15Z</time>
      </trkpt>
      <trkpt lat="41.40039376796462" lon="-81.73462549989597">
        <ele>267.3684969764</ele>
        <time>2026-04-23T08:32:22Z</time>
      </trkpt>
      <trkpt lat="41.40084507916582" lon="-81.73463366419799">
        <ele>267.3247768971</ele>
        <time>2026-04-23T08:33:15Z</time>
      </trkpt>
      <trkpt lat="41.40128651089799" lon="-81.73462928416112">
        <ele>267.3310317191</ele>
        <time>2026-04-23T08:34:06Z</time>
      </trkpt>
      <trkpt lat="41.40130851757077" lon="-81.73463156545165">
        <ele>267.4370196319</ele>
        <time>2026-04-23T08:34:08Z</time>
      </trkpt>
      <trkpt lat="41.40131634897715" lon="-81.73522882045101">
        <ele>267.8761723927</ele>
        <time>2026-04-23T08:34:45Z</time>
      </trkpt>
      <trkpt lat="41.40132350177171" lon="-81.73582531089457">
        <ele>268.4279814746</ele>
        <time>2026-04-23T08:35:46Z</time>
      </trkpt>
      <trkpt lat="41.40132409276495" lon="-81.73642394541331">
        <ele>268.1088692454</ele>
        <time>2026-04-23T08:36:26Z</time>
      </trkpt>
      <trkpt lat="41.40132153097883" lon="-81.73703115437826">
        <ele>268.0614614788</ele>
        <time>2026-04-23T08:37:08Z</time>
      </trkpt>
      <trkpt lat="41.40133339153815" lon="-81.73763236326134">
        <ele>267.8455581470</ele>
        <time>2026-04-23T08:37:48Z</time>
      </trkpt>
      <trkpt lat="41.40133555940282" lon="-81.73823335051540">
        <ele>267.6035183273</ele>
        <time>2026-04-23T08:38:19Z</time>
      </trkpt>
      <trkpt lat="41.40133978813060" lon="-81.73883109051437">
        <ele>267.2999436851</ele>
        <time>2026-04-23T08:39:00Z</time>
      </trkpt>
      <trkpt lat="41.40134254317151" lon="-81.73943381198153">
        <ele>267.1808581378</ele>
        <time>2026-04-23T08:39:37Z</time>
      </trkpt>
      <trkpt lat="41.40133702676049" lon="-81.74003058493753">
        <ele>266.5605071474</ele>
        <time>2026-04-23T08:40:12Z</time>
      </trkpt>
      <trkpt lat="41.40135282788943" lon="-81.74019448787597">
        <ele>266.7347402806</ele>
        <time>2026-04-23T08:40:22Z</time>
      </trkpt>
    </trkseg>
  </trk>
</gpx>