<?xml version='1.0' encoding='UTF-8'?>
<gpx xmlns="http://www.topografix.com/GPX/1/1" creator="https://gpx.studio" version="1.1">
  <metadata>
    <name>Dog Walk - 2026-09-09 #1</name>
  </metadata>
  <trk>
    <name>Dog Walk - 2026-09-09 #1</name>
    <type>dog walk</type>
    <trkseg>
      <trkpt lat="41.40132631845215" lon="-81.74023549163235">
        <ele>266.5507840984</ele>
        <time>2026-09-09T09:50:42Z</time>
      </trkpt>
      <trkpt lat="41.40133167995609" lon="-81.74083146019302">
        <ele>266.4758493988</ele>
        <time>2026-09-09T09:51:29Z</time>
      </trkpt>
      <trkpt lat="41.40132899641616" lon="-81.74143541871341">
        <ele>265.7357198199</ele>
        <time>2026-09-09T09:52:48Z</time>
      </trkpt>
      <trkpt lat="41.40132924638649" lon="-81.74203900775669">
        <ele>265.3974399441</ele>
        <time>2026-09-09T09:53:26Z</time>
      </trkpt>
      <trkpt lat="41.40133587062602" lon="-81.74240331428909">
        <ele>264.7563559752</ele>
        <time>2026-09-09T09:53:49Z</time>
      </trkpt>
      <trkpt lat="41.40090064085082" lon="-81.74220951054635">
        <ele>265.1383905071</ele>
        <time>2026-09-09T09:54:37Z</time>
      </trkpt>
      <trkpt lat="41.40048443159536" lon="-81.74200906274118">
        <ele>265.1238988168</ele>
        <time>2026-09-09T09:55:25Z</time>
      </trkpt>
      <trkpt lat="41.40003905840753" lon="-81.74181260576293">
        <ele>265.4583384018</ele>
        <time>2026-09-09T09:56:05Z</time>
      </trkpt>
      <trkpt lat="41.39962057572859" lon="-81.74162139388481">
        <ele>264.6258286144</ele>
        <time>2026-09-09T09:56:46Z</time>
      </trkpt>
      <trkpt lat="41.39952955796966" lon="-81.74157370472253">
        <ele>265.0986687471</ele>
        <time>2026-09-09T09:56:56Z</time>
      </trkpt>
      <trkpt lat="41.39952893820173" lon="-81.74097083854194">
        <ele>265.6777763091</ele>
        <time>2026-09-09T09:57:33Z</time>
      </trkpt>
      <trkpt lat="41.39954187139392" lon="-81.74038088617067">
        <ele>266.1524527590</ele>
        <time>2026-09-09T09:58:15Z</time>
      </trkpt>
      <trkpt lat="41.39952238339881" lon="-81.73977658419660">
        <ele>266.7919986365</ele>
        <time>2026-09-09T09:58:44Z</time>
      </trkpt>
      <trkpt lat="41.39953741127235" lon="-81.73917904286327">
        <ele>267.0079787596</ele>
        <time>2026-09-09T09:59:19Z</time>
      </trkpt>
      <trkpt lat="41.39952922532691" lon="-81.73857257246139">
        <ele>266.8662292362</ele>
        <time>2026-09-09T10:00:00Z</time>
      </trkpt>
      <trkpt lat="41.39953249991531" lon="-81.73798297622974">
        <ele>267.2515068534</ele>
        <time>2026-09-09T10:00:44Z</time>
      </trkpt>
      <trkpt lat="41.39952967374974" lon="-81.73737167950392">
        <ele>267.1633949421</ele>
        <time>2026-09-09T10:01:29Z</time>
      </trkpt>
      <trkpt lat="41.39952563760792" lon="-81.73677706168604">
        <ele>267.2730312427</ele>
        <time>2026-09-09T10:02:11Z</time>
      </trkpt>
      <trkpt lat="41.39951995785307" lon="-81.73617430970941">
        <ele>267.5255634100</ele>
        <time>2026-09-09T10:02:45Z</time>
      </trkpt>
      <trkpt lat="41.39952318343052" lon="-81.73557726361936">
        <ele>267.2505618798</ele>
        <time>2026-09-09T10:03:29Z</time>
      </trkpt>
      <trkpt lat="41.39952187352600" lon="-81.73498565756007">
        <ele>267.1604082035</ele>
        <time>2026-09-09T10:04:12Z</time>
      </trkpt>
      <trkpt lat="41.39952783245206" lon="-81.73461061670018">
        <ele>267.4152088847</ele>
        <time>2026-09-09T10:04:33Z</time>
      </trkpt>
      <trkpt lat="41.39998302988815" lon="-81.73462073531812">
        <ele>267.3148970658</ele>
        <time>2026-09-09T10:05:14Z</time>
      </trkpt>
      <trkpt lat="41.40043224866992" lon="-81.73462924823797">
        <ele>267.2936970122</ele>
        <time>2026-09-09T10:05:54Z</time>
      </trkpt>
      <trkpt lat="41.40087437649919" lon="-81.73462995296181">
        <ele>267.1401178427</ele>
        <time>2026-09-09T10:06:28Z</time>
      </trkpt>
      <trkpt lat="41.40131445645662" lon="-81.73464919939512">
        <ele>267.4006366861</ele>
        <time>2026-09-09T10:07:09Z</time>
      </trkpt>
      <trkpt lat="41.40132285113982" lon="-81.73523816722765">
        <ele>267.9232980024</ele>
        <time>2026-09-09T10:07:44Z</time>
      </trkpt>
      <trkpt lat="41.40131463739637" lon="-81.73584992731388">
        <ele>268.2691935847</ele>
        <time>2026-09-09T10:08:31Z</time>
      </trkpt>
      <trkpt lat="41.40132488254844" lon="-81.73643589655306">
        <ele>268.1883987482</ele>
        <time>2026-09-09T10:09:09Z</time>
      </trkpt>
      <trkpt lat="41.40132050906972" lon="-81.73704184766544">
        <ele>268.0510674385</ele>
        <time>2026-09-09T10:09:53Z</time>
      </trkpt>
      <trkpt lat="41.40132833526602" lon="-81.73763778445290">
        <ele>268.0015073107</ele>
        <time>2026-09-09T10:10:27Z</time>
      </trkpt>
      <trkpt lat="41.40132600087347" lon="-81.73823626104468">
        <ele>267.5889283869</ele>
        <time>2026-09-09T10:10:55Z</time>
      </trkpt>
      <trkpt lat="41.40132936402716" lon="-81.73884056931412">
        <ele>267.1190577390</ele>
        <time>2026-09-09T10:11:54Z</time>
      </trkpt>
      <trkpt lat="41.40133331159839" lon="-81.73943342930752">
        <ele>267.4753462133</ele>
        <time>2026-09-09T10:12:30Z</time>
      </trkpt>
      <trkpt lat="41.40133214245962" lon="-81.74003667070772">
        <ele>266.6362346530</ele>
        <time>2026-09-09T10:13:12Z</time>
      </trkpt>
      <trkpt lat="41.40133557786833" lon="-81.74021357764946">
        <ele>266.6280473990</ele>
        <time>2026-09-09T10:13:21Z</time>
      </trkpt>
    </trkseg>
  </trk>
</gpx>