<?xml version='1.0' encoding='UTF-8'?>
<gpx xmlns="http://www.topografix.com/GPX/1/1" creator="https://gpx.studio" version="1.1">
  <metadata>
    <name>Dog Walk - 2026-05-31 #1</name>
  </metadata>
  <trk>
    <name>Dog Walk - 2026-05-31 #1</name>
    <type>dog walk</type>
    <trkseg>
      <trkpt lat="41.40134238193772" lon="-81.74024019337104">
        <ele>266.5344557274</ele>
        <time>2026-05-31T07:49:17Z</time>
      </trkpt>
      <trkpt lat="41.40134832287459" lon="-81.74083866161979">
        <ele>266.1974960082</ele>
        <time>2026-05-31T07:49:55Z</time>
      </trkpt>
      <trkpt lat="41.40133801333340" lon="-81.74143491612537">
        <ele>265.8346514374</ele>
        <time>2026-05-31T07:51:25Z</time>
      </trkpt>
      <trkpt lat="41.40134919398885" lon="-81.74203524057285">
        <ele>265.5047348402</ele>
        <time>2026-05-31T07:52:17Z</time>
      </trkpt>
      <trkpt lat="41.40134497277795" lon="-81.74242506060821">
        <ele>264.8227328780</ele>
        <time>2026-05-31T07:52:52Z</time>
      </trkpt>
      <trkpt lat="41.40176801204588" lon="-81.74263563044831">
        <ele>264.1839745517</ele>
        <time>2026-05-31T07:53:33Z</time>
      </trkpt>
      <trkpt lat="41.40218077409051" lon="-81.74285161960525">
        <ele>263.5361673112</ele>
        <time>2026-05-31T07:54:15Z</time>
      </trkpt>
      <trkpt lat="41.40221539583587" lon="-81.74286131555421">
        <ele>263.5135009998</ele>
        <time>2026-05-31T07:54:20Z</time>
      </trkpt>
      <trkpt lat="41.40221656894811" lon="-81.74226954846026">
        <ele>264.2770582569</ele>
        <time>2026-05-31T07:55:06Z</time>
      </trkpt>
      <trkpt lat="41.40221797794846" lon="-81.74166615007428">
        <ele>264.5299874410</ele>
        <time>2026-05-31T07:55:56Z</time>
      </trkpt>
      <trkpt lat="41.40220935637284" lon="-81.74105877872542">
        <ele>265.2959747734</ele>
        <time>2026-05-31T07:56:37Z</time>
      </trkpt>
      <trkpt lat="41.40221553933831" lon="-81.74046433103558">
        <ele>266.1591982047</ele>
        <time>2026-05-31T07:57:18Z</time>
      </trkpt>
      <trkpt lat="41.40221636773233" lon="-81.73986232542451">
        <ele>266.7762808330</ele>
        <time>2026-05-31T07:58:02Z</time>
      </trkpt>
      <trkpt lat="41.40221608372668" lon="-81.73927337873425">
        <ele>266.9426087878</ele>
        <time>2026-05-31T07:58:38Z</time>
      </trkpt>
      <trkpt lat="41.40222210503521" lon="-81.73866986033653">
        <ele>267.2580200245</ele>
        <time>2026-05-31T07:59:12Z</time>
      </trkpt>
      <trkpt lat="41.40221972371808" lon="-81.73827283814663">
        <ele>266.9942217173</ele>
        <time>2026-05-31T07:59:48Z</time>
      </trkpt>
      <trkpt lat="41.40176958627222" lon="-81.73826602586557">
        <ele>267.5695381256</ele>
        <time>2026-05-31T08:00:28Z</time>
      </trkpt>
      <trkpt lat="41.40133938949459" lon="-81.73825467663467">
        <ele>267.4266220795</ele>
        <time>2026-05-31T08:01:02Z</time>
      </trkpt>
      <trkpt lat="41.40132930846038" lon="-81.73886585259791">
        <ele>267.0757353422</ele>
        <time>2026-05-31T08:01:47Z</time>
      </trkpt>
      <trkpt lat="41.40133850158917" lon="-81.73946286210501">
        <ele>267.1949472467</ele>
        <time>2026-05-31T08:02:29Z</time>
      </trkpt>
      <trkpt lat="41.40135137814754" lon="-81.74004796935751">
        <ele>266.6430839888</ele>
        <time>2026-05-31T08:03:11Z</time>
      </trkpt>
      <trkpt lat="41.40133950360734" lon="-81.74019144984581">
        <ele>266.6553024980</ele>
        <time>2026-05-31T08:03:19Z</time>
      </trkpt>
    </trkseg>
  </trk>
</gpx>