<?xml version='1.0' encoding='UTF-8'?>
<gpx xmlns="http://www.topografix.com/GPX/1/1" creator="https://gpx.studio" version="1.1">
  <metadata>
    <name>Dog Walk - 2026-05-16 #2</name>
  </metadata>
  <trk>
    <name>Dog Walk - 2026-05-16 #2</name>
    <type>dog walk</type>
    <trkseg>
      <trkpt lat="41.40134899971410" lon="-81.74023037119531">
        <ele>266.4754762470</ele>
        <time>2026-05-16T10:45:57Z</time>
      </trkpt>
      <trkpt lat="41.40133823360051" lon="-81.74083050582990">
        <ele>266.1139531559</ele>
        <time>2026-05-16T10:46:27Z</time>
      </trkpt>
      <trkpt lat="41.40132962308503" lon="-81.74143086619233">
        <ele>265.7596966970</ele>
        <time>2026-05-16T10:47:15Z</time>
      </trkpt>
      <trkpt lat="41.40134009422408" lon="-81.74202488543560">
        <ele>265.6025762921</ele>
        <time>2026-05-16T10:47:56Z</time>
      </trkpt>
      <trkpt lat="41.40133350345934" lon="-81.74239361260589">
        <ele>264.6644828335</ele>
        <time>2026-05-16T10:48:26Z</time>
      </trkpt>
      <trkpt lat="41.40091229245779" lon="-81.74217168765303">
        <ele>265.0959674758</ele>
        <time>2026-05-16T10:49:01Z</time>
      </trkpt>
      <trkpt lat="41.40048606804192" lon="-81.74196883348021">
        <ele>265.3203093525</ele>
        <time>2026-05-16T10:50:00Z</time>
      </trkpt>
      <trkpt lat="41.40044980821047" lon="-81.74193644757796">
        <ele>265.3811621770</ele>
        <time>2026-05-16T10:50:04Z</time>
      </trkpt>
      <trkpt lat="41.40044787523547" lon="-81.74134877370042">
        <ele>266.0278342545</ele>
        <time>2026-05-16T10:51:08Z</time>
      </trkpt>
      <trkpt lat="41.40043849731138" lon="-81.74074638676069">
        <ele>266.2663151573</ele>
        <time>2026-05-16T10:51:52Z</time>
      </trkpt>
      <trkpt lat="41.40042624672251" lon="-81.74015450763299">
        <ele>266.8906715747</ele>
        <time>2026-05-16T10:52:30Z</time>
      </trkpt>
      <trkpt lat="41.40044193765959" lon="-81.73955441212009">
        <ele>267.0108634306</ele>
        <time>2026-05-16T10:53:12Z</time>
      </trkpt>
      <trkpt lat="41.40042519439423" lon="-81.73895668528999">
        <ele>267.1937891807</ele>
        <time>2026-05-16T10:53:54Z</time>
      </trkpt>
      <trkpt lat="41.40041849908619" lon="-81.73834587732279">
        <ele>267.3563897410</ele>
        <time>2026-05-16T10:54:34Z</time>
      </trkpt>
      <trkpt lat="41.40041540677726" lon="-81.73775749683288">
        <ele>267.6958474310</ele>
        <time>2026-05-16T10:55:05Z</time>
      </trkpt>
      <trkpt lat="41.40041213583499" lon="-81.73716356325718">
        <ele>268.0909101617</ele>
        <time>2026-05-16T10:55:40Z</time>
      </trkpt>
      <trkpt lat="41.40040918362147" lon="-81.73654802956996">
        <ele>267.9856008622</ele>
        <time>2026-05-16T10:56:18Z</time>
      </trkpt>
      <trkpt lat="41.40039363365925" lon="-81.73595589617319">
        <ele>268.0342814544</ele>
        <time>2026-05-16T10:56:58Z</time>
      </trkpt>
      <trkpt lat="41.40039765720801" lon="-81.73535242829651">
        <ele>267.7417411037</ele>
        <time>2026-05-16T10:57:43Z</time>
      </trkpt>
      <trkpt lat="41.40040172751338" lon="-81.73474687550139">
        <ele>267.4305900061</ele>
        <time>2026-05-16T10:58:34Z</time>
      </trkpt>
      <trkpt lat="41.40039390231892" lon="-81.73462974904422">
        <ele>267.4837824945</ele>
        <time>2026-05-16T10:58:40Z</time>
      </trkpt>
      <trkpt lat="41.40084868477248" lon="-81.73463312630128">
        <ele>267.3538984556</ele>
        <time>2026-05-16T10:59:14Z</time>
      </trkpt>
      <trkpt lat="41.40129211454563" lon="-81.73463752378656">
        <ele>267.2463183997</ele>
        <time>2026-05-16T10:59:58Z</time>
      </trkpt>
      <trkpt lat="41.40132300999816" lon="-81.73464001081760">
        <ele>267.3397342936</ele>
        <time>2026-05-16T11:00:00Z</time>
      </trkpt>
      <trkpt lat="41.40132096499016" lon="-81.73523097968022">
        <ele>267.6938532998</ele>
        <time>2026-05-16T11:00:43Z</time>
      </trkpt>
      <trkpt lat="41.40132785814485" lon="-81.73583421689383">
        <ele>268.4177720853</ele>
        <time>2026-05-16T11:01:27Z</time>
      </trkpt>
      <trkpt lat="41.40131809215883" lon="-81.73642286268364">
        <ele>268.2264441687</ele>
        <time>2026-05-16T11:02:04Z</time>
      </trkpt>
      <trkpt lat="41.40132914773461" lon="-81.73703809619434">
        <ele>268.1230094844</ele>
        <time>2026-05-16T11:02:53Z</time>
      </trkpt>
      <trkpt lat="41.40133211154763" lon="-81.73763310958154">
        <ele>268.0610346917</ele>
        <time>2026-05-16T11:03:30Z</time>
      </trkpt>
      <trkpt lat="41.40133899577671" lon="-81.73822627151375">
        <ele>267.5562082370</ele>
        <time>2026-05-16T11:04:08Z</time>
      </trkpt>
      <trkpt lat="41.40133635317611" lon="-81.73883050606408">
        <ele>267.4342137295</ele>
        <time>2026-05-16T11:04:44Z</time>
      </trkpt>
      <trkpt lat="41.40134523921580" lon="-81.73942996518286">
        <ele>267.2531821544</ele>
        <time>2026-05-16T11:05:23Z</time>
      </trkpt>
      <trkpt lat="41.40134301508746" lon="-81.74003016067883">
        <ele>266.7120597765</ele>
        <time>2026-05-16T11:06:03Z</time>
      </trkpt>
      <trkpt lat="41.40134557015649" lon="-81.74020153117057">
        <ele>266.4797191717</ele>
        <time>2026-05-16T11:06:15Z</time>
      </trkpt>
    </trkseg>
  </trk>
</gpx>