<?xml version='1.0' encoding='UTF-8'?>
<gpx xmlns="http://www.topografix.com/GPX/1/1" creator="https://gpx.studio" version="1.1">
  <metadata>
    <name>Dog Walk - 2026-03-29 #5</name>
  </metadata>
  <trk>
    <name>Dog Walk - 2026-03-29 #5</name>
    <type>dog walk</type>
    <trkseg>
      <trkpt lat="41.40134771446964" lon="-81.74023097678578">
        <ele>266.3845320580</ele>
        <time>2026-03-29T20:13:20Z</time>
      </trkpt>
      <trkpt lat="41.40133213950621" lon="-81.74082684930526">
        <ele>266.1191073103</ele>
        <time>2026-03-29T20:14:14Z</time>
      </trkpt>
      <trkpt lat="41.40133127442590" lon="-81.74143309893161">
        <ele>265.7211636114</ele>
        <time>2026-03-29T20:14:48Z</time>
      </trkpt>
      <trkpt lat="41.40132880231965" lon="-81.74202619258125">
        <ele>265.3495385454</ele>
        <time>2026-03-29T20:15:24Z</time>
      </trkpt>
      <trkpt lat="41.40132436208395" lon="-81.74238017412924">
        <ele>264.8029051219</ele>
        <time>2026-03-29T20:15:42Z</time>
      </trkpt>
      <trkpt lat="41.40090259827754" lon="-81.74218028069126">
        <ele>265.4003172928</ele>
        <time>2026-03-29T20:16:19Z</time>
      </trkpt>
      <trkpt lat="41.40048879993645" lon="-81.74195917407101">
        <ele>265.1382507464</ele>
        <time>2026-03-29T20:16:59Z</time>
      </trkpt>
      <trkpt lat="41.40044824039857" lon="-81.74195865957591">
        <ele>265.1858486916</ele>
        <time>2026-03-29T20:17:03Z</time>
      </trkpt>
      <trkpt lat="41.40043995742376" lon="-81.74134963609733">
        <ele>265.9035378880</ele>
        <time>2026-03-29T20:17:37Z</time>
      </trkpt>
      <trkpt lat="41.40044570835520" lon="-81.74075253510905">
        <ele>266.4396063941</ele>
        <time>2026-03-29T20:18:42Z</time>
      </trkpt>
      <trkpt lat="41.40043594465291" lon="-81.74016029388598">
        <ele>266.7705909271</ele>
        <time>2026-03-29T20:19:37Z</time>
      </trkpt>
      <trkpt lat="41.40043378249368" lon="-81.73955231387063">
        <ele>267.0531653946</ele>
        <time>2026-03-29T20:20:16Z</time>
      </trkpt>
      <trkpt lat="41.40042945947037" lon="-81.73895043841055">
        <ele>267.2125343533</ele>
        <time>2026-03-29T20:20:58Z</time>
      </trkpt>
      <trkpt lat="41.40041942099494" lon="-81.73836323967252">
        <ele>267.2237930471</ele>
        <time>2026-03-29T20:21:38Z</time>
      </trkpt>
      <trkpt lat="41.40041225286931" lon="-81.73776033115631">
        <ele>267.6881266253</ele>
        <time>2026-03-29T20:22:20Z</time>
      </trkpt>
      <trkpt lat="41.40041375062148" lon="-81.73714543287703">
        <ele>267.9212633668</ele>
        <time>2026-03-29T20:23:08Z</time>
      </trkpt>
      <trkpt lat="41.40040575230344" lon="-81.73655546396559">
        <ele>267.9754419275</ele>
        <time>2026-03-29T20:23:57Z</time>
      </trkpt>
      <trkpt lat="41.40040279249742" lon="-81.73595248175359">
        <ele>268.0719004462</ele>
        <time>2026-03-29T20:24:34Z</time>
      </trkpt>
      <trkpt lat="41.40040041130423" lon="-81.73536086505929">
        <ele>267.9238119136</ele>
        <time>2026-03-29T20:25:13Z</time>
      </trkpt>
      <trkpt lat="41.40039468294621" lon="-81.73475907895656">
        <ele>267.2727054535</ele>
        <time>2026-03-29T20:26:02Z</time>
      </trkpt>
      <trkpt lat="41.40039597690813" lon="-81.73463163170153">
        <ele>267.3684652007</ele>
        <time>2026-03-29T20:26:09Z</time>
      </trkpt>
      <trkpt lat="41.40084645406147" lon="-81.73463252349440">
        <ele>267.2152051793</ele>
        <time>2026-03-29T20:26:54Z</time>
      </trkpt>
      <trkpt lat="41.40128865492039" lon="-81.73463296853522">
        <ele>267.2915968081</ele>
        <time>2026-03-29T20:27:41Z</time>
      </trkpt>
      <trkpt lat="41.40132029294691" lon="-81.73463072018467">
        <ele>267.2118095798</ele>
        <time>2026-03-29T20:27:44Z</time>
      </trkpt>
      <trkpt lat="41.40132412835884" lon="-81.73523630558921">
        <ele>267.9909638101</ele>
        <time>2026-03-29T20:28:27Z</time>
      </trkpt>
      <trkpt lat="41.40131917211335" lon="-81.73583768423664">
        <ele>268.3397064835</ele>
        <time>2026-03-29T20:28:58Z</time>
      </trkpt>
      <trkpt lat="41.40132790524243" lon="-81.73643503842685">
        <ele>268.3068776629</ele>
        <time>2026-03-29T20:29:35Z</time>
      </trkpt>
      <trkpt lat="41.40133595127119" lon="-81.73703438793210">
        <ele>267.9660692771</ele>
        <time>2026-03-29T20:30:15Z</time>
      </trkpt>
      <trkpt lat="41.40133299758564" lon="-81.73763174200549">
        <ele>267.8433715868</ele>
        <time>2026-03-29T20:30:55Z</time>
      </trkpt>
      <trkpt lat="41.40133062862476" lon="-81.73822680129527">
        <ele>267.5201314678</ele>
        <time>2026-03-29T20:31:46Z</time>
      </trkpt>
      <trkpt lat="41.40133584396355" lon="-81.73882988372632">
        <ele>267.3965034038</ele>
        <time>2026-03-29T20:32:18Z</time>
      </trkpt>
      <trkpt lat="41.40133587665610" lon="-81.73943359221752">
        <ele>267.2723970728</ele>
        <time>2026-03-29T20:32:58Z</time>
      </trkpt>
      <trkpt lat="41.40134715086619" lon="-81.74002812294232">
        <ele>266.7396127723</ele>
        <time>2026-03-29T20:33:41Z</time>
      </trkpt>
      <trkpt lat="41.40134989444650" lon="-81.74019605084061">
        <ele>266.4388870555</ele>
        <time>2026-03-29T20:33:52Z</time>
      </trkpt>
    </trkseg>
  </trk>
</gpx>