<?xml version='1.0' encoding='UTF-8'?>
<gpx xmlns="http://www.topografix.com/GPX/1/1" creator="https://gpx.studio" version="1.1">
  <metadata>
    <name>Dog Walk - 2026-04-07 #2</name>
  </metadata>
  <trk>
    <name>Dog Walk - 2026-04-07 #2</name>
    <type>dog walk</type>
    <trkseg>
      <trkpt lat="41.40133931514170" lon="-81.74023079640006">
        <ele>266.5032088958</ele>
        <time>2026-04-07T12:00:25Z</time>
      </trkpt>
      <trkpt lat="41.40133026920734" lon="-81.74083542069774">
        <ele>266.1476541861</ele>
        <time>2026-04-07T12:01:07Z</time>
      </trkpt>
      <trkpt lat="41.40133473494700" lon="-81.74143923196559">
        <ele>265.7526630375</ele>
        <time>2026-04-07T12:01:49Z</time>
      </trkpt>
      <trkpt lat="41.40133131313953" lon="-81.74202943388536">
        <ele>265.1865876217</ele>
        <time>2026-04-07T12:02:31Z</time>
      </trkpt>
      <trkpt lat="41.40133643871007" lon="-81.74238851229913">
        <ele>264.6413693227</ele>
        <time>2026-04-07T12:02:52Z</time>
      </trkpt>
      <trkpt lat="41.40090828148004" lon="-81.74217545084090">
        <ele>265.3469147371</ele>
        <time>2026-04-07T12:03:32Z</time>
      </trkpt>
      <trkpt lat="41.40048029981605" lon="-81.74196527911234">
        <ele>265.1342510966</ele>
        <time>2026-04-07T12:04:18Z</time>
      </trkpt>
      <trkpt lat="41.40044972559033" lon="-81.74194833668304">
        <ele>265.2367397796</ele>
        <time>2026-04-07T12:04:21Z</time>
      </trkpt>
      <trkpt lat="41.40044711638672" lon="-81.74134742228085">
        <ele>265.8959057106</ele>
        <time>2026-04-07T12:05:02Z</time>
      </trkpt>
      <trkpt lat="41.40044615859709" lon="-81.74075051261030">
        <ele>266.3680231711</ele>
        <time>2026-04-07T12:05:42Z</time>
      </trkpt>
      <trkpt lat="41.40043804506385" lon="-81.74015570563071">
        <ele>266.8459399938</ele>
        <time>2026-04-07T12:06:19Z</time>
      </trkpt>
      <trkpt lat="41.40043261153881" lon="-81.73955209578611">
        <ele>266.9557278411</ele>
        <time>2026-04-07T12:07:11Z</time>
      </trkpt>
      <trkpt lat="41.40043431783447" lon="-81.73896443120606">
        <ele>267.1678029545</ele>
        <time>2026-04-07T12:07:48Z</time>
      </trkpt>
      <trkpt lat="41.40041777537218" lon="-81.73835550018165">
        <ele>267.3071690482</ele>
        <time>2026-04-07T12:08:31Z</time>
      </trkpt>
      <trkpt lat="41.40041891158516" lon="-81.73776061930144">
        <ele>267.7765879261</ele>
        <time>2026-04-07T12:09:16Z</time>
      </trkpt>
      <trkpt lat="41.40041906677069" lon="-81.73715648207362">
        <ele>267.9823912222</ele>
        <time>2026-04-07T12:10:04Z</time>
      </trkpt>
      <trkpt lat="41.40041191215358" lon="-81.73655113817662">
        <ele>268.0775311743</ele>
        <time>2026-04-07T12:10:45Z</time>
      </trkpt>
      <trkpt lat="41.40041831284861" lon="-81.73595159838148">
        <ele>268.0563923396</ele>
        <time>2026-04-07T12:11:43Z</time>
      </trkpt>
      <trkpt lat="41.40040524342116" lon="-81.73535039163308">
        <ele>267.8294030655</ele>
        <time>2026-04-07T12:12:25Z</time>
      </trkpt>
      <trkpt lat="41.40040021017700" lon="-81.73475881197453">
        <ele>267.6871071437</ele>
        <time>2026-04-07T12:13:00Z</time>
      </trkpt>
      <trkpt lat="41.40038946056367" lon="-81.73463639410200">
        <ele>267.1837647096</ele>
        <time>2026-04-07T12:13:09Z</time>
      </trkpt>
      <trkpt lat="41.40085375761048" lon="-81.73463143730690">
        <ele>267.4128430712</ele>
        <time>2026-04-07T12:13:45Z</time>
      </trkpt>
      <trkpt lat="41.40129201211781" lon="-81.73463023035278">
        <ele>267.2187127197</ele>
        <time>2026-04-07T12:14:23Z</time>
      </trkpt>
      <trkpt lat="41.40131650548783" lon="-81.73462364364912">
        <ele>267.2408633831</ele>
        <time>2026-04-07T12:14:25Z</time>
      </trkpt>
      <trkpt lat="41.40132517286536" lon="-81.73523014082889">
        <ele>268.0554660409</ele>
        <time>2026-04-07T12:15:02Z</time>
      </trkpt>
      <trkpt lat="41.40132771376517" lon="-81.73582620131116">
        <ele>268.2360147603</ele>
        <time>2026-04-07T12:15:53Z</time>
      </trkpt>
      <trkpt lat="41.40132673244680" lon="-81.73643462922401">
        <ele>268.4067155581</ele>
        <time>2026-04-07T12:16:36Z</time>
      </trkpt>
      <trkpt lat="41.40133572942315" lon="-81.73704102805047">
        <ele>267.8441844455</ele>
        <time>2026-04-07T12:17:22Z</time>
      </trkpt>
      <trkpt lat="41.40133227589104" lon="-81.73763302242737">
        <ele>268.1550852093</ele>
        <time>2026-04-07T12:18:03Z</time>
      </trkpt>
      <trkpt lat="41.40134214129454" lon="-81.73823033896880">
        <ele>267.7106933992</ele>
        <time>2026-04-07T12:18:51Z</time>
      </trkpt>
      <trkpt lat="41.40134167621743" lon="-81.73882583450597">
        <ele>267.5964766296</ele>
        <time>2026-04-07T12:19:30Z</time>
      </trkpt>
      <trkpt lat="41.40133589910304" lon="-81.73942744942636">
        <ele>267.0774453971</ele>
        <time>2026-04-07T12:20:03Z</time>
      </trkpt>
      <trkpt lat="41.40135291840117" lon="-81.74003208411149">
        <ele>266.7993775647</ele>
        <time>2026-04-07T12:20:42Z</time>
      </trkpt>
      <trkpt lat="41.40135287357619" lon="-81.74020097295990">
        <ele>266.3554164848</ele>
        <time>2026-04-07T12:20:54Z</time>
      </trkpt>
    </trkseg>
  </trk>
</gpx>