<?xml version='1.0' encoding='UTF-8'?>
<gpx xmlns="http://www.topografix.com/GPX/1/1" creator="https://gpx.studio" version="1.1">
  <metadata>
    <name>Dog Walk - 2026-02-16 #3</name>
  </metadata>
  <trk>
    <name>Dog Walk - 2026-02-16 #3</name>
    <type>dog walk</type>
    <trkseg>
      <trkpt lat="41.40133572836402" lon="-81.74023390179116">
        <ele>266.4258777130</ele>
        <time>2026-02-16T15:19:37Z</time>
      </trkpt>
      <trkpt lat="41.40134131325352" lon="-81.74084443455386">
        <ele>266.2808141069</ele>
        <time>2026-02-16T15:20:12Z</time>
      </trkpt>
      <trkpt lat="41.40135002968710" lon="-81.74143286258740">
        <ele>265.7432103900</ele>
        <time>2026-02-16T15:20:44Z</time>
      </trkpt>
      <trkpt lat="41.40134314601566" lon="-81.74204393047653">
        <ele>265.3639281962</ele>
        <time>2026-02-16T15:21:33Z</time>
      </trkpt>
      <trkpt lat="41.40135649574614" lon="-81.74242952267103">
        <ele>264.7847905900</ele>
        <time>2026-02-16T15:22:05Z</time>
      </trkpt>
      <trkpt lat="41.40177308226642" lon="-81.74261587336085">
        <ele>264.2426847268</ele>
        <time>2026-02-16T15:22:43Z</time>
      </trkpt>
      <trkpt lat="41.40219603819729" lon="-81.74282108982324">
        <ele>263.6250675308</ele>
        <time>2026-02-16T15:23:27Z</time>
      </trkpt>
      <trkpt lat="41.40261626161006" lon="-81.74301263966429">
        <ele>262.9998225323</ele>
        <time>2026-02-16T15:24:00Z</time>
      </trkpt>
      <trkpt lat="41.40305441370349" lon="-81.74321649689965">
        <ele>262.3566141415</ele>
        <time>2026-02-16T15:24:47Z</time>
      </trkpt>
      <trkpt lat="41.40311646424595" lon="-81.74325208109046">
        <ele>262.4719985947</ele>
        <time>2026-02-16T15:24:53Z</time>
      </trkpt>
      <trkpt lat="41.40311036012795" lon="-81.74265414339862">
        <ele>263.1735542386</ele>
        <time>2026-02-16T15:25:26Z</time>
      </trkpt>
      <trkpt lat="41.40310769078671" lon="-81.74205197524815">
        <ele>263.9264062445</ele>
        <time>2026-02-16T15:26:03Z</time>
      </trkpt>
      <trkpt lat="41.40311000294489" lon="-81.74146220190370">
        <ele>263.9852057139</ele>
        <time>2026-02-16T15:26:40Z</time>
      </trkpt>
      <trkpt lat="41.40311352800700" lon="-81.74085438876078">
        <ele>264.6805779135</ele>
        <time>2026-02-16T15:27:47Z</time>
      </trkpt>
      <trkpt lat="41.40310991749929" lon="-81.74025978356333">
        <ele>265.5245332511</ele>
        <time>2026-02-16T15:28:53Z</time>
      </trkpt>
      <trkpt lat="41.40310013255112" lon="-81.73966060849787">
        <ele>265.8153516279</ele>
        <time>2026-02-16T15:29:36Z</time>
      </trkpt>
      <trkpt lat="41.40310502806290" lon="-81.73905495571739">
        <ele>266.2106119436</ele>
        <time>2026-02-16T15:30:08Z</time>
      </trkpt>
      <trkpt lat="41.40310059870304" lon="-81.73878617442170">
        <ele>266.2599619534</ele>
        <time>2026-02-16T15:30:30Z</time>
      </trkpt>
      <trkpt lat="41.40264650525180" lon="-81.73879543583446">
        <ele>266.7281189954</ele>
        <time>2026-02-16T15:31:07Z</time>
      </trkpt>
      <trkpt lat="41.40223401826163" lon="-81.73877525701754">
        <ele>267.0778702366</ele>
        <time>2026-02-16T15:31:45Z</time>
      </trkpt>
      <trkpt lat="41.40223849001688" lon="-81.73817651535693">
        <ele>267.2617934617</ele>
        <time>2026-02-16T15:32:40Z</time>
      </trkpt>
      <trkpt lat="41.40223810323448" lon="-81.73757336433512">
        <ele>267.1701252953</ele>
        <time>2026-02-16T15:33:17Z</time>
      </trkpt>
      <trkpt lat="41.40223713240911" lon="-81.73698618911281">
        <ele>267.4142947326</ele>
        <time>2026-02-16T15:33:52Z</time>
      </trkpt>
      <trkpt lat="41.40222831403472" lon="-81.73637419973649">
        <ele>267.2504707999</ele>
        <time>2026-02-16T15:34:28Z</time>
      </trkpt>
      <trkpt lat="41.40223063432503" lon="-81.73578243863176">
        <ele>267.1342636655</ele>
        <time>2026-02-16T15:35:08Z</time>
      </trkpt>
      <trkpt lat="41.40222641119770" lon="-81.73519089220768">
        <ele>267.2046596424</ele>
        <time>2026-02-16T15:35:41Z</time>
      </trkpt>
      <trkpt lat="41.40223007170620" lon="-81.73465738399760">
        <ele>267.1203371026</ele>
        <time>2026-02-16T15:36:28Z</time>
      </trkpt>
      <trkpt lat="41.40177735182503" lon="-81.73463776565680">
        <ele>267.4077660645</ele>
        <time>2026-02-16T15:37:10Z</time>
      </trkpt>
      <trkpt lat="41.40132655739816" lon="-81.73464469849068">
        <ele>267.2044100059</ele>
        <time>2026-02-16T15:37:43Z</time>
      </trkpt>
      <trkpt lat="41.40131641077148" lon="-81.73463632041671">
        <ele>267.4625324953</ele>
        <time>2026-02-16T15:37:45Z</time>
      </trkpt>
      <trkpt lat="41.40131634793094" lon="-81.73523147521581">
        <ele>267.9846847056</ele>
        <time>2026-02-16T15:38:17Z</time>
      </trkpt>
      <trkpt lat="41.40132154222775" lon="-81.73583949586707">
        <ele>268.3339417326</ele>
        <time>2026-02-16T15:38:58Z</time>
      </trkpt>
      <trkpt lat="41.40131934443823" lon="-81.73642447730153">
        <ele>268.0753464066</ele>
        <time>2026-02-16T15:39:34Z</time>
      </trkpt>
      <trkpt lat="41.40132274269440" lon="-81.73702594352304">
        <ele>268.1153661445</ele>
        <time>2026-02-16T15:40:24Z</time>
      </trkpt>
      <trkpt lat="41.40133117384108" lon="-81.73762860719985">
        <ele>267.9985280125</ele>
        <time>2026-02-16T15:41:12Z</time>
      </trkpt>
      <trkpt lat="41.40133230374195" lon="-81.73824441657716">
        <ele>267.5640972087</ele>
        <time>2026-02-16T15:42:01Z</time>
      </trkpt>
      <trkpt lat="41.40133692991385" lon="-81.73882988988439">
        <ele>267.3062590702</ele>
        <time>2026-02-16T15:42:32Z</time>
      </trkpt>
      <trkpt lat="41.40134164071782" lon="-81.73943179103243">
        <ele>266.9122272930</ele>
        <time>2026-02-16T15:43:12Z</time>
      </trkpt>
      <trkpt lat="41.40134561528095" lon="-81.74003491181375">
        <ele>266.5720801638</ele>
        <time>2026-02-16T15:44:00Z</time>
      </trkpt>
      <trkpt lat="41.40134872075119" lon="-81.74016192344321">
        <ele>266.5470482871</ele>
        <time>2026-02-16T15:44:08Z</time>
      </trkpt>
    </trkseg>
  </trk>
</gpx>