<?xml version='1.0' encoding='UTF-8'?>
<gpx xmlns="http://www.topografix.com/GPX/1/1" creator="https://gpx.studio" version="1.1">
  <metadata>
    <name>Dog Walk - 2026-08-05 #1</name>
  </metadata>
  <trk>
    <name>Dog Walk - 2026-08-05 #1</name>
    <type>dog walk</type>
    <trkseg>
      <trkpt lat="41.40134441391988" lon="-81.74023690358472">
        <ele>266.5238570078</ele>
        <time>2026-08-05T06:54:05Z</time>
      </trkpt>
      <trkpt lat="41.40135111803986" lon="-81.74083029144235">
        <ele>265.9537002871</ele>
        <time>2026-08-05T06:54:57Z</time>
      </trkpt>
      <trkpt lat="41.40133706495212" lon="-81.74142635865863">
        <ele>265.6847428408</ele>
        <time>2026-08-05T06:55:41Z</time>
      </trkpt>
      <trkpt lat="41.40134345546262" lon="-81.74202431138602">
        <ele>265.3711143288</ele>
        <time>2026-08-05T06:56:23Z</time>
      </trkpt>
      <trkpt lat="41.40135707242796" lon="-81.74241081965972">
        <ele>264.7439747373</ele>
        <time>2026-08-05T06:56:49Z</time>
      </trkpt>
      <trkpt lat="41.40175519588102" lon="-81.74262577666728">
        <ele>264.2860810486</ele>
        <time>2026-08-05T06:57:26Z</time>
      </trkpt>
      <trkpt lat="41.40218911433073" lon="-81.74283973276405">
        <ele>263.2568076826</ele>
        <time>2026-08-05T06:58:10Z</time>
      </trkpt>
      <trkpt lat="41.40260217964361" lon="-81.74304795289450">
        <ele>262.9501797480</ele>
        <time>2026-08-05T06:59:01Z</time>
      </trkpt>
      <trkpt lat="41.40302619315024" lon="-81.74326409697058">
        <ele>262.4455982720</ele>
        <time>2026-08-05T07:00:02Z</time>
      </trkpt>
      <trkpt lat="41.40345583260581" lon="-81.74347656513912">
        <ele>261.7570534854</ele>
        <time>2026-08-05T07:00:41Z</time>
      </trkpt>
      <trkpt lat="41.40349098141067" lon="-81.74350192323101">
        <ele>261.9119028513</ele>
        <time>2026-08-05T07:00:45Z</time>
      </trkpt>
      <trkpt lat="41.40359294389669" lon="-81.74351889699480">
        <ele>261.6470467357</ele>
        <time>2026-08-05T07:00:55Z</time>
      </trkpt>
      <trkpt lat="41.40398891773563" lon="-81.74350511791796">
        <ele>260.7475057030</ele>
        <time>2026-08-05T07:01:34Z</time>
      </trkpt>
      <trkpt lat="41.40399691575291" lon="-81.74292024346938">
        <ele>261.5362268507</ele>
        <time>2026-08-05T07:02:25Z</time>
      </trkpt>
      <trkpt lat="41.40399824002887" lon="-81.74230270883096">
        <ele>262.1991567996</ele>
        <time>2026-08-05T07:03:14Z</time>
      </trkpt>
      <trkpt lat="41.40398653172144" lon="-81.74171315082047">
        <ele>262.4981100465</ele>
        <time>2026-08-05T07:03:50Z</time>
      </trkpt>
      <trkpt lat="41.40398084842361" lon="-81.74111421690314">
        <ele>262.9466837832</ele>
        <time>2026-08-05T07:04:43Z</time>
      </trkpt>
      <trkpt lat="41.40398951705370" lon="-81.74051227547190">
        <ele>263.5196320544</ele>
        <time>2026-08-05T07:05:20Z</time>
      </trkpt>
      <trkpt lat="41.40398243140810" lon="-81.73990526594405">
        <ele>264.3388526116</ele>
        <time>2026-08-05T07:05:57Z</time>
      </trkpt>
      <trkpt lat="41.40398717572173" lon="-81.73931804167530">
        <ele>264.8619515967</ele>
        <time>2026-08-05T07:06:33Z</time>
      </trkpt>
      <trkpt lat="41.40398680322355" lon="-81.73878158278143">
        <ele>265.3225989263</ele>
        <time>2026-08-05T07:07:02Z</time>
      </trkpt>
      <trkpt lat="41.40354349703950" lon="-81.73878370332805">
        <ele>265.9021877760</ele>
        <time>2026-08-05T07:07:54Z</time>
      </trkpt>
      <trkpt lat="41.40308464603560" lon="-81.73878168984140">
        <ele>266.2592753035</ele>
        <time>2026-08-05T07:08:42Z</time>
      </trkpt>
      <trkpt lat="41.40264434899052" lon="-81.73877022626453">
        <ele>266.8025197599</ele>
        <time>2026-08-05T07:09:36Z</time>
      </trkpt>
      <trkpt lat="41.40222627614692" lon="-81.73878412948559">
        <ele>267.0298336899</ele>
        <time>2026-08-05T07:10:09Z</time>
      </trkpt>
      <trkpt lat="41.40221817695278" lon="-81.73827042410203">
        <ele>266.9480549021</ele>
        <time>2026-08-05T07:10:46Z</time>
      </trkpt>
      <trkpt lat="41.40176494887764" lon="-81.73827694556354">
        <ele>267.7777123543</ele>
        <time>2026-08-05T07:11:31Z</time>
      </trkpt>
      <trkpt lat="41.40133099717129" lon="-81.73826227417538">
        <ele>267.5540320847</ele>
        <time>2026-08-05T07:12:11Z</time>
      </trkpt>
      <trkpt lat="41.40133405333216" lon="-81.73886090780233">
        <ele>267.4069754304</ele>
        <time>2026-08-05T07:12:42Z</time>
      </trkpt>
      <trkpt lat="41.40132770543725" lon="-81.73947137410309">
        <ele>267.2654498182</ele>
        <time>2026-08-05T07:13:21Z</time>
      </trkpt>
      <trkpt lat="41.40134021712148" lon="-81.74006836890710">
        <ele>266.4919355915</ele>
        <time>2026-08-05T07:14:09Z</time>
      </trkpt>
      <trkpt lat="41.40134068087821" lon="-81.74021202240428">
        <ele>266.3660498843</ele>
        <time>2026-08-05T07:14:19Z</time>
      </trkpt>
    </trkseg>
  </trk>
</gpx>