<?xml version='1.0' encoding='UTF-8'?>
<gpx xmlns="http://www.topografix.com/GPX/1/1" creator="https://gpx.studio" version="1.1">
  <metadata>
    <name>Dog Walk - 2026-03-19 #4</name>
  </metadata>
  <trk>
    <name>Dog Walk - 2026-03-19 #4</name>
    <type>dog walk</type>
    <trkseg>
      <trkpt lat="41.40134194680325" lon="-81.74023155924682">
        <ele>266.3413719349</ele>
        <time>2026-03-19T18:43:54Z</time>
      </trkpt>
      <trkpt lat="41.40134394602462" lon="-81.74083880463060">
        <ele>265.9416922038</ele>
        <time>2026-03-19T18:44:31Z</time>
      </trkpt>
      <trkpt lat="41.40135279577751" lon="-81.74143743106937">
        <ele>265.5779061040</ele>
        <time>2026-03-19T18:45:09Z</time>
      </trkpt>
      <trkpt lat="41.40134314254568" lon="-81.74203812240455">
        <ele>265.2746308185</ele>
        <time>2026-03-19T18:46:04Z</time>
      </trkpt>
      <trkpt lat="41.40134707546955" lon="-81.74241554858513">
        <ele>264.6053235969</ele>
        <time>2026-03-19T18:46:29Z</time>
      </trkpt>
      <trkpt lat="41.40177201770787" lon="-81.74262639810864">
        <ele>264.3075289754</ele>
        <time>2026-03-19T18:47:19Z</time>
      </trkpt>
      <trkpt lat="41.40218126189311" lon="-81.74285413539188">
        <ele>263.5266590949</ele>
        <time>2026-03-19T18:47:56Z</time>
      </trkpt>
      <trkpt lat="41.40221368067013" lon="-81.74286336273580">
        <ele>263.3654643165</ele>
        <time>2026-03-19T18:48:00Z</time>
      </trkpt>
      <trkpt lat="41.40221437170961" lon="-81.74226308161759">
        <ele>264.4471462966</ele>
        <time>2026-03-19T18:48:37Z</time>
      </trkpt>
      <trkpt lat="41.40221773645888" lon="-81.74166668324064">
        <ele>264.9033045846</ele>
        <time>2026-03-19T18:49:22Z</time>
      </trkpt>
      <trkpt lat="41.40221437646218" lon="-81.74106349240604">
        <ele>265.5697924476</ele>
        <time>2026-03-19T18:50:10Z</time>
      </trkpt>
      <trkpt lat="41.40221482574648" lon="-81.74046501909424">
        <ele>266.0942182514</ele>
        <time>2026-03-19T18:50:51Z</time>
      </trkpt>
      <trkpt lat="41.40222473084088" lon="-81.73985689633763">
        <ele>266.5592784826</ele>
        <time>2026-03-19T18:51:56Z</time>
      </trkpt>
      <trkpt lat="41.40222144480639" lon="-81.73926050612926">
        <ele>266.9599429450</ele>
        <time>2026-03-19T18:52:39Z</time>
      </trkpt>
      <trkpt lat="41.40221507407649" lon="-81.73866638353238">
        <ele>267.0253961972</ele>
        <time>2026-03-19T18:53:25Z</time>
      </trkpt>
      <trkpt lat="41.40221518753726" lon="-81.73827692310503">
        <ele>267.0334503044</ele>
        <time>2026-03-19T18:54:02Z</time>
      </trkpt>
      <trkpt lat="41.40177346109277" lon="-81.73825784163408">
        <ele>267.9245512177</ele>
        <time>2026-03-19T18:54:42Z</time>
      </trkpt>
      <trkpt lat="41.40133604942005" lon="-81.73825465953219">
        <ele>267.6415049793</ele>
        <time>2026-03-19T18:55:24Z</time>
      </trkpt>
      <trkpt lat="41.40133757626133" lon="-81.73886048252307">
        <ele>267.4307230402</ele>
        <time>2026-03-19T18:56:16Z</time>
      </trkpt>
      <trkpt lat="41.40133674937170" lon="-81.73945628054965">
        <ele>267.3255107334</ele>
        <time>2026-03-19T18:56:57Z</time>
      </trkpt>
      <trkpt lat="41.40134047908735" lon="-81.74005904330745">
        <ele>266.5813449096</ele>
        <time>2026-03-19T18:57:41Z</time>
      </trkpt>
      <trkpt lat="41.40134431057842" lon="-81.74018646435495">
        <ele>266.5480974293</ele>
        <time>2026-03-19T18:57:50Z</time>
      </trkpt>
    </trkseg>
  </trk>
</gpx>