<?xml version='1.0' encoding='UTF-8'?>
<gpx xmlns="http://www.topografix.com/GPX/1/1" creator="https://gpx.studio" version="1.1">
  <metadata>
    <name>Dog Walk - 2026-09-11 #1</name>
  </metadata>
  <trk>
    <name>Dog Walk - 2026-09-11 #1</name>
    <type>dog walk</type>
    <trkseg>
      <trkpt lat="41.40134669831420" lon="-81.74023426726828">
        <ele>266.4525799305</ele>
        <time>2026-09-11T08:55:25Z</time>
      </trkpt>
      <trkpt lat="41.40133803735514" lon="-81.74082209600508">
        <ele>266.1216611596</ele>
        <time>2026-09-11T08:56:05Z</time>
      </trkpt>
      <trkpt lat="41.40132618567507" lon="-81.74143308577067">
        <ele>265.7841017428</ele>
        <time>2026-09-11T08:56:37Z</time>
      </trkpt>
      <trkpt lat="41.40132456730513" lon="-81.74202820154417">
        <ele>265.4117408850</ele>
        <time>2026-09-11T08:57:21Z</time>
      </trkpt>
      <trkpt lat="41.40133071498499" lon="-81.74238589503084">
        <ele>264.6851049645</ele>
        <time>2026-09-11T08:57:49Z</time>
      </trkpt>
      <trkpt lat="41.40090854150183" lon="-81.74217664059225">
        <ele>265.3056648822</ele>
        <time>2026-09-11T08:58:35Z</time>
      </trkpt>
      <trkpt lat="41.40048702190362" lon="-81.74196613148258">
        <ele>265.2892813956</ele>
        <time>2026-09-11T08:59:27Z</time>
      </trkpt>
      <trkpt lat="41.40044905572677" lon="-81.74195510441669">
        <ele>265.3881947765</ele>
        <time>2026-09-11T08:59:29Z</time>
      </trkpt>
      <trkpt lat="41.40044722613704" lon="-81.74134903669395">
        <ele>265.9437889719</ele>
        <time>2026-09-11T09:00:13Z</time>
      </trkpt>
      <trkpt lat="41.40043992468871" lon="-81.74075051995591">
        <ele>266.4923974209</ele>
        <time>2026-09-11T09:00:54Z</time>
      </trkpt>
      <trkpt lat="41.40042679917532" lon="-81.74014742882751">
        <ele>266.4998897068</ele>
        <time>2026-09-11T09:01:28Z</time>
      </trkpt>
      <trkpt lat="41.40043299620327" lon="-81.73955593598987">
        <ele>266.7611367378</ele>
        <time>2026-09-11T09:02:34Z</time>
      </trkpt>
      <trkpt lat="41.40042327342766" lon="-81.73895481000181">
        <ele>267.0772430084</ele>
        <time>2026-09-11T09:03:22Z</time>
      </trkpt>
      <trkpt lat="41.40042183913378" lon="-81.73835186135672">
        <ele>267.3760736348</ele>
        <time>2026-09-11T09:03:59Z</time>
      </trkpt>
      <trkpt lat="41.40041745508523" lon="-81.73776207000992">
        <ele>267.8292144860</ele>
        <time>2026-09-11T09:04:33Z</time>
      </trkpt>
      <trkpt lat="41.40041627855422" lon="-81.73715825910486">
        <ele>267.7409153708</ele>
        <time>2026-09-11T09:05:18Z</time>
      </trkpt>
      <trkpt lat="41.40040551209273" lon="-81.73655875508197">
        <ele>268.2344228378</ele>
        <time>2026-09-11T09:05:48Z</time>
      </trkpt>
      <trkpt lat="41.40040029898666" lon="-81.73595382580899">
        <ele>268.0383328765</ele>
        <time>2026-09-11T09:06:24Z</time>
      </trkpt>
      <trkpt lat="41.40040408216764" lon="-81.73535523707663">
        <ele>267.9106660764</ele>
        <time>2026-09-11T09:07:02Z</time>
      </trkpt>
      <trkpt lat="41.40039502210938" lon="-81.73475556847649">
        <ele>267.4097262197</ele>
        <time>2026-09-11T09:07:59Z</time>
      </trkpt>
      <trkpt lat="41.40039957536896" lon="-81.73462631614359">
        <ele>267.1820008794</ele>
        <time>2026-09-11T09:08:07Z</time>
      </trkpt>
      <trkpt lat="41.40083517970837" lon="-81.73462947652156">
        <ele>267.1612943767</ele>
        <time>2026-09-11T09:08:59Z</time>
      </trkpt>
      <trkpt lat="41.40129572363772" lon="-81.73463988683736">
        <ele>267.1477988795</ele>
        <time>2026-09-11T09:09:42Z</time>
      </trkpt>
      <trkpt lat="41.40132610203024" lon="-81.73463482099775">
        <ele>267.2292049444</ele>
        <time>2026-09-11T09:09:44Z</time>
      </trkpt>
      <trkpt lat="41.40132161949316" lon="-81.73523333111103">
        <ele>267.9501875187</ele>
        <time>2026-09-11T09:10:23Z</time>
      </trkpt>
      <trkpt lat="41.40133114142504" lon="-81.73583446447822">
        <ele>268.2718042927</ele>
        <time>2026-09-11T09:11:03Z</time>
      </trkpt>
      <trkpt lat="41.40133376655914" lon="-81.73643541803033">
        <ele>268.1524149551</ele>
        <time>2026-09-11T09:11:42Z</time>
      </trkpt>
      <trkpt lat="41.40132547692374" lon="-81.73703090959823">
        <ele>268.0136988806</ele>
        <time>2026-09-11T09:12:15Z</time>
      </trkpt>
      <trkpt lat="41.40132924136151" lon="-81.73762672239233">
        <ele>267.9467554264</ele>
        <time>2026-09-11T09:13:16Z</time>
      </trkpt>
      <trkpt lat="41.40134187366959" lon="-81.73824695113811">
        <ele>267.8056748018</ele>
        <time>2026-09-11T09:13:59Z</time>
      </trkpt>
      <trkpt lat="41.40134752287834" lon="-81.73882975684194">
        <ele>267.4160364074</ele>
        <time>2026-09-11T09:14:37Z</time>
      </trkpt>
      <trkpt lat="41.40134609079002" lon="-81.73942897926192">
        <ele>267.1825337822</ele>
        <time>2026-09-11T09:15:13Z</time>
      </trkpt>
      <trkpt lat="41.40133843203502" lon="-81.74003643907292">
        <ele>266.6121401163</ele>
        <time>2026-09-11T09:15:47Z</time>
      </trkpt>
      <trkpt lat="41.40134545303520" lon="-81.74019770160957">
        <ele>266.5317458424</ele>
        <time>2026-09-11T09:15:59Z</time>
      </trkpt>
    </trkseg>
  </trk>
</gpx>