<?xml version='1.0' encoding='UTF-8'?>
<gpx xmlns="http://www.topografix.com/GPX/1/1" creator="https://gpx.studio" version="1.1">
  <metadata>
    <name>Dog Walk - 2026-04-04 #2</name>
  </metadata>
  <trk>
    <name>Dog Walk - 2026-04-04 #2</name>
    <type>dog walk</type>
    <trkseg>
      <trkpt lat="41.40134407761987" lon="-81.74023753687406">
        <ele>266.5456167223</ele>
        <time>2026-04-04T12:44:45Z</time>
      </trkpt>
      <trkpt lat="41.40135137692182" lon="-81.74083307448866">
        <ele>266.1448504741</ele>
        <time>2026-04-04T12:45:22Z</time>
      </trkpt>
      <trkpt lat="41.40134410441225" lon="-81.74143279657856">
        <ele>265.8092393875</ele>
        <time>2026-04-04T12:46:11Z</time>
      </trkpt>
      <trkpt lat="41.40134229724817" lon="-81.74203486813359">
        <ele>265.3021985277</ele>
        <time>2026-04-04T12:47:11Z</time>
      </trkpt>
      <trkpt lat="41.40134071475105" lon="-81.74242500266294">
        <ele>264.9882813049</ele>
        <time>2026-04-04T12:47:38Z</time>
      </trkpt>
      <trkpt lat="41.40176979321755" lon="-81.74262965084264">
        <ele>264.2585926852</ele>
        <time>2026-04-04T12:48:17Z</time>
      </trkpt>
      <trkpt lat="41.40218509814069" lon="-81.74285249982057">
        <ele>263.7419322388</ele>
        <time>2026-04-04T12:48:54Z</time>
      </trkpt>
      <trkpt lat="41.40221363052108" lon="-81.74286815174501">
        <ele>263.3446766194</ele>
        <time>2026-04-04T12:48:56Z</time>
      </trkpt>
      <trkpt lat="41.40221551073235" lon="-81.74226632167478">
        <ele>264.1117507686</ele>
        <time>2026-04-04T12:49:29Z</time>
      </trkpt>
      <trkpt lat="41.40221958975245" lon="-81.74166811694168">
        <ele>264.7875003035</ele>
        <time>2026-04-04T12:50:08Z</time>
      </trkpt>
      <trkpt lat="41.40221762576252" lon="-81.74106190241511">
        <ele>265.6894697907</ele>
        <time>2026-04-04T12:50:50Z</time>
      </trkpt>
      <trkpt lat="41.40221967781257" lon="-81.74047123929654">
        <ele>265.8342267219</ele>
        <time>2026-04-04T12:51:32Z</time>
      </trkpt>
      <trkpt lat="41.40222064063397" lon="-81.73987222247118">
        <ele>266.5084535496</ele>
        <time>2026-04-04T12:52:00Z</time>
      </trkpt>
      <trkpt lat="41.40221957170414" lon="-81.73926906507566">
        <ele>266.8749552054</ele>
        <time>2026-04-04T12:52:40Z</time>
      </trkpt>
      <trkpt lat="41.40222222466477" lon="-81.73866848584245">
        <ele>267.1782647364</ele>
        <time>2026-04-04T12:53:25Z</time>
      </trkpt>
      <trkpt lat="41.40221696933713" lon="-81.73826953526643">
        <ele>267.1546233077</ele>
        <time>2026-04-04T12:53:58Z</time>
      </trkpt>
      <trkpt lat="41.40177137027550" lon="-81.73826870459750">
        <ele>267.7059272966</ele>
        <time>2026-04-04T12:54:27Z</time>
      </trkpt>
      <trkpt lat="41.40134420226720" lon="-81.73826895719108">
        <ele>267.6723000022</ele>
        <time>2026-04-04T12:54:58Z</time>
      </trkpt>
      <trkpt lat="41.40134502245607" lon="-81.73885931406345">
        <ele>267.1696872168</ele>
        <time>2026-04-04T12:55:48Z</time>
      </trkpt>
      <trkpt lat="41.40134060668384" lon="-81.73946355767659">
        <ele>267.1744191283</ele>
        <time>2026-04-04T12:56:19Z</time>
      </trkpt>
      <trkpt lat="41.40134272206507" lon="-81.74005988036180">
        <ele>266.7414303405</ele>
        <time>2026-04-04T12:57:09Z</time>
      </trkpt>
      <trkpt lat="41.40134381927589" lon="-81.74018881666278">
        <ele>266.3855602958</ele>
        <time>2026-04-04T12:57:18Z</time>
      </trkpt>
    </trkseg>
  </trk>
</gpx>