<?xml version='1.0' encoding='UTF-8'?>
<gpx xmlns="http://www.topografix.com/GPX/1/1" creator="https://gpx.studio" version="1.1">
  <metadata>
    <name>Dog Walk - 2026-03-24 #4</name>
  </metadata>
  <trk>
    <name>Dog Walk - 2026-03-24 #4</name>
    <type>dog walk</type>
    <trkseg>
      <trkpt lat="41.40133667168518" lon="-81.74024614901874">
        <ele>266.3802508594</ele>
        <time>2026-03-24T19:44:11Z</time>
      </trkpt>
      <trkpt lat="41.40133716785188" lon="-81.74084540914016">
        <ele>266.2951770505</ele>
        <time>2026-03-24T19:45:19Z</time>
      </trkpt>
      <trkpt lat="41.40134688478712" lon="-81.74143369824122">
        <ele>265.8109438254</ele>
        <time>2026-03-24T19:45:55Z</time>
      </trkpt>
      <trkpt lat="41.40135043887893" lon="-81.74203110614545">
        <ele>265.4110035279</ele>
        <time>2026-03-24T19:46:28Z</time>
      </trkpt>
      <trkpt lat="41.40135228561456" lon="-81.74242475613548">
        <ele>264.7417677851</ele>
        <time>2026-03-24T19:46:53Z</time>
      </trkpt>
      <trkpt lat="41.40176647912465" lon="-81.74263303611677">
        <ele>264.1599750742</ele>
        <time>2026-03-24T19:47:32Z</time>
      </trkpt>
      <trkpt lat="41.40218968092110" lon="-81.74285449189648">
        <ele>263.3676767085</ele>
        <time>2026-03-24T19:48:14Z</time>
      </trkpt>
      <trkpt lat="41.40221312036995" lon="-81.74286968200560">
        <ele>263.3458615992</ele>
        <time>2026-03-24T19:48:16Z</time>
      </trkpt>
      <trkpt lat="41.40221915772053" lon="-81.74226650987987">
        <ele>264.0555379103</ele>
        <time>2026-03-24T19:48:55Z</time>
      </trkpt>
      <trkpt lat="41.40221903879781" lon="-81.74166915556215">
        <ele>264.6427937503</ele>
        <time>2026-03-24T19:49:31Z</time>
      </trkpt>
      <trkpt lat="41.40221520433232" lon="-81.74106859263662">
        <ele>265.6740212373</ele>
        <time>2026-03-24T19:50:07Z</time>
      </trkpt>
      <trkpt lat="41.40222492520761" lon="-81.74046966170752">
        <ele>266.0592208864</ele>
        <time>2026-03-24T19:50:45Z</time>
      </trkpt>
      <trkpt lat="41.40222138130969" lon="-81.73986685878337">
        <ele>266.5009064620</ele>
        <time>2026-03-24T19:51:24Z</time>
      </trkpt>
      <trkpt lat="41.40221901458438" lon="-81.73926051708875">
        <ele>266.6815476292</ele>
        <time>2026-03-24T19:52:08Z</time>
      </trkpt>
      <trkpt lat="41.40221440448894" lon="-81.73866794933775">
        <ele>267.0010994188</ele>
        <time>2026-03-24T19:52:43Z</time>
      </trkpt>
      <trkpt lat="41.40222250483423" lon="-81.73826980446474">
        <ele>267.0155496069</ele>
        <time>2026-03-24T19:53:08Z</time>
      </trkpt>
      <trkpt lat="41.40176774001340" lon="-81.73826703900018">
        <ele>267.9700532481</ele>
        <time>2026-03-24T19:53:46Z</time>
      </trkpt>
      <trkpt lat="41.40133685378557" lon="-81.73825255036448">
        <ele>267.5755674569</ele>
        <time>2026-03-24T19:54:23Z</time>
      </trkpt>
      <trkpt lat="41.40133201702616" lon="-81.73886735255961">
        <ele>267.4244533527</ele>
        <time>2026-03-24T19:54:58Z</time>
      </trkpt>
      <trkpt lat="41.40135443350042" lon="-81.73945689487446">
        <ele>267.3887118708</ele>
        <time>2026-03-24T19:55:37Z</time>
      </trkpt>
      <trkpt lat="41.40134744969124" lon="-81.74005762317812">
        <ele>266.8842767832</ele>
        <time>2026-03-24T19:56:17Z</time>
      </trkpt>
      <trkpt lat="41.40133363584977" lon="-81.74018311288745">
        <ele>266.4574192919</ele>
        <time>2026-03-24T19:56:24Z</time>
      </trkpt>
    </trkseg>
  </trk>
</gpx>