<?xml version='1.0' encoding='UTF-8'?>
<gpx xmlns="http://www.topografix.com/GPX/1/1" creator="https://gpx.studio" version="1.1">
  <metadata>
    <name>Dog Walk - 2026-04-12 #5</name>
  </metadata>
  <trk>
    <name>Dog Walk - 2026-04-12 #5</name>
    <type>dog walk</type>
    <trkseg>
      <trkpt lat="41.40132585954884" lon="-81.74023804878996">
        <ele>266.4698951403</ele>
        <time>2026-04-12T19:59:20Z</time>
      </trkpt>
      <trkpt lat="41.40133393229718" lon="-81.74083615485513">
        <ele>266.2433113364</ele>
        <time>2026-04-12T19:59:54Z</time>
      </trkpt>
      <trkpt lat="41.40133471236736" lon="-81.74143155913039">
        <ele>265.7732090237</ele>
        <time>2026-04-12T20:00:27Z</time>
      </trkpt>
      <trkpt lat="41.40132838207342" lon="-81.74203914133440">
        <ele>265.2865539712</ele>
        <time>2026-04-12T20:01:02Z</time>
      </trkpt>
      <trkpt lat="41.40132809971323" lon="-81.74238025357546">
        <ele>264.7182955013</ele>
        <time>2026-04-12T20:01:26Z</time>
      </trkpt>
      <trkpt lat="41.40090433281191" lon="-81.74218339959729">
        <ele>265.3246429487</ele>
        <time>2026-04-12T20:02:03Z</time>
      </trkpt>
      <trkpt lat="41.40048324123213" lon="-81.74200238188263">
        <ele>265.2698475967</ele>
        <time>2026-04-12T20:02:37Z</time>
      </trkpt>
      <trkpt lat="41.40004884156952" lon="-81.74181322324506">
        <ele>265.4927110923</ele>
        <time>2026-04-12T20:03:20Z</time>
      </trkpt>
      <trkpt lat="41.39963400791613" lon="-81.74161701098295">
        <ele>264.7635603217</ele>
        <time>2026-04-12T20:04:02Z</time>
      </trkpt>
      <trkpt lat="41.39952708076221" lon="-81.74157672204514">
        <ele>264.9682985912</ele>
        <time>2026-04-12T20:04:12Z</time>
      </trkpt>
      <trkpt lat="41.39953062982834" lon="-81.74097256084804">
        <ele>265.8294346891</ele>
        <time>2026-04-12T20:05:00Z</time>
      </trkpt>
      <trkpt lat="41.39953732260486" lon="-81.74037418341599">
        <ele>266.3028053279</ele>
        <time>2026-04-12T20:05:41Z</time>
      </trkpt>
      <trkpt lat="41.39953312927458" lon="-81.73976546227863">
        <ele>266.6847051785</ele>
        <time>2026-04-12T20:06:22Z</time>
      </trkpt>
      <trkpt lat="41.39953138232619" lon="-81.73917157230287">
        <ele>266.7372474894</ele>
        <time>2026-04-12T20:07:04Z</time>
      </trkpt>
      <trkpt lat="41.39953632765797" lon="-81.73857240182768">
        <ele>266.7322471721</ele>
        <time>2026-04-12T20:08:00Z</time>
      </trkpt>
      <trkpt lat="41.39952646748474" lon="-81.73796948249370">
        <ele>267.1665143203</ele>
        <time>2026-04-12T20:08:35Z</time>
      </trkpt>
      <trkpt lat="41.39953239831566" lon="-81.73737331981999">
        <ele>267.2991844561</ele>
        <time>2026-04-12T20:09:21Z</time>
      </trkpt>
      <trkpt lat="41.39952596836085" lon="-81.73678770158894">
        <ele>267.4342617930</ele>
        <time>2026-04-12T20:10:22Z</time>
      </trkpt>
      <trkpt lat="41.39952410394594" lon="-81.73617384957365">
        <ele>267.4307861569</ele>
        <time>2026-04-12T20:11:24Z</time>
      </trkpt>
      <trkpt lat="41.39952784103958" lon="-81.73556978080204">
        <ele>267.2285355429</ele>
        <time>2026-04-12T20:12:05Z</time>
      </trkpt>
      <trkpt lat="41.39953021138461" lon="-81.73497746157096">
        <ele>267.3453659180</ele>
        <time>2026-04-12T20:12:37Z</time>
      </trkpt>
      <trkpt lat="41.39953079773404" lon="-81.73461547836041">
        <ele>267.1758959315</ele>
        <time>2026-04-12T20:13:02Z</time>
      </trkpt>
      <trkpt lat="41.39997526518930" lon="-81.73462493980688">
        <ele>267.2395851644</ele>
        <time>2026-04-12T20:14:00Z</time>
      </trkpt>
      <trkpt lat="41.40041876093964" lon="-81.73462759892600">
        <ele>267.3041193273</ele>
        <time>2026-04-12T20:15:14Z</time>
      </trkpt>
      <trkpt lat="41.40087975833861" lon="-81.73462841526839">
        <ele>267.1866373546</ele>
        <time>2026-04-12T20:15:57Z</time>
      </trkpt>
      <trkpt lat="41.40132568194232" lon="-81.73463275502294">
        <ele>267.3908043317</ele>
        <time>2026-04-12T20:16:33Z</time>
      </trkpt>
      <trkpt lat="41.40131889345682" lon="-81.73523568679569">
        <ele>267.9865579147</ele>
        <time>2026-04-12T20:17:11Z</time>
      </trkpt>
      <trkpt lat="41.40132677485453" lon="-81.73583664611982">
        <ele>268.5591147538</ele>
        <time>2026-04-12T20:17:52Z</time>
      </trkpt>
      <trkpt lat="41.40132898505460" lon="-81.73643398820397">
        <ele>268.2516542764</ele>
        <time>2026-04-12T20:18:39Z</time>
      </trkpt>
      <trkpt lat="41.40132497674573" lon="-81.73703607868292">
        <ele>268.2205605977</ele>
        <time>2026-04-12T20:19:20Z</time>
      </trkpt>
      <trkpt lat="41.40133313247021" lon="-81.73764708861394">
        <ele>268.1001583170</ele>
        <time>2026-04-12T20:19:50Z</time>
      </trkpt>
      <trkpt lat="41.40132705991009" lon="-81.73823269793984">
        <ele>267.5109248330</ele>
        <time>2026-04-12T20:20:32Z</time>
      </trkpt>
      <trkpt lat="41.40132992533923" lon="-81.73883692754885">
        <ele>267.4413961803</ele>
        <time>2026-04-12T20:21:14Z</time>
      </trkpt>
      <trkpt lat="41.40133797230090" lon="-81.73943905455026">
        <ele>267.3133200321</ele>
        <time>2026-04-12T20:21:48Z</time>
      </trkpt>
      <trkpt lat="41.40133318599842" lon="-81.74003670176344">
        <ele>266.7853049836</ele>
        <time>2026-04-12T20:22:36Z</time>
      </trkpt>
      <trkpt lat="41.40133621442141" lon="-81.74021793198942">
        <ele>266.5838857671</ele>
        <time>2026-04-12T20:22:46Z</time>
      </trkpt>
    </trkseg>
  </trk>
</gpx>