<?xml version='1.0' encoding='UTF-8'?>
<gpx xmlns="http://www.topografix.com/GPX/1/1" creator="https://gpx.studio" version="1.1">
  <metadata>
    <name>Dog Walk - 2026-06-11 #3</name>
  </metadata>
  <trk>
    <name>Dog Walk - 2026-06-11 #3</name>
    <type>dog walk</type>
    <trkseg>
      <trkpt lat="41.40133558600729" lon="-81.74025551453937">
        <ele>266.6054526216</ele>
        <time>2026-06-11T15:43:01Z</time>
      </trkpt>
      <trkpt lat="41.40132593894319" lon="-81.74026379630848">
        <ele>266.4729320539</ele>
        <time>2026-06-11T15:43:02Z</time>
      </trkpt>
      <trkpt lat="41.40132782743378" lon="-81.74085142427469">
        <ele>266.3023852424</ele>
        <time>2026-06-11T15:43:51Z</time>
      </trkpt>
      <trkpt lat="41.40133244711276" lon="-81.74144473734678">
        <ele>265.8306149702</ele>
        <time>2026-06-11T15:44:32Z</time>
      </trkpt>
      <trkpt lat="41.40132624237265" lon="-81.74206191370097">
        <ele>265.3381742886</ele>
        <time>2026-06-11T15:45:23Z</time>
      </trkpt>
      <trkpt lat="41.40132081937603" lon="-81.74237707483566">
        <ele>264.6701313550</ele>
        <time>2026-06-11T15:45:48Z</time>
      </trkpt>
      <trkpt lat="41.40132157694244" lon="-81.74238279672575">
        <ele>264.9662866107</ele>
        <time>2026-06-11T15:45:49Z</time>
      </trkpt>
      <trkpt lat="41.40089791074283" lon="-81.74219356573637">
        <ele>265.0592586766</ele>
        <time>2026-06-11T15:46:25Z</time>
      </trkpt>
      <trkpt lat="41.40047340329443" lon="-81.74198567761563">
        <ele>265.1889541904</ele>
        <time>2026-06-11T15:47:10Z</time>
      </trkpt>
      <trkpt lat="41.40004703737847" lon="-81.74179754432508">
        <ele>265.3708515563</ele>
        <time>2026-06-11T15:48:11Z</time>
      </trkpt>
      <trkpt lat="41.39962543023725" lon="-81.74159639722929">
        <ele>264.7184327941</ele>
        <time>2026-06-11T15:48:46Z</time>
      </trkpt>
      <trkpt lat="41.39954490949140" lon="-81.74156512924736">
        <ele>264.8552599037</ele>
        <time>2026-06-11T15:48:54Z</time>
      </trkpt>
      <trkpt lat="41.39953998025361" lon="-81.74096353382028">
        <ele>265.4039384517</ele>
        <time>2026-06-11T15:49:40Z</time>
      </trkpt>
      <trkpt lat="41.39954582547406" lon="-81.74037727707672">
        <ele>266.1241264449</ele>
        <time>2026-06-11T15:50:23Z</time>
      </trkpt>
      <trkpt lat="41.39954968394781" lon="-81.73977253470089">
        <ele>266.4293828682</ele>
        <time>2026-06-11T15:51:03Z</time>
      </trkpt>
      <trkpt lat="41.39953487528638" lon="-81.73917516107022">
        <ele>266.9869608662</ele>
        <time>2026-06-11T15:51:45Z</time>
      </trkpt>
      <trkpt lat="41.39953674160616" lon="-81.73857842601196">
        <ele>266.8008531885</ele>
        <time>2026-06-11T15:52:30Z</time>
      </trkpt>
      <trkpt lat="41.39953539263769" lon="-81.73830135382440">
        <ele>266.9447789761</ele>
        <time>2026-06-11T15:52:50Z</time>
      </trkpt>
      <trkpt lat="41.39953928472084" lon="-81.73828757875593">
        <ele>266.9795213476</ele>
        <time>2026-06-11T15:52:51Z</time>
      </trkpt>
      <trkpt lat="41.39998537548178" lon="-81.73829598953429">
        <ele>267.2703384138</ele>
        <time>2026-06-11T15:53:35Z</time>
      </trkpt>
      <trkpt lat="41.40044090785644" lon="-81.73829671357610">
        <ele>267.4273235938</ele>
        <time>2026-06-11T15:54:22Z</time>
      </trkpt>
      <trkpt lat="41.40087668845227" lon="-81.73829752030991">
        <ele>267.3708542629</ele>
        <time>2026-06-11T15:55:17Z</time>
      </trkpt>
      <trkpt lat="41.40132803552327" lon="-81.73830012435077">
        <ele>267.1696779656</ele>
        <time>2026-06-11T15:55:59Z</time>
      </trkpt>
      <trkpt lat="41.40132604654250" lon="-81.73890011765168">
        <ele>267.5704485824</ele>
        <time>2026-06-11T15:56:43Z</time>
      </trkpt>
      <trkpt lat="41.40133249549195" lon="-81.73950730760140">
        <ele>267.1397284415</ele>
        <time>2026-06-11T15:57:19Z</time>
      </trkpt>
      <trkpt lat="41.40134479535030" lon="-81.74009856140968">
        <ele>266.4526130981</ele>
        <time>2026-06-11T15:57:54Z</time>
      </trkpt>
      <trkpt lat="41.40133673477290" lon="-81.74015051285942">
        <ele>266.5496657052</ele>
        <time>2026-06-11T15:57:58Z</time>
      </trkpt>
    </trkseg>
  </trk>
</gpx>