<?xml version='1.0' encoding='UTF-8'?>
<gpx xmlns="http://www.topografix.com/GPX/1/1" creator="https://gpx.studio" version="1.1">
  <metadata>
    <name>Dog Walk - 2026-03-29 #4</name>
  </metadata>
  <trk>
    <name>Dog Walk - 2026-03-29 #4</name>
    <type>dog walk</type>
    <trkseg>
      <trkpt lat="41.40133958904968" lon="-81.74022597816092">
        <ele>266.3430571497</ele>
        <time>2026-03-29T17:29:47Z</time>
      </trkpt>
      <trkpt lat="41.40134060848192" lon="-81.74083178764495">
        <ele>266.1846422387</ele>
        <time>2026-03-29T17:30:22Z</time>
      </trkpt>
      <trkpt lat="41.40133918269014" lon="-81.74143075774674">
        <ele>265.7637782235</ele>
        <time>2026-03-29T17:31:05Z</time>
      </trkpt>
      <trkpt lat="41.40133839697802" lon="-81.74203339573879">
        <ele>265.0969669603</ele>
        <time>2026-03-29T17:32:04Z</time>
      </trkpt>
      <trkpt lat="41.40133949698362" lon="-81.74240574384676">
        <ele>264.8524317488</ele>
        <time>2026-03-29T17:32:24Z</time>
      </trkpt>
      <trkpt lat="41.40177090756637" lon="-81.74262718300052">
        <ele>264.3105476991</ele>
        <time>2026-03-29T17:33:03Z</time>
      </trkpt>
      <trkpt lat="41.40219117090280" lon="-81.74283246803786">
        <ele>263.6305900656</ele>
        <time>2026-03-29T17:33:40Z</time>
      </trkpt>
      <trkpt lat="41.40260972833215" lon="-81.74304912106636">
        <ele>262.8496220545</ele>
        <time>2026-03-29T17:34:54Z</time>
      </trkpt>
      <trkpt lat="41.40303080511728" lon="-81.74325732276351">
        <ele>262.3744776716</ele>
        <time>2026-03-29T17:35:37Z</time>
      </trkpt>
      <trkpt lat="41.40344649341850" lon="-81.74347158079406">
        <ele>261.8772945452</ele>
        <time>2026-03-29T17:36:03Z</time>
      </trkpt>
      <trkpt lat="41.40348999380856" lon="-81.74350402991357">
        <ele>261.8055674152</ele>
        <time>2026-03-29T17:36:07Z</time>
      </trkpt>
      <trkpt lat="41.40359734707717" lon="-81.74351775048557">
        <ele>261.6732661763</ele>
        <time>2026-03-29T17:36:15Z</time>
      </trkpt>
      <trkpt lat="41.40400039551909" lon="-81.74350783375255">
        <ele>260.6353243416</ele>
        <time>2026-03-29T17:36:45Z</time>
      </trkpt>
      <trkpt lat="41.40399252693292" lon="-81.74291436470808">
        <ele>261.4760900193</ele>
        <time>2026-03-29T17:37:35Z</time>
      </trkpt>
      <trkpt lat="41.40400046950556" lon="-81.74230933587904">
        <ele>262.1223905153</ele>
        <time>2026-03-29T17:38:16Z</time>
      </trkpt>
      <trkpt lat="41.40399544708302" lon="-81.74171072378626">
        <ele>262.5507641590</ele>
        <time>2026-03-29T17:38:52Z</time>
      </trkpt>
      <trkpt lat="41.40399102465454" lon="-81.74110679425141">
        <ele>262.7119337162</ele>
        <time>2026-03-29T17:39:39Z</time>
      </trkpt>
      <trkpt lat="41.40399168415767" lon="-81.74051084027721">
        <ele>263.6680375878</ele>
        <time>2026-03-29T17:40:24Z</time>
      </trkpt>
      <trkpt lat="41.40399238458961" lon="-81.73990856666823">
        <ele>264.1661811357</ele>
        <time>2026-03-29T17:41:24Z</time>
      </trkpt>
      <trkpt lat="41.40398167389597" lon="-81.73930186059910">
        <ele>265.0867183733</ele>
        <time>2026-03-29T17:42:00Z</time>
      </trkpt>
      <trkpt lat="41.40398169795881" lon="-81.73879093403168">
        <ele>265.4798869396</ele>
        <time>2026-03-29T17:42:29Z</time>
      </trkpt>
      <trkpt lat="41.40354035503386" lon="-81.73878379117673">
        <ele>266.2141169904</ele>
        <time>2026-03-29T17:43:14Z</time>
      </trkpt>
      <trkpt lat="41.40309165193144" lon="-81.73877896204284">
        <ele>266.1954931666</ele>
        <time>2026-03-29T17:43:51Z</time>
      </trkpt>
      <trkpt lat="41.40263751009414" lon="-81.73877606793104">
        <ele>266.7785010339</ele>
        <time>2026-03-29T17:44:39Z</time>
      </trkpt>
      <trkpt lat="41.40223190136869" lon="-81.73878572007909">
        <ele>266.9791947572</ele>
        <time>2026-03-29T17:45:13Z</time>
      </trkpt>
      <trkpt lat="41.40222267091293" lon="-81.73826737775148">
        <ele>267.0726820855</ele>
        <time>2026-03-29T17:45:43Z</time>
      </trkpt>
      <trkpt lat="41.40176609714758" lon="-81.73826769931615">
        <ele>267.5578107396</ele>
        <time>2026-03-29T17:46:24Z</time>
      </trkpt>
      <trkpt lat="41.40132956351614" lon="-81.73826041971058">
        <ele>267.4937203872</ele>
        <time>2026-03-29T17:47:05Z</time>
      </trkpt>
      <trkpt lat="41.40133764417968" lon="-81.73887356554054">
        <ele>267.4139985375</ele>
        <time>2026-03-29T17:47:38Z</time>
      </trkpt>
      <trkpt lat="41.40133026036069" lon="-81.73946246569405">
        <ele>267.2410902188</ele>
        <time>2026-03-29T17:48:10Z</time>
      </trkpt>
      <trkpt lat="41.40134253151695" lon="-81.74006660852946">
        <ele>266.6253230959</ele>
        <time>2026-03-29T17:48:56Z</time>
      </trkpt>
      <trkpt lat="41.40133893063796" lon="-81.74020558883294">
        <ele>266.4111412926</ele>
        <time>2026-03-29T17:49:09Z</time>
      </trkpt>
    </trkseg>
  </trk>
</gpx>