<?xml version='1.0' encoding='UTF-8'?>
<gpx xmlns="http://www.topografix.com/GPX/1/1" creator="https://gpx.studio" version="1.1">
  <metadata>
    <name>Dog Walk - 2026-02-13 #3</name>
  </metadata>
  <trk>
    <name>Dog Walk - 2026-02-13 #3</name>
    <type>dog walk</type>
    <trkseg>
      <trkpt lat="41.40133977964412" lon="-81.74024053205773">
        <ele>266.5308398795</ele>
        <time>2026-02-13T18:01:23Z</time>
      </trkpt>
      <trkpt lat="41.40133761731308" lon="-81.74083434196794">
        <ele>266.2063216181</ele>
        <time>2026-02-13T18:02:06Z</time>
      </trkpt>
      <trkpt lat="41.40134485577112" lon="-81.74144009970938">
        <ele>265.7761519981</ele>
        <time>2026-02-13T18:03:11Z</time>
      </trkpt>
      <trkpt lat="41.40135118333620" lon="-81.74202815479981">
        <ele>265.4528639388</ele>
        <time>2026-02-13T18:03:50Z</time>
      </trkpt>
      <trkpt lat="41.40135245095773" lon="-81.74241800229591">
        <ele>264.8214679171</ele>
        <time>2026-02-13T18:04:11Z</time>
      </trkpt>
      <trkpt lat="41.40177130827911" lon="-81.74262346964935">
        <ele>264.3512109922</ele>
        <time>2026-02-13T18:04:40Z</time>
      </trkpt>
      <trkpt lat="41.40219204703387" lon="-81.74284700733210">
        <ele>263.4481856924</ele>
        <time>2026-02-13T18:05:30Z</time>
      </trkpt>
      <trkpt lat="41.40221200262424" lon="-81.74286811348877">
        <ele>263.6729538707</ele>
        <time>2026-02-13T18:05:33Z</time>
      </trkpt>
      <trkpt lat="41.40222054618463" lon="-81.74225703134694">
        <ele>264.2420739077</ele>
        <time>2026-02-13T18:06:13Z</time>
      </trkpt>
      <trkpt lat="41.40222086482063" lon="-81.74165455503305">
        <ele>264.7634076609</ele>
        <time>2026-02-13T18:06:44Z</time>
      </trkpt>
      <trkpt lat="41.40221676202193" lon="-81.74106316886215">
        <ele>265.4055523107</ele>
        <time>2026-02-13T18:08:00Z</time>
      </trkpt>
      <trkpt lat="41.40222070138945" lon="-81.74046520734727">
        <ele>266.3405309266</ele>
        <time>2026-02-13T18:08:39Z</time>
      </trkpt>
      <trkpt lat="41.40221813600528" lon="-81.73986102067808">
        <ele>266.4904380456</ele>
        <time>2026-02-13T18:09:12Z</time>
      </trkpt>
      <trkpt lat="41.40221777652501" lon="-81.73926094156857">
        <ele>266.9926193517</ele>
        <time>2026-02-13T18:10:15Z</time>
      </trkpt>
      <trkpt lat="41.40222267703467" lon="-81.73867305825269">
        <ele>267.0157298577</ele>
        <time>2026-02-13T18:11:05Z</time>
      </trkpt>
      <trkpt lat="41.40222279816199" lon="-81.73827284568495">
        <ele>267.0472070766</ele>
        <time>2026-02-13T18:11:39Z</time>
      </trkpt>
      <trkpt lat="41.40176659046143" lon="-81.73826195473239">
        <ele>267.8719822734</ele>
        <time>2026-02-13T18:12:31Z</time>
      </trkpt>
      <trkpt lat="41.40134405607049" lon="-81.73825398518200">
        <ele>267.3471179734</ele>
        <time>2026-02-13T18:13:16Z</time>
      </trkpt>
      <trkpt lat="41.40133678530253" lon="-81.73886209936960">
        <ele>267.5010854642</ele>
        <time>2026-02-13T18:13:57Z</time>
      </trkpt>
      <trkpt lat="41.40134055752667" lon="-81.73946123378235">
        <ele>267.4015310950</ele>
        <time>2026-02-13T18:14:44Z</time>
      </trkpt>
      <trkpt lat="41.40134077010496" lon="-81.74006496929366">
        <ele>266.4507300926</ele>
        <time>2026-02-13T18:15:20Z</time>
      </trkpt>
      <trkpt lat="41.40133288862422" lon="-81.74019498590957">
        <ele>266.4309613167</ele>
        <time>2026-02-13T18:15:29Z</time>
      </trkpt>
    </trkseg>
  </trk>
</gpx>