<?xml version='1.0' encoding='UTF-8'?>
<gpx xmlns="http://www.topografix.com/GPX/1/1" creator="https://gpx.studio" version="1.1">
  <metadata>
    <name>Dog Walk - 2026-08-28 #1</name>
  </metadata>
  <trk>
    <name>Dog Walk - 2026-08-28 #1</name>
    <type>dog walk</type>
    <trkseg>
      <trkpt lat="41.40134267628725" lon="-81.74023508102709">
        <ele>266.5605002393</ele>
        <time>2026-08-28T09:16:58Z</time>
      </trkpt>
      <trkpt lat="41.40134088968972" lon="-81.74083943807723">
        <ele>266.1496738757</ele>
        <time>2026-08-28T09:17:37Z</time>
      </trkpt>
      <trkpt lat="41.40134564199698" lon="-81.74143899073725">
        <ele>265.6911897902</ele>
        <time>2026-08-28T09:18:23Z</time>
      </trkpt>
      <trkpt lat="41.40135134011496" lon="-81.74203944250814">
        <ele>265.4179036627</ele>
        <time>2026-08-28T09:18:59Z</time>
      </trkpt>
      <trkpt lat="41.40134504854328" lon="-81.74242443652953">
        <ele>264.7651499847</ele>
        <time>2026-08-28T09:19:22Z</time>
      </trkpt>
      <trkpt lat="41.40176831224647" lon="-81.74264476180551">
        <ele>264.3190580380</ele>
        <time>2026-08-28T09:20:17Z</time>
      </trkpt>
      <trkpt lat="41.40218286031267" lon="-81.74285227196157">
        <ele>263.4392429153</ele>
        <time>2026-08-28T09:21:06Z</time>
      </trkpt>
      <trkpt lat="41.40221223904506" lon="-81.74286858593339">
        <ele>263.2892386756</ele>
        <time>2026-08-28T09:21:09Z</time>
      </trkpt>
      <trkpt lat="41.40221313904110" lon="-81.74227428081716">
        <ele>263.9429142776</ele>
        <time>2026-08-28T09:21:48Z</time>
      </trkpt>
      <trkpt lat="41.40222345081608" lon="-81.74166273019763">
        <ele>264.9632592179</ele>
        <time>2026-08-28T09:22:30Z</time>
      </trkpt>
      <trkpt lat="41.40222079827289" lon="-81.74105673870432">
        <ele>265.5320724430</ele>
        <time>2026-08-28T09:23:42Z</time>
      </trkpt>
      <trkpt lat="41.40221562816167" lon="-81.74046893100552">
        <ele>265.9876773466</ele>
        <time>2026-08-28T09:24:39Z</time>
      </trkpt>
      <trkpt lat="41.40222488976032" lon="-81.73987016013328">
        <ele>266.5301640995</ele>
        <time>2026-08-28T09:25:14Z</time>
      </trkpt>
      <trkpt lat="41.40222214895109" lon="-81.73927826172967">
        <ele>266.8794826634</ele>
        <time>2026-08-28T09:26:02Z</time>
      </trkpt>
      <trkpt lat="41.40222001028732" lon="-81.73866870323883">
        <ele>267.3236682922</ele>
        <time>2026-08-28T09:26:37Z</time>
      </trkpt>
      <trkpt lat="41.40222305260356" lon="-81.73826985139866">
        <ele>267.1721395095</ele>
        <time>2026-08-28T09:27:00Z</time>
      </trkpt>
      <trkpt lat="41.40176690886273" lon="-81.73826647145954">
        <ele>267.7934422783</ele>
        <time>2026-08-28T09:27:32Z</time>
      </trkpt>
      <trkpt lat="41.40134591509229" lon="-81.73827073043800">
        <ele>267.2409918752</ele>
        <time>2026-08-28T09:28:05Z</time>
      </trkpt>
      <trkpt lat="41.40133243091779" lon="-81.73886770859954">
        <ele>267.3222318309</ele>
        <time>2026-08-28T09:28:41Z</time>
      </trkpt>
      <trkpt lat="41.40134583078599" lon="-81.73945580729756">
        <ele>267.2194852685</ele>
        <time>2026-08-28T09:29:24Z</time>
      </trkpt>
      <trkpt lat="41.40133517829160" lon="-81.74006321419687">
        <ele>266.5185310782</ele>
        <time>2026-08-28T09:29:57Z</time>
      </trkpt>
      <trkpt lat="41.40134656313487" lon="-81.74018577196478">
        <ele>266.5999224661</ele>
        <time>2026-08-28T09:30:04Z</time>
      </trkpt>
    </trkseg>
  </trk>
</gpx>