<?xml version='1.0' encoding='UTF-8'?>
<gpx xmlns="http://www.topografix.com/GPX/1/1" creator="https://gpx.studio" version="1.1">
  <metadata>
    <name>Dog Walk - 2026-08-06 #2</name>
  </metadata>
  <trk>
    <name>Dog Walk - 2026-08-06 #2</name>
    <type>dog walk</type>
    <trkseg>
      <trkpt lat="41.40132658958174" lon="-81.74023661737569">
        <ele>266.5282241921</ele>
        <time>2026-08-06T15:24:53Z</time>
      </trkpt>
      <trkpt lat="41.40133285034281" lon="-81.74082781656737">
        <ele>266.1599462170</ele>
        <time>2026-08-06T15:25:41Z</time>
      </trkpt>
      <trkpt lat="41.40132611449560" lon="-81.74142944107231">
        <ele>265.9296053877</ele>
        <time>2026-08-06T15:26:25Z</time>
      </trkpt>
      <trkpt lat="41.40132525216141" lon="-81.74202617821656">
        <ele>265.2454078538</ele>
        <time>2026-08-06T15:27:09Z</time>
      </trkpt>
      <trkpt lat="41.40132400659356" lon="-81.74239658434436">
        <ele>264.6933349559</ele>
        <time>2026-08-06T15:27:32Z</time>
      </trkpt>
      <trkpt lat="41.40090080775236" lon="-81.74219743649525">
        <ele>265.2422147476</ele>
        <time>2026-08-06T15:28:08Z</time>
      </trkpt>
      <trkpt lat="41.40047364946104" lon="-81.74200082341991">
        <ele>265.1303457495</ele>
        <time>2026-08-06T15:28:43Z</time>
      </trkpt>
      <trkpt lat="41.40005097615946" lon="-81.74181043470132">
        <ele>265.3776585205</ele>
        <time>2026-08-06T15:29:23Z</time>
      </trkpt>
      <trkpt lat="41.39963065058837" lon="-81.74161151195800">
        <ele>264.7061040040</ele>
        <time>2026-08-06T15:29:56Z</time>
      </trkpt>
      <trkpt lat="41.39953688654305" lon="-81.74156476251883">
        <ele>264.8318503748</ele>
        <time>2026-08-06T15:30:05Z</time>
      </trkpt>
      <trkpt lat="41.39954264033265" lon="-81.74096794670824">
        <ele>265.7103900312</ele>
        <time>2026-08-06T15:30:47Z</time>
      </trkpt>
      <trkpt lat="41.39952773247793" lon="-81.74037853147431">
        <ele>266.4629734691</ele>
        <time>2026-08-06T15:31:24Z</time>
      </trkpt>
      <trkpt lat="41.39953703531337" lon="-81.73977972244157">
        <ele>266.6392849167</ele>
        <time>2026-08-06T15:32:20Z</time>
      </trkpt>
      <trkpt lat="41.39953083171170" lon="-81.73917844026985">
        <ele>266.7351557316</ele>
        <time>2026-08-06T15:33:09Z</time>
      </trkpt>
      <trkpt lat="41.39953776501730" lon="-81.73858101477637">
        <ele>266.8361716775</ele>
        <time>2026-08-06T15:33:40Z</time>
      </trkpt>
      <trkpt lat="41.39953731747981" lon="-81.73797889005888">
        <ele>267.1705075753</ele>
        <time>2026-08-06T15:34:32Z</time>
      </trkpt>
      <trkpt lat="41.39952434046894" lon="-81.73737443327046">
        <ele>267.2952759492</ele>
        <time>2026-08-06T15:35:13Z</time>
      </trkpt>
      <trkpt lat="41.39952883250603" lon="-81.73677999954150">
        <ele>267.3847462130</ele>
        <time>2026-08-06T15:35:49Z</time>
      </trkpt>
      <trkpt lat="41.39953204281753" lon="-81.73617095874710">
        <ele>267.4856808024</ele>
        <time>2026-08-06T15:36:26Z</time>
      </trkpt>
      <trkpt lat="41.39952316464016" lon="-81.73558010284384">
        <ele>267.2069277540</ele>
        <time>2026-08-06T15:37:10Z</time>
      </trkpt>
      <trkpt lat="41.39952990200923" lon="-81.73497827381757">
        <ele>267.2660064944</ele>
        <time>2026-08-06T15:37:48Z</time>
      </trkpt>
      <trkpt lat="41.39952178052343" lon="-81.73460842431970">
        <ele>266.8897350592</ele>
        <time>2026-08-06T15:38:13Z</time>
      </trkpt>
      <trkpt lat="41.39997180413800" lon="-81.73462055522764">
        <ele>267.1249402909</ele>
        <time>2026-08-06T15:38:54Z</time>
      </trkpt>
      <trkpt lat="41.40041902332298" lon="-81.73462937411522">
        <ele>267.3136210783</ele>
        <time>2026-08-06T15:39:47Z</time>
      </trkpt>
      <trkpt lat="41.40087673711831" lon="-81.73463343029407">
        <ele>267.2359953782</ele>
        <time>2026-08-06T15:40:27Z</time>
      </trkpt>
      <trkpt lat="41.40131867612147" lon="-81.73464221079114">
        <ele>267.5904589793</ele>
        <time>2026-08-06T15:41:04Z</time>
      </trkpt>
      <trkpt lat="41.40132228617698" lon="-81.73524314084970">
        <ele>267.9019241972</ele>
        <time>2026-08-06T15:41:39Z</time>
      </trkpt>
      <trkpt lat="41.40131765211211" lon="-81.73582966757181">
        <ele>268.2866462938</ele>
        <time>2026-08-06T15:42:16Z</time>
      </trkpt>
      <trkpt lat="41.40132513265358" lon="-81.73643844090051">
        <ele>267.9525158323</ele>
        <time>2026-08-06T15:43:10Z</time>
      </trkpt>
      <trkpt lat="41.40133268484166" lon="-81.73705296498393">
        <ele>268.2231545971</ele>
        <time>2026-08-06T15:43:45Z</time>
      </trkpt>
      <trkpt lat="41.40132561522093" lon="-81.73764734534255">
        <ele>268.0461064763</ele>
        <time>2026-08-06T15:44:39Z</time>
      </trkpt>
      <trkpt lat="41.40133045601761" lon="-81.73823056248919">
        <ele>267.3295215776</ele>
        <time>2026-08-06T15:45:16Z</time>
      </trkpt>
      <trkpt lat="41.40133262694336" lon="-81.73883890950785">
        <ele>267.3344860961</ele>
        <time>2026-08-06T15:45:59Z</time>
      </trkpt>
      <trkpt lat="41.40132894240116" lon="-81.73943123940845">
        <ele>267.1408359557</ele>
        <time>2026-08-06T15:46:44Z</time>
      </trkpt>
      <trkpt lat="41.40133436151292" lon="-81.74002557008464">
        <ele>266.7505455740</ele>
        <time>2026-08-06T15:47:35Z</time>
      </trkpt>
      <trkpt lat="41.40133750489535" lon="-81.74022224147964">
        <ele>266.5700155614</ele>
        <time>2026-08-06T15:47:48Z</time>
      </trkpt>
    </trkseg>
  </trk>
</gpx>