<?xml version='1.0' encoding='UTF-8'?>
<gpx xmlns="http://www.topografix.com/GPX/1/1" creator="https://gpx.studio" version="1.1">
  <metadata>
    <name>Dog Walk - 2026-06-23 #2</name>
  </metadata>
  <trk>
    <name>Dog Walk - 2026-06-23 #2</name>
    <type>dog walk</type>
    <trkseg>
      <trkpt lat="41.40132828275991" lon="-81.74023828492059">
        <ele>266.4412400217</ele>
        <time>2026-06-23T15:24:12Z</time>
      </trkpt>
      <trkpt lat="41.40133265714844" lon="-81.74083784462556">
        <ele>266.1785131469</ele>
        <time>2026-06-23T15:24:45Z</time>
      </trkpt>
      <trkpt lat="41.40133165992317" lon="-81.74143439622080">
        <ele>265.8878085373</ele>
        <time>2026-06-23T15:25:21Z</time>
      </trkpt>
      <trkpt lat="41.40132840738077" lon="-81.74203711344555">
        <ele>265.4713266320</ele>
        <time>2026-06-23T15:26:03Z</time>
      </trkpt>
      <trkpt lat="41.40133074068108" lon="-81.74238481560344">
        <ele>264.7462282335</ele>
        <time>2026-06-23T15:26:23Z</time>
      </trkpt>
      <trkpt lat="41.40089411801932" lon="-81.74219879402307">
        <ele>265.0648862606</ele>
        <time>2026-06-23T15:27:12Z</time>
      </trkpt>
      <trkpt lat="41.40047979729252" lon="-81.74200383987164">
        <ele>265.0575699403</ele>
        <time>2026-06-23T15:27:54Z</time>
      </trkpt>
      <trkpt lat="41.40004946076849" lon="-81.74180898965297">
        <ele>265.1735420396</ele>
        <time>2026-06-23T15:28:29Z</time>
      </trkpt>
      <trkpt lat="41.39963221551837" lon="-81.74160960910092">
        <ele>264.6988927275</ele>
        <time>2026-06-23T15:29:08Z</time>
      </trkpt>
      <trkpt lat="41.39953104537039" lon="-81.74157105922885">
        <ele>264.7918754949</ele>
        <time>2026-06-23T15:29:15Z</time>
      </trkpt>
      <trkpt lat="41.39954255785031" lon="-81.74096461464275">
        <ele>265.8133252329</ele>
        <time>2026-06-23T15:29:52Z</time>
      </trkpt>
      <trkpt lat="41.39953936333324" lon="-81.74037426874993">
        <ele>266.0934294564</ele>
        <time>2026-06-23T15:30:31Z</time>
      </trkpt>
      <trkpt lat="41.39954068153092" lon="-81.73977797740422">
        <ele>266.5071562040</ele>
        <time>2026-06-23T15:31:20Z</time>
      </trkpt>
      <trkpt lat="41.39953826512097" lon="-81.73917966317094">
        <ele>266.8344849203</ele>
        <time>2026-06-23T15:32:07Z</time>
      </trkpt>
      <trkpt lat="41.39952855383974" lon="-81.73857369266166">
        <ele>266.8964068938</ele>
        <time>2026-06-23T15:32:58Z</time>
      </trkpt>
      <trkpt lat="41.39953166618928" lon="-81.73797217236078">
        <ele>267.2479311916</ele>
        <time>2026-06-23T15:33:48Z</time>
      </trkpt>
      <trkpt lat="41.39952899463771" lon="-81.73737756807338">
        <ele>267.1621028835</ele>
        <time>2026-06-23T15:34:21Z</time>
      </trkpt>
      <trkpt lat="41.39954045800639" lon="-81.73678204049931">
        <ele>267.3837783385</ele>
        <time>2026-06-23T15:34:56Z</time>
      </trkpt>
      <trkpt lat="41.39953152299895" lon="-81.73616889673839">
        <ele>267.4468216127</ele>
        <time>2026-06-23T15:35:42Z</time>
      </trkpt>
      <trkpt lat="41.39952389218912" lon="-81.73557957969942">
        <ele>267.2045083706</ele>
        <time>2026-06-23T15:36:22Z</time>
      </trkpt>
      <trkpt lat="41.39953151641358" lon="-81.73497577774704">
        <ele>267.2927827344</ele>
        <time>2026-06-23T15:37:04Z</time>
      </trkpt>
      <trkpt lat="41.39951981143469" lon="-81.73461877454884">
        <ele>266.9499585130</ele>
        <time>2026-06-23T15:37:27Z</time>
      </trkpt>
      <trkpt lat="41.39997479725237" lon="-81.73461329352064">
        <ele>267.0347325049</ele>
        <time>2026-06-23T15:38:13Z</time>
      </trkpt>
      <trkpt lat="41.40042551067777" lon="-81.73462395693441">
        <ele>267.4632517281</ele>
        <time>2026-06-23T15:39:08Z</time>
      </trkpt>
      <trkpt lat="41.40087024161308" lon="-81.73463866179846">
        <ele>267.2527879103</ele>
        <time>2026-06-23T15:39:48Z</time>
      </trkpt>
      <trkpt lat="41.40131295774029" lon="-81.73464403606822">
        <ele>267.3510478873</ele>
        <time>2026-06-23T15:40:29Z</time>
      </trkpt>
      <trkpt lat="41.40131955939770" lon="-81.73522811178670">
        <ele>267.8621339032</ele>
        <time>2026-06-23T15:40:58Z</time>
      </trkpt>
      <trkpt lat="41.40131831701702" lon="-81.73584420321828">
        <ele>268.1986596657</ele>
        <time>2026-06-23T15:41:52Z</time>
      </trkpt>
      <trkpt lat="41.40132481839134" lon="-81.73643923451813">
        <ele>268.1380524738</ele>
        <time>2026-06-23T15:42:35Z</time>
      </trkpt>
      <trkpt lat="41.40132898242942" lon="-81.73704116211231">
        <ele>268.0660128110</ele>
        <time>2026-06-23T15:43:18Z</time>
      </trkpt>
      <trkpt lat="41.40132857667528" lon="-81.73764248814194">
        <ele>268.0458122338</ele>
        <time>2026-06-23T15:43:56Z</time>
      </trkpt>
      <trkpt lat="41.40132045948630" lon="-81.73823792604124">
        <ele>267.6698807004</ele>
        <time>2026-06-23T15:44:51Z</time>
      </trkpt>
      <trkpt lat="41.40132415253718" lon="-81.73883671676957">
        <ele>267.2021982304</ele>
        <time>2026-06-23T15:45:37Z</time>
      </trkpt>
      <trkpt lat="41.40133964978159" lon="-81.73944220988608">
        <ele>267.2450961481</ele>
        <time>2026-06-23T15:46:20Z</time>
      </trkpt>
      <trkpt lat="41.40133515768601" lon="-81.74003587766440">
        <ele>266.7828021837</ele>
        <time>2026-06-23T15:47:05Z</time>
      </trkpt>
      <trkpt lat="41.40133312749639" lon="-81.74021820725788">
        <ele>266.5151655828</ele>
        <time>2026-06-23T15:47:18Z</time>
      </trkpt>
    </trkseg>
  </trk>
</gpx>