<?xml version='1.0' encoding='UTF-8'?>
<gpx xmlns="http://www.topografix.com/GPX/1/1" creator="https://gpx.studio" version="1.1">
  <metadata>
    <name>Dog Walk - 2026-06-03 #2</name>
  </metadata>
  <trk>
    <name>Dog Walk - 2026-06-03 #2</name>
    <type>dog walk</type>
    <trkseg>
      <trkpt lat="41.40133290585513" lon="-81.74023022028135">
        <ele>266.4418930409</ele>
        <time>2026-06-03T15:04:05Z</time>
      </trkpt>
      <trkpt lat="41.40133149380657" lon="-81.74083830640416">
        <ele>266.3840239529</ele>
        <time>2026-06-03T15:04:42Z</time>
      </trkpt>
      <trkpt lat="41.40133347325929" lon="-81.74143925338164">
        <ele>265.9422436859</ele>
        <time>2026-06-03T15:05:27Z</time>
      </trkpt>
      <trkpt lat="41.40134698048392" lon="-81.74202390742717">
        <ele>265.3351692246</ele>
        <time>2026-06-03T15:06:08Z</time>
      </trkpt>
      <trkpt lat="41.40134667713851" lon="-81.74241317851065">
        <ele>264.6624753663</ele>
        <time>2026-06-03T15:06:40Z</time>
      </trkpt>
      <trkpt lat="41.40177354680024" lon="-81.74262511417257">
        <ele>264.3006392000</ele>
        <time>2026-06-03T15:07:16Z</time>
      </trkpt>
      <trkpt lat="41.40218894680210" lon="-81.74283994826200">
        <ele>263.4368470409</ele>
        <time>2026-06-03T15:08:00Z</time>
      </trkpt>
      <trkpt lat="41.40261356301215" lon="-81.74304403664310">
        <ele>263.0955631636</ele>
        <time>2026-06-03T15:08:41Z</time>
      </trkpt>
      <trkpt lat="41.40303164876541" lon="-81.74326424600086">
        <ele>262.4213541765</ele>
        <time>2026-06-03T15:09:14Z</time>
      </trkpt>
      <trkpt lat="41.40344694819581" lon="-81.74347533980310">
        <ele>261.9951658568</ele>
        <time>2026-06-03T15:09:53Z</time>
      </trkpt>
      <trkpt lat="41.40349005191676" lon="-81.74349986077438">
        <ele>261.8743203395</ele>
        <time>2026-06-03T15:09:58Z</time>
      </trkpt>
      <trkpt lat="41.40359747008114" lon="-81.74351987974623">
        <ele>261.6002034318</ele>
        <time>2026-06-03T15:10:14Z</time>
      </trkpt>
      <trkpt lat="41.40399136099968" lon="-81.74349768916925">
        <ele>260.6174578926</ele>
        <time>2026-06-03T15:10:56Z</time>
      </trkpt>
      <trkpt lat="41.40399848255818" lon="-81.74291012618298">
        <ele>261.5255638705</ele>
        <time>2026-06-03T15:11:33Z</time>
      </trkpt>
      <trkpt lat="41.40398928136877" lon="-81.74229724778627">
        <ele>262.2544361702</ele>
        <time>2026-06-03T15:12:07Z</time>
      </trkpt>
      <trkpt lat="41.40398541666222" lon="-81.74170863507111">
        <ele>262.5935685571</ele>
        <time>2026-06-03T15:12:44Z</time>
      </trkpt>
      <trkpt lat="41.40399030989902" lon="-81.74111218442623">
        <ele>262.7511133083</ele>
        <time>2026-06-03T15:13:23Z</time>
      </trkpt>
      <trkpt lat="41.40398761512436" lon="-81.74050469975907">
        <ele>263.4727414134</ele>
        <time>2026-06-03T15:14:04Z</time>
      </trkpt>
      <trkpt lat="41.40397771134670" lon="-81.73990496462739">
        <ele>264.2218368195</ele>
        <time>2026-06-03T15:14:46Z</time>
      </trkpt>
      <trkpt lat="41.40398381645149" lon="-81.73930781260613">
        <ele>265.1331837104</ele>
        <time>2026-06-03T15:15:28Z</time>
      </trkpt>
      <trkpt lat="41.40398673403183" lon="-81.73877857021641">
        <ele>265.4723603941</ele>
        <time>2026-06-03T15:16:01Z</time>
      </trkpt>
      <trkpt lat="41.40353433645246" lon="-81.73877173902702">
        <ele>265.8292430268</ele>
        <time>2026-06-03T15:17:02Z</time>
      </trkpt>
      <trkpt lat="41.40308875355510" lon="-81.73877751227421">
        <ele>266.3135519042</ele>
        <time>2026-06-03T15:17:37Z</time>
      </trkpt>
      <trkpt lat="41.40263759276531" lon="-81.73877657976367">
        <ele>266.8403937178</ele>
        <time>2026-06-03T15:18:24Z</time>
      </trkpt>
      <trkpt lat="41.40222773461336" lon="-81.73877071436586">
        <ele>267.1417429554</ele>
        <time>2026-06-03T15:19:21Z</time>
      </trkpt>
      <trkpt lat="41.40221978560008" lon="-81.73827990157726">
        <ele>266.8801793135</ele>
        <time>2026-06-03T15:20:02Z</time>
      </trkpt>
      <trkpt lat="41.40176487567985" lon="-81.73826348801229">
        <ele>267.7556035805</ele>
        <time>2026-06-03T15:20:44Z</time>
      </trkpt>
      <trkpt lat="41.40133044402224" lon="-81.73825877840507">
        <ele>267.5615597083</ele>
        <time>2026-06-03T15:21:15Z</time>
      </trkpt>
      <trkpt lat="41.40133770834777" lon="-81.73886673741062">
        <ele>267.3720446955</ele>
        <time>2026-06-03T15:21:49Z</time>
      </trkpt>
      <trkpt lat="41.40133403358686" lon="-81.73946322190821">
        <ele>267.2586997427</ele>
        <time>2026-06-03T15:22:37Z</time>
      </trkpt>
      <trkpt lat="41.40133992277435" lon="-81.74007483595845">
        <ele>266.6259985185</ele>
        <time>2026-06-03T15:23:13Z</time>
      </trkpt>
      <trkpt lat="41.40132558067750" lon="-81.74021299157359">
        <ele>266.6082727488</ele>
        <time>2026-06-03T15:23:32Z</time>
      </trkpt>
    </trkseg>
  </trk>
</gpx>