<?xml version='1.0' encoding='UTF-8'?>
<gpx xmlns="http://www.topografix.com/GPX/1/1" creator="https://gpx.studio" version="1.1">
  <metadata>
    <name>Dog Walk - 2026-03-22</name>
  </metadata>
  <trk>
    <name>Dog Walk - 2026-03-22</name>
    <type>dog walk</type>
    <trkseg>
      <trkpt lat="41.40134412454293" lon="-81.74023685042320">
        <ele>266.4356835220</ele>
        <time>2026-03-22T14:02:34Z</time>
      </trkpt>
      <trkpt lat="41.40134584031668" lon="-81.74083454608959">
        <ele>266.3197178904</ele>
        <time>2026-03-22T14:03:07Z</time>
      </trkpt>
      <trkpt lat="41.40134377258364" lon="-81.74143652725100">
        <ele>265.5558970627</ele>
        <time>2026-03-22T14:04:15Z</time>
      </trkpt>
      <trkpt lat="41.40134445567151" lon="-81.74202824276782">
        <ele>265.1509761655</ele>
        <time>2026-03-22T14:04:48Z</time>
      </trkpt>
      <trkpt lat="41.40134819926448" lon="-81.74242157139203">
        <ele>264.6982325183</ele>
        <time>2026-03-22T14:05:16Z</time>
      </trkpt>
      <trkpt lat="41.40176559969130" lon="-81.74261269142607">
        <ele>264.1941976528</ele>
        <time>2026-03-22T14:06:01Z</time>
      </trkpt>
      <trkpt lat="41.40219311447083" lon="-81.74282812804513">
        <ele>263.5730046169</ele>
        <time>2026-03-22T14:06:41Z</time>
      </trkpt>
      <trkpt lat="41.40261363027951" lon="-81.74301738911532">
        <ele>263.2689897461</ele>
        <time>2026-03-22T14:07:22Z</time>
      </trkpt>
      <trkpt lat="41.40304786351638" lon="-81.74321075188797">
        <ele>262.3394489663</ele>
        <time>2026-03-22T14:08:08Z</time>
      </trkpt>
      <trkpt lat="41.40311207021136" lon="-81.74325623919444">
        <ele>262.5356300502</ele>
        <time>2026-03-22T14:08:14Z</time>
      </trkpt>
      <trkpt lat="41.40312143703756" lon="-81.74265735119104">
        <ele>263.0478527321</ele>
        <time>2026-03-22T14:08:57Z</time>
      </trkpt>
      <trkpt lat="41.40311112346748" lon="-81.74206077212045">
        <ele>263.8947264981</ele>
        <time>2026-03-22T14:09:52Z</time>
      </trkpt>
      <trkpt lat="41.40311147128889" lon="-81.74145331851356">
        <ele>264.1254812925</ele>
        <time>2026-03-22T14:10:33Z</time>
      </trkpt>
      <trkpt lat="41.40311836276570" lon="-81.74085611251185">
        <ele>265.0880800031</ele>
        <time>2026-03-22T14:11:16Z</time>
      </trkpt>
      <trkpt lat="41.40310719011697" lon="-81.74025409733292">
        <ele>265.4688807824</ele>
        <time>2026-03-22T14:11:54Z</time>
      </trkpt>
      <trkpt lat="41.40310662206380" lon="-81.73965395293612">
        <ele>265.7947820150</ele>
        <time>2026-03-22T14:12:38Z</time>
      </trkpt>
      <trkpt lat="41.40310009519754" lon="-81.73906034371862">
        <ele>266.2106796129</ele>
        <time>2026-03-22T14:13:13Z</time>
      </trkpt>
      <trkpt lat="41.40309759522736" lon="-81.73879667758870">
        <ele>266.0354590489</ele>
        <time>2026-03-22T14:13:27Z</time>
      </trkpt>
      <trkpt lat="41.40264224705224" lon="-81.73879104608238">
        <ele>266.7647173228</ele>
        <time>2026-03-22T14:14:21Z</time>
      </trkpt>
      <trkpt lat="41.40223046800045" lon="-81.73877671374190">
        <ele>266.8935386664</ele>
        <time>2026-03-22T14:14:53Z</time>
      </trkpt>
      <trkpt lat="41.40223465416504" lon="-81.73817071263818">
        <ele>267.0451024783</ele>
        <time>2026-03-22T14:15:29Z</time>
      </trkpt>
      <trkpt lat="41.40222917789367" lon="-81.73757419715437">
        <ele>267.1636479029</ele>
        <time>2026-03-22T14:16:10Z</time>
      </trkpt>
      <trkpt lat="41.40223206500283" lon="-81.73698267159619">
        <ele>267.0370158659</ele>
        <time>2026-03-22T14:16:50Z</time>
      </trkpt>
      <trkpt lat="41.40222958370227" lon="-81.73638601197457">
        <ele>267.2881927066</ele>
        <time>2026-03-22T14:17:26Z</time>
      </trkpt>
      <trkpt lat="41.40222513081955" lon="-81.73577689434512">
        <ele>266.9343735819</ele>
        <time>2026-03-22T14:18:04Z</time>
      </trkpt>
      <trkpt lat="41.40223204779874" lon="-81.73517474820574">
        <ele>267.0973519373</ele>
        <time>2026-03-22T14:18:39Z</time>
      </trkpt>
      <trkpt lat="41.40223480957344" lon="-81.73464903756232">
        <ele>267.1145352620</ele>
        <time>2026-03-22T14:19:09Z</time>
      </trkpt>
      <trkpt lat="41.40177231751097" lon="-81.73464203304623">
        <ele>267.2891724404</ele>
        <time>2026-03-22T14:19:56Z</time>
      </trkpt>
      <trkpt lat="41.40132687696942" lon="-81.73464165192476">
        <ele>267.4435392456</ele>
        <time>2026-03-22T14:20:32Z</time>
      </trkpt>
      <trkpt lat="41.40131461446504" lon="-81.73463891189509">
        <ele>267.2889608472</ele>
        <time>2026-03-22T14:20:33Z</time>
      </trkpt>
      <trkpt lat="41.40131614399616" lon="-81.73523685936640">
        <ele>268.0475223016</ele>
        <time>2026-03-22T14:21:10Z</time>
      </trkpt>
      <trkpt lat="41.40131967165516" lon="-81.73583301318466">
        <ele>268.1980077040</ele>
        <time>2026-03-22T14:22:07Z</time>
      </trkpt>
      <trkpt lat="41.40132680814286" lon="-81.73642311992182">
        <ele>268.1831732878</ele>
        <time>2026-03-22T14:22:36Z</time>
      </trkpt>
      <trkpt lat="41.40132352077053" lon="-81.73704375438348">
        <ele>267.9175087424</ele>
        <time>2026-03-22T14:23:35Z</time>
      </trkpt>
      <trkpt lat="41.40134032569865" lon="-81.73763854619378">
        <ele>268.0766925226</ele>
        <time>2026-03-22T14:24:26Z</time>
      </trkpt>
      <trkpt lat="41.40133634909214" lon="-81.73824654500160">
        <ele>267.5160740352</ele>
        <time>2026-03-22T14:25:04Z</time>
      </trkpt>
      <trkpt lat="41.40134625087617" lon="-81.73883447464713">
        <ele>267.4211942573</ele>
        <time>2026-03-22T14:25:43Z</time>
      </trkpt>
      <trkpt lat="41.40135048345032" lon="-81.73943161800848">
        <ele>267.1736941840</ele>
        <time>2026-03-22T14:26:21Z</time>
      </trkpt>
      <trkpt lat="41.40134372711865" lon="-81.74003048116280">
        <ele>266.7372331057</ele>
        <time>2026-03-22T14:27:04Z</time>
      </trkpt>
      <trkpt lat="41.40134635206834" lon="-81.74015989410459">
        <ele>266.2783080102</ele>
        <time>2026-03-22T14:27:15Z</time>
      </trkpt>
    </trkseg>
  </trk>
</gpx>