<?xml version='1.0' encoding='UTF-8'?>
<gpx xmlns="http://www.topografix.com/GPX/1/1" creator="https://gpx.studio" version="1.1">
  <metadata>
    <name>Dog Walk - 2026-03-21 #3</name>
  </metadata>
  <trk>
    <name>Dog Walk - 2026-03-21 #3</name>
    <type>dog walk</type>
    <trkseg>
      <trkpt lat="41.40132939450646" lon="-81.74025332773697">
        <ele>266.6898783035</ele>
        <time>2026-03-21T13:00:20Z</time>
      </trkpt>
      <trkpt lat="41.40132627661539" lon="-81.74027042254832">
        <ele>266.3757891321</ele>
        <time>2026-03-21T13:00:21Z</time>
      </trkpt>
      <trkpt lat="41.40132512880635" lon="-81.74086231379580">
        <ele>266.0005040955</ele>
        <time>2026-03-21T13:01:06Z</time>
      </trkpt>
      <trkpt lat="41.40132972461020" lon="-81.74146199266676">
        <ele>265.9061692639</ele>
        <time>2026-03-21T13:01:45Z</time>
      </trkpt>
      <trkpt lat="41.40131963616016" lon="-81.74205356252814">
        <ele>265.3728997245</ele>
        <time>2026-03-21T13:02:39Z</time>
      </trkpt>
      <trkpt lat="41.40132005074549" lon="-81.74237596604918">
        <ele>264.7708629171</ele>
        <time>2026-03-21T13:02:59Z</time>
      </trkpt>
      <trkpt lat="41.40132251250448" lon="-81.74237831493126">
        <ele>264.8872429597</ele>
        <time>2026-03-21T13:03:00Z</time>
      </trkpt>
      <trkpt lat="41.40090689174925" lon="-81.74218560188507">
        <ele>265.1998811083</ele>
        <time>2026-03-21T13:03:38Z</time>
      </trkpt>
      <trkpt lat="41.40047782217516" lon="-81.74198796932080">
        <ele>265.3027608281</ele>
        <time>2026-03-21T13:04:14Z</time>
      </trkpt>
      <trkpt lat="41.40004658317815" lon="-81.74179715198383">
        <ele>265.4800745824</ele>
        <time>2026-03-21T13:05:04Z</time>
      </trkpt>
      <trkpt lat="41.39962029957811" lon="-81.74159994733753">
        <ele>264.8665359715</ele>
        <time>2026-03-21T13:05:45Z</time>
      </trkpt>
      <trkpt lat="41.39955069350582" lon="-81.74157223617314">
        <ele>264.9197850363</ele>
        <time>2026-03-21T13:06:01Z</time>
      </trkpt>
      <trkpt lat="41.39953820210991" lon="-81.74095955155168">
        <ele>265.6284960112</ele>
        <time>2026-03-21T13:06:33Z</time>
      </trkpt>
      <trkpt lat="41.39954030808437" lon="-81.74037214790219">
        <ele>266.0415125675</ele>
        <time>2026-03-21T13:07:20Z</time>
      </trkpt>
      <trkpt lat="41.39953907204229" lon="-81.73977251112859">
        <ele>266.4741495328</ele>
        <time>2026-03-21T13:07:56Z</time>
      </trkpt>
      <trkpt lat="41.39953628854508" lon="-81.73918257382039">
        <ele>267.0055877139</ele>
        <time>2026-03-21T13:08:28Z</time>
      </trkpt>
      <trkpt lat="41.39953860190200" lon="-81.73858713237256">
        <ele>266.9787084361</ele>
        <time>2026-03-21T13:09:11Z</time>
      </trkpt>
      <trkpt lat="41.39953935507705" lon="-81.73829405520755">
        <ele>267.0611911735</ele>
        <time>2026-03-21T13:09:40Z</time>
      </trkpt>
      <trkpt lat="41.39952718630310" lon="-81.73829232108793">
        <ele>267.1382860132</ele>
        <time>2026-03-21T13:09:41Z</time>
      </trkpt>
      <trkpt lat="41.39998098362713" lon="-81.73829677087058">
        <ele>266.8981693613</ele>
        <time>2026-03-21T13:10:14Z</time>
      </trkpt>
      <trkpt lat="41.40043085068613" lon="-81.73831189682986">
        <ele>267.2577437391</ele>
        <time>2026-03-21T13:10:49Z</time>
      </trkpt>
      <trkpt lat="41.40088025425980" lon="-81.73830344216972">
        <ele>267.5209175530</ele>
        <time>2026-03-21T13:11:36Z</time>
      </trkpt>
      <trkpt lat="41.40132684674952" lon="-81.73830305342716">
        <ele>267.4296132575</ele>
        <time>2026-03-21T13:12:10Z</time>
      </trkpt>
      <trkpt lat="41.40132767787834" lon="-81.73890850920351">
        <ele>267.5418405562</ele>
        <time>2026-03-21T13:13:00Z</time>
      </trkpt>
      <trkpt lat="41.40133757552111" lon="-81.73950678180906">
        <ele>267.0304647855</ele>
        <time>2026-03-21T13:13:34Z</time>
      </trkpt>
      <trkpt lat="41.40134546509975" lon="-81.74010196205481">
        <ele>266.4743585906</ele>
        <time>2026-03-21T13:14:51Z</time>
      </trkpt>
      <trkpt lat="41.40134231828270" lon="-81.74015299703883">
        <ele>266.5134643704</ele>
        <time>2026-03-21T13:14:54Z</time>
      </trkpt>
    </trkseg>
  </trk>
</gpx>