<?xml version='1.0' encoding='UTF-8'?>
<gpx xmlns="http://www.topografix.com/GPX/1/1" creator="https://gpx.studio" version="1.1">
  <metadata>
    <name>Dog Walk - 2026-03-16 #1</name>
  </metadata>
  <trk>
    <name>Dog Walk - 2026-03-16 #1</name>
    <type>dog walk</type>
    <trkseg>
      <trkpt lat="41.40133847138011" lon="-81.74022954041938">
        <ele>266.3758996476</ele>
        <time>2026-03-16T08:31:40Z</time>
      </trkpt>
      <trkpt lat="41.40134262151263" lon="-81.74083780177639">
        <ele>266.2529138570</ele>
        <time>2026-03-16T08:32:27Z</time>
      </trkpt>
      <trkpt lat="41.40133752975196" lon="-81.74143563002295">
        <ele>265.6538729281</ele>
        <time>2026-03-16T08:33:04Z</time>
      </trkpt>
      <trkpt lat="41.40132389013707" lon="-81.74202396079448">
        <ele>265.2611830885</ele>
        <time>2026-03-16T08:33:47Z</time>
      </trkpt>
      <trkpt lat="41.40133089100407" lon="-81.74238313307362">
        <ele>264.7592107513</ele>
        <time>2026-03-16T08:34:09Z</time>
      </trkpt>
      <trkpt lat="41.40091340167377" lon="-81.74216962214471">
        <ele>265.1096906345</ele>
        <time>2026-03-16T08:34:44Z</time>
      </trkpt>
      <trkpt lat="41.40048546234851" lon="-81.74196579934576">
        <ele>265.2571421080</ele>
        <time>2026-03-16T08:35:18Z</time>
      </trkpt>
      <trkpt lat="41.40045748778735" lon="-81.74195021012898">
        <ele>265.1837298121</ele>
        <time>2026-03-16T08:35:20Z</time>
      </trkpt>
      <trkpt lat="41.40044477398119" lon="-81.74135197197104">
        <ele>265.8706762295</ele>
        <time>2026-03-16T08:36:01Z</time>
      </trkpt>
      <trkpt lat="41.40045033279463" lon="-81.74074675427100">
        <ele>266.2614495228</ele>
        <time>2026-03-16T08:36:42Z</time>
      </trkpt>
      <trkpt lat="41.40044030231058" lon="-81.74015046136766">
        <ele>266.5623809547</ele>
        <time>2026-03-16T08:37:19Z</time>
      </trkpt>
      <trkpt lat="41.40043186865686" lon="-81.73955219185420">
        <ele>267.1436705604</ele>
        <time>2026-03-16T08:37:58Z</time>
      </trkpt>
      <trkpt lat="41.40042220909097" lon="-81.73894749869768">
        <ele>267.1811338185</ele>
        <time>2026-03-16T08:38:31Z</time>
      </trkpt>
      <trkpt lat="41.40042893932729" lon="-81.73834356435803">
        <ele>266.9885939220</ele>
        <time>2026-03-16T08:39:11Z</time>
      </trkpt>
      <trkpt lat="41.40041705127983" lon="-81.73775345522759">
        <ele>267.6682570339</ele>
        <time>2026-03-16T08:39:46Z</time>
      </trkpt>
      <trkpt lat="41.40041604318986" lon="-81.73715329593429">
        <ele>268.1700056977</ele>
        <time>2026-03-16T08:40:22Z</time>
      </trkpt>
      <trkpt lat="41.40040629253070" lon="-81.73656014047633">
        <ele>267.9544083344</ele>
        <time>2026-03-16T08:40:58Z</time>
      </trkpt>
      <trkpt lat="41.40040781704262" lon="-81.73594901326879">
        <ele>267.9016220609</ele>
        <time>2026-03-16T08:41:39Z</time>
      </trkpt>
      <trkpt lat="41.40040619505751" lon="-81.73535845080960">
        <ele>267.7759245053</ele>
        <time>2026-03-16T08:42:15Z</time>
      </trkpt>
      <trkpt lat="41.40039956997031" lon="-81.73475975141504">
        <ele>267.2963060244</ele>
        <time>2026-03-16T08:43:11Z</time>
      </trkpt>
      <trkpt lat="41.40039306215327" lon="-81.73462226517998">
        <ele>267.1928282993</ele>
        <time>2026-03-16T08:43:23Z</time>
      </trkpt>
      <trkpt lat="41.40084418185958" lon="-81.73463575026142">
        <ele>267.2660616192</ele>
        <time>2026-03-16T08:44:06Z</time>
      </trkpt>
      <trkpt lat="41.40129402475524" lon="-81.73463528160930">
        <ele>267.2755505619</ele>
        <time>2026-03-16T08:44:50Z</time>
      </trkpt>
      <trkpt lat="41.40132119551390" lon="-81.73463377035321">
        <ele>267.4150459990</ele>
        <time>2026-03-16T08:44:52Z</time>
      </trkpt>
      <trkpt lat="41.40132183174246" lon="-81.73523659651146">
        <ele>267.7887053767</ele>
        <time>2026-03-16T08:45:47Z</time>
      </trkpt>
      <trkpt lat="41.40132468937868" lon="-81.73583179810285">
        <ele>268.2234267364</ele>
        <time>2026-03-16T08:46:40Z</time>
      </trkpt>
      <trkpt lat="41.40133023012516" lon="-81.73642971140234">
        <ele>268.1117607072</ele>
        <time>2026-03-16T08:47:12Z</time>
      </trkpt>
      <trkpt lat="41.40132894263623" lon="-81.73703302951766">
        <ele>267.9794962640</ele>
        <time>2026-03-16T08:48:01Z</time>
      </trkpt>
      <trkpt lat="41.40132934306934" lon="-81.73763806657252">
        <ele>267.9873849531</ele>
        <time>2026-03-16T08:48:40Z</time>
      </trkpt>
      <trkpt lat="41.40133759014154" lon="-81.73822584593188">
        <ele>267.4934456049</ele>
        <time>2026-03-16T08:49:34Z</time>
      </trkpt>
      <trkpt lat="41.40134907175513" lon="-81.73883649145291">
        <ele>267.3821392175</ele>
        <time>2026-03-16T08:50:12Z</time>
      </trkpt>
      <trkpt lat="41.40134849938055" lon="-81.73942474435910">
        <ele>267.3062312660</ele>
        <time>2026-03-16T08:50:47Z</time>
      </trkpt>
      <trkpt lat="41.40134126588530" lon="-81.74002576291642">
        <ele>266.6191467350</ele>
        <time>2026-03-16T08:51:41Z</time>
      </trkpt>
      <trkpt lat="41.40134842118998" lon="-81.74020541490559">
        <ele>266.5595024163</ele>
        <time>2026-03-16T08:51:51Z</time>
      </trkpt>
    </trkseg>
  </trk>
</gpx>