<?xml version='1.0' encoding='UTF-8'?>
<gpx xmlns="http://www.topografix.com/GPX/1/1" creator="https://gpx.studio" version="1.1">
  <metadata>
    <name>Dog Walk - 2026-08-28 #2</name>
  </metadata>
  <trk>
    <name>Dog Walk - 2026-08-28 #2</name>
    <type>dog walk</type>
    <trkseg>
      <trkpt lat="41.40132891236011" lon="-81.74024537918825">
        <ele>266.3942214554</ele>
        <time>2026-08-28T15:13:36Z</time>
      </trkpt>
      <trkpt lat="41.40133333763146" lon="-81.74083262321021">
        <ele>266.3424395919</ele>
        <time>2026-08-28T15:14:15Z</time>
      </trkpt>
      <trkpt lat="41.40133150525975" lon="-81.74143312544967">
        <ele>265.7162646525</ele>
        <time>2026-08-28T15:15:12Z</time>
      </trkpt>
      <trkpt lat="41.40132720478650" lon="-81.74203887487792">
        <ele>265.4100964737</ele>
        <time>2026-08-28T15:16:18Z</time>
      </trkpt>
      <trkpt lat="41.40132982556429" lon="-81.74238527111194">
        <ele>264.7943678125</ele>
        <time>2026-08-28T15:16:41Z</time>
      </trkpt>
      <trkpt lat="41.40090387804597" lon="-81.74219774148560">
        <ele>265.1993981964</ele>
        <time>2026-08-28T15:17:27Z</time>
      </trkpt>
      <trkpt lat="41.40047020108815" lon="-81.74200823421344">
        <ele>265.1102607677</ele>
        <time>2026-08-28T15:18:04Z</time>
      </trkpt>
      <trkpt lat="41.40005287995182" lon="-81.74181070372364">
        <ele>265.4027666007</ele>
        <time>2026-08-28T15:18:50Z</time>
      </trkpt>
      <trkpt lat="41.39962798238491" lon="-81.74161369207414">
        <ele>264.6759704889</ele>
        <time>2026-08-28T15:19:23Z</time>
      </trkpt>
      <trkpt lat="41.39953548215541" lon="-81.74157770090775">
        <ele>264.9868265162</ele>
        <time>2026-08-28T15:19:34Z</time>
      </trkpt>
      <trkpt lat="41.39953993715779" lon="-81.74097295656597">
        <ele>265.7303010643</ele>
        <time>2026-08-28T15:20:29Z</time>
      </trkpt>
      <trkpt lat="41.39953386986502" lon="-81.74037097673651">
        <ele>266.1659424066</ele>
        <time>2026-08-28T15:21:18Z</time>
      </trkpt>
      <trkpt lat="41.39953947638708" lon="-81.73978291357344">
        <ele>266.8238776309</ele>
        <time>2026-08-28T15:21:53Z</time>
      </trkpt>
      <trkpt lat="41.39953200097808" lon="-81.73918205492627">
        <ele>266.8361907376</ele>
        <time>2026-08-28T15:22:42Z</time>
      </trkpt>
      <trkpt lat="41.39953029775965" lon="-81.73857105506012">
        <ele>266.9723245964</ele>
        <time>2026-08-28T15:23:25Z</time>
      </trkpt>
      <trkpt lat="41.39953184431187" lon="-81.73798888991335">
        <ele>267.0993981890</ele>
        <time>2026-08-28T15:24:08Z</time>
      </trkpt>
      <trkpt lat="41.39953125439626" lon="-81.73737263909560">
        <ele>267.3143350282</ele>
        <time>2026-08-28T15:25:17Z</time>
      </trkpt>
      <trkpt lat="41.39953308989207" lon="-81.73677445488310">
        <ele>267.2557838677</ele>
        <time>2026-08-28T15:26:09Z</time>
      </trkpt>
      <trkpt lat="41.39952816012834" lon="-81.73617615659035">
        <ele>267.5642147852</ele>
        <time>2026-08-28T15:26:50Z</time>
      </trkpt>
      <trkpt lat="41.39952307592014" lon="-81.73557131681720">
        <ele>267.1591505432</ele>
        <time>2026-08-28T15:27:29Z</time>
      </trkpt>
      <trkpt lat="41.39951770298099" lon="-81.73497572711243">
        <ele>267.2300834635</ele>
        <time>2026-08-28T15:28:01Z</time>
      </trkpt>
      <trkpt lat="41.39952011927858" lon="-81.73461291866043">
        <ele>267.0340017147</ele>
        <time>2026-08-28T15:28:25Z</time>
      </trkpt>
      <trkpt lat="41.39996703368384" lon="-81.73462201824653">
        <ele>267.2669772435</ele>
        <time>2026-08-28T15:29:18Z</time>
      </trkpt>
      <trkpt lat="41.40042979842346" lon="-81.73463016344205">
        <ele>267.2579679992</ele>
        <time>2026-08-28T15:29:54Z</time>
      </trkpt>
      <trkpt lat="41.40087432080377" lon="-81.73463243991270">
        <ele>267.4204411027</ele>
        <time>2026-08-28T15:30:50Z</time>
      </trkpt>
      <trkpt lat="41.40131964248890" lon="-81.73463370272043">
        <ele>267.1143487542</ele>
        <time>2026-08-28T15:31:29Z</time>
      </trkpt>
      <trkpt lat="41.40130800154731" lon="-81.73524623021154">
        <ele>268.1093980289</ele>
        <time>2026-08-28T15:32:15Z</time>
      </trkpt>
      <trkpt lat="41.40132300804091" lon="-81.73583422892801">
        <ele>268.2460448462</ele>
        <time>2026-08-28T15:32:53Z</time>
      </trkpt>
      <trkpt lat="41.40132098907360" lon="-81.73644484461178">
        <ele>268.0280341587</ele>
        <time>2026-08-28T15:33:44Z</time>
      </trkpt>
      <trkpt lat="41.40132770743767" lon="-81.73703590621021">
        <ele>268.1648753770</ele>
        <time>2026-08-28T15:34:19Z</time>
      </trkpt>
      <trkpt lat="41.40132328440782" lon="-81.73763039896866">
        <ele>267.9735024679</ele>
        <time>2026-08-28T15:35:03Z</time>
      </trkpt>
      <trkpt lat="41.40132733543012" lon="-81.73823599626616">
        <ele>267.3599141840</ele>
        <time>2026-08-28T15:36:25Z</time>
      </trkpt>
      <trkpt lat="41.40133554768274" lon="-81.73883645844607">
        <ele>267.2759640544</ele>
        <time>2026-08-28T15:37:11Z</time>
      </trkpt>
      <trkpt lat="41.40133042812536" lon="-81.73943331755130">
        <ele>267.1629351344</ele>
        <time>2026-08-28T15:37:48Z</time>
      </trkpt>
      <trkpt lat="41.40133122498280" lon="-81.74003599468520">
        <ele>266.6949893128</ele>
        <time>2026-08-28T15:38:31Z</time>
      </trkpt>
      <trkpt lat="41.40133817697961" lon="-81.74021291840752">
        <ele>266.6523579656</ele>
        <time>2026-08-28T15:38:41Z</time>
      </trkpt>
    </trkseg>
  </trk>
</gpx>