<?xml version='1.0' encoding='UTF-8'?>
<gpx xmlns="http://www.topografix.com/GPX/1/1" creator="https://gpx.studio" version="1.1">
  <metadata>
    <name>Dog Walk - 2026-04-15 #3</name>
  </metadata>
  <trk>
    <name>Dog Walk - 2026-04-15 #3</name>
    <type>dog walk</type>
    <trkseg>
      <trkpt lat="41.40134053055770" lon="-81.74023667714165">
        <ele>266.5536533128</ele>
        <time>2026-04-15T14:32:40Z</time>
      </trkpt>
      <trkpt lat="41.40133702515269" lon="-81.74082451250916">
        <ele>266.0816939348</ele>
        <time>2026-04-15T14:33:16Z</time>
      </trkpt>
      <trkpt lat="41.40133522049713" lon="-81.74144334302041">
        <ele>265.7376104510</ele>
        <time>2026-04-15T14:34:00Z</time>
      </trkpt>
      <trkpt lat="41.40134693388492" lon="-81.74203981754624">
        <ele>265.4119618942</ele>
        <time>2026-04-15T14:34:41Z</time>
      </trkpt>
      <trkpt lat="41.40134400447281" lon="-81.74241951599468">
        <ele>264.5209018690</ele>
        <time>2026-04-15T14:35:13Z</time>
      </trkpt>
      <trkpt lat="41.40177723329481" lon="-81.74262090901068">
        <ele>264.5148277567</ele>
        <time>2026-04-15T14:35:50Z</time>
      </trkpt>
      <trkpt lat="41.40219312334268" lon="-81.74282455917425">
        <ele>263.4272269340</ele>
        <time>2026-04-15T14:36:23Z</time>
      </trkpt>
      <trkpt lat="41.40261924633915" lon="-81.74302130586310">
        <ele>263.0707445694</ele>
        <time>2026-04-15T14:36:59Z</time>
      </trkpt>
      <trkpt lat="41.40305096230323" lon="-81.74322335948136">
        <ele>262.5449851365</ele>
        <time>2026-04-15T14:38:03Z</time>
      </trkpt>
      <trkpt lat="41.40311232128822" lon="-81.74326032857475">
        <ele>262.3996794229</ele>
        <time>2026-04-15T14:38:12Z</time>
      </trkpt>
      <trkpt lat="41.40311331283173" lon="-81.74265304667574">
        <ele>263.1923600198</ele>
        <time>2026-04-15T14:38:52Z</time>
      </trkpt>
      <trkpt lat="41.40311683474320" lon="-81.74205793589230">
        <ele>263.6450218867</ele>
        <time>2026-04-15T14:39:38Z</time>
      </trkpt>
      <trkpt lat="41.40310578187106" lon="-81.74145289309452">
        <ele>264.2552635328</ele>
        <time>2026-04-15T14:40:18Z</time>
      </trkpt>
      <trkpt lat="41.40310934830612" lon="-81.74086056801217">
        <ele>264.5929305236</ele>
        <time>2026-04-15T14:40:54Z</time>
      </trkpt>
      <trkpt lat="41.40310183546937" lon="-81.74025142710757">
        <ele>265.5580255486</ele>
        <time>2026-04-15T14:41:41Z</time>
      </trkpt>
      <trkpt lat="41.40310355854601" lon="-81.73965684485714">
        <ele>265.6597444418</ele>
        <time>2026-04-15T14:42:16Z</time>
      </trkpt>
      <trkpt lat="41.40310322959543" lon="-81.73904883574669">
        <ele>266.1454877576</ele>
        <time>2026-04-15T14:42:52Z</time>
      </trkpt>
      <trkpt lat="41.40310200568105" lon="-81.73878779276126">
        <ele>265.9800783942</ele>
        <time>2026-04-15T14:43:16Z</time>
      </trkpt>
      <trkpt lat="41.40264072892079" lon="-81.73877991867450">
        <ele>266.9386065724</ele>
        <time>2026-04-15T14:43:58Z</time>
      </trkpt>
      <trkpt lat="41.40223441951538" lon="-81.73877819180144">
        <ele>266.9513887404</ele>
        <time>2026-04-15T14:44:29Z</time>
      </trkpt>
      <trkpt lat="41.40222770179440" lon="-81.73818131808142">
        <ele>267.2147341224</ele>
        <time>2026-04-15T14:45:01Z</time>
      </trkpt>
      <trkpt lat="41.40223036110322" lon="-81.73758391767267">
        <ele>267.2025397188</ele>
        <time>2026-04-15T14:45:58Z</time>
      </trkpt>
      <trkpt lat="41.40223285847056" lon="-81.73698349447150">
        <ele>267.2452848530</ele>
        <time>2026-04-15T14:46:36Z</time>
      </trkpt>
      <trkpt lat="41.40222918763860" lon="-81.73638198906457">
        <ele>267.1774531123</ele>
        <time>2026-04-15T14:47:17Z</time>
      </trkpt>
      <trkpt lat="41.40222256970870" lon="-81.73578440617031">
        <ele>267.2986006155</ele>
        <time>2026-04-15T14:48:07Z</time>
      </trkpt>
      <trkpt lat="41.40222184642340" lon="-81.73518332255898">
        <ele>267.1517829558</ele>
        <time>2026-04-15T14:48:41Z</time>
      </trkpt>
      <trkpt lat="41.40221917505346" lon="-81.73465700877759">
        <ele>267.0444767345</ele>
        <time>2026-04-15T14:49:21Z</time>
      </trkpt>
      <trkpt lat="41.40177910049026" lon="-81.73464130316486">
        <ele>267.2891717486</ele>
        <time>2026-04-15T14:50:09Z</time>
      </trkpt>
      <trkpt lat="41.40132033693506" lon="-81.73463298029510">
        <ele>267.1504390765</ele>
        <time>2026-04-15T14:50:59Z</time>
      </trkpt>
      <trkpt lat="41.40131377737117" lon="-81.73463121692511">
        <ele>267.4740431354</ele>
        <time>2026-04-15T14:51:00Z</time>
      </trkpt>
      <trkpt lat="41.40131168808924" lon="-81.73522853431615">
        <ele>267.8206642939</ele>
        <time>2026-04-15T14:51:33Z</time>
      </trkpt>
      <trkpt lat="41.40132309995884" lon="-81.73583978866183">
        <ele>268.2034535514</ele>
        <time>2026-04-15T14:52:21Z</time>
      </trkpt>
      <trkpt lat="41.40133502463066" lon="-81.73643611878965">
        <ele>268.1932459631</ele>
        <time>2026-04-15T14:53:03Z</time>
      </trkpt>
      <trkpt lat="41.40132354931367" lon="-81.73704786300229">
        <ele>268.1375132025</ele>
        <time>2026-04-15T14:53:42Z</time>
      </trkpt>
      <trkpt lat="41.40132866889656" lon="-81.73764305621837">
        <ele>267.6793321831</ele>
        <time>2026-04-15T14:54:20Z</time>
      </trkpt>
      <trkpt lat="41.40133411897037" lon="-81.73823587747893">
        <ele>267.5851024600</ele>
        <time>2026-04-15T14:55:10Z</time>
      </trkpt>
      <trkpt lat="41.40133369137310" lon="-81.73882243150447">
        <ele>267.2252186046</ele>
        <time>2026-04-15T14:55:45Z</time>
      </trkpt>
      <trkpt lat="41.40133582502754" lon="-81.73941945679955">
        <ele>267.1536753653</ele>
        <time>2026-04-15T14:56:26Z</time>
      </trkpt>
      <trkpt lat="41.40134120619157" lon="-81.74002978649906">
        <ele>266.7833952576</ele>
        <time>2026-04-15T14:57:19Z</time>
      </trkpt>
      <trkpt lat="41.40135144890711" lon="-81.74015948311867">
        <ele>266.4574508823</ele>
        <time>2026-04-15T14:57:29Z</time>
      </trkpt>
    </trkseg>
  </trk>
</gpx>