<?xml version='1.0' encoding='UTF-8'?>
<gpx xmlns="http://www.topografix.com/GPX/1/1" creator="https://gpx.studio" version="1.1">
  <metadata>
    <name>Dog Walk - 2026-07-02 #1</name>
  </metadata>
  <trk>
    <name>Dog Walk - 2026-07-02 #1</name>
    <type>dog walk</type>
    <trkseg>
      <trkpt lat="41.40134363445182" lon="-81.74023847073897">
        <ele>266.4525867568</ele>
        <time>2026-07-02T06:40:43Z</time>
      </trkpt>
      <trkpt lat="41.40134086123852" lon="-81.74082583506626">
        <ele>266.1139352369</ele>
        <time>2026-07-02T06:41:17Z</time>
      </trkpt>
      <trkpt lat="41.40134374524403" lon="-81.74144002643426">
        <ele>265.8862280194</ele>
        <time>2026-07-02T06:41:56Z</time>
      </trkpt>
      <trkpt lat="41.40134602608889" lon="-81.74203068953993">
        <ele>265.3399686042</ele>
        <time>2026-07-02T06:42:27Z</time>
      </trkpt>
      <trkpt lat="41.40134784062749" lon="-81.74242320968135">
        <ele>264.4959467123</ele>
        <time>2026-07-02T06:42:49Z</time>
      </trkpt>
      <trkpt lat="41.40177359975799" lon="-81.74263842575492">
        <ele>264.2846517813</ele>
        <time>2026-07-02T06:43:30Z</time>
      </trkpt>
      <trkpt lat="41.40218061647821" lon="-81.74285098115402">
        <ele>263.4915606513</ele>
        <time>2026-07-02T06:44:10Z</time>
      </trkpt>
      <trkpt lat="41.40221753091413" lon="-81.74286394001082">
        <ele>263.3254302069</ele>
        <time>2026-07-02T06:44:13Z</time>
      </trkpt>
      <trkpt lat="41.40221352692424" lon="-81.74226806485046">
        <ele>263.9799849882</ele>
        <time>2026-07-02T06:44:57Z</time>
      </trkpt>
      <trkpt lat="41.40221990545408" lon="-81.74165428124955">
        <ele>264.5620848800</ele>
        <time>2026-07-02T06:45:40Z</time>
      </trkpt>
      <trkpt lat="41.40222150141313" lon="-81.74107454855569">
        <ele>265.5247700942</ele>
        <time>2026-07-02T06:46:22Z</time>
      </trkpt>
      <trkpt lat="41.40221630706657" lon="-81.74047216500395">
        <ele>266.1949127711</ele>
        <time>2026-07-02T06:47:04Z</time>
      </trkpt>
      <trkpt lat="41.40221690742933" lon="-81.73986921041019">
        <ele>266.5938139080</ele>
        <time>2026-07-02T06:48:02Z</time>
      </trkpt>
      <trkpt lat="41.40221375180276" lon="-81.73927356520065">
        <ele>267.0458605349</ele>
        <time>2026-07-02T06:48:39Z</time>
      </trkpt>
      <trkpt lat="41.40221527564725" lon="-81.73866367542382">
        <ele>267.1411988878</ele>
        <time>2026-07-02T06:49:19Z</time>
      </trkpt>
      <trkpt lat="41.40221651699684" lon="-81.73826724351133">
        <ele>266.8255275208</ele>
        <time>2026-07-02T06:49:43Z</time>
      </trkpt>
      <trkpt lat="41.40176846862214" lon="-81.73826282153381">
        <ele>267.7002647920</ele>
        <time>2026-07-02T06:50:25Z</time>
      </trkpt>
      <trkpt lat="41.40133955908295" lon="-81.73826533280274">
        <ele>267.3374370907</ele>
        <time>2026-07-02T06:51:11Z</time>
      </trkpt>
      <trkpt lat="41.40134121920234" lon="-81.73886412844480">
        <ele>267.6432364853</ele>
        <time>2026-07-02T06:51:53Z</time>
      </trkpt>
      <trkpt lat="41.40134906861734" lon="-81.73945870603933">
        <ele>267.0067515714</ele>
        <time>2026-07-02T06:52:29Z</time>
      </trkpt>
      <trkpt lat="41.40133668091904" lon="-81.74006074943185">
        <ele>266.5413625936</ele>
        <time>2026-07-02T06:53:18Z</time>
      </trkpt>
      <trkpt lat="41.40134453098564" lon="-81.74018695571114">
        <ele>266.4551500516</ele>
        <time>2026-07-02T06:53:26Z</time>
      </trkpt>
    </trkseg>
  </trk>
</gpx>