<?xml version='1.0' encoding='UTF-8'?>
<gpx xmlns="http://www.topografix.com/GPX/1/1" creator="https://gpx.studio" version="1.1">
  <metadata>
    <name>Dog Walk - 2026-09-16 #3</name>
  </metadata>
  <trk>
    <name>Dog Walk - 2026-09-16 #3</name>
    <type>dog walk</type>
    <trkseg>
      <trkpt lat="41.40133862495849" lon="-81.74023173388220">
        <ele>266.3791566201</ele>
        <time>2026-09-16T17:58:51Z</time>
      </trkpt>
      <trkpt lat="41.40133474935883" lon="-81.74083439567767">
        <ele>266.1921501095</ele>
        <time>2026-09-16T17:59:26Z</time>
      </trkpt>
      <trkpt lat="41.40133952568470" lon="-81.74143631130583">
        <ele>265.6823703270</ele>
        <time>2026-09-16T18:00:07Z</time>
      </trkpt>
      <trkpt lat="41.40132294452443" lon="-81.74203554624398">
        <ele>265.2455750632</ele>
        <time>2026-09-16T18:00:53Z</time>
      </trkpt>
      <trkpt lat="41.40134152917629" lon="-81.74238450210110">
        <ele>264.7334354387</ele>
        <time>2026-09-16T18:01:15Z</time>
      </trkpt>
      <trkpt lat="41.40090902428570" lon="-81.74217816866137">
        <ele>265.2319759834</ele>
        <time>2026-09-16T18:02:07Z</time>
      </trkpt>
      <trkpt lat="41.40048625627778" lon="-81.74196328971313">
        <ele>265.3116643996</ele>
        <time>2026-09-16T18:02:52Z</time>
      </trkpt>
      <trkpt lat="41.40044903703517" lon="-81.74194907234987">
        <ele>265.2492939083</ele>
        <time>2026-09-16T18:03:02Z</time>
      </trkpt>
      <trkpt lat="41.40044048509194" lon="-81.74134753594120">
        <ele>266.1653769921</ele>
        <time>2026-09-16T18:03:33Z</time>
      </trkpt>
      <trkpt lat="41.40044482778749" lon="-81.74075302123620">
        <ele>266.4140975471</ele>
        <time>2026-09-16T18:04:17Z</time>
      </trkpt>
      <trkpt lat="41.40043621166149" lon="-81.74016763134156">
        <ele>266.9504560987</ele>
        <time>2026-09-16T18:04:55Z</time>
      </trkpt>
      <trkpt lat="41.40042859837332" lon="-81.73955552073382">
        <ele>266.8331883743</ele>
        <time>2026-09-16T18:05:31Z</time>
      </trkpt>
      <trkpt lat="41.40042594465298" lon="-81.73896196107586">
        <ele>267.0056010365</ele>
        <time>2026-09-16T18:06:07Z</time>
      </trkpt>
      <trkpt lat="41.40042347547480" lon="-81.73835247141842">
        <ele>267.0737332939</ele>
        <time>2026-09-16T18:06:45Z</time>
      </trkpt>
      <trkpt lat="41.40042436374734" lon="-81.73775495754026">
        <ele>267.7561808854</ele>
        <time>2026-09-16T18:07:27Z</time>
      </trkpt>
      <trkpt lat="41.40041476607535" lon="-81.73715285514237">
        <ele>268.0204755898</ele>
        <time>2026-09-16T18:08:06Z</time>
      </trkpt>
      <trkpt lat="41.40041432207739" lon="-81.73655824548959">
        <ele>267.8948305117</ele>
        <time>2026-09-16T18:08:51Z</time>
      </trkpt>
      <trkpt lat="41.40040723868483" lon="-81.73595515045551">
        <ele>268.1779341442</ele>
        <time>2026-09-16T18:09:24Z</time>
      </trkpt>
      <trkpt lat="41.40040091781751" lon="-81.73534776333234">
        <ele>267.9827376286</ele>
        <time>2026-09-16T18:10:09Z</time>
      </trkpt>
      <trkpt lat="41.40039518697665" lon="-81.73476103746923">
        <ele>267.3502806144</ele>
        <time>2026-09-16T18:10:45Z</time>
      </trkpt>
      <trkpt lat="41.40039508708213" lon="-81.73462825532030">
        <ele>267.3154590870</ele>
        <time>2026-09-16T18:10:53Z</time>
      </trkpt>
      <trkpt lat="41.40084736296664" lon="-81.73463707406341">
        <ele>267.2974283318</ele>
        <time>2026-09-16T18:11:44Z</time>
      </trkpt>
      <trkpt lat="41.40129696407030" lon="-81.73462685578032">
        <ele>267.2671972353</ele>
        <time>2026-09-16T18:12:42Z</time>
      </trkpt>
      <trkpt lat="41.40131949465998" lon="-81.73463304564764">
        <ele>267.2408199126</ele>
        <time>2026-09-16T18:12:44Z</time>
      </trkpt>
      <trkpt lat="41.40131852078841" lon="-81.73523136458998">
        <ele>267.7944002468</ele>
        <time>2026-09-16T18:13:20Z</time>
      </trkpt>
      <trkpt lat="41.40132312265459" lon="-81.73582960309200">
        <ele>268.3516818861</ele>
        <time>2026-09-16T18:13:58Z</time>
      </trkpt>
      <trkpt lat="41.40132510852471" lon="-81.73643029737251">
        <ele>268.1945911579</ele>
        <time>2026-09-16T18:14:37Z</time>
      </trkpt>
      <trkpt lat="41.40133268548851" lon="-81.73703298641271">
        <ele>268.0841557075</ele>
        <time>2026-09-16T18:15:12Z</time>
      </trkpt>
      <trkpt lat="41.40133397187453" lon="-81.73763366934907">
        <ele>267.7212991718</ele>
        <time>2026-09-16T18:15:49Z</time>
      </trkpt>
      <trkpt lat="41.40132630116059" lon="-81.73823061058359">
        <ele>267.3969487959</ele>
        <time>2026-09-16T18:16:36Z</time>
      </trkpt>
      <trkpt lat="41.40134433733209" lon="-81.73882704869075">
        <ele>267.4021224637</ele>
        <time>2026-09-16T18:17:16Z</time>
      </trkpt>
      <trkpt lat="41.40134295885009" lon="-81.73941855838754">
        <ele>267.0691539874</ele>
        <time>2026-09-16T18:17:58Z</time>
      </trkpt>
      <trkpt lat="41.40134903429281" lon="-81.74002724496485">
        <ele>266.8088149292</ele>
        <time>2026-09-16T18:18:38Z</time>
      </trkpt>
      <trkpt lat="41.40134098889880" lon="-81.74019864345532">
        <ele>266.3358782061</ele>
        <time>2026-09-16T18:18:49Z</time>
      </trkpt>
    </trkseg>
  </trk>
</gpx>