<?xml version='1.0' encoding='UTF-8'?>
<gpx xmlns="http://www.topografix.com/GPX/1/1" creator="https://gpx.studio" version="1.1">
  <metadata>
    <name>Dog Walk - 2026-02-18</name>
  </metadata>
  <trk>
    <name>Dog Walk - 2026-02-18</name>
    <type>dog walk</type>
    <trkseg>
      <trkpt lat="41.40133284466017" lon="-81.74025739652997">
        <ele>266.4724811997</ele>
        <time>2026-02-18T10:44:25Z</time>
      </trkpt>
      <trkpt lat="41.40132826847796" lon="-81.74025683382632">
        <ele>266.5486540030</ele>
        <time>2026-02-18T10:44:26Z</time>
      </trkpt>
      <trkpt lat="41.40132951888459" lon="-81.74086302804858">
        <ele>266.0791964536</ele>
        <time>2026-02-18T10:45:02Z</time>
      </trkpt>
      <trkpt lat="41.40132774371465" lon="-81.74144814705220">
        <ele>265.7066337738</ele>
        <time>2026-02-18T10:45:52Z</time>
      </trkpt>
      <trkpt lat="41.40132734415450" lon="-81.74204910530545">
        <ele>265.1953672024</ele>
        <time>2026-02-18T10:46:30Z</time>
      </trkpt>
      <trkpt lat="41.40132267592949" lon="-81.74238103248803">
        <ele>264.8264259557</ele>
        <time>2026-02-18T10:46:52Z</time>
      </trkpt>
      <trkpt lat="41.40132600815816" lon="-81.74237787153386">
        <ele>264.7463236612</ele>
        <time>2026-02-18T10:46:53Z</time>
      </trkpt>
      <trkpt lat="41.40090551407856" lon="-81.74218558154544">
        <ele>265.3340708481</ele>
        <time>2026-02-18T10:47:34Z</time>
      </trkpt>
      <trkpt lat="41.40046582858398" lon="-81.74199668446019">
        <ele>265.4670540074</ele>
        <time>2026-02-18T10:48:10Z</time>
      </trkpt>
      <trkpt lat="41.40005075671171" lon="-81.74179635539963">
        <ele>265.2606518783</ele>
        <time>2026-02-18T10:48:46Z</time>
      </trkpt>
      <trkpt lat="41.39962168855849" lon="-81.74160230999344">
        <ele>264.6759232958</ele>
        <time>2026-02-18T10:49:25Z</time>
      </trkpt>
      <trkpt lat="41.39953727880835" lon="-81.74156722863007">
        <ele>264.8088302189</ele>
        <time>2026-02-18T10:49:33Z</time>
      </trkpt>
      <trkpt lat="41.39954098805048" lon="-81.74097165824669">
        <ele>265.6808088422</ele>
        <time>2026-02-18T10:50:04Z</time>
      </trkpt>
      <trkpt lat="41.39954495242788" lon="-81.74037316795209">
        <ele>266.2181385543</ele>
        <time>2026-02-18T10:50:32Z</time>
      </trkpt>
      <trkpt lat="41.39953764839286" lon="-81.73977217282408">
        <ele>266.6626079590</ele>
        <time>2026-02-18T10:51:20Z</time>
      </trkpt>
      <trkpt lat="41.39953683292032" lon="-81.73917952078041">
        <ele>266.8559186018</ele>
        <time>2026-02-18T10:51:47Z</time>
      </trkpt>
      <trkpt lat="41.39953782161028" lon="-81.73857332159723">
        <ele>267.1499450133</ele>
        <time>2026-02-18T10:52:43Z</time>
      </trkpt>
      <trkpt lat="41.39953043921766" lon="-81.73828596053166">
        <ele>266.8507283508</ele>
        <time>2026-02-18T10:53:03Z</time>
      </trkpt>
      <trkpt lat="41.39953283240823" lon="-81.73828800199800">
        <ele>266.7205854125</ele>
        <time>2026-02-18T10:53:04Z</time>
      </trkpt>
      <trkpt lat="41.39998299299327" lon="-81.73829708117704">
        <ele>267.1548626668</ele>
        <time>2026-02-18T10:53:42Z</time>
      </trkpt>
      <trkpt lat="41.40043731724928" lon="-81.73829314007955">
        <ele>267.0932584124</ele>
        <time>2026-02-18T10:54:25Z</time>
      </trkpt>
      <trkpt lat="41.40087756849582" lon="-81.73829724297680">
        <ele>267.6848088396</ele>
        <time>2026-02-18T10:55:03Z</time>
      </trkpt>
      <trkpt lat="41.40131802591286" lon="-81.73829609923250">
        <ele>267.3825958474</ele>
        <time>2026-02-18T10:55:44Z</time>
      </trkpt>
      <trkpt lat="41.40132916067365" lon="-81.73889749864355">
        <ele>267.2866918952</ele>
        <time>2026-02-18T10:56:33Z</time>
      </trkpt>
      <trkpt lat="41.40134432707800" lon="-81.73949941261539">
        <ele>267.2891997867</ele>
        <time>2026-02-18T10:57:05Z</time>
      </trkpt>
      <trkpt lat="41.40133720836788" lon="-81.74009956548933">
        <ele>266.5825422946</ele>
        <time>2026-02-18T10:57:43Z</time>
      </trkpt>
      <trkpt lat="41.40133869797690" lon="-81.74016490003618">
        <ele>266.6218881759</ele>
        <time>2026-02-18T10:57:47Z</time>
      </trkpt>
    </trkseg>
  </trk>
</gpx>