<?xml version='1.0' encoding='UTF-8'?>
<gpx xmlns="http://www.topografix.com/GPX/1/1" creator="https://gpx.studio" version="1.1">
  <metadata>
    <name>Dog Walk - 2026-06-06 #2</name>
  </metadata>
  <trk>
    <name>Dog Walk - 2026-06-06 #2</name>
    <type>dog walk</type>
    <trkseg>
      <trkpt lat="41.40134356744693" lon="-81.74023601708360">
        <ele>266.4756315605</ele>
        <time>2026-06-06T10:46:57Z</time>
      </trkpt>
      <trkpt lat="41.40135056212407" lon="-81.74083485165622">
        <ele>266.0566580114</ele>
        <time>2026-06-06T10:47:32Z</time>
      </trkpt>
      <trkpt lat="41.40134306167445" lon="-81.74143649960457">
        <ele>265.9803249648</ele>
        <time>2026-06-06T10:48:25Z</time>
      </trkpt>
      <trkpt lat="41.40134096043213" lon="-81.74201148327484">
        <ele>265.3024379855</ele>
        <time>2026-06-06T10:49:09Z</time>
      </trkpt>
      <trkpt lat="41.40134473339485" lon="-81.74241936553761">
        <ele>264.7974613274</ele>
        <time>2026-06-06T10:49:35Z</time>
      </trkpt>
      <trkpt lat="41.40175693700859" lon="-81.74262024693940">
        <ele>264.1055442670</ele>
        <time>2026-06-06T10:50:04Z</time>
      </trkpt>
      <trkpt lat="41.40219715486186" lon="-81.74284352389446">
        <ele>263.3254696954</ele>
        <time>2026-06-06T10:50:51Z</time>
      </trkpt>
      <trkpt lat="41.40261226218448" lon="-81.74304090824502">
        <ele>262.8862615447</ele>
        <time>2026-06-06T10:51:29Z</time>
      </trkpt>
      <trkpt lat="41.40303189230639" lon="-81.74326634583423">
        <ele>262.3117940999</ele>
        <time>2026-06-06T10:52:13Z</time>
      </trkpt>
      <trkpt lat="41.40345226536495" lon="-81.74348524144088">
        <ele>262.1843675694</ele>
        <time>2026-06-06T10:52:52Z</time>
      </trkpt>
      <trkpt lat="41.40349394611766" lon="-81.74348805212716">
        <ele>261.7419636956</ele>
        <time>2026-06-06T10:52:56Z</time>
      </trkpt>
      <trkpt lat="41.40360498388062" lon="-81.74352884906482">
        <ele>261.5611684829</ele>
        <time>2026-06-06T10:53:07Z</time>
      </trkpt>
      <trkpt lat="41.40399812568046" lon="-81.74350343307562">
        <ele>260.8590492297</ele>
        <time>2026-06-06T10:53:34Z</time>
      </trkpt>
      <trkpt lat="41.40399029712228" lon="-81.74290779606159">
        <ele>261.5840317276</ele>
        <time>2026-06-06T10:54:11Z</time>
      </trkpt>
      <trkpt lat="41.40398559984261" lon="-81.74230420386439">
        <ele>262.0835278961</ele>
        <time>2026-06-06T10:54:51Z</time>
      </trkpt>
      <trkpt lat="41.40398867547940" lon="-81.74170943912682">
        <ele>262.4115484675</ele>
        <time>2026-06-06T10:55:31Z</time>
      </trkpt>
      <trkpt lat="41.40399361912733" lon="-81.74111231838081">
        <ele>262.8434799848</ele>
        <time>2026-06-06T10:56:11Z</time>
      </trkpt>
      <trkpt lat="41.40398161699657" lon="-81.74050479422291">
        <ele>263.4795340570</ele>
        <time>2026-06-06T10:56:53Z</time>
      </trkpt>
      <trkpt lat="41.40398885102343" lon="-81.73991291187950">
        <ele>264.0378001621</ele>
        <time>2026-06-06T10:57:26Z</time>
      </trkpt>
      <trkpt lat="41.40398043720260" lon="-81.73931921816083">
        <ele>264.9331346298</ele>
        <time>2026-06-06T10:58:06Z</time>
      </trkpt>
      <trkpt lat="41.40398963054297" lon="-81.73878074092092">
        <ele>265.4226370233</ele>
        <time>2026-06-06T10:58:38Z</time>
      </trkpt>
      <trkpt lat="41.40354352762066" lon="-81.73877835662576">
        <ele>266.0053098696</ele>
        <time>2026-06-06T10:59:21Z</time>
      </trkpt>
      <trkpt lat="41.40308983118089" lon="-81.73877743690777">
        <ele>266.2480359697</ele>
        <time>2026-06-06T11:00:15Z</time>
      </trkpt>
      <trkpt lat="41.40264723004384" lon="-81.73876774345841">
        <ele>266.9732226648</ele>
        <time>2026-06-06T11:00:49Z</time>
      </trkpt>
      <trkpt lat="41.40222826501216" lon="-81.73876501094247">
        <ele>267.1192614192</ele>
        <time>2026-06-06T11:01:16Z</time>
      </trkpt>
      <trkpt lat="41.40221094293886" lon="-81.73828660715679">
        <ele>267.1026719995</ele>
        <time>2026-06-06T11:01:46Z</time>
      </trkpt>
      <trkpt lat="41.40176595810557" lon="-81.73826589008110">
        <ele>267.7414597100</ele>
        <time>2026-06-06T11:02:22Z</time>
      </trkpt>
      <trkpt lat="41.40133923319969" lon="-81.73826856437331">
        <ele>267.5778309997</ele>
        <time>2026-06-06T11:03:06Z</time>
      </trkpt>
      <trkpt lat="41.40133396504223" lon="-81.73886602195077">
        <ele>267.1797872669</ele>
        <time>2026-06-06T11:03:47Z</time>
      </trkpt>
      <trkpt lat="41.40133140736130" lon="-81.73946069923610">
        <ele>267.1922275383</ele>
        <time>2026-06-06T11:04:20Z</time>
      </trkpt>
      <trkpt lat="41.40134155476260" lon="-81.74005470304446">
        <ele>266.6830545618</ele>
        <time>2026-06-06T11:04:53Z</time>
      </trkpt>
      <trkpt lat="41.40133578727541" lon="-81.74020227406942">
        <ele>266.4391822965</ele>
        <time>2026-06-06T11:05:07Z</time>
      </trkpt>
    </trkseg>
  </trk>
</gpx>