<?xml version='1.0' encoding='UTF-8'?>
<gpx xmlns="http://www.topografix.com/GPX/1/1" creator="https://gpx.studio" version="1.1">
  <metadata>
    <name>Dog Walk - 2026-05-20</name>
  </metadata>
  <trk>
    <name>Dog Walk - 2026-05-20</name>
    <type>dog walk</type>
    <trkseg>
      <trkpt lat="41.40132916726219" lon="-81.74024485983949">
        <ele>266.3758440192</ele>
        <time>2026-05-20T13:56:02Z</time>
      </trkpt>
      <trkpt lat="41.40133676757476" lon="-81.74025147628092">
        <ele>266.8437324579</ele>
        <time>2026-05-20T13:56:03Z</time>
      </trkpt>
      <trkpt lat="41.40133927923429" lon="-81.74084798403443">
        <ele>266.1178599109</ele>
        <time>2026-05-20T13:56:40Z</time>
      </trkpt>
      <trkpt lat="41.40133143303743" lon="-81.74145532127309">
        <ele>265.7795136660</ele>
        <time>2026-05-20T13:57:19Z</time>
      </trkpt>
      <trkpt lat="41.40132443733983" lon="-81.74204212132555">
        <ele>265.4367035265</ele>
        <time>2026-05-20T13:58:11Z</time>
      </trkpt>
      <trkpt lat="41.40132691079532" lon="-81.74238392819142">
        <ele>264.7731336186</ele>
        <time>2026-05-20T13:58:36Z</time>
      </trkpt>
      <trkpt lat="41.40132581873242" lon="-81.74238006938744">
        <ele>264.8149021391</ele>
        <time>2026-05-20T13:58:37Z</time>
      </trkpt>
      <trkpt lat="41.40090063068583" lon="-81.74219187530366">
        <ele>265.2788608310</ele>
        <time>2026-05-20T13:59:16Z</time>
      </trkpt>
      <trkpt lat="41.40047401948689" lon="-81.74199783810108">
        <ele>265.1762212417</ele>
        <time>2026-05-20T14:00:17Z</time>
      </trkpt>
      <trkpt lat="41.40005432941597" lon="-81.74180360737085">
        <ele>265.2303723328</ele>
        <time>2026-05-20T14:00:57Z</time>
      </trkpt>
      <trkpt lat="41.39963048996144" lon="-81.74161415923993">
        <ele>264.6381670596</ele>
        <time>2026-05-20T14:01:39Z</time>
      </trkpt>
      <trkpt lat="41.39953541546947" lon="-81.74156524712372">
        <ele>264.9200156274</ele>
        <time>2026-05-20T14:01:51Z</time>
      </trkpt>
      <trkpt lat="41.39954374458418" lon="-81.74096461902784">
        <ele>265.6619313444</ele>
        <time>2026-05-20T14:02:38Z</time>
      </trkpt>
      <trkpt lat="41.39954186476390" lon="-81.74037031547803">
        <ele>266.0742565612</ele>
        <time>2026-05-20T14:03:13Z</time>
      </trkpt>
      <trkpt lat="41.39953861308526" lon="-81.73977474892429">
        <ele>266.5622268223</ele>
        <time>2026-05-20T14:03:49Z</time>
      </trkpt>
      <trkpt lat="41.39954436458498" lon="-81.73917140871664">
        <ele>266.8503199064</ele>
        <time>2026-05-20T14:04:20Z</time>
      </trkpt>
      <trkpt lat="41.39954709817196" lon="-81.73857267613307">
        <ele>266.8723809122</ele>
        <time>2026-05-20T14:04:55Z</time>
      </trkpt>
      <trkpt lat="41.39953940593876" lon="-81.73829659698436">
        <ele>266.8405046575</ele>
        <time>2026-05-20T14:05:20Z</time>
      </trkpt>
      <trkpt lat="41.39953065120114" lon="-81.73829515595381">
        <ele>266.8259886873</ele>
        <time>2026-05-20T14:05:21Z</time>
      </trkpt>
      <trkpt lat="41.39998130017765" lon="-81.73829832980863">
        <ele>267.0405844819</ele>
        <time>2026-05-20T14:05:57Z</time>
      </trkpt>
      <trkpt lat="41.40044028137395" lon="-81.73830831066570">
        <ele>267.3363147086</ele>
        <time>2026-05-20T14:06:29Z</time>
      </trkpt>
      <trkpt lat="41.40088396073050" lon="-81.73829650921613">
        <ele>267.6300722404</ele>
        <time>2026-05-20T14:07:18Z</time>
      </trkpt>
      <trkpt lat="41.40132904979942" lon="-81.73830056411516">
        <ele>267.4256285620</ele>
        <time>2026-05-20T14:07:57Z</time>
      </trkpt>
      <trkpt lat="41.40132996155785" lon="-81.73889748387063">
        <ele>267.5312160572</ele>
        <time>2026-05-20T14:08:38Z</time>
      </trkpt>
      <trkpt lat="41.40133760692584" lon="-81.73950753447252">
        <ele>267.1255907405</ele>
        <time>2026-05-20T14:09:21Z</time>
      </trkpt>
      <trkpt lat="41.40134163406865" lon="-81.74010293815547">
        <ele>266.7380915706</ele>
        <time>2026-05-20T14:10:13Z</time>
      </trkpt>
      <trkpt lat="41.40133790695022" lon="-81.74015986385757">
        <ele>266.4740755075</ele>
        <time>2026-05-20T14:10:19Z</time>
      </trkpt>
    </trkseg>
  </trk>
</gpx>