<?xml version='1.0' encoding='UTF-8'?>
<gpx xmlns="http://www.topografix.com/GPX/1/1" creator="https://gpx.studio" version="1.1">
  <metadata>
    <name>Dog Walk - 2026-07-11 #1</name>
  </metadata>
  <trk>
    <name>Dog Walk - 2026-07-11 #1</name>
    <type>dog walk</type>
    <trkseg>
      <trkpt lat="41.40133060083742" lon="-81.74022607514850">
        <ele>266.7203188176</ele>
        <time>2026-07-11T09:16:20Z</time>
      </trkpt>
      <trkpt lat="41.40133698401340" lon="-81.74083766404468">
        <ele>266.0782538676</ele>
        <time>2026-07-11T09:16:54Z</time>
      </trkpt>
      <trkpt lat="41.40132466705890" lon="-81.74143917331926">
        <ele>265.7191807428</ele>
        <time>2026-07-11T09:17:34Z</time>
      </trkpt>
      <trkpt lat="41.40132469208793" lon="-81.74203435650740">
        <ele>265.4109658519</ele>
        <time>2026-07-11T09:18:10Z</time>
      </trkpt>
      <trkpt lat="41.40132002060823" lon="-81.74238957026476">
        <ele>264.4244393108</ele>
        <time>2026-07-11T09:18:35Z</time>
      </trkpt>
      <trkpt lat="41.40090487876194" lon="-81.74219214749996">
        <ele>265.0325087702</ele>
        <time>2026-07-11T09:19:27Z</time>
      </trkpt>
      <trkpt lat="41.40047895254667" lon="-81.74200942233358">
        <ele>265.1460471814</ele>
        <time>2026-07-11T09:20:01Z</time>
      </trkpt>
      <trkpt lat="41.40004162735703" lon="-81.74181225466374">
        <ele>265.3743400895</ele>
        <time>2026-07-11T09:20:38Z</time>
      </trkpt>
      <trkpt lat="41.39962011345779" lon="-81.74161983307469">
        <ele>264.5487134184</ele>
        <time>2026-07-11T09:21:13Z</time>
      </trkpt>
      <trkpt lat="41.39952543873811" lon="-81.74157088947730">
        <ele>264.9117285072</ele>
        <time>2026-07-11T09:21:24Z</time>
      </trkpt>
      <trkpt lat="41.39953400429189" lon="-81.74097097733920">
        <ele>265.7823781857</ele>
        <time>2026-07-11T09:22:08Z</time>
      </trkpt>
      <trkpt lat="41.39952527150226" lon="-81.74037620163527">
        <ele>266.1839188597</ele>
        <time>2026-07-11T09:22:51Z</time>
      </trkpt>
      <trkpt lat="41.39953135819700" lon="-81.73977425226113">
        <ele>266.7992494566</ele>
        <time>2026-07-11T09:23:25Z</time>
      </trkpt>
      <trkpt lat="41.39952448460447" lon="-81.73917626073191">
        <ele>266.8321807511</ele>
        <time>2026-07-11T09:23:59Z</time>
      </trkpt>
      <trkpt lat="41.39953386568206" lon="-81.73857984970788">
        <ele>266.9241521652</ele>
        <time>2026-07-11T09:24:40Z</time>
      </trkpt>
      <trkpt lat="41.39952758004850" lon="-81.73797821005867">
        <ele>266.8983471901</ele>
        <time>2026-07-11T09:25:13Z</time>
      </trkpt>
      <trkpt lat="41.39952653114765" lon="-81.73737708673838">
        <ele>267.2124294005</ele>
        <time>2026-07-11T09:25:55Z</time>
      </trkpt>
      <trkpt lat="41.39953878623099" lon="-81.73677749026940">
        <ele>267.3956147641</ele>
        <time>2026-07-11T09:26:34Z</time>
      </trkpt>
      <trkpt lat="41.39952479898744" lon="-81.73618752842182">
        <ele>267.6471272080</ele>
        <time>2026-07-11T09:27:17Z</time>
      </trkpt>
      <trkpt lat="41.39952485383411" lon="-81.73558349304703">
        <ele>267.1922505432</ele>
        <time>2026-07-11T09:27:50Z</time>
      </trkpt>
      <trkpt lat="41.39952378815840" lon="-81.73497623344998">
        <ele>267.2234332168</ele>
        <time>2026-07-11T09:28:33Z</time>
      </trkpt>
      <trkpt lat="41.39953660870772" lon="-81.73461205483767">
        <ele>267.2426650432</ele>
        <time>2026-07-11T09:28:58Z</time>
      </trkpt>
      <trkpt lat="41.39997606427337" lon="-81.73461868855941">
        <ele>267.0816001560</ele>
        <time>2026-07-11T09:29:35Z</time>
      </trkpt>
      <trkpt lat="41.40042602136695" lon="-81.73463355802173">
        <ele>267.3665374279</ele>
        <time>2026-07-11T09:30:22Z</time>
      </trkpt>
      <trkpt lat="41.40087143239684" lon="-81.73463463863408">
        <ele>267.3159489245</ele>
        <time>2026-07-11T09:31:16Z</time>
      </trkpt>
      <trkpt lat="41.40131984372795" lon="-81.73465119041049">
        <ele>267.2519147965</ele>
        <time>2026-07-11T09:32:02Z</time>
      </trkpt>
      <trkpt lat="41.40131687729737" lon="-81.73524086118523">
        <ele>267.8931722708</ele>
        <time>2026-07-11T09:32:52Z</time>
      </trkpt>
      <trkpt lat="41.40132036229238" lon="-81.73584811262683">
        <ele>268.2697891852</ele>
        <time>2026-07-11T09:33:51Z</time>
      </trkpt>
      <trkpt lat="41.40131925003488" lon="-81.73643810714350">
        <ele>268.0848765502</ele>
        <time>2026-07-11T09:34:40Z</time>
      </trkpt>
      <trkpt lat="41.40132964554122" lon="-81.73703620855210">
        <ele>267.8435940559</ele>
        <time>2026-07-11T09:35:16Z</time>
      </trkpt>
      <trkpt lat="41.40132227479278" lon="-81.73764253407187">
        <ele>267.6791099214</ele>
        <time>2026-07-11T09:35:50Z</time>
      </trkpt>
      <trkpt lat="41.40132941218106" lon="-81.73823550493688">
        <ele>267.5197881809</ele>
        <time>2026-07-11T09:36:36Z</time>
      </trkpt>
      <trkpt lat="41.40133001790229" lon="-81.73883355807493">
        <ele>267.4070883553</ele>
        <time>2026-07-11T09:37:11Z</time>
      </trkpt>
      <trkpt lat="41.40133504261763" lon="-81.73943440946876">
        <ele>267.2777199673</ele>
        <time>2026-07-11T09:38:19Z</time>
      </trkpt>
      <trkpt lat="41.40132765181814" lon="-81.74003813018679">
        <ele>266.6447632196</ele>
        <time>2026-07-11T09:38:55Z</time>
      </trkpt>
      <trkpt lat="41.40132869756411" lon="-81.74022374759093">
        <ele>266.2591995306</ele>
        <time>2026-07-11T09:39:07Z</time>
      </trkpt>
    </trkseg>
  </trk>
</gpx>