<?xml version='1.0' encoding='UTF-8'?>
<gpx xmlns="http://www.topografix.com/GPX/1/1" creator="https://gpx.studio" version="1.1">
  <metadata>
    <name>Dog Walk - 2026-03-28 #3</name>
  </metadata>
  <trk>
    <name>Dog Walk - 2026-03-28 #3</name>
    <type>dog walk</type>
    <trkseg>
      <trkpt lat="41.40133723980062" lon="-81.74026485261669">
        <ele>266.5586337539</ele>
        <time>2026-03-28T20:21:30Z</time>
      </trkpt>
      <trkpt lat="41.40133278015536" lon="-81.74026599922433">
        <ele>266.3620878816</ele>
        <time>2026-03-28T20:21:31Z</time>
      </trkpt>
      <trkpt lat="41.40133584086894" lon="-81.74085379723954">
        <ele>266.2937130348</ele>
        <time>2026-03-28T20:22:01Z</time>
      </trkpt>
      <trkpt lat="41.40133139005975" lon="-81.74145684590719">
        <ele>265.7435229776</ele>
        <time>2026-03-28T20:22:52Z</time>
      </trkpt>
      <trkpt lat="41.40133058522819" lon="-81.74205238490640">
        <ele>265.2070816621</ele>
        <time>2026-03-28T20:23:33Z</time>
      </trkpt>
      <trkpt lat="41.40133559111235" lon="-81.74237195284417">
        <ele>264.7420274064</ele>
        <time>2026-03-28T20:23:51Z</time>
      </trkpt>
      <trkpt lat="41.40132427266361" lon="-81.74238130576865">
        <ele>264.7459554561</ele>
        <time>2026-03-28T20:23:52Z</time>
      </trkpt>
      <trkpt lat="41.40089983523109" lon="-81.74218708734718">
        <ele>265.1095858355</ele>
        <time>2026-03-28T20:24:28Z</time>
      </trkpt>
      <trkpt lat="41.40046789200376" lon="-81.74200020949571">
        <ele>265.1298436924</ele>
        <time>2026-03-28T20:25:02Z</time>
      </trkpt>
      <trkpt lat="41.40004173972491" lon="-81.74180053791584">
        <ele>265.4124700475</ele>
        <time>2026-03-28T20:25:42Z</time>
      </trkpt>
      <trkpt lat="41.39962085773787" lon="-81.74160490184457">
        <ele>264.6734342633</ele>
        <time>2026-03-28T20:26:13Z</time>
      </trkpt>
      <trkpt lat="41.39954583064060" lon="-81.74157244841953">
        <ele>264.9659504549</ele>
        <time>2026-03-28T20:26:20Z</time>
      </trkpt>
      <trkpt lat="41.39953944335426" lon="-81.74097522631359">
        <ele>265.6823228362</ele>
        <time>2026-03-28T20:26:57Z</time>
      </trkpt>
      <trkpt lat="41.39954397851456" lon="-81.74038137246713">
        <ele>266.1418186435</ele>
        <time>2026-03-28T20:27:38Z</time>
      </trkpt>
      <trkpt lat="41.39953544828310" lon="-81.73977914995994">
        <ele>266.5471723942</ele>
        <time>2026-03-28T20:28:20Z</time>
      </trkpt>
      <trkpt lat="41.39954629119288" lon="-81.73917622585176">
        <ele>266.9412209302</ele>
        <time>2026-03-28T20:28:57Z</time>
      </trkpt>
      <trkpt lat="41.39953220156073" lon="-81.73857436150743">
        <ele>266.9626157937</ele>
        <time>2026-03-28T20:29:35Z</time>
      </trkpt>
      <trkpt lat="41.39953721674359" lon="-81.73829924810043">
        <ele>266.8645017572</ele>
        <time>2026-03-28T20:29:57Z</time>
      </trkpt>
      <trkpt lat="41.39953734596794" lon="-81.73828714741117">
        <ele>267.3081181614</ele>
        <time>2026-03-28T20:29:58Z</time>
      </trkpt>
      <trkpt lat="41.39997744573317" lon="-81.73828695169668">
        <ele>267.0970943589</ele>
        <time>2026-03-28T20:30:37Z</time>
      </trkpt>
      <trkpt lat="41.40043955970419" lon="-81.73829781430712">
        <ele>267.0885654059</ele>
        <time>2026-03-28T20:31:18Z</time>
      </trkpt>
      <trkpt lat="41.40088090074345" lon="-81.73829755256796">
        <ele>267.5538768981</ele>
        <time>2026-03-28T20:31:57Z</time>
      </trkpt>
      <trkpt lat="41.40132681208014" lon="-81.73829555788188">
        <ele>267.3813611637</ele>
        <time>2026-03-28T20:32:28Z</time>
      </trkpt>
      <trkpt lat="41.40133250333222" lon="-81.73890396447285">
        <ele>267.6029541516</ele>
        <time>2026-03-28T20:33:14Z</time>
      </trkpt>
      <trkpt lat="41.40133823955097" lon="-81.73949392603872">
        <ele>267.2932876647</ele>
        <time>2026-03-28T20:33:50Z</time>
      </trkpt>
      <trkpt lat="41.40134023878128" lon="-81.74009548127709">
        <ele>266.6571964893</ele>
        <time>2026-03-28T20:34:24Z</time>
      </trkpt>
      <trkpt lat="41.40132887289447" lon="-81.74016314893316">
        <ele>266.5388437434</ele>
        <time>2026-03-28T20:34:29Z</time>
      </trkpt>
    </trkseg>
  </trk>
</gpx>