<?xml version='1.0' encoding='UTF-8'?>
<gpx xmlns="http://www.topografix.com/GPX/1/1" creator="https://gpx.studio" version="1.1">
  <metadata>
    <name>Dog Walk - 2026-07-24 #4</name>
  </metadata>
  <trk>
    <name>Dog Walk - 2026-07-24 #4</name>
    <type>dog walk</type>
    <trkseg>
      <trkpt lat="41.40134221977040" lon="-81.74023400679539">
        <ele>266.6661762998</ele>
        <time>2026-07-24T16:11:48Z</time>
      </trkpt>
      <trkpt lat="41.40134149374929" lon="-81.74083191618914">
        <ele>266.0257223894</ele>
        <time>2026-07-24T16:12:31Z</time>
      </trkpt>
      <trkpt lat="41.40134213197459" lon="-81.74142887644653">
        <ele>265.7287932203</ele>
        <time>2026-07-24T16:13:11Z</time>
      </trkpt>
      <trkpt lat="41.40134594206894" lon="-81.74202622877652">
        <ele>265.4097613834</ele>
        <time>2026-07-24T16:13:59Z</time>
      </trkpt>
      <trkpt lat="41.40135194595411" lon="-81.74240357014220">
        <ele>264.7902826745</ele>
        <time>2026-07-24T16:14:24Z</time>
      </trkpt>
      <trkpt lat="41.40177034499755" lon="-81.74262093795826">
        <ele>264.2841300069</ele>
        <time>2026-07-24T16:15:01Z</time>
      </trkpt>
      <trkpt lat="41.40218671707586" lon="-81.74283257575804">
        <ele>263.5968923077</ele>
        <time>2026-07-24T16:15:40Z</time>
      </trkpt>
      <trkpt lat="41.40261216409908" lon="-81.74300409300652">
        <ele>262.8229407375</ele>
        <time>2026-07-24T16:16:17Z</time>
      </trkpt>
      <trkpt lat="41.40303658871917" lon="-81.74321611095601">
        <ele>262.4826404961</ele>
        <time>2026-07-24T16:17:05Z</time>
      </trkpt>
      <trkpt lat="41.40311539370476" lon="-81.74325498542140">
        <ele>262.3265005190</ele>
        <time>2026-07-24T16:17:13Z</time>
      </trkpt>
      <trkpt lat="41.40312029322130" lon="-81.74264705345401">
        <ele>263.0869064964</ele>
        <time>2026-07-24T16:17:59Z</time>
      </trkpt>
      <trkpt lat="41.40310669940327" lon="-81.74204488085947">
        <ele>263.8019229802</ele>
        <time>2026-07-24T16:18:51Z</time>
      </trkpt>
      <trkpt lat="41.40311491028885" lon="-81.74145534996629">
        <ele>264.2344293580</ele>
        <time>2026-07-24T16:19:29Z</time>
      </trkpt>
      <trkpt lat="41.40311469124978" lon="-81.74084317133493">
        <ele>264.8014817471</ele>
        <time>2026-07-24T16:20:18Z</time>
      </trkpt>
      <trkpt lat="41.40310386810249" lon="-81.74025966665263">
        <ele>265.4432311535</ele>
        <time>2026-07-24T16:21:04Z</time>
      </trkpt>
      <trkpt lat="41.40310160076567" lon="-81.73965169376949">
        <ele>265.8000704765</ele>
        <time>2026-07-24T16:21:45Z</time>
      </trkpt>
      <trkpt lat="41.40309320584203" lon="-81.73904789239742">
        <ele>266.2888386409</ele>
        <time>2026-07-24T16:22:23Z</time>
      </trkpt>
      <trkpt lat="41.40310297581552" lon="-81.73878208708253">
        <ele>266.3434402075</ele>
        <time>2026-07-24T16:22:47Z</time>
      </trkpt>
      <trkpt lat="41.40264556755039" lon="-81.73878223824980">
        <ele>267.0094173579</ele>
        <time>2026-07-24T16:23:31Z</time>
      </trkpt>
      <trkpt lat="41.40223439665857" lon="-81.73878780986205">
        <ele>267.1620293201</ele>
        <time>2026-07-24T16:24:04Z</time>
      </trkpt>
      <trkpt lat="41.40223682383250" lon="-81.73817958703555">
        <ele>267.4026846536</ele>
        <time>2026-07-24T16:24:42Z</time>
      </trkpt>
      <trkpt lat="41.40223389240488" lon="-81.73758381618063">
        <ele>267.0063498459</ele>
        <time>2026-07-24T16:25:19Z</time>
      </trkpt>
      <trkpt lat="41.40223219386816" lon="-81.73697713839786">
        <ele>267.0164945009</ele>
        <time>2026-07-24T16:26:03Z</time>
      </trkpt>
      <trkpt lat="41.40222972068640" lon="-81.73637316297048">
        <ele>267.3478444662</ele>
        <time>2026-07-24T16:26:57Z</time>
      </trkpt>
      <trkpt lat="41.40222729743594" lon="-81.73577802918182">
        <ele>267.1539753650</ele>
        <time>2026-07-24T16:27:35Z</time>
      </trkpt>
      <trkpt lat="41.40222589349808" lon="-81.73518585260190">
        <ele>267.0486795691</ele>
        <time>2026-07-24T16:28:16Z</time>
      </trkpt>
      <trkpt lat="41.40222517691917" lon="-81.73465076588766">
        <ele>267.0534676587</ele>
        <time>2026-07-24T16:28:56Z</time>
      </trkpt>
      <trkpt lat="41.40178300182619" lon="-81.73463826014144">
        <ele>267.4149963749</ele>
        <time>2026-07-24T16:29:38Z</time>
      </trkpt>
      <trkpt lat="41.40132759750644" lon="-81.73463548075584">
        <ele>267.2915735266</ele>
        <time>2026-07-24T16:30:20Z</time>
      </trkpt>
      <trkpt lat="41.40131860867493" lon="-81.73463372314129">
        <ele>267.3476382352</ele>
        <time>2026-07-24T16:30:21Z</time>
      </trkpt>
      <trkpt lat="41.40132433930183" lon="-81.73522741759136">
        <ele>268.0074148830</ele>
        <time>2026-07-24T16:31:08Z</time>
      </trkpt>
      <trkpt lat="41.40132405764060" lon="-81.73583169076561">
        <ele>268.3403298152</ele>
        <time>2026-07-24T16:31:44Z</time>
      </trkpt>
      <trkpt lat="41.40132238789602" lon="-81.73643180584874">
        <ele>268.3573044377</ele>
        <time>2026-07-24T16:32:21Z</time>
      </trkpt>
      <trkpt lat="41.40133252489622" lon="-81.73702869371688">
        <ele>268.2081148310</ele>
        <time>2026-07-24T16:33:13Z</time>
      </trkpt>
      <trkpt lat="41.40133074026719" lon="-81.73763719910006">
        <ele>267.6695776722</ele>
        <time>2026-07-24T16:33:55Z</time>
      </trkpt>
      <trkpt lat="41.40132350041706" lon="-81.73824306001113">
        <ele>267.8065371811</ele>
        <time>2026-07-24T16:34:38Z</time>
      </trkpt>
      <trkpt lat="41.40134116657931" lon="-81.73883772949034">
        <ele>267.5140120717</ele>
        <time>2026-07-24T16:35:16Z</time>
      </trkpt>
      <trkpt lat="41.40134293512850" lon="-81.73943791117607">
        <ele>267.2785388099</ele>
        <time>2026-07-24T16:36:02Z</time>
      </trkpt>
      <trkpt lat="41.40134568489941" lon="-81.74002134322680">
        <ele>266.6552521796</ele>
        <time>2026-07-24T16:36:55Z</time>
      </trkpt>
      <trkpt lat="41.40134674070413" lon="-81.74015546248309">
        <ele>266.7274247332</ele>
        <time>2026-07-24T16:37:08Z</time>
      </trkpt>
    </trkseg>
  </trk>
</gpx>