<?xml version='1.0' encoding='UTF-8'?>
<gpx xmlns="http://www.topografix.com/GPX/1/1" creator="https://gpx.studio" version="1.1">
  <metadata>
    <name>Dog Walk - 2026-05-30 #1</name>
  </metadata>
  <trk>
    <name>Dog Walk - 2026-05-30 #1</name>
    <type>dog walk</type>
    <trkseg>
      <trkpt lat="41.40133850827078" lon="-81.74024856583030">
        <ele>266.4885758812</ele>
        <time>2026-05-30T06:55:24Z</time>
      </trkpt>
      <trkpt lat="41.40133344193809" lon="-81.74024953112348">
        <ele>266.3555647303</ele>
        <time>2026-05-30T06:55:25Z</time>
      </trkpt>
      <trkpt lat="41.40132902869192" lon="-81.74085073658399">
        <ele>266.2042931884</ele>
        <time>2026-05-30T06:56:02Z</time>
      </trkpt>
      <trkpt lat="41.40132316871824" lon="-81.74146343723946">
        <ele>265.8142653831</ele>
        <time>2026-05-30T06:57:06Z</time>
      </trkpt>
      <trkpt lat="41.40132223877721" lon="-81.74205816570762">
        <ele>265.3126907087</ele>
        <time>2026-05-30T06:57:56Z</time>
      </trkpt>
      <trkpt lat="41.40132747846518" lon="-81.74238083511237">
        <ele>264.6725092884</ele>
        <time>2026-05-30T06:58:16Z</time>
      </trkpt>
      <trkpt lat="41.40132668736978" lon="-81.74238686326072">
        <ele>264.8248472756</ele>
        <time>2026-05-30T06:58:17Z</time>
      </trkpt>
      <trkpt lat="41.40089648156810" lon="-81.74218834830825">
        <ele>265.3706217562</ele>
        <time>2026-05-30T06:59:06Z</time>
      </trkpt>
      <trkpt lat="41.40046969002014" lon="-81.74198419146920">
        <ele>265.2422095086</ele>
        <time>2026-05-30T06:59:48Z</time>
      </trkpt>
      <trkpt lat="41.40004855144501" lon="-81.74179966858257">
        <ele>265.3892020218</ele>
        <time>2026-05-30T07:00:24Z</time>
      </trkpt>
      <trkpt lat="41.39962888224185" lon="-81.74160595489396">
        <ele>264.6737619468</ele>
        <time>2026-05-30T07:00:55Z</time>
      </trkpt>
      <trkpt lat="41.39954094630016" lon="-81.74157178135255">
        <ele>264.8351587706</ele>
        <time>2026-05-30T07:01:04Z</time>
      </trkpt>
      <trkpt lat="41.39953536032603" lon="-81.74096950339789">
        <ele>265.5571657937</ele>
        <time>2026-05-30T07:01:51Z</time>
      </trkpt>
      <trkpt lat="41.39954385966926" lon="-81.74037108559813">
        <ele>266.2199022586</ele>
        <time>2026-05-30T07:02:22Z</time>
      </trkpt>
      <trkpt lat="41.39953401120661" lon="-81.73977714768465">
        <ele>266.7130433195</ele>
        <time>2026-05-30T07:03:07Z</time>
      </trkpt>
      <trkpt lat="41.39953432648305" lon="-81.73916781730448">
        <ele>266.6860033149</ele>
        <time>2026-05-30T07:03:50Z</time>
      </trkpt>
      <trkpt lat="41.39953030625055" lon="-81.73857562312907">
        <ele>267.1017214149</ele>
        <time>2026-05-30T07:04:28Z</time>
      </trkpt>
      <trkpt lat="41.39953515200975" lon="-81.73829445876699">
        <ele>267.0162634646</ele>
        <time>2026-05-30T07:04:46Z</time>
      </trkpt>
      <trkpt lat="41.39953057181764" lon="-81.73829228065074">
        <ele>266.9654683526</ele>
        <time>2026-05-30T07:04:47Z</time>
      </trkpt>
      <trkpt lat="41.39998220435825" lon="-81.73830236849466">
        <ele>267.0845730336</ele>
        <time>2026-05-30T07:05:32Z</time>
      </trkpt>
      <trkpt lat="41.40043265121431" lon="-81.73829896511727">
        <ele>267.5038760708</ele>
        <time>2026-05-30T07:06:15Z</time>
      </trkpt>
      <trkpt lat="41.40088374238086" lon="-81.73829599678777">
        <ele>267.5652013703</ele>
        <time>2026-05-30T07:07:01Z</time>
      </trkpt>
      <trkpt lat="41.40133537310552" lon="-81.73829987548523">
        <ele>267.3749668362</ele>
        <time>2026-05-30T07:07:42Z</time>
      </trkpt>
      <trkpt lat="41.40133553877449" lon="-81.73890071986042">
        <ele>267.4081470758</ele>
        <time>2026-05-30T07:08:23Z</time>
      </trkpt>
      <trkpt lat="41.40133153152594" lon="-81.73949994737978">
        <ele>267.2302132851</ele>
        <time>2026-05-30T07:09:07Z</time>
      </trkpt>
      <trkpt lat="41.40133602038658" lon="-81.74010215861696">
        <ele>266.4255465565</ele>
        <time>2026-05-30T07:09:44Z</time>
      </trkpt>
      <trkpt lat="41.40133265134110" lon="-81.74015255571221">
        <ele>266.3059357956</ele>
        <time>2026-05-30T07:09:47Z</time>
      </trkpt>
    </trkseg>
  </trk>
</gpx>