<?xml version='1.0' encoding='UTF-8'?>
<gpx xmlns="http://www.topografix.com/GPX/1/1" creator="https://gpx.studio" version="1.1">
  <metadata>
    <name>Dog Walk - 2026-03-03 #1</name>
  </metadata>
  <trk>
    <name>Dog Walk - 2026-03-03 #1</name>
    <type>dog walk</type>
    <trkseg>
      <trkpt lat="41.40133764159892" lon="-81.74024223553818">
        <ele>266.6197610219</ele>
        <time>2026-03-03T08:14:11Z</time>
      </trkpt>
      <trkpt lat="41.40135591525861" lon="-81.74083698193735">
        <ele>266.1349213531</ele>
        <time>2026-03-03T08:14:47Z</time>
      </trkpt>
      <trkpt lat="41.40134409988795" lon="-81.74142983672675">
        <ele>265.7050252925</ele>
        <time>2026-03-03T08:15:24Z</time>
      </trkpt>
      <trkpt lat="41.40134756424411" lon="-81.74203888885405">
        <ele>265.0854934093</ele>
        <time>2026-03-03T08:16:03Z</time>
      </trkpt>
      <trkpt lat="41.40135071107547" lon="-81.74241871722086">
        <ele>264.4298929109</ele>
        <time>2026-03-03T08:16:29Z</time>
      </trkpt>
      <trkpt lat="41.40176781104194" lon="-81.74263705068438">
        <ele>264.3368655671</ele>
        <time>2026-03-03T08:17:13Z</time>
      </trkpt>
      <trkpt lat="41.40218490627960" lon="-81.74284786887237">
        <ele>263.4539335425</ele>
        <time>2026-03-03T08:17:51Z</time>
      </trkpt>
      <trkpt lat="41.40222719959129" lon="-81.74287027732883">
        <ele>263.3799268090</ele>
        <time>2026-03-03T08:17:54Z</time>
      </trkpt>
      <trkpt lat="41.40221576330172" lon="-81.74227197693017">
        <ele>264.1791934349</ele>
        <time>2026-03-03T08:18:29Z</time>
      </trkpt>
      <trkpt lat="41.40222564005781" lon="-81.74165969247483">
        <ele>264.8081137413</ele>
        <time>2026-03-03T08:19:11Z</time>
      </trkpt>
      <trkpt lat="41.40221910513299" lon="-81.74107180981119">
        <ele>265.6139098069</ele>
        <time>2026-03-03T08:19:50Z</time>
      </trkpt>
      <trkpt lat="41.40221928389440" lon="-81.74047948002020">
        <ele>266.0582077795</ele>
        <time>2026-03-03T08:20:30Z</time>
      </trkpt>
      <trkpt lat="41.40221957338820" lon="-81.73985997824819">
        <ele>266.5033774525</ele>
        <time>2026-03-03T08:21:38Z</time>
      </trkpt>
      <trkpt lat="41.40222039370666" lon="-81.73928379300538">
        <ele>266.8047956391</ele>
        <time>2026-03-03T08:22:29Z</time>
      </trkpt>
      <trkpt lat="41.40222001780005" lon="-81.73867142958446">
        <ele>267.2411598578</ele>
        <time>2026-03-03T08:23:40Z</time>
      </trkpt>
      <trkpt lat="41.40222048037996" lon="-81.73826760945876">
        <ele>267.3429100055</ele>
        <time>2026-03-03T08:23:59Z</time>
      </trkpt>
      <trkpt lat="41.40176389113867" lon="-81.73826594421246">
        <ele>267.7902992776</ele>
        <time>2026-03-03T08:24:50Z</time>
      </trkpt>
      <trkpt lat="41.40133793790260" lon="-81.73826180275847">
        <ele>267.7717047281</ele>
        <time>2026-03-03T08:25:23Z</time>
      </trkpt>
      <trkpt lat="41.40134653676141" lon="-81.73885615212454">
        <ele>267.3740279092</ele>
        <time>2026-03-03T08:26:01Z</time>
      </trkpt>
      <trkpt lat="41.40133857562136" lon="-81.73946080008702">
        <ele>267.1631881433</ele>
        <time>2026-03-03T08:26:40Z</time>
      </trkpt>
      <trkpt lat="41.40133344061625" lon="-81.74007009465335">
        <ele>266.6226430266</ele>
        <time>2026-03-03T08:27:47Z</time>
      </trkpt>
      <trkpt lat="41.40134071164771" lon="-81.74018871201697">
        <ele>266.5021052571</ele>
        <time>2026-03-03T08:27:55Z</time>
      </trkpt>
    </trkseg>
  </trk>
</gpx>