<?xml version='1.0' encoding='UTF-8'?>
<gpx xmlns="http://www.topografix.com/GPX/1/1" creator="https://gpx.studio" version="1.1">
  <metadata>
    <name>Dog Walk - 2026-07-11 #3</name>
  </metadata>
  <trk>
    <name>Dog Walk - 2026-07-11 #3</name>
    <type>dog walk</type>
    <trkseg>
      <trkpt lat="41.40134573105148" lon="-81.74022995277542">
        <ele>266.5125086873</ele>
        <time>2026-07-11T19:14:56Z</time>
      </trkpt>
      <trkpt lat="41.40134683143756" lon="-81.74084632584724">
        <ele>266.2368407951</ele>
        <time>2026-07-11T19:15:29Z</time>
      </trkpt>
      <trkpt lat="41.40134598358653" lon="-81.74143621085938">
        <ele>265.5872699747</ele>
        <time>2026-07-11T19:16:16Z</time>
      </trkpt>
      <trkpt lat="41.40134392334337" lon="-81.74203268902035">
        <ele>265.3292653460</ele>
        <time>2026-07-11T19:16:53Z</time>
      </trkpt>
      <trkpt lat="41.40134663504260" lon="-81.74242743667209">
        <ele>264.9116486021</ele>
        <time>2026-07-11T19:17:16Z</time>
      </trkpt>
      <trkpt lat="41.40177001236930" lon="-81.74260934923223">
        <ele>264.2579102612</ele>
        <time>2026-07-11T19:17:51Z</time>
      </trkpt>
      <trkpt lat="41.40219998232129" lon="-81.74282542435571">
        <ele>263.6170710871</ele>
        <time>2026-07-11T19:18:34Z</time>
      </trkpt>
      <trkpt lat="41.40261740434757" lon="-81.74301727399677">
        <ele>263.2205134627</ele>
        <time>2026-07-11T19:19:17Z</time>
      </trkpt>
      <trkpt lat="41.40304544128260" lon="-81.74322251843637">
        <ele>262.3314890331</ele>
        <time>2026-07-11T19:19:52Z</time>
      </trkpt>
      <trkpt lat="41.40312434082526" lon="-81.74325078064210">
        <ele>262.4941592855</ele>
        <time>2026-07-11T19:19:58Z</time>
      </trkpt>
      <trkpt lat="41.40311583453991" lon="-81.74264281559029">
        <ele>263.1573385239</ele>
        <time>2026-07-11T19:20:42Z</time>
      </trkpt>
      <trkpt lat="41.40311288453022" lon="-81.74204637366242">
        <ele>263.6118300146</ele>
        <time>2026-07-11T19:21:32Z</time>
      </trkpt>
      <trkpt lat="41.40311017371793" lon="-81.74145260316907">
        <ele>264.0669342718</ele>
        <time>2026-07-11T19:22:09Z</time>
      </trkpt>
      <trkpt lat="41.40310838045617" lon="-81.74085186974199">
        <ele>264.6374476101</ele>
        <time>2026-07-11T19:23:01Z</time>
      </trkpt>
      <trkpt lat="41.40309847520052" lon="-81.74025982287394">
        <ele>265.5173911789</ele>
        <time>2026-07-11T19:23:41Z</time>
      </trkpt>
      <trkpt lat="41.40310100034728" lon="-81.73966202230466">
        <ele>265.6793391130</ele>
        <time>2026-07-11T19:24:14Z</time>
      </trkpt>
      <trkpt lat="41.40310595551284" lon="-81.73904930331716">
        <ele>266.1728417666</ele>
        <time>2026-07-11T19:24:48Z</time>
      </trkpt>
      <trkpt lat="41.40309239138417" lon="-81.73879763498303">
        <ele>266.3219672628</ele>
        <time>2026-07-11T19:25:04Z</time>
      </trkpt>
      <trkpt lat="41.40265334099870" lon="-81.73878489132052">
        <ele>266.6161120534</ele>
        <time>2026-07-11T19:25:44Z</time>
      </trkpt>
      <trkpt lat="41.40222865005749" lon="-81.73877986475995">
        <ele>267.0694430512</ele>
        <time>2026-07-11T19:26:16Z</time>
      </trkpt>
      <trkpt lat="41.40223397168501" lon="-81.73818640925940">
        <ele>267.3261790616</ele>
        <time>2026-07-11T19:26:57Z</time>
      </trkpt>
      <trkpt lat="41.40222896766682" lon="-81.73758208242673">
        <ele>267.2785072351</ele>
        <time>2026-07-11T19:27:52Z</time>
      </trkpt>
      <trkpt lat="41.40223835960645" lon="-81.73698113665559">
        <ele>267.2356424277</ele>
        <time>2026-07-11T19:28:25Z</time>
      </trkpt>
      <trkpt lat="41.40222433484502" lon="-81.73638014840741">
        <ele>267.1329536832</ele>
        <time>2026-07-11T19:29:01Z</time>
      </trkpt>
      <trkpt lat="41.40222386544127" lon="-81.73577113119919">
        <ele>267.5482870122</ele>
        <time>2026-07-11T19:29:35Z</time>
      </trkpt>
      <trkpt lat="41.40222372949751" lon="-81.73517663441899">
        <ele>267.3626308449</ele>
        <time>2026-07-11T19:30:18Z</time>
      </trkpt>
      <trkpt lat="41.40221817969356" lon="-81.73464797283060">
        <ele>266.8301636339</ele>
        <time>2026-07-11T19:31:02Z</time>
      </trkpt>
      <trkpt lat="41.40177381188919" lon="-81.73464262292708">
        <ele>267.3485450085</ele>
        <time>2026-07-11T19:31:40Z</time>
      </trkpt>
      <trkpt lat="41.40132691441264" lon="-81.73463319331793">
        <ele>267.3880306433</ele>
        <time>2026-07-11T19:32:31Z</time>
      </trkpt>
      <trkpt lat="41.40131738950296" lon="-81.73463825361722">
        <ele>267.4875875785</ele>
        <time>2026-07-11T19:32:32Z</time>
      </trkpt>
      <trkpt lat="41.40131723278042" lon="-81.73523429404932">
        <ele>267.7842648302</ele>
        <time>2026-07-11T19:33:05Z</time>
      </trkpt>
      <trkpt lat="41.40132537815614" lon="-81.73584012882381">
        <ele>268.3241911544</ele>
        <time>2026-07-11T19:33:49Z</time>
      </trkpt>
      <trkpt lat="41.40131112942268" lon="-81.73643478692885">
        <ele>267.8402175415</ele>
        <time>2026-07-11T19:34:34Z</time>
      </trkpt>
      <trkpt lat="41.40132355913909" lon="-81.73704789611534">
        <ele>268.0914572569</ele>
        <time>2026-07-11T19:35:10Z</time>
      </trkpt>
      <trkpt lat="41.40133444639501" lon="-81.73763325613996">
        <ele>267.8482419782</ele>
        <time>2026-07-11T19:35:55Z</time>
      </trkpt>
      <trkpt lat="41.40133705139240" lon="-81.73823167555248">
        <ele>267.7974505045</ele>
        <time>2026-07-11T19:36:41Z</time>
      </trkpt>
      <trkpt lat="41.40133403194516" lon="-81.73882855372267">
        <ele>267.5586730053</ele>
        <time>2026-07-11T19:37:41Z</time>
      </trkpt>
      <trkpt lat="41.40134466083646" lon="-81.73942724880341">
        <ele>267.1807041189</ele>
        <time>2026-07-11T19:38:21Z</time>
      </trkpt>
      <trkpt lat="41.40135115937302" lon="-81.74003474244078">
        <ele>266.5678532475</ele>
        <time>2026-07-11T19:39:03Z</time>
      </trkpt>
      <trkpt lat="41.40134802975417" lon="-81.74016569495416">
        <ele>266.2974115624</ele>
        <time>2026-07-11T19:39:21Z</time>
      </trkpt>
    </trkseg>
  </trk>
</gpx>