<?xml version='1.0' encoding='UTF-8'?>
<gpx xmlns="http://www.topografix.com/GPX/1/1" creator="https://gpx.studio" version="1.1">
  <metadata>
    <name>Dog Walk - 2026-08-25 #2</name>
  </metadata>
  <trk>
    <name>Dog Walk - 2026-08-25 #2</name>
    <type>dog walk</type>
    <trkseg>
      <trkpt lat="41.40132924372271" lon="-81.74023879437428">
        <ele>266.3657507228</ele>
        <time>2026-08-25T12:37:37Z</time>
      </trkpt>
      <trkpt lat="41.40132661378203" lon="-81.74084079208647">
        <ele>266.2342567336</ele>
        <time>2026-08-25T12:38:15Z</time>
      </trkpt>
      <trkpt lat="41.40133202049343" lon="-81.74143306309325">
        <ele>265.8794663916</ele>
        <time>2026-08-25T12:38:59Z</time>
      </trkpt>
      <trkpt lat="41.40133156997763" lon="-81.74203203250113">
        <ele>265.3727074008</ele>
        <time>2026-08-25T12:39:39Z</time>
      </trkpt>
      <trkpt lat="41.40132972827927" lon="-81.74239515081014">
        <ele>264.9304421589</ele>
        <time>2026-08-25T12:39:56Z</time>
      </trkpt>
      <trkpt lat="41.40090656162853" lon="-81.74219911424532">
        <ele>265.0434090951</ele>
        <time>2026-08-25T12:40:42Z</time>
      </trkpt>
      <trkpt lat="41.40047635733385" lon="-81.74200980140981">
        <ele>265.2133507751</ele>
        <time>2026-08-25T12:41:38Z</time>
      </trkpt>
      <trkpt lat="41.40006172367976" lon="-81.74180110842303">
        <ele>265.3768717705</ele>
        <time>2026-08-25T12:42:18Z</time>
      </trkpt>
      <trkpt lat="41.39962431953241" lon="-81.74161953166622">
        <ele>264.6563621153</ele>
        <time>2026-08-25T12:42:50Z</time>
      </trkpt>
      <trkpt lat="41.39953437327004" lon="-81.74157590557988">
        <ele>264.6082013837</ele>
        <time>2026-08-25T12:42:56Z</time>
      </trkpt>
      <trkpt lat="41.39953802408112" lon="-81.74096887043761">
        <ele>265.4358785527</ele>
        <time>2026-08-25T12:43:40Z</time>
      </trkpt>
      <trkpt lat="41.39953948157537" lon="-81.74038809316077">
        <ele>266.0905461948</ele>
        <time>2026-08-25T12:44:27Z</time>
      </trkpt>
      <trkpt lat="41.39953205634149" lon="-81.73977512124750">
        <ele>266.8038440572</ele>
        <time>2026-08-25T12:45:17Z</time>
      </trkpt>
      <trkpt lat="41.39954186817511" lon="-81.73917930760703">
        <ele>266.9092339173</ele>
        <time>2026-08-25T12:46:03Z</time>
      </trkpt>
      <trkpt lat="41.39952763311845" lon="-81.73857564984159">
        <ele>266.8244295512</ele>
        <time>2026-08-25T12:46:53Z</time>
      </trkpt>
      <trkpt lat="41.39953356797383" lon="-81.73798439390558">
        <ele>267.2137377425</ele>
        <time>2026-08-25T12:47:30Z</time>
      </trkpt>
      <trkpt lat="41.39953005767434" lon="-81.73738019347266">
        <ele>267.2707044566</ele>
        <time>2026-08-25T12:48:11Z</time>
      </trkpt>
      <trkpt lat="41.39952483319643" lon="-81.73678330812471">
        <ele>267.3640883671</ele>
        <time>2026-08-25T12:48:57Z</time>
      </trkpt>
      <trkpt lat="41.39952574277394" lon="-81.73617538582212">
        <ele>267.5007639573</ele>
        <time>2026-08-25T12:49:36Z</time>
      </trkpt>
      <trkpt lat="41.39952838695695" lon="-81.73558464133350">
        <ele>267.5695034895</ele>
        <time>2026-08-25T12:50:20Z</time>
      </trkpt>
      <trkpt lat="41.39952814789890" lon="-81.73497703973952">
        <ele>267.3270163528</ele>
        <time>2026-08-25T12:51:04Z</time>
      </trkpt>
      <trkpt lat="41.39952174586638" lon="-81.73462817096710">
        <ele>267.2722799063</ele>
        <time>2026-08-25T12:51:27Z</time>
      </trkpt>
      <trkpt lat="41.39997987376441" lon="-81.73462179759892">
        <ele>267.2185578649</ele>
        <time>2026-08-25T12:52:19Z</time>
      </trkpt>
      <trkpt lat="41.40042501981677" lon="-81.73463126779374">
        <ele>267.3134362019</ele>
        <time>2026-08-25T12:53:02Z</time>
      </trkpt>
      <trkpt lat="41.40086802683356" lon="-81.73463941803963">
        <ele>267.2609929118</ele>
        <time>2026-08-25T12:53:36Z</time>
      </trkpt>
      <trkpt lat="41.40131698676082" lon="-81.73464100287819">
        <ele>267.3554078023</ele>
        <time>2026-08-25T12:54:20Z</time>
      </trkpt>
      <trkpt lat="41.40131840208138" lon="-81.73524125205400">
        <ele>267.7802565802</ele>
        <time>2026-08-25T12:54:57Z</time>
      </trkpt>
      <trkpt lat="41.40132411917893" lon="-81.73583499123325">
        <ele>268.3648681280</ele>
        <time>2026-08-25T12:55:50Z</time>
      </trkpt>
      <trkpt lat="41.40132745761039" lon="-81.73645063704039">
        <ele>268.3640243817</ele>
        <time>2026-08-25T12:56:27Z</time>
      </trkpt>
      <trkpt lat="41.40133131846831" lon="-81.73702971636826">
        <ele>268.0901691503</ele>
        <time>2026-08-25T12:57:02Z</time>
      </trkpt>
      <trkpt lat="41.40132870170327" lon="-81.73763602872609">
        <ele>267.9286640832</ele>
        <time>2026-08-25T12:57:45Z</time>
      </trkpt>
      <trkpt lat="41.40133220645853" lon="-81.73823597205279">
        <ele>267.5060646161</ele>
        <time>2026-08-25T12:58:33Z</time>
      </trkpt>
      <trkpt lat="41.40132184718873" lon="-81.73883276137023">
        <ele>267.3826348708</ele>
        <time>2026-08-25T12:59:13Z</time>
      </trkpt>
      <trkpt lat="41.40133339691756" lon="-81.73943254379837">
        <ele>267.0382653099</ele>
        <time>2026-08-25T12:59:50Z</time>
      </trkpt>
      <trkpt lat="41.40133419214342" lon="-81.74004275344360">
        <ele>266.8418060184</ele>
        <time>2026-08-25T13:00:31Z</time>
      </trkpt>
      <trkpt lat="41.40133988003118" lon="-81.74022004981144">
        <ele>266.5017097180</ele>
        <time>2026-08-25T13:00:42Z</time>
      </trkpt>
    </trkseg>
  </trk>
</gpx>