<?xml version='1.0' encoding='UTF-8'?>
<gpx xmlns="http://www.topografix.com/GPX/1/1" creator="https://gpx.studio" version="1.1">
  <metadata>
    <name>Dog Walk - 2026-09-17 #1</name>
  </metadata>
  <trk>
    <name>Dog Walk - 2026-09-17 #1</name>
    <type>dog walk</type>
    <trkseg>
      <trkpt lat="41.40133175795238" lon="-81.74026193440986">
        <ele>266.8398816895</ele>
        <time>2026-09-17T08:42:27Z</time>
      </trkpt>
      <trkpt lat="41.40133187570718" lon="-81.74026059714531">
        <ele>266.6086099594</ele>
        <time>2026-09-17T08:42:28Z</time>
      </trkpt>
      <trkpt lat="41.40133544584045" lon="-81.74085510992046">
        <ele>266.1403555960</ele>
        <time>2026-09-17T08:43:11Z</time>
      </trkpt>
      <trkpt lat="41.40132888137248" lon="-81.74146244035784">
        <ele>265.7473277277</ele>
        <time>2026-09-17T08:43:55Z</time>
      </trkpt>
      <trkpt lat="41.40132107427361" lon="-81.74205608464034">
        <ele>265.4286272413</ele>
        <time>2026-09-17T08:44:39Z</time>
      </trkpt>
      <trkpt lat="41.40132321471491" lon="-81.74237439803144">
        <ele>264.5963114338</ele>
        <time>2026-09-17T08:45:00Z</time>
      </trkpt>
      <trkpt lat="41.40132492392183" lon="-81.74237824378892">
        <ele>264.6914306816</ele>
        <time>2026-09-17T08:45:01Z</time>
      </trkpt>
      <trkpt lat="41.40089034042528" lon="-81.74219054367975">
        <ele>265.1301228191</ele>
        <time>2026-09-17T08:45:52Z</time>
      </trkpt>
      <trkpt lat="41.40046938376615" lon="-81.74199406180709">
        <ele>265.2662148764</ele>
        <time>2026-09-17T08:46:46Z</time>
      </trkpt>
      <trkpt lat="41.40004218484550" lon="-81.74179569917612">
        <ele>265.3941968938</ele>
        <time>2026-09-17T08:47:22Z</time>
      </trkpt>
      <trkpt lat="41.39961828972058" lon="-81.74160033125793">
        <ele>264.7292802111</ele>
        <time>2026-09-17T08:47:55Z</time>
      </trkpt>
      <trkpt lat="41.39954616717944" lon="-81.74156676829286">
        <ele>264.8123045882</ele>
        <time>2026-09-17T08:48:01Z</time>
      </trkpt>
      <trkpt lat="41.39954931056606" lon="-81.74097097698603">
        <ele>265.8525473353</ele>
        <time>2026-09-17T08:48:47Z</time>
      </trkpt>
      <trkpt lat="41.39954660805564" lon="-81.74037648138571">
        <ele>266.0767298844</ele>
        <time>2026-09-17T08:49:29Z</time>
      </trkpt>
      <trkpt lat="41.39954414235891" lon="-81.73978042530935">
        <ele>266.5909730741</ele>
        <time>2026-09-17T08:50:16Z</time>
      </trkpt>
      <trkpt lat="41.39954084943059" lon="-81.73917422251425">
        <ele>266.9332978529</ele>
        <time>2026-09-17T08:50:51Z</time>
      </trkpt>
      <trkpt lat="41.39953843855667" lon="-81.73857582842319">
        <ele>267.1810514523</ele>
        <time>2026-09-17T08:51:39Z</time>
      </trkpt>
      <trkpt lat="41.39953330784640" lon="-81.73829739474179">
        <ele>266.9271464692</ele>
        <time>2026-09-17T08:51:56Z</time>
      </trkpt>
      <trkpt lat="41.39953850731271" lon="-81.73830208708695">
        <ele>267.0213205068</ele>
        <time>2026-09-17T08:51:57Z</time>
      </trkpt>
      <trkpt lat="41.39999426353517" lon="-81.73829458377298">
        <ele>266.9615171242</ele>
        <time>2026-09-17T08:52:36Z</time>
      </trkpt>
      <trkpt lat="41.40043919966095" lon="-81.73828885592188">
        <ele>267.3535172315</ele>
        <time>2026-09-17T08:53:16Z</time>
      </trkpt>
      <trkpt lat="41.40088584925864" lon="-81.73829979260165">
        <ele>267.5808041574</ele>
        <time>2026-09-17T08:54:06Z</time>
      </trkpt>
      <trkpt lat="41.40132621715717" lon="-81.73831217874933">
        <ele>267.3992684372</ele>
        <time>2026-09-17T08:54:47Z</time>
      </trkpt>
      <trkpt lat="41.40133360287942" lon="-81.73890815732791">
        <ele>267.4011343998</ele>
        <time>2026-09-17T08:55:31Z</time>
      </trkpt>
      <trkpt lat="41.40132569217528" lon="-81.73949700512507">
        <ele>267.3231034713</ele>
        <time>2026-09-17T08:56:24Z</time>
      </trkpt>
      <trkpt lat="41.40134494728260" lon="-81.74010238702179">
        <ele>266.4970003983</ele>
        <time>2026-09-17T08:57:08Z</time>
      </trkpt>
      <trkpt lat="41.40134444358856" lon="-81.74015371304012">
        <ele>266.6431286076</ele>
        <time>2026-09-17T08:57:11Z</time>
      </trkpt>
    </trkseg>
  </trk>
</gpx>