<?xml version='1.0' encoding='UTF-8'?>
<gpx xmlns="http://www.topografix.com/GPX/1/1" creator="https://gpx.studio" version="1.1">
  <metadata>
    <name>Dog Walk - 2026-03-11 #2</name>
  </metadata>
  <trk>
    <name>Dog Walk - 2026-03-11 #2</name>
    <type>dog walk</type>
    <trkseg>
      <trkpt lat="41.40134271312768" lon="-81.74023582249427">
        <ele>266.5732719071</ele>
        <time>2026-03-11T17:33:41Z</time>
      </trkpt>
      <trkpt lat="41.40133978587599" lon="-81.74083611533230">
        <ele>266.3119496024</ele>
        <time>2026-03-11T17:34:16Z</time>
      </trkpt>
      <trkpt lat="41.40133524220277" lon="-81.74143005493556">
        <ele>265.9944967764</ele>
        <time>2026-03-11T17:34:50Z</time>
      </trkpt>
      <trkpt lat="41.40133816179615" lon="-81.74203038972352">
        <ele>265.2777836615</ele>
        <time>2026-03-11T17:35:35Z</time>
      </trkpt>
      <trkpt lat="41.40132694402291" lon="-81.74239008635811">
        <ele>264.6563882172</ele>
        <time>2026-03-11T17:36:01Z</time>
      </trkpt>
      <trkpt lat="41.40092114635342" lon="-81.74217193734638">
        <ele>265.2387553521</ele>
        <time>2026-03-11T17:36:30Z</time>
      </trkpt>
      <trkpt lat="41.40048807682865" lon="-81.74197458078514">
        <ele>265.0034578653</ele>
        <time>2026-03-11T17:37:23Z</time>
      </trkpt>
      <trkpt lat="41.40044402829566" lon="-81.74194975527645">
        <ele>265.2545639181</ele>
        <time>2026-03-11T17:37:28Z</time>
      </trkpt>
      <trkpt lat="41.40044720355509" lon="-81.74135381711899">
        <ele>265.9551156140</ele>
        <time>2026-03-11T17:38:11Z</time>
      </trkpt>
      <trkpt lat="41.40044210846603" lon="-81.74075162894465">
        <ele>266.0139722755</ele>
        <time>2026-03-11T17:38:56Z</time>
      </trkpt>
      <trkpt lat="41.40044310963157" lon="-81.74014904943225">
        <ele>266.8245463372</ele>
        <time>2026-03-11T17:39:24Z</time>
      </trkpt>
      <trkpt lat="41.40043315845536" lon="-81.73954919516302">
        <ele>267.0387644240</ele>
        <time>2026-03-11T17:39:56Z</time>
      </trkpt>
      <trkpt lat="41.40043685537375" lon="-81.73895432236884">
        <ele>266.9310569645</ele>
        <time>2026-03-11T17:40:35Z</time>
      </trkpt>
      <trkpt lat="41.40042219762036" lon="-81.73834628668700">
        <ele>267.3910263525</ele>
        <time>2026-03-11T17:41:36Z</time>
      </trkpt>
      <trkpt lat="41.40041515475993" lon="-81.73775309418623">
        <ele>267.6705098670</ele>
        <time>2026-03-11T17:42:21Z</time>
      </trkpt>
      <trkpt lat="41.40041712451898" lon="-81.73715001988903">
        <ele>267.8177572401</ele>
        <time>2026-03-11T17:42:57Z</time>
      </trkpt>
      <trkpt lat="41.40040848797830" lon="-81.73655288981951">
        <ele>267.9320095526</ele>
        <time>2026-03-11T17:43:29Z</time>
      </trkpt>
      <trkpt lat="41.40040752045981" lon="-81.73595542276708">
        <ele>267.8464009146</ele>
        <time>2026-03-11T17:44:24Z</time>
      </trkpt>
      <trkpt lat="41.40040919634135" lon="-81.73536073210175">
        <ele>267.9926638704</ele>
        <time>2026-03-11T17:45:14Z</time>
      </trkpt>
      <trkpt lat="41.40038888639646" lon="-81.73475282254924">
        <ele>267.1635757358</ele>
        <time>2026-03-11T17:46:08Z</time>
      </trkpt>
      <trkpt lat="41.40039060641140" lon="-81.73463369261593">
        <ele>267.3307093208</ele>
        <time>2026-03-11T17:46:17Z</time>
      </trkpt>
      <trkpt lat="41.40084041168654" lon="-81.73462744289348">
        <ele>267.3824343727</ele>
        <time>2026-03-11T17:46:54Z</time>
      </trkpt>
      <trkpt lat="41.40129433169177" lon="-81.73463850573201">
        <ele>267.4548258501</ele>
        <time>2026-03-11T17:47:45Z</time>
      </trkpt>
      <trkpt lat="41.40132026201672" lon="-81.73463249982079">
        <ele>267.3746591144</ele>
        <time>2026-03-11T17:47:47Z</time>
      </trkpt>
      <trkpt lat="41.40131891636915" lon="-81.73522405602321">
        <ele>267.9037593426</ele>
        <time>2026-03-11T17:48:31Z</time>
      </trkpt>
      <trkpt lat="41.40132840173531" lon="-81.73583560335457">
        <ele>268.0963574346</ele>
        <time>2026-03-11T17:49:25Z</time>
      </trkpt>
      <trkpt lat="41.40132143768177" lon="-81.73642991136707">
        <ele>268.2445792609</ele>
        <time>2026-03-11T17:50:01Z</time>
      </trkpt>
      <trkpt lat="41.40133374165968" lon="-81.73703340197811">
        <ele>268.0147559814</ele>
        <time>2026-03-11T17:50:45Z</time>
      </trkpt>
      <trkpt lat="41.40133623660294" lon="-81.73763226622289">
        <ele>268.0556467156</ele>
        <time>2026-03-11T17:51:19Z</time>
      </trkpt>
      <trkpt lat="41.40133939672850" lon="-81.73822626757307">
        <ele>267.7864957111</ele>
        <time>2026-03-11T17:51:56Z</time>
      </trkpt>
      <trkpt lat="41.40134048907385" lon="-81.73882685053229">
        <ele>267.4387196461</ele>
        <time>2026-03-11T17:52:36Z</time>
      </trkpt>
      <trkpt lat="41.40134300569854" lon="-81.73943551997563">
        <ele>267.1482588500</ele>
        <time>2026-03-11T17:53:17Z</time>
      </trkpt>
      <trkpt lat="41.40134263055817" lon="-81.74003805865937">
        <ele>266.5653203665</ele>
        <time>2026-03-11T17:54:07Z</time>
      </trkpt>
      <trkpt lat="41.40133906042001" lon="-81.74019332645679">
        <ele>266.5209302547</ele>
        <time>2026-03-11T17:54:18Z</time>
      </trkpt>
    </trkseg>
  </trk>
</gpx>