<?xml version='1.0' encoding='UTF-8'?>
<gpx xmlns="http://www.topografix.com/GPX/1/1" creator="https://gpx.studio" version="1.1">
  <metadata>
    <name>Dog Walk - 2026-03-26 #1</name>
  </metadata>
  <trk>
    <name>Dog Walk - 2026-03-26 #1</name>
    <type>dog walk</type>
    <trkseg>
      <trkpt lat="41.40134577985008" lon="-81.74024145349058">
        <ele>266.5876642447</ele>
        <time>2026-03-26T08:33:53Z</time>
      </trkpt>
      <trkpt lat="41.40133618714147" lon="-81.74083750880474">
        <ele>266.3323349473</ele>
        <time>2026-03-26T08:34:30Z</time>
      </trkpt>
      <trkpt lat="41.40134584983805" lon="-81.74143445568235">
        <ele>265.5165590362</ele>
        <time>2026-03-26T08:35:03Z</time>
      </trkpt>
      <trkpt lat="41.40134183649550" lon="-81.74203460074474">
        <ele>265.0848605077</ele>
        <time>2026-03-26T08:35:49Z</time>
      </trkpt>
      <trkpt lat="41.40135128725669" lon="-81.74242552364238">
        <ele>264.8242601637</ele>
        <time>2026-03-26T08:36:15Z</time>
      </trkpt>
      <trkpt lat="41.40177087823164" lon="-81.74262593432033">
        <ele>264.2334401795</ele>
        <time>2026-03-26T08:37:04Z</time>
      </trkpt>
      <trkpt lat="41.40219385744861" lon="-81.74281802870766">
        <ele>263.7490690442</ele>
        <time>2026-03-26T08:37:53Z</time>
      </trkpt>
      <trkpt lat="41.40261844716431" lon="-81.74302064153642">
        <ele>263.1724895408</ele>
        <time>2026-03-26T08:38:48Z</time>
      </trkpt>
      <trkpt lat="41.40304524758047" lon="-81.74322074366633">
        <ele>262.5409155982</ele>
        <time>2026-03-26T08:39:33Z</time>
      </trkpt>
      <trkpt lat="41.40311578136070" lon="-81.74324903555582">
        <ele>262.2833240626</ele>
        <time>2026-03-26T08:39:39Z</time>
      </trkpt>
      <trkpt lat="41.40311948414238" lon="-81.74265463817308">
        <ele>263.2706596707</ele>
        <time>2026-03-26T08:40:19Z</time>
      </trkpt>
      <trkpt lat="41.40311058751691" lon="-81.74205114340316">
        <ele>263.6582160585</ele>
        <time>2026-03-26T08:41:01Z</time>
      </trkpt>
      <trkpt lat="41.40311336719205" lon="-81.74144812595020">
        <ele>264.0895549306</ele>
        <time>2026-03-26T08:41:33Z</time>
      </trkpt>
      <trkpt lat="41.40310708076387" lon="-81.74086523746780">
        <ele>264.9074352003</ele>
        <time>2026-03-26T08:42:09Z</time>
      </trkpt>
      <trkpt lat="41.40310099154176" lon="-81.74024342759633">
        <ele>265.3737829529</ele>
        <time>2026-03-26T08:43:05Z</time>
      </trkpt>
      <trkpt lat="41.40310862538630" lon="-81.73965967877446">
        <ele>265.8891999950</ele>
        <time>2026-03-26T08:43:46Z</time>
      </trkpt>
      <trkpt lat="41.40309848569223" lon="-81.73905790044158">
        <ele>266.0954329317</ele>
        <time>2026-03-26T08:44:21Z</time>
      </trkpt>
      <trkpt lat="41.40309881972730" lon="-81.73879888353927">
        <ele>266.2635652346</ele>
        <time>2026-03-26T08:44:41Z</time>
      </trkpt>
      <trkpt lat="41.40264983725802" lon="-81.73878201353719">
        <ele>266.6244204360</ele>
        <time>2026-03-26T08:45:52Z</time>
      </trkpt>
      <trkpt lat="41.40223502698142" lon="-81.73877759724620">
        <ele>266.9999558185</ele>
        <time>2026-03-26T08:46:31Z</time>
      </trkpt>
      <trkpt lat="41.40222784506646" lon="-81.73818378393187">
        <ele>267.1865423195</ele>
        <time>2026-03-26T08:47:13Z</time>
      </trkpt>
      <trkpt lat="41.40223262133440" lon="-81.73757029894232">
        <ele>267.2538465565</ele>
        <time>2026-03-26T08:47:58Z</time>
      </trkpt>
      <trkpt lat="41.40222312638313" lon="-81.73698971676824">
        <ele>267.1691419363</ele>
        <time>2026-03-26T08:48:38Z</time>
      </trkpt>
      <trkpt lat="41.40222929966092" lon="-81.73638729157886">
        <ele>267.0664313614</ele>
        <time>2026-03-26T08:49:22Z</time>
      </trkpt>
      <trkpt lat="41.40222278243867" lon="-81.73578229377873">
        <ele>267.1733107619</ele>
        <time>2026-03-26T08:49:59Z</time>
      </trkpt>
      <trkpt lat="41.40222334157871" lon="-81.73518149428952">
        <ele>267.1487807080</ele>
        <time>2026-03-26T08:50:45Z</time>
      </trkpt>
      <trkpt lat="41.40222683947227" lon="-81.73465216271836">
        <ele>266.9884078959</ele>
        <time>2026-03-26T08:51:26Z</time>
      </trkpt>
      <trkpt lat="41.40177753864440" lon="-81.73464545466420">
        <ele>267.1954699485</ele>
        <time>2026-03-26T08:52:14Z</time>
      </trkpt>
      <trkpt lat="41.40132050788745" lon="-81.73463717613328">
        <ele>267.2004496265</ele>
        <time>2026-03-26T08:52:59Z</time>
      </trkpt>
      <trkpt lat="41.40130802362564" lon="-81.73462972525579">
        <ele>267.3886258536</ele>
        <time>2026-03-26T08:53:16Z</time>
      </trkpt>
      <trkpt lat="41.40131836263672" lon="-81.73523272794496">
        <ele>268.0199639063</ele>
        <time>2026-03-26T08:54:03Z</time>
      </trkpt>
      <trkpt lat="41.40130946091627" lon="-81.73582367840646">
        <ele>268.2868900686</ele>
        <time>2026-03-26T08:54:39Z</time>
      </trkpt>
      <trkpt lat="41.40132220910054" lon="-81.73642971831033">
        <ele>268.1874143776</ele>
        <time>2026-03-26T08:55:24Z</time>
      </trkpt>
      <trkpt lat="41.40132884144634" lon="-81.73704200188762">
        <ele>267.9792873384</ele>
        <time>2026-03-26T08:56:08Z</time>
      </trkpt>
      <trkpt lat="41.40132618806668" lon="-81.73762916021143">
        <ele>267.9476584863</ele>
        <time>2026-03-26T08:56:40Z</time>
      </trkpt>
      <trkpt lat="41.40133976109628" lon="-81.73822514385429">
        <ele>267.5901154338</ele>
        <time>2026-03-26T08:57:17Z</time>
      </trkpt>
      <trkpt lat="41.40133954585290" lon="-81.73883438237411">
        <ele>267.3904415077</ele>
        <time>2026-03-26T08:57:59Z</time>
      </trkpt>
      <trkpt lat="41.40133945929865" lon="-81.73943357344875">
        <ele>267.0383757742</ele>
        <time>2026-03-26T08:58:32Z</time>
      </trkpt>
      <trkpt lat="41.40134203141539" lon="-81.74003214696128">
        <ele>266.6733166384</ele>
        <time>2026-03-26T08:59:15Z</time>
      </trkpt>
      <trkpt lat="41.40134214815603" lon="-81.74016592764710">
        <ele>266.4975593801</ele>
        <time>2026-03-26T08:59:26Z</time>
      </trkpt>
    </trkseg>
  </trk>
</gpx>