<?xml version='1.0' encoding='UTF-8'?>
<gpx xmlns="http://www.topografix.com/GPX/1/1" creator="https://gpx.studio" version="1.1">
  <metadata>
    <name>Dog Walk - 2026-06-30</name>
  </metadata>
  <trk>
    <name>Dog Walk - 2026-06-30</name>
    <type>dog walk</type>
    <trkseg>
      <trkpt lat="41.40134594354714" lon="-81.74022432308057">
        <ele>266.4450498741</ele>
        <time>2026-06-30T18:17:19Z</time>
      </trkpt>
      <trkpt lat="41.40134740524807" lon="-81.74082275236246">
        <ele>266.3430448784</ele>
        <time>2026-06-30T18:17:54Z</time>
      </trkpt>
      <trkpt lat="41.40133056912494" lon="-81.74143156360081">
        <ele>265.9597536441</ele>
        <time>2026-06-30T18:18:25Z</time>
      </trkpt>
      <trkpt lat="41.40133354406969" lon="-81.74203317596468">
        <ele>265.4460390041</ele>
        <time>2026-06-30T18:19:03Z</time>
      </trkpt>
      <trkpt lat="41.40133320062034" lon="-81.74238870090942">
        <ele>264.6207935450</ele>
        <time>2026-06-30T18:19:29Z</time>
      </trkpt>
      <trkpt lat="41.40090906768606" lon="-81.74217091596532">
        <ele>265.1475085823</ele>
        <time>2026-06-30T18:20:19Z</time>
      </trkpt>
      <trkpt lat="41.40048950901925" lon="-81.74196997729588">
        <ele>265.2172078284</ele>
        <time>2026-06-30T18:21:03Z</time>
      </trkpt>
      <trkpt lat="41.40045156618953" lon="-81.74194258531699">
        <ele>265.2195515034</ele>
        <time>2026-06-30T18:21:07Z</time>
      </trkpt>
      <trkpt lat="41.40044354193964" lon="-81.74135346111635">
        <ele>266.1061049557</ele>
        <time>2026-06-30T18:21:39Z</time>
      </trkpt>
      <trkpt lat="41.40044318322393" lon="-81.74074666484294">
        <ele>266.3779699942</ele>
        <time>2026-06-30T18:22:23Z</time>
      </trkpt>
      <trkpt lat="41.40043433197246" lon="-81.74014970604136">
        <ele>266.8456541023</ele>
        <time>2026-06-30T18:23:03Z</time>
      </trkpt>
      <trkpt lat="41.40043075832340" lon="-81.73955033786045">
        <ele>267.1744629629</ele>
        <time>2026-06-30T18:23:46Z</time>
      </trkpt>
      <trkpt lat="41.40042546063585" lon="-81.73895323407524">
        <ele>267.2174508449</ele>
        <time>2026-06-30T18:24:32Z</time>
      </trkpt>
      <trkpt lat="41.40042071110390" lon="-81.73835372896460">
        <ele>267.1530471719</ele>
        <time>2026-06-30T18:25:17Z</time>
      </trkpt>
      <trkpt lat="41.40042044044600" lon="-81.73775090296779">
        <ele>267.6803428760</ele>
        <time>2026-06-30T18:25:58Z</time>
      </trkpt>
      <trkpt lat="41.40041575628972" lon="-81.73714466477452">
        <ele>268.1015795023</ele>
        <time>2026-06-30T18:26:49Z</time>
      </trkpt>
      <trkpt lat="41.40041196305683" lon="-81.73655306948805">
        <ele>268.1715836504</ele>
        <time>2026-06-30T18:27:24Z</time>
      </trkpt>
      <trkpt lat="41.40040491047013" lon="-81.73595147023629">
        <ele>267.8803985791</ele>
        <time>2026-06-30T18:28:11Z</time>
      </trkpt>
      <trkpt lat="41.40039712000991" lon="-81.73535661050836">
        <ele>267.9051328186</ele>
        <time>2026-06-30T18:28:50Z</time>
      </trkpt>
      <trkpt lat="41.40040016522379" lon="-81.73476468507019">
        <ele>267.3888395290</ele>
        <time>2026-06-30T18:29:25Z</time>
      </trkpt>
      <trkpt lat="41.40039028641640" lon="-81.73462900503934">
        <ele>267.3668556351</ele>
        <time>2026-06-30T18:29:35Z</time>
      </trkpt>
      <trkpt lat="41.40084816470914" lon="-81.73462823693684">
        <ele>267.4049426836</ele>
        <time>2026-06-30T18:30:17Z</time>
      </trkpt>
      <trkpt lat="41.40129948859521" lon="-81.73463048525696">
        <ele>267.2862629803</ele>
        <time>2026-06-30T18:30:55Z</time>
      </trkpt>
      <trkpt lat="41.40132180932226" lon="-81.73464360165622">
        <ele>267.4417098548</ele>
        <time>2026-06-30T18:30:57Z</time>
      </trkpt>
      <trkpt lat="41.40132652111561" lon="-81.73523389958142">
        <ele>267.7704079859</ele>
        <time>2026-06-30T18:31:29Z</time>
      </trkpt>
      <trkpt lat="41.40132208180189" lon="-81.73582478317145">
        <ele>268.3199085048</ele>
        <time>2026-06-30T18:32:03Z</time>
      </trkpt>
      <trkpt lat="41.40132626251238" lon="-81.73642953134593">
        <ele>268.3826863224</ele>
        <time>2026-06-30T18:32:44Z</time>
      </trkpt>
      <trkpt lat="41.40133027522634" lon="-81.73703678590481">
        <ele>268.2340975870</ele>
        <time>2026-06-30T18:33:18Z</time>
      </trkpt>
      <trkpt lat="41.40133060670573" lon="-81.73764094244021">
        <ele>268.0206421241</ele>
        <time>2026-06-30T18:33:54Z</time>
      </trkpt>
      <trkpt lat="41.40134132098080" lon="-81.73822502553298">
        <ele>267.6251865185</ele>
        <time>2026-06-30T18:34:24Z</time>
      </trkpt>
      <trkpt lat="41.40133869354244" lon="-81.73882817453068">
        <ele>267.4290418577</ele>
        <time>2026-06-30T18:35:00Z</time>
      </trkpt>
      <trkpt lat="41.40133558245643" lon="-81.73942912854311">
        <ele>267.2470819602</ele>
        <time>2026-06-30T18:36:02Z</time>
      </trkpt>
      <trkpt lat="41.40134752347834" lon="-81.74003109008044">
        <ele>266.5070914022</ele>
        <time>2026-06-30T18:36:40Z</time>
      </trkpt>
      <trkpt lat="41.40134933819645" lon="-81.74019434366552">
        <ele>266.5913743762</ele>
        <time>2026-06-30T18:36:51Z</time>
      </trkpt>
    </trkseg>
  </trk>
</gpx>