<?xml version='1.0' encoding='UTF-8'?>
<gpx xmlns="http://www.topografix.com/GPX/1/1" creator="https://gpx.studio" version="1.1">
  <metadata>
    <name>Dog Walk - 2026-03-26 #4</name>
  </metadata>
  <trk>
    <name>Dog Walk - 2026-03-26 #4</name>
    <type>dog walk</type>
    <trkseg>
      <trkpt lat="41.40132939804598" lon="-81.74026096467115">
        <ele>266.6703690811</ele>
        <time>2026-03-26T19:42:24Z</time>
      </trkpt>
      <trkpt lat="41.40133362379828" lon="-81.74026406630077">
        <ele>266.5666435900</ele>
        <time>2026-03-26T19:42:25Z</time>
      </trkpt>
      <trkpt lat="41.40133332077610" lon="-81.74085587795336">
        <ele>266.3188412481</ele>
        <time>2026-03-26T19:43:04Z</time>
      </trkpt>
      <trkpt lat="41.40132599922280" lon="-81.74146178843358">
        <ele>266.0033144341</ele>
        <time>2026-03-26T19:43:44Z</time>
      </trkpt>
      <trkpt lat="41.40132222543712" lon="-81.74205921607974">
        <ele>265.4046357170</ele>
        <time>2026-03-26T19:44:34Z</time>
      </trkpt>
      <trkpt lat="41.40132534514385" lon="-81.74238402864412">
        <ele>264.6116665145</ele>
        <time>2026-03-26T19:44:53Z</time>
      </trkpt>
      <trkpt lat="41.40132614853692" lon="-81.74237847170431">
        <ele>264.8698767781</ele>
        <time>2026-03-26T19:44:54Z</time>
      </trkpt>
      <trkpt lat="41.40090214606855" lon="-81.74217670005284">
        <ele>264.9424431531</ele>
        <time>2026-03-26T19:45:26Z</time>
      </trkpt>
      <trkpt lat="41.40047242464853" lon="-81.74199238135350">
        <ele>264.9121134176</ele>
        <time>2026-03-26T19:46:18Z</time>
      </trkpt>
      <trkpt lat="41.40004178235468" lon="-81.74180451661996">
        <ele>265.2399132191</ele>
        <time>2026-03-26T19:46:52Z</time>
      </trkpt>
      <trkpt lat="41.39962710725824" lon="-81.74160812553770">
        <ele>264.6724326678</ele>
        <time>2026-03-26T19:47:28Z</time>
      </trkpt>
      <trkpt lat="41.39954413895775" lon="-81.74157779352666">
        <ele>264.7179770583</ele>
        <time>2026-03-26T19:47:39Z</time>
      </trkpt>
      <trkpt lat="41.39954945387437" lon="-81.74096954543876">
        <ele>265.7575530529</ele>
        <time>2026-03-26T19:48:20Z</time>
      </trkpt>
      <trkpt lat="41.39953594715836" lon="-81.74037661085146">
        <ele>266.1425844295</ele>
        <time>2026-03-26T19:48:59Z</time>
      </trkpt>
      <trkpt lat="41.39953833570816" lon="-81.73977615019621">
        <ele>266.5795055459</ele>
        <time>2026-03-26T19:49:31Z</time>
      </trkpt>
      <trkpt lat="41.39954604259357" lon="-81.73917137969988">
        <ele>266.7953904811</ele>
        <time>2026-03-26T19:50:05Z</time>
      </trkpt>
      <trkpt lat="41.39953923660896" lon="-81.73857707855855">
        <ele>266.8503215045</ele>
        <time>2026-03-26T19:50:37Z</time>
      </trkpt>
      <trkpt lat="41.39953956603266" lon="-81.73829853244658">
        <ele>266.8461322836</ele>
        <time>2026-03-26T19:51:01Z</time>
      </trkpt>
      <trkpt lat="41.39953807820318" lon="-81.73829347942065">
        <ele>266.7455751969</ele>
        <time>2026-03-26T19:51:02Z</time>
      </trkpt>
      <trkpt lat="41.39999013958333" lon="-81.73829985718008">
        <ele>267.3168650567</ele>
        <time>2026-03-26T19:51:45Z</time>
      </trkpt>
      <trkpt lat="41.40043572986202" lon="-81.73829311692944">
        <ele>267.2848691020</ele>
        <time>2026-03-26T19:52:26Z</time>
      </trkpt>
      <trkpt lat="41.40087427366466" lon="-81.73831171850378">
        <ele>267.4710610566</ele>
        <time>2026-03-26T19:53:05Z</time>
      </trkpt>
      <trkpt lat="41.40133071982535" lon="-81.73829971735840">
        <ele>267.4690140048</ele>
        <time>2026-03-26T19:53:37Z</time>
      </trkpt>
      <trkpt lat="41.40133186260223" lon="-81.73890301926757">
        <ele>267.0238989369</ele>
        <time>2026-03-26T19:54:19Z</time>
      </trkpt>
      <trkpt lat="41.40133659515806" lon="-81.73950666859157">
        <ele>267.2644162363</ele>
        <time>2026-03-26T19:55:16Z</time>
      </trkpt>
      <trkpt lat="41.40133288731725" lon="-81.74009639817767">
        <ele>266.5321847712</ele>
        <time>2026-03-26T19:56:04Z</time>
      </trkpt>
      <trkpt lat="41.40134064763740" lon="-81.74015325076232">
        <ele>266.3780511531</ele>
        <time>2026-03-26T19:56:07Z</time>
      </trkpt>
    </trkseg>
  </trk>
</gpx>