<?xml version='1.0' encoding='UTF-8'?>
<gpx xmlns="http://www.topografix.com/GPX/1/1" creator="https://gpx.studio" version="1.1">
  <metadata>
    <name>Dog Walk - 2026-07-06 #1</name>
  </metadata>
  <trk>
    <name>Dog Walk - 2026-07-06 #1</name>
    <type>dog walk</type>
    <trkseg>
      <trkpt lat="41.40133827016794" lon="-81.74022566301629">
        <ele>266.5038318962</ele>
        <time>2026-07-06T08:23:51Z</time>
      </trkpt>
      <trkpt lat="41.40134557539474" lon="-81.74083425223370">
        <ele>266.0499751075</ele>
        <time>2026-07-06T08:24:40Z</time>
      </trkpt>
      <trkpt lat="41.40134472894234" lon="-81.74141806326861">
        <ele>265.5337731346</ele>
        <time>2026-07-06T08:25:14Z</time>
      </trkpt>
      <trkpt lat="41.40135046508856" lon="-81.74202367870366">
        <ele>265.2532185645</ele>
        <time>2026-07-06T08:26:05Z</time>
      </trkpt>
      <trkpt lat="41.40135064488612" lon="-81.74242215237649">
        <ele>264.8152370745</ele>
        <time>2026-07-06T08:26:34Z</time>
      </trkpt>
      <trkpt lat="41.40176905691566" lon="-81.74262825622142">
        <ele>264.4005435937</ele>
        <time>2026-07-06T08:27:06Z</time>
      </trkpt>
      <trkpt lat="41.40218348203458" lon="-81.74284233785752">
        <ele>263.4293051431</ele>
        <time>2026-07-06T08:27:36Z</time>
      </trkpt>
      <trkpt lat="41.40261515795377" lon="-81.74305751425622">
        <ele>263.0782213834</ele>
        <time>2026-07-06T08:28:30Z</time>
      </trkpt>
      <trkpt lat="41.40302367276199" lon="-81.74327280696994">
        <ele>262.5233799569</ele>
        <time>2026-07-06T08:29:11Z</time>
      </trkpt>
      <trkpt lat="41.40345155109046" lon="-81.74347440282749">
        <ele>261.9116060262</ele>
        <time>2026-07-06T08:29:53Z</time>
      </trkpt>
      <trkpt lat="41.40349527339397" lon="-81.74349664992744">
        <ele>261.7825693423</ele>
        <time>2026-07-06T08:29:56Z</time>
      </trkpt>
      <trkpt lat="41.40359404076239" lon="-81.74352518576592">
        <ele>261.8132601119</ele>
        <time>2026-07-06T08:30:03Z</time>
      </trkpt>
      <trkpt lat="41.40399744883571" lon="-81.74350618869060">
        <ele>260.7516117069</ele>
        <time>2026-07-06T08:30:33Z</time>
      </trkpt>
      <trkpt lat="41.40399059120706" lon="-81.74291566732276">
        <ele>261.7461023643</ele>
        <time>2026-07-06T08:31:07Z</time>
      </trkpt>
      <trkpt lat="41.40399060044665" lon="-81.74230567444646">
        <ele>262.0679221053</ele>
        <time>2026-07-06T08:31:43Z</time>
      </trkpt>
      <trkpt lat="41.40399489878110" lon="-81.74170650909033">
        <ele>262.4171890455</ele>
        <time>2026-07-06T08:32:21Z</time>
      </trkpt>
      <trkpt lat="41.40398319417241" lon="-81.74110348501594">
        <ele>262.9640272001</ele>
        <time>2026-07-06T08:32:55Z</time>
      </trkpt>
      <trkpt lat="41.40399256078220" lon="-81.74050921106809">
        <ele>263.5369583552</ele>
        <time>2026-07-06T08:33:35Z</time>
      </trkpt>
      <trkpt lat="41.40398653652531" lon="-81.73990812150643">
        <ele>264.2285638192</ele>
        <time>2026-07-06T08:34:15Z</time>
      </trkpt>
      <trkpt lat="41.40398730271200" lon="-81.73931968894074">
        <ele>264.8246819406</ele>
        <time>2026-07-06T08:35:13Z</time>
      </trkpt>
      <trkpt lat="41.40398844308166" lon="-81.73877956296431">
        <ele>265.3198312506</ele>
        <time>2026-07-06T08:36:02Z</time>
      </trkpt>
      <trkpt lat="41.40353509494719" lon="-81.73877978454648">
        <ele>265.8681972687</ele>
        <time>2026-07-06T08:36:41Z</time>
      </trkpt>
      <trkpt lat="41.40309189081476" lon="-81.73877957851526">
        <ele>266.1626033212</ele>
        <time>2026-07-06T08:37:16Z</time>
      </trkpt>
      <trkpt lat="41.40263540186539" lon="-81.73877915789832">
        <ele>266.8362510933</ele>
        <time>2026-07-06T08:37:57Z</time>
      </trkpt>
      <trkpt lat="41.40223420410142" lon="-81.73876811105771">
        <ele>267.0868365598</ele>
        <time>2026-07-06T08:38:53Z</time>
      </trkpt>
      <trkpt lat="41.40221336308021" lon="-81.73826564064325">
        <ele>267.4231188953</ele>
        <time>2026-07-06T08:39:29Z</time>
      </trkpt>
      <trkpt lat="41.40176230619790" lon="-81.73827239492371">
        <ele>267.6321421774</ele>
        <time>2026-07-06T08:40:08Z</time>
      </trkpt>
      <trkpt lat="41.40133497439729" lon="-81.73826320043669">
        <ele>267.5697394400</ele>
        <time>2026-07-06T08:41:07Z</time>
      </trkpt>
      <trkpt lat="41.40132854309591" lon="-81.73886023481815">
        <ele>267.2605809690</ele>
        <time>2026-07-06T08:42:00Z</time>
      </trkpt>
      <trkpt lat="41.40133714383353" lon="-81.73945935281138">
        <ele>267.2123875541</ele>
        <time>2026-07-06T08:42:43Z</time>
      </trkpt>
      <trkpt lat="41.40134418548676" lon="-81.74005973570314">
        <ele>266.3919314971</ele>
        <time>2026-07-06T08:43:17Z</time>
      </trkpt>
      <trkpt lat="41.40134691219703" lon="-81.74021215614042">
        <ele>266.4521290129</ele>
        <time>2026-07-06T08:43:27Z</time>
      </trkpt>
    </trkseg>
  </trk>
</gpx>