<?xml version='1.0' encoding='UTF-8'?>
<gpx xmlns="http://www.topografix.com/GPX/1/1" creator="https://gpx.studio" version="1.1">
  <metadata>
    <name>Dog Walk - 2026-07-07 #5</name>
  </metadata>
  <trk>
    <name>Dog Walk - 2026-07-07 #5</name>
    <type>dog walk</type>
    <trkseg>
      <trkpt lat="41.40133442702530" lon="-81.74023116912890">
        <ele>266.5558595054</ele>
        <time>2026-07-07T20:04:45Z</time>
      </trkpt>
      <trkpt lat="41.40134512100533" lon="-81.74081802284688">
        <ele>266.1722627418</ele>
        <time>2026-07-07T20:05:19Z</time>
      </trkpt>
      <trkpt lat="41.40133909132195" lon="-81.74143331041256">
        <ele>265.8129688353</ele>
        <time>2026-07-07T20:06:16Z</time>
      </trkpt>
      <trkpt lat="41.40134542991221" lon="-81.74202481785744">
        <ele>265.1342794509</ele>
        <time>2026-07-07T20:06:48Z</time>
      </trkpt>
      <trkpt lat="41.40135036469821" lon="-81.74240389511360">
        <ele>264.9077992854</ele>
        <time>2026-07-07T20:07:10Z</time>
      </trkpt>
      <trkpt lat="41.40175920310813" lon="-81.74262867008417">
        <ele>264.4674828203</ele>
        <time>2026-07-07T20:07:42Z</time>
      </trkpt>
      <trkpt lat="41.40219079359003" lon="-81.74283367915037">
        <ele>263.5998861671</ele>
        <time>2026-07-07T20:08:29Z</time>
      </trkpt>
      <trkpt lat="41.40261103261702" lon="-81.74305528675872">
        <ele>262.8307708060</ele>
        <time>2026-07-07T20:09:14Z</time>
      </trkpt>
      <trkpt lat="41.40302646399419" lon="-81.74326671515549">
        <ele>262.5814470094</ele>
        <time>2026-07-07T20:10:07Z</time>
      </trkpt>
      <trkpt lat="41.40345169040079" lon="-81.74348339481753">
        <ele>262.0514903227</ele>
        <time>2026-07-07T20:10:56Z</time>
      </trkpt>
      <trkpt lat="41.40348497385588" lon="-81.74349359016162">
        <ele>261.9163036911</ele>
        <time>2026-07-07T20:10:59Z</time>
      </trkpt>
      <trkpt lat="41.40359715736819" lon="-81.74351647807410">
        <ele>261.7809291191</ele>
        <time>2026-07-07T20:11:08Z</time>
      </trkpt>
      <trkpt lat="41.40399278932421" lon="-81.74351301054575">
        <ele>260.8617009476</ele>
        <time>2026-07-07T20:11:36Z</time>
      </trkpt>
      <trkpt lat="41.40399077794800" lon="-81.74291646929274">
        <ele>261.4705948363</ele>
        <time>2026-07-07T20:12:17Z</time>
      </trkpt>
      <trkpt lat="41.40399537544084" lon="-81.74230064659649">
        <ele>261.9483063488</ele>
        <time>2026-07-07T20:13:18Z</time>
      </trkpt>
      <trkpt lat="41.40398186388754" lon="-81.74171116478526">
        <ele>262.5052877385</ele>
        <time>2026-07-07T20:13:58Z</time>
      </trkpt>
      <trkpt lat="41.40398782021780" lon="-81.74111239573168">
        <ele>262.9635016650</ele>
        <time>2026-07-07T20:14:58Z</time>
      </trkpt>
      <trkpt lat="41.40399390313554" lon="-81.74050832697827">
        <ele>263.8869983349</ele>
        <time>2026-07-07T20:15:43Z</time>
      </trkpt>
      <trkpt lat="41.40398797134604" lon="-81.73990035334354">
        <ele>264.4497965842</ele>
        <time>2026-07-07T20:16:23Z</time>
      </trkpt>
      <trkpt lat="41.40399164606152" lon="-81.73930647353112">
        <ele>264.8251352185</ele>
        <time>2026-07-07T20:17:12Z</time>
      </trkpt>
      <trkpt lat="41.40398682781667" lon="-81.73877819257163">
        <ele>265.4938333681</ele>
        <time>2026-07-07T20:17:45Z</time>
      </trkpt>
      <trkpt lat="41.40353739138855" lon="-81.73877501441335">
        <ele>265.8317147480</ele>
        <time>2026-07-07T20:18:21Z</time>
      </trkpt>
      <trkpt lat="41.40309038210007" lon="-81.73877728841045">
        <ele>266.3801671590</ele>
        <time>2026-07-07T20:19:04Z</time>
      </trkpt>
      <trkpt lat="41.40263736202874" lon="-81.73877138557414">
        <ele>266.4625359420</ele>
        <time>2026-07-07T20:19:50Z</time>
      </trkpt>
      <trkpt lat="41.40222987430466" lon="-81.73877324153948">
        <ele>267.1097273466</ele>
        <time>2026-07-07T20:20:25Z</time>
      </trkpt>
      <trkpt lat="41.40222000753023" lon="-81.73828267361752">
        <ele>266.9423220401</ele>
        <time>2026-07-07T20:21:03Z</time>
      </trkpt>
      <trkpt lat="41.40176033735727" lon="-81.73828116041398">
        <ele>267.5495230227</ele>
        <time>2026-07-07T20:21:46Z</time>
      </trkpt>
      <trkpt lat="41.40132941532560" lon="-81.73826656985985">
        <ele>267.5030365191</ele>
        <time>2026-07-07T20:22:18Z</time>
      </trkpt>
      <trkpt lat="41.40133274292346" lon="-81.73886496143189">
        <ele>267.4651171122</ele>
        <time>2026-07-07T20:22:57Z</time>
      </trkpt>
      <trkpt lat="41.40134079200967" lon="-81.73947434849920">
        <ele>267.0920978271</ele>
        <time>2026-07-07T20:23:43Z</time>
      </trkpt>
      <trkpt lat="41.40133583411106" lon="-81.74006393403153">
        <ele>266.7090250682</ele>
        <time>2026-07-07T20:24:17Z</time>
      </trkpt>
      <trkpt lat="41.40134225167024" lon="-81.74020362299404">
        <ele>266.5361076329</ele>
        <time>2026-07-07T20:24:28Z</time>
      </trkpt>
    </trkseg>
  </trk>
</gpx>