<?xml version='1.0' encoding='UTF-8'?>
<gpx xmlns="http://www.topografix.com/GPX/1/1" creator="https://gpx.studio" version="1.1">
  <metadata>
    <name>Dog Walk - 2026-09-12 #2</name>
  </metadata>
  <trk>
    <name>Dog Walk - 2026-09-12 #2</name>
    <type>dog walk</type>
    <trkseg>
      <trkpt lat="41.40134263262177" lon="-81.74024407644220">
        <ele>266.5543818120</ele>
        <time>2026-09-12T10:17:25Z</time>
      </trkpt>
      <trkpt lat="41.40133164561738" lon="-81.74082767834255">
        <ele>266.1893402477</ele>
        <time>2026-09-12T10:18:04Z</time>
      </trkpt>
      <trkpt lat="41.40134847985473" lon="-81.74143187833228">
        <ele>265.5676670378</ele>
        <time>2026-09-12T10:18:44Z</time>
      </trkpt>
      <trkpt lat="41.40134660688329" lon="-81.74204304045834">
        <ele>265.1231544511</ele>
        <time>2026-09-12T10:19:13Z</time>
      </trkpt>
      <trkpt lat="41.40135012341419" lon="-81.74241720409002">
        <ele>264.8023766763</ele>
        <time>2026-09-12T10:19:47Z</time>
      </trkpt>
      <trkpt lat="41.40176494695768" lon="-81.74263633142854">
        <ele>264.1032105150</ele>
        <time>2026-09-12T10:20:14Z</time>
      </trkpt>
      <trkpt lat="41.40218727983630" lon="-81.74284805185528">
        <ele>263.3867561274</ele>
        <time>2026-09-12T10:20:54Z</time>
      </trkpt>
      <trkpt lat="41.40220920737115" lon="-81.74286959132969">
        <ele>263.3773632737</ele>
        <time>2026-09-12T10:21:06Z</time>
      </trkpt>
      <trkpt lat="41.40221862581417" lon="-81.74227103264612">
        <ele>264.3041779391</ele>
        <time>2026-09-12T10:21:50Z</time>
      </trkpt>
      <trkpt lat="41.40221252322628" lon="-81.74166527836215">
        <ele>264.6905533487</ele>
        <time>2026-09-12T10:22:41Z</time>
      </trkpt>
      <trkpt lat="41.40222043862444" lon="-81.74106194208336">
        <ele>265.6715561131</ele>
        <time>2026-09-12T10:23:14Z</time>
      </trkpt>
      <trkpt lat="41.40221903374195" lon="-81.74046428017108">
        <ele>265.9774475561</ele>
        <time>2026-09-12T10:24:01Z</time>
      </trkpt>
      <trkpt lat="41.40221131715641" lon="-81.73987710606241">
        <ele>266.5798394362</ele>
        <time>2026-09-12T10:24:34Z</time>
      </trkpt>
      <trkpt lat="41.40221208590691" lon="-81.73926219611705">
        <ele>266.9018234715</ele>
        <time>2026-09-12T10:25:09Z</time>
      </trkpt>
      <trkpt lat="41.40221349589029" lon="-81.73866925735386">
        <ele>267.2555464285</ele>
        <time>2026-09-12T10:25:53Z</time>
      </trkpt>
      <trkpt lat="41.40221828871937" lon="-81.73827108305460">
        <ele>267.0325269559</ele>
        <time>2026-09-12T10:26:19Z</time>
      </trkpt>
      <trkpt lat="41.40176661304478" lon="-81.73827336390305">
        <ele>267.6672511405</ele>
        <time>2026-09-12T10:27:05Z</time>
      </trkpt>
      <trkpt lat="41.40133467047301" lon="-81.73825398954602">
        <ele>267.4945184786</ele>
        <time>2026-09-12T10:28:02Z</time>
      </trkpt>
      <trkpt lat="41.40133982201238" lon="-81.73885627078785">
        <ele>267.4552279556</ele>
        <time>2026-09-12T10:28:54Z</time>
      </trkpt>
      <trkpt lat="41.40133225600594" lon="-81.73946428206236">
        <ele>267.2325208911</ele>
        <time>2026-09-12T10:29:36Z</time>
      </trkpt>
      <trkpt lat="41.40133716820834" lon="-81.74006208364091">
        <ele>266.6189094131</ele>
        <time>2026-09-12T10:30:28Z</time>
      </trkpt>
      <trkpt lat="41.40133666787190" lon="-81.74019683979466">
        <ele>266.5541669148</ele>
        <time>2026-09-12T10:30:37Z</time>
      </trkpt>
    </trkseg>
  </trk>
</gpx>