<?xml version='1.0' encoding='UTF-8'?>
<gpx xmlns="http://www.topografix.com/GPX/1/1" creator="https://gpx.studio" version="1.1">
  <metadata>
    <name>Dog Walk - 2026-08-15 #2</name>
  </metadata>
  <trk>
    <name>Dog Walk - 2026-08-15 #2</name>
    <type>dog walk</type>
    <trkseg>
      <trkpt lat="41.40132835198865" lon="-81.74023596335770">
        <ele>266.4847159693</ele>
        <time>2026-08-15T13:19:32Z</time>
      </trkpt>
      <trkpt lat="41.40132966272779" lon="-81.74083661433161">
        <ele>266.1779691281</ele>
        <time>2026-08-15T13:20:15Z</time>
      </trkpt>
      <trkpt lat="41.40133779070185" lon="-81.74142762527326">
        <ele>265.7198732006</ele>
        <time>2026-08-15T13:20:48Z</time>
      </trkpt>
      <trkpt lat="41.40132250192636" lon="-81.74202404790915">
        <ele>265.3776159948</ele>
        <time>2026-08-15T13:21:34Z</time>
      </trkpt>
      <trkpt lat="41.40132849118592" lon="-81.74240099480119">
        <ele>264.8360117738</ele>
        <time>2026-08-15T13:22:06Z</time>
      </trkpt>
      <trkpt lat="41.40090856389152" lon="-81.74219490877772">
        <ele>265.0646690453</ele>
        <time>2026-08-15T13:22:43Z</time>
      </trkpt>
      <trkpt lat="41.40047785187972" lon="-81.74199358109381">
        <ele>265.1880922355</ele>
        <time>2026-08-15T13:23:23Z</time>
      </trkpt>
      <trkpt lat="41.40005064297423" lon="-81.74180920488456">
        <ele>265.3711650842</ele>
        <time>2026-08-15T13:24:06Z</time>
      </trkpt>
      <trkpt lat="41.39961569100097" lon="-81.74161422036607">
        <ele>264.6944670703</ele>
        <time>2026-08-15T13:24:47Z</time>
      </trkpt>
      <trkpt lat="41.39953923060614" lon="-81.74157360533616">
        <ele>264.7366528186</ele>
        <time>2026-08-15T13:24:56Z</time>
      </trkpt>
      <trkpt lat="41.39953792882646" lon="-81.74096940866889">
        <ele>265.8188955092</ele>
        <time>2026-08-15T13:25:38Z</time>
      </trkpt>
      <trkpt lat="41.39953528696991" lon="-81.74037804719453">
        <ele>266.1208511943</ele>
        <time>2026-08-15T13:26:19Z</time>
      </trkpt>
      <trkpt lat="41.39953696234149" lon="-81.73977242790177">
        <ele>266.5685840595</ele>
        <time>2026-08-15T13:27:04Z</time>
      </trkpt>
      <trkpt lat="41.39952940233942" lon="-81.73918529579353">
        <ele>266.8309060970</ele>
        <time>2026-08-15T13:27:40Z</time>
      </trkpt>
      <trkpt lat="41.39952584626131" lon="-81.73858134397007">
        <ele>266.8288229863</ele>
        <time>2026-08-15T13:28:13Z</time>
      </trkpt>
      <trkpt lat="41.39953261376876" lon="-81.73798008621110">
        <ele>267.3358141513</ele>
        <time>2026-08-15T13:29:08Z</time>
      </trkpt>
      <trkpt lat="41.39953609123418" lon="-81.73738249541915">
        <ele>267.2114404682</ele>
        <time>2026-08-15T13:29:47Z</time>
      </trkpt>
      <trkpt lat="41.39952884450609" lon="-81.73677551200252">
        <ele>267.4699633572</ele>
        <time>2026-08-15T13:30:36Z</time>
      </trkpt>
      <trkpt lat="41.39952830820857" lon="-81.73617852214467">
        <ele>267.5567845953</ele>
        <time>2026-08-15T13:31:12Z</time>
      </trkpt>
      <trkpt lat="41.39953543724288" lon="-81.73557582074501">
        <ele>267.1310010979</ele>
        <time>2026-08-15T13:31:59Z</time>
      </trkpt>
      <trkpt lat="41.39952183162585" lon="-81.73498376998801">
        <ele>267.3493894520</ele>
        <time>2026-08-15T13:32:51Z</time>
      </trkpt>
      <trkpt lat="41.39953620282181" lon="-81.73460967936954">
        <ele>267.1339079194</ele>
        <time>2026-08-15T13:33:11Z</time>
      </trkpt>
      <trkpt lat="41.39997821337494" lon="-81.73462155305290">
        <ele>267.0906237782</ele>
        <time>2026-08-15T13:33:55Z</time>
      </trkpt>
      <trkpt lat="41.40042866729755" lon="-81.73462253724645">
        <ele>267.2032038264</ele>
        <time>2026-08-15T13:34:26Z</time>
      </trkpt>
      <trkpt lat="41.40087225025867" lon="-81.73462209105571">
        <ele>267.0205135001</ele>
        <time>2026-08-15T13:35:08Z</time>
      </trkpt>
      <trkpt lat="41.40132007974939" lon="-81.73464255445228">
        <ele>267.4400473638</ele>
        <time>2026-08-15T13:35:49Z</time>
      </trkpt>
      <trkpt lat="41.40131601334805" lon="-81.73523417192185">
        <ele>268.0368953854</ele>
        <time>2026-08-15T13:36:25Z</time>
      </trkpt>
      <trkpt lat="41.40132273128546" lon="-81.73583307641745">
        <ele>268.2468458347</ele>
        <time>2026-08-15T13:37:05Z</time>
      </trkpt>
      <trkpt lat="41.40132262747683" lon="-81.73643417315151">
        <ele>268.1733734693</ele>
        <time>2026-08-15T13:37:46Z</time>
      </trkpt>
      <trkpt lat="41.40132481541352" lon="-81.73703771177458">
        <ele>268.0504436718</ele>
        <time>2026-08-15T13:38:21Z</time>
      </trkpt>
      <trkpt lat="41.40133019618489" lon="-81.73764699920646">
        <ele>268.0124182540</ele>
        <time>2026-08-15T13:38:57Z</time>
      </trkpt>
      <trkpt lat="41.40132666159960" lon="-81.73823618324009">
        <ele>267.5213808339</ele>
        <time>2026-08-15T13:39:35Z</time>
      </trkpt>
      <trkpt lat="41.40132611804131" lon="-81.73884158454828">
        <ele>267.3024989653</ele>
        <time>2026-08-15T13:40:12Z</time>
      </trkpt>
      <trkpt lat="41.40132725204506" lon="-81.73943296200682">
        <ele>267.1848444133</ele>
        <time>2026-08-15T13:40:55Z</time>
      </trkpt>
      <trkpt lat="41.40133772764207" lon="-81.74002866587600">
        <ele>266.4711949689</ele>
        <time>2026-08-15T13:41:32Z</time>
      </trkpt>
      <trkpt lat="41.40132403586683" lon="-81.74021318328101">
        <ele>266.3887234782</ele>
        <time>2026-08-15T13:41:44Z</time>
      </trkpt>
    </trkseg>
  </trk>
</gpx>