<?xml version='1.0' encoding='UTF-8'?>
<gpx xmlns="http://www.topografix.com/GPX/1/1" creator="https://gpx.studio" version="1.1">
  <metadata>
    <name>Dog Walk - 2026-04-08 #3</name>
  </metadata>
  <trk>
    <name>Dog Walk - 2026-04-08 #3</name>
    <type>dog walk</type>
    <trkseg>
      <trkpt lat="41.40134515325609" lon="-81.74023445643361">
        <ele>266.4188834123</ele>
        <time>2026-04-08T14:23:15Z</time>
      </trkpt>
      <trkpt lat="41.40134549246129" lon="-81.74082722385143">
        <ele>266.2237211210</ele>
        <time>2026-04-08T14:24:21Z</time>
      </trkpt>
      <trkpt lat="41.40134574131160" lon="-81.74142854243902">
        <ele>265.6849896625</ele>
        <time>2026-04-08T14:24:55Z</time>
      </trkpt>
      <trkpt lat="41.40133826259719" lon="-81.74204225177718">
        <ele>265.3198588531</ele>
        <time>2026-04-08T14:25:42Z</time>
      </trkpt>
      <trkpt lat="41.40134838139051" lon="-81.74241743542889">
        <ele>264.7812587206</ele>
        <time>2026-04-08T14:26:11Z</time>
      </trkpt>
      <trkpt lat="41.40176745911722" lon="-81.74262088756193">
        <ele>264.4286914471</ele>
        <time>2026-04-08T14:26:49Z</time>
      </trkpt>
      <trkpt lat="41.40218559842251" lon="-81.74281949918988">
        <ele>263.1827226152</ele>
        <time>2026-04-08T14:27:26Z</time>
      </trkpt>
      <trkpt lat="41.40261493200996" lon="-81.74301778281411">
        <ele>263.1173244671</ele>
        <time>2026-04-08T14:28:23Z</time>
      </trkpt>
      <trkpt lat="41.40304032178352" lon="-81.74322189764530">
        <ele>262.4413245830</ele>
        <time>2026-04-08T14:28:59Z</time>
      </trkpt>
      <trkpt lat="41.40311973657669" lon="-81.74325170755804">
        <ele>262.5787509722</ele>
        <time>2026-04-08T14:29:13Z</time>
      </trkpt>
      <trkpt lat="41.40312205377305" lon="-81.74265029163024">
        <ele>263.1443875678</ele>
        <time>2026-04-08T14:29:57Z</time>
      </trkpt>
      <trkpt lat="41.40310867733246" lon="-81.74205854713084">
        <ele>263.8161133408</ele>
        <time>2026-04-08T14:30:42Z</time>
      </trkpt>
      <trkpt lat="41.40311004814940" lon="-81.74144929385683">
        <ele>264.2928641029</ele>
        <time>2026-04-08T14:31:18Z</time>
      </trkpt>
      <trkpt lat="41.40311759990480" lon="-81.74085536004307">
        <ele>264.7663512010</ele>
        <time>2026-04-08T14:31:50Z</time>
      </trkpt>
      <trkpt lat="41.40310830358904" lon="-81.74026483252682">
        <ele>265.5415930906</ele>
        <time>2026-04-08T14:32:46Z</time>
      </trkpt>
      <trkpt lat="41.40310728874864" lon="-81.73966278618370">
        <ele>265.9234727916</ele>
        <time>2026-04-08T14:33:57Z</time>
      </trkpt>
      <trkpt lat="41.40309823136896" lon="-81.73904552734723">
        <ele>266.2046405573</ele>
        <time>2026-04-08T14:34:39Z</time>
      </trkpt>
      <trkpt lat="41.40310041024082" lon="-81.73878528491366">
        <ele>266.2177575700</ele>
        <time>2026-04-08T14:34:54Z</time>
      </trkpt>
      <trkpt lat="41.40264902776669" lon="-81.73877049862608">
        <ele>266.5576027787</ele>
        <time>2026-04-08T14:35:48Z</time>
      </trkpt>
      <trkpt lat="41.40223253821993" lon="-81.73878223893435">
        <ele>267.0379805991</ele>
        <time>2026-04-08T14:36:27Z</time>
      </trkpt>
      <trkpt lat="41.40223294766757" lon="-81.73817140859244">
        <ele>267.1926774320</ele>
        <time>2026-04-08T14:37:03Z</time>
      </trkpt>
      <trkpt lat="41.40223603762249" lon="-81.73757435413789">
        <ele>267.1041279840</ele>
        <time>2026-04-08T14:37:41Z</time>
      </trkpt>
      <trkpt lat="41.40223042467493" lon="-81.73698442326105">
        <ele>267.3743917683</ele>
        <time>2026-04-08T14:38:24Z</time>
      </trkpt>
      <trkpt lat="41.40223521979083" lon="-81.73638708885828">
        <ele>267.2861571201</ele>
        <time>2026-04-08T14:38:57Z</time>
      </trkpt>
      <trkpt lat="41.40222219581153" lon="-81.73577447801797">
        <ele>267.3084433840</ele>
        <time>2026-04-08T14:39:28Z</time>
      </trkpt>
      <trkpt lat="41.40222508702725" lon="-81.73517398229433">
        <ele>267.3869732324</ele>
        <time>2026-04-08T14:40:10Z</time>
      </trkpt>
      <trkpt lat="41.40221876829620" lon="-81.73465362359154">
        <ele>266.8996203033</ele>
        <time>2026-04-08T14:40:40Z</time>
      </trkpt>
      <trkpt lat="41.40177127122467" lon="-81.73463383470536">
        <ele>267.2199958553</ele>
        <time>2026-04-08T14:42:03Z</time>
      </trkpt>
      <trkpt lat="41.40131612174343" lon="-81.73464093492404">
        <ele>267.3292177918</ele>
        <time>2026-04-08T14:42:46Z</time>
      </trkpt>
      <trkpt lat="41.40131499391735" lon="-81.73464158494680">
        <ele>267.2784148828</ele>
        <time>2026-04-08T14:42:47Z</time>
      </trkpt>
      <trkpt lat="41.40132090103045" lon="-81.73523143548047">
        <ele>268.0070472726</ele>
        <time>2026-04-08T14:43:33Z</time>
      </trkpt>
      <trkpt lat="41.40132015750699" lon="-81.73583186439608">
        <ele>268.0431898118</ele>
        <time>2026-04-08T14:44:08Z</time>
      </trkpt>
      <trkpt lat="41.40132549587608" lon="-81.73643023033895">
        <ele>268.0445685311</ele>
        <time>2026-04-08T14:44:42Z</time>
      </trkpt>
      <trkpt lat="41.40133298511975" lon="-81.73703721591819">
        <ele>268.1563310715</ele>
        <time>2026-04-08T14:45:29Z</time>
      </trkpt>
      <trkpt lat="41.40133096979473" lon="-81.73763157841566">
        <ele>267.9194345241</ele>
        <time>2026-04-08T14:45:59Z</time>
      </trkpt>
      <trkpt lat="41.40133759661511" lon="-81.73823049594718">
        <ele>267.6440910323</ele>
        <time>2026-04-08T14:46:39Z</time>
      </trkpt>
      <trkpt lat="41.40133638283091" lon="-81.73884162161879">
        <ele>267.5161736609</ele>
        <time>2026-04-08T14:47:16Z</time>
      </trkpt>
      <trkpt lat="41.40134246682998" lon="-81.73943511204091">
        <ele>267.1898395549</ele>
        <time>2026-04-08T14:48:03Z</time>
      </trkpt>
      <trkpt lat="41.40134552979185" lon="-81.74004004687281">
        <ele>266.7113106716</ele>
        <time>2026-04-08T14:48:37Z</time>
      </trkpt>
      <trkpt lat="41.40135468949489" lon="-81.74015137145375">
        <ele>266.6916625762</ele>
        <time>2026-04-08T14:48:48Z</time>
      </trkpt>
    </trkseg>
  </trk>
</gpx>