<?xml version='1.0' encoding='UTF-8'?>
<gpx xmlns="http://www.topografix.com/GPX/1/1" creator="https://gpx.studio" version="1.1">
  <metadata>
    <name>Dog Walk - 2026-02-24 #2</name>
  </metadata>
  <trk>
    <name>Dog Walk - 2026-02-24 #2</name>
    <type>dog walk</type>
    <trkseg>
      <trkpt lat="41.40133947207090" lon="-81.74023198507204">
        <ele>266.4241100901</ele>
        <time>2026-02-24T10:01:41Z</time>
      </trkpt>
      <trkpt lat="41.40134043535783" lon="-81.74083297071981">
        <ele>266.2107359579</ele>
        <time>2026-02-24T10:02:24Z</time>
      </trkpt>
      <trkpt lat="41.40134527321306" lon="-81.74142085944494">
        <ele>265.7833895111</ele>
        <time>2026-02-24T10:03:05Z</time>
      </trkpt>
      <trkpt lat="41.40134501024950" lon="-81.74203409781063">
        <ele>265.3527705454</ele>
        <time>2026-02-24T10:03:45Z</time>
      </trkpt>
      <trkpt lat="41.40135401044145" lon="-81.74241228231442">
        <ele>264.5246469647</ele>
        <time>2026-02-24T10:04:09Z</time>
      </trkpt>
      <trkpt lat="41.40176284130380" lon="-81.74262051416289">
        <ele>264.2641303592</ele>
        <time>2026-02-24T10:04:57Z</time>
      </trkpt>
      <trkpt lat="41.40218293253549" lon="-81.74282860639066">
        <ele>263.6344491376</ele>
        <time>2026-02-24T10:05:40Z</time>
      </trkpt>
      <trkpt lat="41.40261233076313" lon="-81.74306117287132">
        <ele>262.6953478099</ele>
        <time>2026-02-24T10:06:15Z</time>
      </trkpt>
      <trkpt lat="41.40303498327147" lon="-81.74327089937499">
        <ele>262.1892031264</ele>
        <time>2026-02-24T10:06:46Z</time>
      </trkpt>
      <trkpt lat="41.40344868188377" lon="-81.74347366492520">
        <ele>261.6142985700</ele>
        <time>2026-02-24T10:07:23Z</time>
      </trkpt>
      <trkpt lat="41.40348810242143" lon="-81.74349950727087">
        <ele>261.7513843735</ele>
        <time>2026-02-24T10:07:28Z</time>
      </trkpt>
      <trkpt lat="41.40360417289146" lon="-81.74352435178777">
        <ele>261.6619618044</ele>
        <time>2026-02-24T10:07:38Z</time>
      </trkpt>
      <trkpt lat="41.40399748671319" lon="-81.74351072261611">
        <ele>260.7609464690</ele>
        <time>2026-02-24T10:08:13Z</time>
      </trkpt>
      <trkpt lat="41.40399285596182" lon="-81.74290693954747">
        <ele>261.6475268982</ele>
        <time>2026-02-24T10:08:52Z</time>
      </trkpt>
      <trkpt lat="41.40398650864165" lon="-81.74231099056649">
        <ele>262.1448325413</ele>
        <time>2026-02-24T10:09:33Z</time>
      </trkpt>
      <trkpt lat="41.40399019211850" lon="-81.74171291365322">
        <ele>262.3624808365</ele>
        <time>2026-02-24T10:10:07Z</time>
      </trkpt>
      <trkpt lat="41.40399212997595" lon="-81.74111090810996">
        <ele>262.8398818122</ele>
        <time>2026-02-24T10:10:50Z</time>
      </trkpt>
      <trkpt lat="41.40398280149493" lon="-81.74050414372745">
        <ele>263.4985573374</ele>
        <time>2026-02-24T10:11:44Z</time>
      </trkpt>
      <trkpt lat="41.40399395069498" lon="-81.73991424984409">
        <ele>264.2271873147</ele>
        <time>2026-02-24T10:12:23Z</time>
      </trkpt>
      <trkpt lat="41.40399652703331" lon="-81.73930487230403">
        <ele>264.8336125324</ele>
        <time>2026-02-24T10:13:06Z</time>
      </trkpt>
      <trkpt lat="41.40399075753567" lon="-81.73877460364660">
        <ele>265.2066739065</ele>
        <time>2026-02-24T10:13:43Z</time>
      </trkpt>
      <trkpt lat="41.40353650260737" lon="-81.73877931114441">
        <ele>265.9527433141</ele>
        <time>2026-02-24T10:14:26Z</time>
      </trkpt>
      <trkpt lat="41.40309238554789" lon="-81.73878887487305">
        <ele>266.1652687251</ele>
        <time>2026-02-24T10:15:14Z</time>
      </trkpt>
      <trkpt lat="41.40263136469468" lon="-81.73876581643644">
        <ele>266.7445196434</ele>
        <time>2026-02-24T10:15:46Z</time>
      </trkpt>
      <trkpt lat="41.40222797051804" lon="-81.73877468653909">
        <ele>267.1398297655</ele>
        <time>2026-02-24T10:16:20Z</time>
      </trkpt>
      <trkpt lat="41.40221793813061" lon="-81.73826955494188">
        <ele>267.1413476741</ele>
        <time>2026-02-24T10:16:58Z</time>
      </trkpt>
      <trkpt lat="41.40176001926937" lon="-81.73827835030801">
        <ele>267.7401973372</ele>
        <time>2026-02-24T10:17:37Z</time>
      </trkpt>
      <trkpt lat="41.40133445670256" lon="-81.73827196765576">
        <ele>267.4119650754</ele>
        <time>2026-02-24T10:18:07Z</time>
      </trkpt>
      <trkpt lat="41.40133691901696" lon="-81.73887154059679">
        <ele>267.3854603677</ele>
        <time>2026-02-24T10:18:47Z</time>
      </trkpt>
      <trkpt lat="41.40134006287707" lon="-81.73946984174663">
        <ele>267.1192422165</ele>
        <time>2026-02-24T10:19:25Z</time>
      </trkpt>
      <trkpt lat="41.40133303115770" lon="-81.74006298569785">
        <ele>266.7319599850</ele>
        <time>2026-02-24T10:20:11Z</time>
      </trkpt>
      <trkpt lat="41.40134331440340" lon="-81.74020381890335">
        <ele>266.6586960707</ele>
        <time>2026-02-24T10:20:20Z</time>
      </trkpt>
    </trkseg>
  </trk>
</gpx>