<?xml version='1.0' encoding='UTF-8'?>
<gpx xmlns="http://www.topografix.com/GPX/1/1" creator="https://gpx.studio" version="1.1">
  <metadata>
    <name>Dog Walk - 2026-04-06 #3</name>
  </metadata>
  <trk>
    <name>Dog Walk - 2026-04-06 #3</name>
    <type>dog walk</type>
    <trkseg>
      <trkpt lat="41.40133925896546" lon="-81.74022516769909">
        <ele>266.7155760824</ele>
        <time>2026-04-06T13:58:25Z</time>
      </trkpt>
      <trkpt lat="41.40133690891502" lon="-81.74083095957064">
        <ele>266.4179223214</ele>
        <time>2026-04-06T13:59:06Z</time>
      </trkpt>
      <trkpt lat="41.40133821716035" lon="-81.74142317527348">
        <ele>265.7663424053</ele>
        <time>2026-04-06T13:59:47Z</time>
      </trkpt>
      <trkpt lat="41.40133127554563" lon="-81.74202647635897">
        <ele>265.2205979062</ele>
        <time>2026-04-06T14:00:35Z</time>
      </trkpt>
      <trkpt lat="41.40132399301292" lon="-81.74239438420692">
        <ele>264.7373105287</ele>
        <time>2026-04-06T14:00:59Z</time>
      </trkpt>
      <trkpt lat="41.40090555974459" lon="-81.74217820246476">
        <ele>265.2711902259</ele>
        <time>2026-04-06T14:01:58Z</time>
      </trkpt>
      <trkpt lat="41.40049048675348" lon="-81.74197317260158">
        <ele>264.9875579841</ele>
        <time>2026-04-06T14:02:34Z</time>
      </trkpt>
      <trkpt lat="41.40045095171616" lon="-81.74194930217153">
        <ele>265.2137033240</ele>
        <time>2026-04-06T14:02:38Z</time>
      </trkpt>
      <trkpt lat="41.40044194726473" lon="-81.74134758127218">
        <ele>266.0144246305</ele>
        <time>2026-04-06T14:03:22Z</time>
      </trkpt>
      <trkpt lat="41.40044145646372" lon="-81.74075367650065">
        <ele>266.4132164267</ele>
        <time>2026-04-06T14:04:11Z</time>
      </trkpt>
      <trkpt lat="41.40043785615300" lon="-81.74014522406478">
        <ele>266.7877117622</ele>
        <time>2026-04-06T14:04:48Z</time>
      </trkpt>
      <trkpt lat="41.40042593019952" lon="-81.73954983783896">
        <ele>267.0773617021</ele>
        <time>2026-04-06T14:05:28Z</time>
      </trkpt>
      <trkpt lat="41.40042861441249" lon="-81.73894763165210">
        <ele>267.1227387413</ele>
        <time>2026-04-06T14:06:07Z</time>
      </trkpt>
      <trkpt lat="41.40042335205870" lon="-81.73836852172414">
        <ele>267.2420145678</ele>
        <time>2026-04-06T14:06:48Z</time>
      </trkpt>
      <trkpt lat="41.40041566779018" lon="-81.73776102359123">
        <ele>267.5300759640</ele>
        <time>2026-04-06T14:07:32Z</time>
      </trkpt>
      <trkpt lat="41.40041721823444" lon="-81.73717291209427">
        <ele>267.8181862054</ele>
        <time>2026-04-06T14:08:14Z</time>
      </trkpt>
      <trkpt lat="41.40041205241143" lon="-81.73655815083305">
        <ele>267.9655205677</ele>
        <time>2026-04-06T14:08:50Z</time>
      </trkpt>
      <trkpt lat="41.40040553751224" lon="-81.73594756663881">
        <ele>268.0268418295</ele>
        <time>2026-04-06T14:09:24Z</time>
      </trkpt>
      <trkpt lat="41.40039508868099" lon="-81.73536186389732">
        <ele>267.7354500185</ele>
        <time>2026-04-06T14:10:00Z</time>
      </trkpt>
      <trkpt lat="41.40038716924885" lon="-81.73475611033902">
        <ele>267.4098123935</ele>
        <time>2026-04-06T14:10:40Z</time>
      </trkpt>
      <trkpt lat="41.40039634250515" lon="-81.73461840255479">
        <ele>267.2326705077</ele>
        <time>2026-04-06T14:10:51Z</time>
      </trkpt>
      <trkpt lat="41.40085097765381" lon="-81.73463340303273">
        <ele>267.1489840421</ele>
        <time>2026-04-06T14:11:24Z</time>
      </trkpt>
      <trkpt lat="41.40130159138168" lon="-81.73463395627940">
        <ele>267.3231619738</ele>
        <time>2026-04-06T14:12:02Z</time>
      </trkpt>
      <trkpt lat="41.40131416145459" lon="-81.73463698469004">
        <ele>267.5068665584</ele>
        <time>2026-04-06T14:12:03Z</time>
      </trkpt>
      <trkpt lat="41.40131942755558" lon="-81.73522607299645">
        <ele>268.0361208680</ele>
        <time>2026-04-06T14:12:41Z</time>
      </trkpt>
      <trkpt lat="41.40132967410361" lon="-81.73582738429862">
        <ele>268.4782446749</ele>
        <time>2026-04-06T14:13:18Z</time>
      </trkpt>
      <trkpt lat="41.40132406370163" lon="-81.73643249986213">
        <ele>268.2424509568</ele>
        <time>2026-04-06T14:14:06Z</time>
      </trkpt>
      <trkpt lat="41.40133384629568" lon="-81.73703457160015">
        <ele>268.2373985850</ele>
        <time>2026-04-06T14:14:49Z</time>
      </trkpt>
      <trkpt lat="41.40133365978069" lon="-81.73763359245359">
        <ele>267.8601470016</ele>
        <time>2026-04-06T14:15:31Z</time>
      </trkpt>
      <trkpt lat="41.40133012640439" lon="-81.73823470942060">
        <ele>267.5027055616</ele>
        <time>2026-04-06T14:16:14Z</time>
      </trkpt>
      <trkpt lat="41.40133734094901" lon="-81.73883799202873">
        <ele>267.4003629408</ele>
        <time>2026-04-06T14:16:49Z</time>
      </trkpt>
      <trkpt lat="41.40134230526247" lon="-81.73942314450913">
        <ele>267.2201655037</ele>
        <time>2026-04-06T14:17:41Z</time>
      </trkpt>
      <trkpt lat="41.40134503182746" lon="-81.74002666612496">
        <ele>266.6772199746</ele>
        <time>2026-04-06T14:18:21Z</time>
      </trkpt>
      <trkpt lat="41.40134887616435" lon="-81.74019588232852">
        <ele>266.5537102246</ele>
        <time>2026-04-06T14:18:43Z</time>
      </trkpt>
    </trkseg>
  </trk>
</gpx>