<?xml version='1.0' encoding='UTF-8'?>
<gpx xmlns="http://www.topografix.com/GPX/1/1" creator="https://gpx.studio" version="1.1">
  <metadata>
    <name>Dog Walk - 2026-06-09 #3</name>
  </metadata>
  <trk>
    <name>Dog Walk - 2026-06-09 #3</name>
    <type>dog walk</type>
    <trkseg>
      <trkpt lat="41.40134301006906" lon="-81.74021981141536">
        <ele>266.6423036121</ele>
        <time>2026-06-09T20:29:52Z</time>
      </trkpt>
      <trkpt lat="41.40134611615680" lon="-81.74083129837207">
        <ele>266.1568764757</ele>
        <time>2026-06-09T20:30:35Z</time>
      </trkpt>
      <trkpt lat="41.40134453563140" lon="-81.74142628267367">
        <ele>265.8483335495</ele>
        <time>2026-06-09T20:31:16Z</time>
      </trkpt>
      <trkpt lat="41.40132869532660" lon="-81.74202220611851">
        <ele>265.5772094062</ele>
        <time>2026-06-09T20:31:57Z</time>
      </trkpt>
      <trkpt lat="41.40131778737381" lon="-81.74239106576111">
        <ele>264.6888880194</ele>
        <time>2026-06-09T20:32:24Z</time>
      </trkpt>
      <trkpt lat="41.40090478025971" lon="-81.74217846855977">
        <ele>265.2134816972</ele>
        <time>2026-06-09T20:33:04Z</time>
      </trkpt>
      <trkpt lat="41.40048714664987" lon="-81.74196672914827">
        <ele>265.2989968456</ele>
        <time>2026-06-09T20:33:42Z</time>
      </trkpt>
      <trkpt lat="41.40044671755427" lon="-81.74193998120988">
        <ele>265.2162336674</ele>
        <time>2026-06-09T20:33:46Z</time>
      </trkpt>
      <trkpt lat="41.40044324208598" lon="-81.74135346519213">
        <ele>266.2544570901</ele>
        <time>2026-06-09T20:34:37Z</time>
      </trkpt>
      <trkpt lat="41.40043985243829" lon="-81.74075724194930">
        <ele>266.4082795788</ele>
        <time>2026-06-09T20:35:07Z</time>
      </trkpt>
      <trkpt lat="41.40044247200050" lon="-81.74014618816244">
        <ele>266.6232015489</ele>
        <time>2026-06-09T20:36:04Z</time>
      </trkpt>
      <trkpt lat="41.40043631460205" lon="-81.73955043820229">
        <ele>266.8626974243</ele>
        <time>2026-06-09T20:36:44Z</time>
      </trkpt>
      <trkpt lat="41.40042650662508" lon="-81.73894932243535">
        <ele>267.0666384698</ele>
        <time>2026-06-09T20:37:26Z</time>
      </trkpt>
      <trkpt lat="41.40041884782086" lon="-81.73835237450243">
        <ele>267.3567426284</ele>
        <time>2026-06-09T20:38:09Z</time>
      </trkpt>
      <trkpt lat="41.40041834614308" lon="-81.73776162598315">
        <ele>267.6645475918</ele>
        <time>2026-06-09T20:38:59Z</time>
      </trkpt>
      <trkpt lat="41.40041040048279" lon="-81.73715953787293">
        <ele>267.5738205533</ele>
        <time>2026-06-09T20:39:31Z</time>
      </trkpt>
      <trkpt lat="41.40041383848327" lon="-81.73655537535903">
        <ele>268.0695861546</ele>
        <time>2026-06-09T20:40:01Z</time>
      </trkpt>
      <trkpt lat="41.40040626332495" lon="-81.73595555844958">
        <ele>268.0341383513</ele>
        <time>2026-06-09T20:40:39Z</time>
      </trkpt>
      <trkpt lat="41.40039447680758" lon="-81.73535140398428">
        <ele>267.8908792520</ele>
        <time>2026-06-09T20:41:19Z</time>
      </trkpt>
      <trkpt lat="41.40039389436210" lon="-81.73475493859338">
        <ele>267.3256797452</ele>
        <time>2026-06-09T20:41:59Z</time>
      </trkpt>
      <trkpt lat="41.40039018749370" lon="-81.73463265744022">
        <ele>267.2893772768</ele>
        <time>2026-06-09T20:42:10Z</time>
      </trkpt>
      <trkpt lat="41.40084518922697" lon="-81.73462858204547">
        <ele>267.4207585132</ele>
        <time>2026-06-09T20:42:40Z</time>
      </trkpt>
      <trkpt lat="41.40129765958655" lon="-81.73463008447897">
        <ele>267.1201084930</ele>
        <time>2026-06-09T20:43:28Z</time>
      </trkpt>
      <trkpt lat="41.40131191979802" lon="-81.73462026174535">
        <ele>267.2680571139</ele>
        <time>2026-06-09T20:43:30Z</time>
      </trkpt>
      <trkpt lat="41.40132393897019" lon="-81.73522719554526">
        <ele>267.7445779799</ele>
        <time>2026-06-09T20:44:15Z</time>
      </trkpt>
      <trkpt lat="41.40132226922820" lon="-81.73581265494201">
        <ele>268.3171047474</ele>
        <time>2026-06-09T20:44:48Z</time>
      </trkpt>
      <trkpt lat="41.40133466503318" lon="-81.73643912031287">
        <ele>268.4850416174</ele>
        <time>2026-06-09T20:45:34Z</time>
      </trkpt>
      <trkpt lat="41.40133655009517" lon="-81.73702860545322">
        <ele>267.9809363921</ele>
        <time>2026-06-09T20:46:20Z</time>
      </trkpt>
      <trkpt lat="41.40133721710706" lon="-81.73762590700034">
        <ele>267.9971480589</ele>
        <time>2026-06-09T20:46:57Z</time>
      </trkpt>
      <trkpt lat="41.40134194755962" lon="-81.73823289829656">
        <ele>267.4801446104</ele>
        <time>2026-06-09T20:47:53Z</time>
      </trkpt>
      <trkpt lat="41.40133766106131" lon="-81.73882772634742">
        <ele>267.2151723591</ele>
        <time>2026-06-09T20:48:32Z</time>
      </trkpt>
      <trkpt lat="41.40134159022799" lon="-81.73944209613759">
        <ele>267.2470210941</ele>
        <time>2026-06-09T20:49:10Z</time>
      </trkpt>
      <trkpt lat="41.40134424225521" lon="-81.74002484142974">
        <ele>266.7204934407</ele>
        <time>2026-06-09T20:49:43Z</time>
      </trkpt>
      <trkpt lat="41.40134350644498" lon="-81.74020200006545">
        <ele>266.5581690908</ele>
        <time>2026-06-09T20:49:53Z</time>
      </trkpt>
    </trkseg>
  </trk>
</gpx>