<?xml version='1.0' encoding='UTF-8'?>
<gpx xmlns="http://www.topografix.com/GPX/1/1" creator="https://gpx.studio" version="1.1">
  <metadata>
    <name>Dog Walk - 2026-07-24 #5</name>
  </metadata>
  <trk>
    <name>Dog Walk - 2026-07-24 #5</name>
    <type>dog walk</type>
    <trkseg>
      <trkpt lat="41.40133437297914" lon="-81.74025352574644">
        <ele>266.6206353051</ele>
        <time>2026-07-24T19:28:53Z</time>
      </trkpt>
      <trkpt lat="41.40132780913270" lon="-81.74025029997067">
        <ele>266.3985591602</ele>
        <time>2026-07-24T19:28:54Z</time>
      </trkpt>
      <trkpt lat="41.40132619831182" lon="-81.74085331612558">
        <ele>266.2240745017</ele>
        <time>2026-07-24T19:29:51Z</time>
      </trkpt>
      <trkpt lat="41.40132011401965" lon="-81.74145185063135">
        <ele>265.7694313409</ele>
        <time>2026-07-24T19:30:29Z</time>
      </trkpt>
      <trkpt lat="41.40133341228182" lon="-81.74206063240585">
        <ele>265.2333227212</ele>
        <time>2026-07-24T19:31:18Z</time>
      </trkpt>
      <trkpt lat="41.40132416216394" lon="-81.74237843916694">
        <ele>264.4842535934</ele>
        <time>2026-07-24T19:31:37Z</time>
      </trkpt>
      <trkpt lat="41.40132043941845" lon="-81.74238149171394">
        <ele>264.8466749397</ele>
        <time>2026-07-24T19:31:38Z</time>
      </trkpt>
      <trkpt lat="41.40090852724742" lon="-81.74218746229472">
        <ele>265.0944637954</ele>
        <time>2026-07-24T19:32:25Z</time>
      </trkpt>
      <trkpt lat="41.40046701422986" lon="-81.74199226092306">
        <ele>265.2282790355</ele>
        <time>2026-07-24T19:33:20Z</time>
      </trkpt>
      <trkpt lat="41.40005624460446" lon="-81.74178943458152">
        <ele>265.4696758870</ele>
        <time>2026-07-24T19:33:55Z</time>
      </trkpt>
      <trkpt lat="41.39961725026453" lon="-81.74160763372382">
        <ele>264.7013283187</ele>
        <time>2026-07-24T19:34:34Z</time>
      </trkpt>
      <trkpt lat="41.39954488409082" lon="-81.74156990534840">
        <ele>264.9680937404</ele>
        <time>2026-07-24T19:34:41Z</time>
      </trkpt>
      <trkpt lat="41.39954685295677" lon="-81.74097933428658">
        <ele>265.6095830393</ele>
        <time>2026-07-24T19:35:21Z</time>
      </trkpt>
      <trkpt lat="41.39953835984100" lon="-81.74036861847542">
        <ele>266.1888655968</ele>
        <time>2026-07-24T19:36:18Z</time>
      </trkpt>
      <trkpt lat="41.39953381760381" lon="-81.73978050016935">
        <ele>266.6737047154</ele>
        <time>2026-07-24T19:37:00Z</time>
      </trkpt>
      <trkpt lat="41.39952829365232" lon="-81.73916929249870">
        <ele>267.0424800081</ele>
        <time>2026-07-24T19:37:44Z</time>
      </trkpt>
      <trkpt lat="41.39953669491213" lon="-81.73856557111168">
        <ele>266.9240171447</ele>
        <time>2026-07-24T19:38:34Z</time>
      </trkpt>
      <trkpt lat="41.39953346473919" lon="-81.73828796717775">
        <ele>267.0494620008</ele>
        <time>2026-07-24T19:38:53Z</time>
      </trkpt>
      <trkpt lat="41.39953696208757" lon="-81.73829653511777">
        <ele>266.9313821650</ele>
        <time>2026-07-24T19:38:54Z</time>
      </trkpt>
      <trkpt lat="41.39998664870704" lon="-81.73829735117998">
        <ele>267.0146684238</ele>
        <time>2026-07-24T19:39:32Z</time>
      </trkpt>
      <trkpt lat="41.40043141429098" lon="-81.73829135873174">
        <ele>267.2942935552</ele>
        <time>2026-07-24T19:40:21Z</time>
      </trkpt>
      <trkpt lat="41.40088052074687" lon="-81.73830793235854">
        <ele>267.4386839196</ele>
        <time>2026-07-24T19:41:08Z</time>
      </trkpt>
      <trkpt lat="41.40133183336079" lon="-81.73830582760846">
        <ele>267.5924383367</ele>
        <time>2026-07-24T19:41:41Z</time>
      </trkpt>
      <trkpt lat="41.40132203310260" lon="-81.73891208250747">
        <ele>267.6205224171</ele>
        <time>2026-07-24T19:42:36Z</time>
      </trkpt>
      <trkpt lat="41.40133405865506" lon="-81.73950117413455">
        <ele>267.2114015892</ele>
        <time>2026-07-24T19:43:11Z</time>
      </trkpt>
      <trkpt lat="41.40133706492526" lon="-81.74009951599183">
        <ele>266.2765707938</ele>
        <time>2026-07-24T19:43:51Z</time>
      </trkpt>
      <trkpt lat="41.40133823408812" lon="-81.74014882195500">
        <ele>266.6638619225</ele>
        <time>2026-07-24T19:43:53Z</time>
      </trkpt>
    </trkseg>
  </trk>
</gpx>