<?xml version='1.0' encoding='UTF-8'?>
<gpx xmlns="http://www.topografix.com/GPX/1/1" creator="https://gpx.studio" version="1.1">
  <metadata>
    <name>Dog Walk - 2026-04-16</name>
  </metadata>
  <trk>
    <name>Dog Walk - 2026-04-16</name>
    <type>dog walk</type>
    <trkseg>
      <trkpt lat="41.40133115075923" lon="-81.74023298118050">
        <ele>266.5041978599</ele>
        <time>2026-04-16T11:19:58Z</time>
      </trkpt>
      <trkpt lat="41.40133427773450" lon="-81.74082793607276">
        <ele>266.2787125135</ele>
        <time>2026-04-16T11:20:45Z</time>
      </trkpt>
      <trkpt lat="41.40132887214364" lon="-81.74144197483497">
        <ele>265.5558379308</ele>
        <time>2026-04-16T11:21:21Z</time>
      </trkpt>
      <trkpt lat="41.40132634447932" lon="-81.74202216881041">
        <ele>265.3126393817</ele>
        <time>2026-04-16T11:21:52Z</time>
      </trkpt>
      <trkpt lat="41.40133539029549" lon="-81.74238964707810">
        <ele>264.7787512643</ele>
        <time>2026-04-16T11:22:13Z</time>
      </trkpt>
      <trkpt lat="41.40090762746785" lon="-81.74219181522270">
        <ele>265.1987418543</ele>
        <time>2026-04-16T11:22:56Z</time>
      </trkpt>
      <trkpt lat="41.40048271004651" lon="-81.74200150584502">
        <ele>265.3834137971</ele>
        <time>2026-04-16T11:23:40Z</time>
      </trkpt>
      <trkpt lat="41.40006044979625" lon="-81.74180790377203">
        <ele>265.3172913033</ele>
        <time>2026-04-16T11:24:05Z</time>
      </trkpt>
      <trkpt lat="41.39961890334921" lon="-81.74161376763141">
        <ele>264.6199130163</ele>
        <time>2026-04-16T11:24:56Z</time>
      </trkpt>
      <trkpt lat="41.39954159543301" lon="-81.74158320376610">
        <ele>264.9221741315</ele>
        <time>2026-04-16T11:25:04Z</time>
      </trkpt>
      <trkpt lat="41.39954108419629" lon="-81.74096529988695">
        <ele>265.8293161656</ele>
        <time>2026-04-16T11:25:44Z</time>
      </trkpt>
      <trkpt lat="41.39953361258645" lon="-81.74037367363138">
        <ele>266.3284083231</ele>
        <time>2026-04-16T11:26:20Z</time>
      </trkpt>
      <trkpt lat="41.39953997722361" lon="-81.73977477551321">
        <ele>266.6048375935</ele>
        <time>2026-04-16T11:27:05Z</time>
      </trkpt>
      <trkpt lat="41.39953760365686" lon="-81.73917938751600">
        <ele>266.7732604424</ele>
        <time>2026-04-16T11:27:51Z</time>
      </trkpt>
      <trkpt lat="41.39953667681055" lon="-81.73858430154547">
        <ele>267.0458033291</ele>
        <time>2026-04-16T11:28:34Z</time>
      </trkpt>
      <trkpt lat="41.39952986580684" lon="-81.73797506223114">
        <ele>266.9337905396</ele>
        <time>2026-04-16T11:29:14Z</time>
      </trkpt>
      <trkpt lat="41.39953946534375" lon="-81.73738179758591">
        <ele>267.3549173468</ele>
        <time>2026-04-16T11:29:48Z</time>
      </trkpt>
      <trkpt lat="41.39953702595091" lon="-81.73678180314303">
        <ele>267.3058432336</ele>
        <time>2026-04-16T11:30:18Z</time>
      </trkpt>
      <trkpt lat="41.39952132008201" lon="-81.73617446548032">
        <ele>267.4098199328</ele>
        <time>2026-04-16T11:31:07Z</time>
      </trkpt>
      <trkpt lat="41.39952424191029" lon="-81.73557282183438">
        <ele>267.3252589047</ele>
        <time>2026-04-16T11:31:38Z</time>
      </trkpt>
      <trkpt lat="41.39953249533061" lon="-81.73497993616252">
        <ele>267.3190062249</ele>
        <time>2026-04-16T11:32:28Z</time>
      </trkpt>
      <trkpt lat="41.39952298935767" lon="-81.73461919944262">
        <ele>267.3946355122</ele>
        <time>2026-04-16T11:32:50Z</time>
      </trkpt>
      <trkpt lat="41.39997910255807" lon="-81.73462283157968">
        <ele>266.9776805655</ele>
        <time>2026-04-16T11:33:28Z</time>
      </trkpt>
      <trkpt lat="41.40042581575656" lon="-81.73463043548385">
        <ele>267.5455135065</ele>
        <time>2026-04-16T11:34:05Z</time>
      </trkpt>
      <trkpt lat="41.40087163251414" lon="-81.73463214994847">
        <ele>267.4437667669</ele>
        <time>2026-04-16T11:34:36Z</time>
      </trkpt>
      <trkpt lat="41.40132425691217" lon="-81.73463691368310">
        <ele>267.4977176482</ele>
        <time>2026-04-16T11:35:27Z</time>
      </trkpt>
      <trkpt lat="41.40132042936263" lon="-81.73524073964698">
        <ele>267.9749637929</ele>
        <time>2026-04-16T11:36:09Z</time>
      </trkpt>
      <trkpt lat="41.40132014746125" lon="-81.73584729774484">
        <ele>267.9686091163</ele>
        <time>2026-04-16T11:36:50Z</time>
      </trkpt>
      <trkpt lat="41.40132559430956" lon="-81.73644054643594">
        <ele>268.1061299698</ele>
        <time>2026-04-16T11:37:41Z</time>
      </trkpt>
      <trkpt lat="41.40132008782325" lon="-81.73704666237464">
        <ele>267.9350712550</ele>
        <time>2026-04-16T11:38:22Z</time>
      </trkpt>
      <trkpt lat="41.40132045994217" lon="-81.73763100667473">
        <ele>267.8389976003</ele>
        <time>2026-04-16T11:38:58Z</time>
      </trkpt>
      <trkpt lat="41.40133234647595" lon="-81.73824427166778">
        <ele>267.5892654563</ele>
        <time>2026-04-16T11:39:39Z</time>
      </trkpt>
      <trkpt lat="41.40131882369805" lon="-81.73883578002838">
        <ele>267.6825119660</ele>
        <time>2026-04-16T11:40:11Z</time>
      </trkpt>
      <trkpt lat="41.40133786499488" lon="-81.73944143633342">
        <ele>267.1639524214</ele>
        <time>2026-04-16T11:40:47Z</time>
      </trkpt>
      <trkpt lat="41.40132997115884" lon="-81.74003214084431">
        <ele>266.6365227916</ele>
        <time>2026-04-16T11:41:41Z</time>
      </trkpt>
      <trkpt lat="41.40132185152063" lon="-81.74022172157173">
        <ele>266.7673480981</ele>
        <time>2026-04-16T11:41:53Z</time>
      </trkpt>
    </trkseg>
  </trk>
</gpx>