<?xml version='1.0' encoding='UTF-8'?>
<gpx xmlns="http://www.topografix.com/GPX/1/1" creator="https://gpx.studio" version="1.1">
  <metadata>
    <name>Dog Walk - 2026-02-17 #2</name>
  </metadata>
  <trk>
    <name>Dog Walk - 2026-02-17 #2</name>
    <type>dog walk</type>
    <trkseg>
      <trkpt lat="41.40134172485293" lon="-81.74024048734992">
        <ele>266.6707863065</ele>
        <time>2026-02-17T12:53:33Z</time>
      </trkpt>
      <trkpt lat="41.40134605144723" lon="-81.74084466254399">
        <ele>266.2922399450</ele>
        <time>2026-02-17T12:54:06Z</time>
      </trkpt>
      <trkpt lat="41.40134340510999" lon="-81.74143922045671">
        <ele>265.7147384687</ele>
        <time>2026-02-17T12:54:52Z</time>
      </trkpt>
      <trkpt lat="41.40134695333441" lon="-81.74203755808625">
        <ele>265.3132996850</ele>
        <time>2026-02-17T12:55:39Z</time>
      </trkpt>
      <trkpt lat="41.40135524559217" lon="-81.74242564563747">
        <ele>264.6697686479</ele>
        <time>2026-02-17T12:56:04Z</time>
      </trkpt>
      <trkpt lat="41.40176849374942" lon="-81.74261984193450">
        <ele>264.2007893441</ele>
        <time>2026-02-17T12:56:38Z</time>
      </trkpt>
      <trkpt lat="41.40219538882832" lon="-81.74281561149584">
        <ele>263.4820662590</ele>
        <time>2026-02-17T12:57:27Z</time>
      </trkpt>
      <trkpt lat="41.40262049761220" lon="-81.74301483853482">
        <ele>263.3576206878</ele>
        <time>2026-02-17T12:58:04Z</time>
      </trkpt>
      <trkpt lat="41.40304816057920" lon="-81.74322473626006">
        <ele>262.6005959898</ele>
        <time>2026-02-17T12:58:53Z</time>
      </trkpt>
      <trkpt lat="41.40311546333255" lon="-81.74324268489201">
        <ele>262.2907977084</ele>
        <time>2026-02-17T12:58:58Z</time>
      </trkpt>
      <trkpt lat="41.40310864828498" lon="-81.74265425188931">
        <ele>262.9459219575</ele>
        <time>2026-02-17T12:59:39Z</time>
      </trkpt>
      <trkpt lat="41.40311302616256" lon="-81.74205739526403">
        <ele>263.8239637772</ele>
        <time>2026-02-17T13:00:18Z</time>
      </trkpt>
      <trkpt lat="41.40310970881384" lon="-81.74145603303366">
        <ele>264.2311675890</ele>
        <time>2026-02-17T13:00:57Z</time>
      </trkpt>
      <trkpt lat="41.40310371398521" lon="-81.74085948649393">
        <ele>264.8930985216</ele>
        <time>2026-02-17T13:01:39Z</time>
      </trkpt>
      <trkpt lat="41.40310449293266" lon="-81.74025849229247">
        <ele>265.7219938086</ele>
        <time>2026-02-17T13:02:15Z</time>
      </trkpt>
      <trkpt lat="41.40309911754462" lon="-81.73965178647660">
        <ele>265.8542039687</ele>
        <time>2026-02-17T13:02:54Z</time>
      </trkpt>
      <trkpt lat="41.40310251134942" lon="-81.73905483000168">
        <ele>266.1808440325</ele>
        <time>2026-02-17T13:03:27Z</time>
      </trkpt>
      <trkpt lat="41.40310241580199" lon="-81.73879205862862">
        <ele>266.3983813744</ele>
        <time>2026-02-17T13:03:44Z</time>
      </trkpt>
      <trkpt lat="41.40265199159595" lon="-81.73878047866708">
        <ele>266.6432958253</ele>
        <time>2026-02-17T13:04:30Z</time>
      </trkpt>
      <trkpt lat="41.40223829018162" lon="-81.73878554728864">
        <ele>266.8215295689</ele>
        <time>2026-02-17T13:05:26Z</time>
      </trkpt>
      <trkpt lat="41.40223200312055" lon="-81.73817811846065">
        <ele>267.0719701049</ele>
        <time>2026-02-17T13:06:15Z</time>
      </trkpt>
      <trkpt lat="41.40223107254652" lon="-81.73757914690002">
        <ele>266.9772169856</ele>
        <time>2026-02-17T13:06:49Z</time>
      </trkpt>
      <trkpt lat="41.40223102833898" lon="-81.73697974442690">
        <ele>267.3163019726</ele>
        <time>2026-02-17T13:07:42Z</time>
      </trkpt>
      <trkpt lat="41.40223211325825" lon="-81.73638132068506">
        <ele>267.0524956465</ele>
        <time>2026-02-17T13:08:38Z</time>
      </trkpt>
      <trkpt lat="41.40222393420073" lon="-81.73578759084292">
        <ele>267.3580747835</ele>
        <time>2026-02-17T13:09:32Z</time>
      </trkpt>
      <trkpt lat="41.40222089122396" lon="-81.73518703975715">
        <ele>267.0272364331</ele>
        <time>2026-02-17T13:10:08Z</time>
      </trkpt>
      <trkpt lat="41.40222408215575" lon="-81.73465451107994">
        <ele>267.0867010022</ele>
        <time>2026-02-17T13:10:40Z</time>
      </trkpt>
      <trkpt lat="41.40177393780208" lon="-81.73463613977584">
        <ele>267.2867682255</ele>
        <time>2026-02-17T13:11:15Z</time>
      </trkpt>
      <trkpt lat="41.40131858829096" lon="-81.73463616760750">
        <ele>267.2208058797</ele>
        <time>2026-02-17T13:12:06Z</time>
      </trkpt>
      <trkpt lat="41.40130961603994" lon="-81.73464482752871">
        <ele>267.1226765671</ele>
        <time>2026-02-17T13:12:07Z</time>
      </trkpt>
      <trkpt lat="41.40131335441797" lon="-81.73523102510595">
        <ele>267.9528919464</ele>
        <time>2026-02-17T13:12:54Z</time>
      </trkpt>
      <trkpt lat="41.40131537171457" lon="-81.73583401470630">
        <ele>268.4531524323</ele>
        <time>2026-02-17T13:13:43Z</time>
      </trkpt>
      <trkpt lat="41.40132757851012" lon="-81.73642876194081">
        <ele>268.3788838653</ele>
        <time>2026-02-17T13:14:27Z</time>
      </trkpt>
      <trkpt lat="41.40133032055274" lon="-81.73702740696402">
        <ele>268.0661012120</ele>
        <time>2026-02-17T13:15:08Z</time>
      </trkpt>
      <trkpt lat="41.40132924890020" lon="-81.73762817555253">
        <ele>267.8344473728</ele>
        <time>2026-02-17T13:15:42Z</time>
      </trkpt>
      <trkpt lat="41.40133113263256" lon="-81.73823439309780">
        <ele>267.6474175219</ele>
        <time>2026-02-17T13:16:34Z</time>
      </trkpt>
      <trkpt lat="41.40133733544270" lon="-81.73883375908702">
        <ele>267.4648761071</ele>
        <time>2026-02-17T13:17:26Z</time>
      </trkpt>
      <trkpt lat="41.40133441351973" lon="-81.73943087362296">
        <ele>267.2761185606</ele>
        <time>2026-02-17T13:18:04Z</time>
      </trkpt>
      <trkpt lat="41.40134837688897" lon="-81.74003309210620">
        <ele>266.5972675365</ele>
        <time>2026-02-17T13:18:45Z</time>
      </trkpt>
      <trkpt lat="41.40134149228022" lon="-81.74016550682843">
        <ele>266.3504492796</ele>
        <time>2026-02-17T13:18:53Z</time>
      </trkpt>
    </trkseg>
  </trk>
</gpx>