<?xml version='1.0' encoding='UTF-8'?>
<gpx xmlns="http://www.topografix.com/GPX/1/1" creator="https://gpx.studio" version="1.1">
  <metadata>
    <name>Dog Walk - 2026-03-16 #2</name>
  </metadata>
  <trk>
    <name>Dog Walk - 2026-03-16 #2</name>
    <type>dog walk</type>
    <trkseg>
      <trkpt lat="41.40132615716881" lon="-81.74025772774246">
        <ele>266.6146684595</ele>
        <time>2026-03-16T15:51:15Z</time>
      </trkpt>
      <trkpt lat="41.40132703523002" lon="-81.74025602160025">
        <ele>266.7091090049</ele>
        <time>2026-03-16T15:51:16Z</time>
      </trkpt>
      <trkpt lat="41.40132935405818" lon="-81.74085624334101">
        <ele>266.3992656909</ele>
        <time>2026-03-16T15:51:52Z</time>
      </trkpt>
      <trkpt lat="41.40133395892968" lon="-81.74145670724964">
        <ele>265.8069311280</ele>
        <time>2026-03-16T15:52:50Z</time>
      </trkpt>
      <trkpt lat="41.40132188095713" lon="-81.74205087293926">
        <ele>265.1249741452</ele>
        <time>2026-03-16T15:53:32Z</time>
      </trkpt>
      <trkpt lat="41.40132130716609" lon="-81.74236544024070">
        <ele>264.8447927822</ele>
        <time>2026-03-16T15:53:49Z</time>
      </trkpt>
      <trkpt lat="41.40132162142714" lon="-81.74237147437853">
        <ele>264.6554126186</ele>
        <time>2026-03-16T15:53:50Z</time>
      </trkpt>
      <trkpt lat="41.40089894183203" lon="-81.74217512644002">
        <ele>265.1576861836</ele>
        <time>2026-03-16T15:54:23Z</time>
      </trkpt>
      <trkpt lat="41.40047375372483" lon="-81.74198266704505">
        <ele>265.2362305009</ele>
        <time>2026-03-16T15:55:05Z</time>
      </trkpt>
      <trkpt lat="41.40004584708947" lon="-81.74180170912393">
        <ele>265.4357337238</ele>
        <time>2026-03-16T15:55:53Z</time>
      </trkpt>
      <trkpt lat="41.39962469039815" lon="-81.74161042007938">
        <ele>264.3705968046</ele>
        <time>2026-03-16T15:56:22Z</time>
      </trkpt>
      <trkpt lat="41.39954153179735" lon="-81.74156007155898">
        <ele>264.7846161663</ele>
        <time>2026-03-16T15:56:30Z</time>
      </trkpt>
      <trkpt lat="41.39954256197039" lon="-81.74097000361940">
        <ele>265.6896112118</ele>
        <time>2026-03-16T15:57:12Z</time>
      </trkpt>
      <trkpt lat="41.39953420748128" lon="-81.74038007435379">
        <ele>266.3287186531</ele>
        <time>2026-03-16T15:57:55Z</time>
      </trkpt>
      <trkpt lat="41.39954541220266" lon="-81.73978016983273">
        <ele>266.6848277599</ele>
        <time>2026-03-16T15:58:34Z</time>
      </trkpt>
      <trkpt lat="41.39953696903942" lon="-81.73916817246284">
        <ele>266.7453850421</ele>
        <time>2026-03-16T15:59:24Z</time>
      </trkpt>
      <trkpt lat="41.39953337783278" lon="-81.73856643713803">
        <ele>266.8848225042</ele>
        <time>2026-03-16T15:59:55Z</time>
      </trkpt>
      <trkpt lat="41.39954127690164" lon="-81.73830397556037">
        <ele>266.8710166259</ele>
        <time>2026-03-16T16:00:17Z</time>
      </trkpt>
      <trkpt lat="41.39953120974980" lon="-81.73829733973322">
        <ele>266.9707822315</ele>
        <time>2026-03-16T16:00:18Z</time>
      </trkpt>
      <trkpt lat="41.39998260265447" lon="-81.73830152305044">
        <ele>267.0330980198</ele>
        <time>2026-03-16T16:01:06Z</time>
      </trkpt>
      <trkpt lat="41.40043864246006" lon="-81.73830669596300">
        <ele>267.1075996167</ele>
        <time>2026-03-16T16:02:01Z</time>
      </trkpt>
      <trkpt lat="41.40089089887722" lon="-81.73829661741048">
        <ele>267.4508550550</ele>
        <time>2026-03-16T16:02:48Z</time>
      </trkpt>
      <trkpt lat="41.40131902624172" lon="-81.73829901440605">
        <ele>267.3051741798</ele>
        <time>2026-03-16T16:03:34Z</time>
      </trkpt>
      <trkpt lat="41.40133339190218" lon="-81.73890803516622">
        <ele>267.3631918098</ele>
        <time>2026-03-16T16:04:28Z</time>
      </trkpt>
      <trkpt lat="41.40133156885705" lon="-81.73950027365882">
        <ele>267.4031893234</ele>
        <time>2026-03-16T16:05:14Z</time>
      </trkpt>
      <trkpt lat="41.40133475586513" lon="-81.74010600554990">
        <ele>266.6360632857</ele>
        <time>2026-03-16T16:05:54Z</time>
      </trkpt>
      <trkpt lat="41.40133983509536" lon="-81.74015258796051">
        <ele>266.6591952433</ele>
        <time>2026-03-16T16:05:57Z</time>
      </trkpt>
    </trkseg>
  </trk>
</gpx>