<?xml version='1.0' encoding='UTF-8'?>
<gpx xmlns="http://www.topografix.com/GPX/1/1" creator="https://gpx.studio" version="1.1">
  <metadata>
    <name>Dog Walk - 2026-08-01 #4</name>
  </metadata>
  <trk>
    <name>Dog Walk - 2026-08-01 #4</name>
    <type>dog walk</type>
    <trkseg>
      <trkpt lat="41.40134444610054" lon="-81.74022323513809">
        <ele>266.5308618800</ele>
        <time>2026-08-01T18:43:34Z</time>
      </trkpt>
      <trkpt lat="41.40133194346807" lon="-81.74083221114037">
        <ele>266.1008272876</ele>
        <time>2026-08-01T18:44:15Z</time>
      </trkpt>
      <trkpt lat="41.40134549272402" lon="-81.74144171324983">
        <ele>265.8438170739</ele>
        <time>2026-08-01T18:44:59Z</time>
      </trkpt>
      <trkpt lat="41.40134562834228" lon="-81.74203102037649">
        <ele>265.1991715833</ele>
        <time>2026-08-01T18:45:53Z</time>
      </trkpt>
      <trkpt lat="41.40134701961252" lon="-81.74241818329226">
        <ele>264.7603516635</ele>
        <time>2026-08-01T18:46:21Z</time>
      </trkpt>
      <trkpt lat="41.40176741856052" lon="-81.74262778585155">
        <ele>264.3436517005</ele>
        <time>2026-08-01T18:46:56Z</time>
      </trkpt>
      <trkpt lat="41.40219267891173" lon="-81.74285031823700">
        <ele>263.3625988805</ele>
        <time>2026-08-01T18:47:30Z</time>
      </trkpt>
      <trkpt lat="41.40221683660150" lon="-81.74287061500077">
        <ele>263.6397721229</ele>
        <time>2026-08-01T18:47:33Z</time>
      </trkpt>
      <trkpt lat="41.40222054417441" lon="-81.74227485792593">
        <ele>264.3003802690</ele>
        <time>2026-08-01T18:48:13Z</time>
      </trkpt>
      <trkpt lat="41.40221810328173" lon="-81.74166071207388">
        <ele>264.5833427494</ele>
        <time>2026-08-01T18:48:51Z</time>
      </trkpt>
      <trkpt lat="41.40221494539220" lon="-81.74107497777844">
        <ele>265.4356398993</ele>
        <time>2026-08-01T18:49:27Z</time>
      </trkpt>
      <trkpt lat="41.40221960399323" lon="-81.74047181643076">
        <ele>265.9923298856</ele>
        <time>2026-08-01T18:50:10Z</time>
      </trkpt>
      <trkpt lat="41.40221214078711" lon="-81.73986106784078">
        <ele>266.6411404092</ele>
        <time>2026-08-01T18:50:42Z</time>
      </trkpt>
      <trkpt lat="41.40221792596988" lon="-81.73927922797743">
        <ele>266.8784759136</ele>
        <time>2026-08-01T18:51:15Z</time>
      </trkpt>
      <trkpt lat="41.40221852376014" lon="-81.73866566605392">
        <ele>267.1882684352</ele>
        <time>2026-08-01T18:51:55Z</time>
      </trkpt>
      <trkpt lat="41.40221426316761" lon="-81.73827877742404">
        <ele>266.9613851484</ele>
        <time>2026-08-01T18:52:19Z</time>
      </trkpt>
      <trkpt lat="41.40177423359729" lon="-81.73826948285796">
        <ele>267.7552775007</ele>
        <time>2026-08-01T18:52:54Z</time>
      </trkpt>
      <trkpt lat="41.40134663596151" lon="-81.73826684828697">
        <ele>267.5703613907</ele>
        <time>2026-08-01T18:53:32Z</time>
      </trkpt>
      <trkpt lat="41.40133896121507" lon="-81.73885721261180">
        <ele>267.7383572904</ele>
        <time>2026-08-01T18:54:17Z</time>
      </trkpt>
      <trkpt lat="41.40134839261775" lon="-81.73945745548004">
        <ele>266.9912200820</ele>
        <time>2026-08-01T18:54:55Z</time>
      </trkpt>
      <trkpt lat="41.40133596902508" lon="-81.74005660188590">
        <ele>266.6638374034</ele>
        <time>2026-08-01T18:55:32Z</time>
      </trkpt>
      <trkpt lat="41.40134037469537" lon="-81.74018495605151">
        <ele>266.4076206845</ele>
        <time>2026-08-01T18:55:40Z</time>
      </trkpt>
    </trkseg>
  </trk>
</gpx>