<?xml version='1.0' encoding='UTF-8'?>
<gpx xmlns="http://www.topografix.com/GPX/1/1" creator="https://gpx.studio" version="1.1">
  <metadata>
    <name>Dog Walk - 2026-08-07 #3</name>
  </metadata>
  <trk>
    <name>Dog Walk - 2026-08-07 #3</name>
    <type>dog walk</type>
    <trkseg>
      <trkpt lat="41.40133435360529" lon="-81.74022897890093">
        <ele>266.4726259392</ele>
        <time>2026-08-07T13:06:43Z</time>
      </trkpt>
      <trkpt lat="41.40134587999698" lon="-81.74084154257879">
        <ele>266.1301829936</ele>
        <time>2026-08-07T13:07:21Z</time>
      </trkpt>
      <trkpt lat="41.40134006214564" lon="-81.74143248993560">
        <ele>265.6986367623</ele>
        <time>2026-08-07T13:08:14Z</time>
      </trkpt>
      <trkpt lat="41.40134405602004" lon="-81.74202504781802">
        <ele>265.1531277716</ele>
        <time>2026-08-07T13:08:54Z</time>
      </trkpt>
      <trkpt lat="41.40135068535020" lon="-81.74241946922612">
        <ele>264.8695398639</ele>
        <time>2026-08-07T13:09:27Z</time>
      </trkpt>
      <trkpt lat="41.40176808400700" lon="-81.74262754032006">
        <ele>264.4846568433</ele>
        <time>2026-08-07T13:10:11Z</time>
      </trkpt>
      <trkpt lat="41.40218831310693" lon="-81.74283376637956">
        <ele>263.4246847969</ele>
        <time>2026-08-07T13:11:06Z</time>
      </trkpt>
      <trkpt lat="41.40260705060930" lon="-81.74305977336554">
        <ele>262.8984594122</ele>
        <time>2026-08-07T13:11:45Z</time>
      </trkpt>
      <trkpt lat="41.40303503689309" lon="-81.74326610651021">
        <ele>262.4235854916</ele>
        <time>2026-08-07T13:12:29Z</time>
      </trkpt>
      <trkpt lat="41.40344973464331" lon="-81.74347827798880">
        <ele>261.9897999371</ele>
        <time>2026-08-07T13:13:16Z</time>
      </trkpt>
      <trkpt lat="41.40349007302407" lon="-81.74350429146577">
        <ele>261.8244613375</ele>
        <time>2026-08-07T13:13:21Z</time>
      </trkpt>
      <trkpt lat="41.40359968491894" lon="-81.74352056433190">
        <ele>261.7079061340</ele>
        <time>2026-08-07T13:13:31Z</time>
      </trkpt>
      <trkpt lat="41.40399423351043" lon="-81.74351157342264">
        <ele>260.7063017394</ele>
        <time>2026-08-07T13:14:03Z</time>
      </trkpt>
      <trkpt lat="41.40399634616826" lon="-81.74291214827625">
        <ele>261.5739149287</ele>
        <time>2026-08-07T13:14:45Z</time>
      </trkpt>
      <trkpt lat="41.40398929158966" lon="-81.74231141461979">
        <ele>261.9728702869</ele>
        <time>2026-08-07T13:15:18Z</time>
      </trkpt>
      <trkpt lat="41.40399582288939" lon="-81.74170885986814">
        <ele>262.6420007311</ele>
        <time>2026-08-07T13:16:05Z</time>
      </trkpt>
      <trkpt lat="41.40399202605089" lon="-81.74110856423192">
        <ele>262.9097839930</ele>
        <time>2026-08-07T13:16:48Z</time>
      </trkpt>
      <trkpt lat="41.40399084810495" lon="-81.74052599591730">
        <ele>263.4423365730</ele>
        <time>2026-08-07T13:17:46Z</time>
      </trkpt>
      <trkpt lat="41.40399222670794" lon="-81.73990692231234">
        <ele>264.1304152344</ele>
        <time>2026-08-07T13:18:19Z</time>
      </trkpt>
      <trkpt lat="41.40398907636774" lon="-81.73931189858726">
        <ele>264.7837216468</ele>
        <time>2026-08-07T13:19:06Z</time>
      </trkpt>
      <trkpt lat="41.40398431548353" lon="-81.73876623834562">
        <ele>265.2949604087</ele>
        <time>2026-08-07T13:19:51Z</time>
      </trkpt>
      <trkpt lat="41.40353910414133" lon="-81.73876948537489">
        <ele>265.9789671595</ele>
        <time>2026-08-07T13:20:29Z</time>
      </trkpt>
      <trkpt lat="41.40308278185714" lon="-81.73877866806433">
        <ele>266.2109372885</ele>
        <time>2026-08-07T13:21:01Z</time>
      </trkpt>
      <trkpt lat="41.40264096535032" lon="-81.73877660543550">
        <ele>266.9167242010</ele>
        <time>2026-08-07T13:21:44Z</time>
      </trkpt>
      <trkpt lat="41.40222248324711" lon="-81.73877320233608">
        <ele>267.1220462787</ele>
        <time>2026-08-07T13:22:25Z</time>
      </trkpt>
      <trkpt lat="41.40221207345690" lon="-81.73827756765709">
        <ele>267.2282184924</ele>
        <time>2026-08-07T13:22:51Z</time>
      </trkpt>
      <trkpt lat="41.40177361222401" lon="-81.73827658858005">
        <ele>267.8447720978</ele>
        <time>2026-08-07T13:23:32Z</time>
      </trkpt>
      <trkpt lat="41.40133474043439" lon="-81.73826686480831">
        <ele>267.3160406753</ele>
        <time>2026-08-07T13:24:13Z</time>
      </trkpt>
      <trkpt lat="41.40133267591823" lon="-81.73886820957112">
        <ele>267.4813018515</ele>
        <time>2026-08-07T13:24:52Z</time>
      </trkpt>
      <trkpt lat="41.40133155932720" lon="-81.73946921137258">
        <ele>267.0429097709</ele>
        <time>2026-08-07T13:25:36Z</time>
      </trkpt>
      <trkpt lat="41.40134130321367" lon="-81.74006668441483">
        <ele>266.7306736379</ele>
        <time>2026-08-07T13:26:11Z</time>
      </trkpt>
      <trkpt lat="41.40134532765792" lon="-81.74019979083472">
        <ele>266.5453947115</ele>
        <time>2026-08-07T13:26:18Z</time>
      </trkpt>
    </trkseg>
  </trk>
</gpx>