<?xml version='1.0' encoding='UTF-8'?>
<gpx xmlns="http://www.topografix.com/GPX/1/1" creator="https://gpx.studio" version="1.1">
  <metadata>
    <name>Dog Walk - 2026-08-19 #2</name>
  </metadata>
  <trk>
    <name>Dog Walk - 2026-08-19 #2</name>
    <type>dog walk</type>
    <trkseg>
      <trkpt lat="41.40131986650014" lon="-81.74026275529523">
        <ele>266.5198542871</ele>
        <time>2026-08-19T15:10:36Z</time>
      </trkpt>
      <trkpt lat="41.40133040593592" lon="-81.74026346452442">
        <ele>266.4094555195</ele>
        <time>2026-08-19T15:10:37Z</time>
      </trkpt>
      <trkpt lat="41.40133015638401" lon="-81.74085540308064">
        <ele>266.3007380966</ele>
        <time>2026-08-19T15:11:20Z</time>
      </trkpt>
      <trkpt lat="41.40132260778329" lon="-81.74145945808256">
        <ele>265.6862524165</ele>
        <time>2026-08-19T15:12:01Z</time>
      </trkpt>
      <trkpt lat="41.40132249930168" lon="-81.74204702664488">
        <ele>265.3853703194</ele>
        <time>2026-08-19T15:12:30Z</time>
      </trkpt>
      <trkpt lat="41.40132902361510" lon="-81.74238086033226">
        <ele>264.6899476127</ele>
        <time>2026-08-19T15:12:51Z</time>
      </trkpt>
      <trkpt lat="41.40132262690263" lon="-81.74237875748045">
        <ele>264.9183269852</ele>
        <time>2026-08-19T15:12:52Z</time>
      </trkpt>
      <trkpt lat="41.40090063792876" lon="-81.74218505503727">
        <ele>265.0590962366</ele>
        <time>2026-08-19T15:13:44Z</time>
      </trkpt>
      <trkpt lat="41.40048050865136" lon="-81.74199231685836">
        <ele>265.4494753565</ele>
        <time>2026-08-19T15:14:20Z</time>
      </trkpt>
      <trkpt lat="41.40004468876561" lon="-81.74180992807246">
        <ele>265.5888064839</ele>
        <time>2026-08-19T15:15:00Z</time>
      </trkpt>
      <trkpt lat="41.39961773723159" lon="-81.74160464302528">
        <ele>264.7935205091</ele>
        <time>2026-08-19T15:15:29Z</time>
      </trkpt>
      <trkpt lat="41.39954549466528" lon="-81.74157596478693">
        <ele>264.7857449341</ele>
        <time>2026-08-19T15:15:35Z</time>
      </trkpt>
      <trkpt lat="41.39953715052608" lon="-81.74096956254428">
        <ele>265.7007385759</ele>
        <time>2026-08-19T15:16:36Z</time>
      </trkpt>
      <trkpt lat="41.39954256551597" lon="-81.74036453296119">
        <ele>266.3319354204</ele>
        <time>2026-08-19T15:17:15Z</time>
      </trkpt>
      <trkpt lat="41.39953590726021" lon="-81.73977414148293">
        <ele>266.6233554840</ele>
        <time>2026-08-19T15:18:00Z</time>
      </trkpt>
      <trkpt lat="41.39953639794285" lon="-81.73918120510162">
        <ele>266.9029390595</ele>
        <time>2026-08-19T15:18:34Z</time>
      </trkpt>
      <trkpt lat="41.39953758620819" lon="-81.73857922941701">
        <ele>266.9711370403</ele>
        <time>2026-08-19T15:19:15Z</time>
      </trkpt>
      <trkpt lat="41.39953730297414" lon="-81.73829177879402">
        <ele>266.8456594001</ele>
        <time>2026-08-19T15:19:32Z</time>
      </trkpt>
      <trkpt lat="41.39953773308403" lon="-81.73828872075379">
        <ele>266.8174641898</ele>
        <time>2026-08-19T15:19:33Z</time>
      </trkpt>
      <trkpt lat="41.39998830882211" lon="-81.73829482522487">
        <ele>267.1285589275</ele>
        <time>2026-08-19T15:20:22Z</time>
      </trkpt>
      <trkpt lat="41.40043074111295" lon="-81.73829102377293">
        <ele>267.0725713457</ele>
        <time>2026-08-19T15:20:57Z</time>
      </trkpt>
      <trkpt lat="41.40088573525189" lon="-81.73830552513905">
        <ele>267.3763800218</ele>
        <time>2026-08-19T15:21:32Z</time>
      </trkpt>
      <trkpt lat="41.40133350995562" lon="-81.73830923924213">
        <ele>267.4899280836</ele>
        <time>2026-08-19T15:22:15Z</time>
      </trkpt>
      <trkpt lat="41.40132982305229" lon="-81.73890295563945">
        <ele>267.1378683858</ele>
        <time>2026-08-19T15:23:10Z</time>
      </trkpt>
      <trkpt lat="41.40133101453688" lon="-81.73949612563764">
        <ele>266.8709925360</ele>
        <time>2026-08-19T15:23:42Z</time>
      </trkpt>
      <trkpt lat="41.40133616269011" lon="-81.74009623064110">
        <ele>266.5143981361</ele>
        <time>2026-08-19T15:24:18Z</time>
      </trkpt>
      <trkpt lat="41.40133732318117" lon="-81.74016857176470">
        <ele>266.5584016976</ele>
        <time>2026-08-19T15:24:24Z</time>
      </trkpt>
    </trkseg>
  </trk>
</gpx>