<?xml version='1.0' encoding='UTF-8'?>
<gpx xmlns="http://www.topografix.com/GPX/1/1" creator="https://gpx.studio" version="1.1">
  <metadata>
    <name>Dog Walk - 2026-09-10 #3</name>
  </metadata>
  <trk>
    <name>Dog Walk - 2026-09-10 #3</name>
    <type>dog walk</type>
    <trkseg>
      <trkpt lat="41.40134580871048" lon="-81.74023992063584">
        <ele>266.6747706311</ele>
        <time>2026-09-10T14:04:45Z</time>
      </trkpt>
      <trkpt lat="41.40133357615839" lon="-81.74082039396109">
        <ele>266.2599426452</ele>
        <time>2026-09-10T14:05:20Z</time>
      </trkpt>
      <trkpt lat="41.40134688811547" lon="-81.74142899380207">
        <ele>265.6153723519</ele>
        <time>2026-09-10T14:05:58Z</time>
      </trkpt>
      <trkpt lat="41.40132763726263" lon="-81.74203796392887">
        <ele>265.3086907945</ele>
        <time>2026-09-10T14:06:38Z</time>
      </trkpt>
      <trkpt lat="41.40133084839123" lon="-81.74239069715581">
        <ele>264.5685312927</ele>
        <time>2026-09-10T14:06:59Z</time>
      </trkpt>
      <trkpt lat="41.40090239849652" lon="-81.74218873962499">
        <ele>265.3563374408</ele>
        <time>2026-09-10T14:07:54Z</time>
      </trkpt>
      <trkpt lat="41.40048575831384" lon="-81.74196713584156">
        <ele>264.9675187696</ele>
        <time>2026-09-10T14:08:33Z</time>
      </trkpt>
      <trkpt lat="41.40045414821591" lon="-81.74195484161052">
        <ele>265.4317309101</ele>
        <time>2026-09-10T14:08:35Z</time>
      </trkpt>
      <trkpt lat="41.40044184364599" lon="-81.74134018520992">
        <ele>265.9881836976</ele>
        <time>2026-09-10T14:09:11Z</time>
      </trkpt>
      <trkpt lat="41.40044143577575" lon="-81.74074834558364">
        <ele>266.4850957088</ele>
        <time>2026-09-10T14:09:47Z</time>
      </trkpt>
      <trkpt lat="41.40043470499376" lon="-81.74015462852441">
        <ele>266.7580134975</ele>
        <time>2026-09-10T14:10:24Z</time>
      </trkpt>
      <trkpt lat="41.40043054686947" lon="-81.73955127636188">
        <ele>266.9686420835</ele>
        <time>2026-09-10T14:11:02Z</time>
      </trkpt>
      <trkpt lat="41.40043553058997" lon="-81.73896212653067">
        <ele>267.3200406015</ele>
        <time>2026-09-10T14:11:35Z</time>
      </trkpt>
      <trkpt lat="41.40042729685883" lon="-81.73836084349836">
        <ele>267.3882489542</ele>
        <time>2026-09-10T14:12:22Z</time>
      </trkpt>
      <trkpt lat="41.40041398150621" lon="-81.73775296997901">
        <ele>267.4828737610</ele>
        <time>2026-09-10T14:12:58Z</time>
      </trkpt>
      <trkpt lat="41.40040279422491" lon="-81.73715731969224">
        <ele>268.0038599453</ele>
        <time>2026-09-10T14:13:31Z</time>
      </trkpt>
      <trkpt lat="41.40040008118984" lon="-81.73654487586018">
        <ele>268.0073104676</ele>
        <time>2026-09-10T14:14:25Z</time>
      </trkpt>
      <trkpt lat="41.40040467719239" lon="-81.73596135167374">
        <ele>267.8903522734</ele>
        <time>2026-09-10T14:15:03Z</time>
      </trkpt>
      <trkpt lat="41.40040130743196" lon="-81.73535589347114">
        <ele>267.7704767528</ele>
        <time>2026-09-10T14:15:47Z</time>
      </trkpt>
      <trkpt lat="41.40040001626620" lon="-81.73475507894791">
        <ele>267.5732837130</ele>
        <time>2026-09-10T14:16:39Z</time>
      </trkpt>
      <trkpt lat="41.40038872401018" lon="-81.73462799524178">
        <ele>267.1751181106</ele>
        <time>2026-09-10T14:16:52Z</time>
      </trkpt>
      <trkpt lat="41.40084465202029" lon="-81.73462960331280">
        <ele>267.1489055626</ele>
        <time>2026-09-10T14:17:36Z</time>
      </trkpt>
      <trkpt lat="41.40129237400510" lon="-81.73462343296535">
        <ele>267.1884994358</ele>
        <time>2026-09-10T14:18:14Z</time>
      </trkpt>
      <trkpt lat="41.40131910980379" lon="-81.73463976769938">
        <ele>267.4067393385</ele>
        <time>2026-09-10T14:18:16Z</time>
      </trkpt>
      <trkpt lat="41.40132873260929" lon="-81.73523159702623">
        <ele>268.0778819000</ele>
        <time>2026-09-10T14:19:25Z</time>
      </trkpt>
      <trkpt lat="41.40132855280518" lon="-81.73583298061594">
        <ele>268.1372032724</ele>
        <time>2026-09-10T14:20:15Z</time>
      </trkpt>
      <trkpt lat="41.40133591362491" lon="-81.73643016632830">
        <ele>268.1031421210</ele>
        <time>2026-09-10T14:21:06Z</time>
      </trkpt>
      <trkpt lat="41.40133326072306" lon="-81.73703335643459">
        <ele>267.8516354770</ele>
        <time>2026-09-10T14:21:48Z</time>
      </trkpt>
      <trkpt lat="41.40134056829300" lon="-81.73763775878325">
        <ele>267.8516414324</ele>
        <time>2026-09-10T14:22:30Z</time>
      </trkpt>
      <trkpt lat="41.40133938458253" lon="-81.73823433740628">
        <ele>267.4530141498</ele>
        <time>2026-09-10T14:23:11Z</time>
      </trkpt>
      <trkpt lat="41.40133953723790" lon="-81.73883758590192">
        <ele>267.6393572035</ele>
        <time>2026-09-10T14:23:51Z</time>
      </trkpt>
      <trkpt lat="41.40135017726791" lon="-81.73943081618056">
        <ele>267.3341543656</ele>
        <time>2026-09-10T14:24:28Z</time>
      </trkpt>
      <trkpt lat="41.40135338643773" lon="-81.74002986422423">
        <ele>266.6037544895</ele>
        <time>2026-09-10T14:25:07Z</time>
      </trkpt>
      <trkpt lat="41.40134671844485" lon="-81.74020028915072">
        <ele>266.6500175249</ele>
        <time>2026-09-10T14:25:19Z</time>
      </trkpt>
    </trkseg>
  </trk>
</gpx>