<?xml version='1.0' encoding='UTF-8'?>
<gpx xmlns="http://www.topografix.com/GPX/1/1" creator="https://gpx.studio" version="1.1">
  <metadata>
    <name>Dog Walk - 2026-02-14 #1</name>
  </metadata>
  <trk>
    <name>Dog Walk - 2026-02-14 #1</name>
    <type>dog walk</type>
    <trkseg>
      <trkpt lat="41.40133766371780" lon="-81.74023364516762">
        <ele>266.3995817498</ele>
        <time>2026-02-14T07:07:25Z</time>
      </trkpt>
      <trkpt lat="41.40134242764724" lon="-81.74083242384528">
        <ele>265.9277531821</ele>
        <time>2026-02-14T07:08:08Z</time>
      </trkpt>
      <trkpt lat="41.40134885554217" lon="-81.74143238639510">
        <ele>265.8880865157</ele>
        <time>2026-02-14T07:08:43Z</time>
      </trkpt>
      <trkpt lat="41.40132893703205" lon="-81.74203045594822">
        <ele>265.3971979241</ele>
        <time>2026-02-14T07:09:16Z</time>
      </trkpt>
      <trkpt lat="41.40133217962673" lon="-81.74238933520030">
        <ele>264.6976881271</ele>
        <time>2026-02-14T07:09:38Z</time>
      </trkpt>
      <trkpt lat="41.40091385668298" lon="-81.74218926158251">
        <ele>265.3026769682</ele>
        <time>2026-02-14T07:10:20Z</time>
      </trkpt>
      <trkpt lat="41.40048859174250" lon="-81.74197280886682">
        <ele>265.0584266058</ele>
        <time>2026-02-14T07:10:52Z</time>
      </trkpt>
      <trkpt lat="41.40045224007299" lon="-81.74194594587283">
        <ele>265.4077272499</ele>
        <time>2026-02-14T07:10:56Z</time>
      </trkpt>
      <trkpt lat="41.40045119323617" lon="-81.74135246028571">
        <ele>266.1930516296</ele>
        <time>2026-02-14T07:11:39Z</time>
      </trkpt>
      <trkpt lat="41.40043609974322" lon="-81.74074638727429">
        <ele>266.2482854286</ele>
        <time>2026-02-14T07:12:26Z</time>
      </trkpt>
      <trkpt lat="41.40044569609132" lon="-81.74015700130219">
        <ele>266.6948606347</ele>
        <time>2026-02-14T07:13:14Z</time>
      </trkpt>
      <trkpt lat="41.40042817441105" lon="-81.73955048254184">
        <ele>267.0133130332</ele>
        <time>2026-02-14T07:13:48Z</time>
      </trkpt>
      <trkpt lat="41.40042872653504" lon="-81.73895923397745">
        <ele>266.9166837837</ele>
        <time>2026-02-14T07:14:25Z</time>
      </trkpt>
      <trkpt lat="41.40042091611718" lon="-81.73834888342382">
        <ele>267.3609201434</ele>
        <time>2026-02-14T07:15:13Z</time>
      </trkpt>
      <trkpt lat="41.40041536761604" lon="-81.73774911408621">
        <ele>267.6926463305</ele>
        <time>2026-02-14T07:15:55Z</time>
      </trkpt>
      <trkpt lat="41.40040362193886" lon="-81.73715610974703">
        <ele>267.8871256656</ele>
        <time>2026-02-14T07:16:42Z</time>
      </trkpt>
      <trkpt lat="41.40041071108826" lon="-81.73654286122729">
        <ele>268.0917145099</ele>
        <time>2026-02-14T07:17:20Z</time>
      </trkpt>
      <trkpt lat="41.40040484014152" lon="-81.73596508344559">
        <ele>267.9043025399</ele>
        <time>2026-02-14T07:17:54Z</time>
      </trkpt>
      <trkpt lat="41.40040175054843" lon="-81.73535804465763">
        <ele>267.8080626748</ele>
        <time>2026-02-14T07:18:29Z</time>
      </trkpt>
      <trkpt lat="41.40039374222192" lon="-81.73475458081622">
        <ele>267.4595736837</ele>
        <time>2026-02-14T07:19:22Z</time>
      </trkpt>
      <trkpt lat="41.40039592189855" lon="-81.73463219189802">
        <ele>267.4814994607</ele>
        <time>2026-02-14T07:19:30Z</time>
      </trkpt>
      <trkpt lat="41.40083844980222" lon="-81.73463489643235">
        <ele>267.5145899559</ele>
        <time>2026-02-14T07:20:07Z</time>
      </trkpt>
      <trkpt lat="41.40129559060480" lon="-81.73463624660133">
        <ele>267.3699295090</ele>
        <time>2026-02-14T07:20:49Z</time>
      </trkpt>
      <trkpt lat="41.40130259907465" lon="-81.73462931272363">
        <ele>267.2975508925</ele>
        <time>2026-02-14T07:20:50Z</time>
      </trkpt>
      <trkpt lat="41.40131990489623" lon="-81.73523836892281">
        <ele>267.8246125733</ele>
        <time>2026-02-14T07:21:31Z</time>
      </trkpt>
      <trkpt lat="41.40132440238032" lon="-81.73583690179728">
        <ele>268.1457523197</ele>
        <time>2026-02-14T07:22:09Z</time>
      </trkpt>
      <trkpt lat="41.40133367841513" lon="-81.73642042303230">
        <ele>268.0473370814</ele>
        <time>2026-02-14T07:22:53Z</time>
      </trkpt>
      <trkpt lat="41.40133118904920" lon="-81.73702962218003">
        <ele>267.7976879488</ele>
        <time>2026-02-14T07:23:34Z</time>
      </trkpt>
      <trkpt lat="41.40133008055928" lon="-81.73762292633538">
        <ele>267.9404743708</ele>
        <time>2026-02-14T07:24:10Z</time>
      </trkpt>
      <trkpt lat="41.40133224212386" lon="-81.73822497399631">
        <ele>267.6222224370</ele>
        <time>2026-02-14T07:24:59Z</time>
      </trkpt>
      <trkpt lat="41.40133121029115" lon="-81.73883331603727">
        <ele>267.3549619925</ele>
        <time>2026-02-14T07:25:35Z</time>
      </trkpt>
      <trkpt lat="41.40134035727184" lon="-81.73942713008378">
        <ele>267.1412584505</ele>
        <time>2026-02-14T07:26:09Z</time>
      </trkpt>
      <trkpt lat="41.40134735172377" lon="-81.74002710981748">
        <ele>266.4193401160</ele>
        <time>2026-02-14T07:26:57Z</time>
      </trkpt>
      <trkpt lat="41.40134161926524" lon="-81.74019855563991">
        <ele>266.5379464278</ele>
        <time>2026-02-14T07:27:07Z</time>
      </trkpt>
    </trkseg>
  </trk>
</gpx>