<?xml version='1.0' encoding='UTF-8'?>
<gpx xmlns="http://www.topografix.com/GPX/1/1" creator="https://gpx.studio" version="1.1">
  <metadata>
    <name>Dog Walk - 2026-08-15 #1</name>
  </metadata>
  <trk>
    <name>Dog Walk - 2026-08-15 #1</name>
    <type>dog walk</type>
    <trkseg>
      <trkpt lat="41.40133541470072" lon="-81.74023954636404">
        <ele>266.4764838878</ele>
        <time>2026-08-15T07:04:07Z</time>
      </trkpt>
      <trkpt lat="41.40135043738383" lon="-81.74082110755180">
        <ele>266.2130722007</ele>
        <time>2026-08-15T07:04:55Z</time>
      </trkpt>
      <trkpt lat="41.40134357748418" lon="-81.74143524777857">
        <ele>265.6351448558</ele>
        <time>2026-08-15T07:05:33Z</time>
      </trkpt>
      <trkpt lat="41.40135266474710" lon="-81.74202429092537">
        <ele>265.4637394413</ele>
        <time>2026-08-15T07:06:04Z</time>
      </trkpt>
      <trkpt lat="41.40135013406480" lon="-81.74241890562865">
        <ele>264.6657259350</ele>
        <time>2026-08-15T07:06:25Z</time>
      </trkpt>
      <trkpt lat="41.40177003357611" lon="-81.74262222774888">
        <ele>264.4583450714</ele>
        <time>2026-08-15T07:07:03Z</time>
      </trkpt>
      <trkpt lat="41.40218797961547" lon="-81.74284386513119">
        <ele>263.6382475994</ele>
        <time>2026-08-15T07:07:49Z</time>
      </trkpt>
      <trkpt lat="41.40261536576401" lon="-81.74305259797633">
        <ele>262.7957617369</ele>
        <time>2026-08-15T07:08:38Z</time>
      </trkpt>
      <trkpt lat="41.40302793467379" lon="-81.74326846738704">
        <ele>262.5687381438</ele>
        <time>2026-08-15T07:09:19Z</time>
      </trkpt>
      <trkpt lat="41.40345114578229" lon="-81.74347747812780">
        <ele>262.0781112827</ele>
        <time>2026-08-15T07:09:52Z</time>
      </trkpt>
      <trkpt lat="41.40348367566023" lon="-81.74350049432537">
        <ele>261.8093980195</ele>
        <time>2026-08-15T07:09:55Z</time>
      </trkpt>
      <trkpt lat="41.40360051117861" lon="-81.74353071442812">
        <ele>261.4104887435</ele>
        <time>2026-08-15T07:10:10Z</time>
      </trkpt>
      <trkpt lat="41.40399805129216" lon="-81.74350822852223">
        <ele>260.7203660900</ele>
        <time>2026-08-15T07:10:47Z</time>
      </trkpt>
      <trkpt lat="41.40399060251264" lon="-81.74290896634389">
        <ele>261.5275953279</ele>
        <time>2026-08-15T07:11:46Z</time>
      </trkpt>
      <trkpt lat="41.40399325607878" lon="-81.74230438302786">
        <ele>261.9459066770</ele>
        <time>2026-08-15T07:12:27Z</time>
      </trkpt>
      <trkpt lat="41.40399015756718" lon="-81.74171941020067">
        <ele>262.4396879433</ele>
        <time>2026-08-15T07:13:00Z</time>
      </trkpt>
      <trkpt lat="41.40399558140985" lon="-81.74111038329166">
        <ele>262.7862911884</ele>
        <time>2026-08-15T07:13:45Z</time>
      </trkpt>
      <trkpt lat="41.40398780242042" lon="-81.74050689586416">
        <ele>263.4205401791</ele>
        <time>2026-08-15T07:14:28Z</time>
      </trkpt>
      <trkpt lat="41.40398370263289" lon="-81.73990101477166">
        <ele>264.4361254466</ele>
        <time>2026-08-15T07:15:07Z</time>
      </trkpt>
      <trkpt lat="41.40398692258592" lon="-81.73930947935663">
        <ele>265.0050995226</ele>
        <time>2026-08-15T07:15:42Z</time>
      </trkpt>
      <trkpt lat="41.40399282781170" lon="-81.73877257544909">
        <ele>265.4050386672</ele>
        <time>2026-08-15T07:16:13Z</time>
      </trkpt>
      <trkpt lat="41.40353022375739" lon="-81.73878368120330">
        <ele>265.9784459721</ele>
        <time>2026-08-15T07:16:44Z</time>
      </trkpt>
      <trkpt lat="41.40309213292110" lon="-81.73876981758053">
        <ele>266.1179521247</ele>
        <time>2026-08-15T07:17:35Z</time>
      </trkpt>
      <trkpt lat="41.40264262432729" lon="-81.73877789842346">
        <ele>266.6661322031</ele>
        <time>2026-08-15T07:18:13Z</time>
      </trkpt>
      <trkpt lat="41.40222981947186" lon="-81.73876984830136">
        <ele>267.0264923409</ele>
        <time>2026-08-15T07:18:51Z</time>
      </trkpt>
      <trkpt lat="41.40221798600712" lon="-81.73827207825687">
        <ele>267.1017701145</ele>
        <time>2026-08-15T07:19:28Z</time>
      </trkpt>
      <trkpt lat="41.40176798565969" lon="-81.73827098420938">
        <ele>268.0737334782</ele>
        <time>2026-08-15T07:20:11Z</time>
      </trkpt>
      <trkpt lat="41.40132867521044" lon="-81.73826752141824">
        <ele>267.4833552896</ele>
        <time>2026-08-15T07:20:44Z</time>
      </trkpt>
      <trkpt lat="41.40133062073278" lon="-81.73886016998463">
        <ele>267.5342214263</ele>
        <time>2026-08-15T07:21:17Z</time>
      </trkpt>
      <trkpt lat="41.40133378343433" lon="-81.73946311869724">
        <ele>267.0540591703</ele>
        <time>2026-08-15T07:21:57Z</time>
      </trkpt>
      <trkpt lat="41.40134779423754" lon="-81.74005673235320">
        <ele>266.5846526469</ele>
        <time>2026-08-15T07:22:44Z</time>
      </trkpt>
      <trkpt lat="41.40134017599053" lon="-81.74020720664551">
        <ele>266.6263649899</ele>
        <time>2026-08-15T07:22:55Z</time>
      </trkpt>
    </trkseg>
  </trk>
</gpx>