<?xml version='1.0' encoding='UTF-8'?>
<gpx xmlns="http://www.topografix.com/GPX/1/1" creator="https://gpx.studio" version="1.1">
  <metadata>
    <name>Dog Walk - 2026-05-29 #5</name>
  </metadata>
  <trk>
    <name>Dog Walk - 2026-05-29 #5</name>
    <type>dog walk</type>
    <trkseg>
      <trkpt lat="41.40134002265204" lon="-81.74023981084130">
        <ele>266.2840952309</ele>
        <time>2026-05-29T20:11:17Z</time>
      </trkpt>
      <trkpt lat="41.40134031442357" lon="-81.74083226870192">
        <ele>266.0704395841</ele>
        <time>2026-05-29T20:11:45Z</time>
      </trkpt>
      <trkpt lat="41.40134077034665" lon="-81.74142946586072">
        <ele>265.8331851760</ele>
        <time>2026-05-29T20:12:34Z</time>
      </trkpt>
      <trkpt lat="41.40134481349710" lon="-81.74203289790246">
        <ele>265.2636338881</ele>
        <time>2026-05-29T20:13:16Z</time>
      </trkpt>
      <trkpt lat="41.40134967660973" lon="-81.74241283644420">
        <ele>264.6613631590</ele>
        <time>2026-05-29T20:13:38Z</time>
      </trkpt>
      <trkpt lat="41.40177326712924" lon="-81.74263348884425">
        <ele>264.2903870467</ele>
        <time>2026-05-29T20:14:50Z</time>
      </trkpt>
      <trkpt lat="41.40218883753178" lon="-81.74283649936872">
        <ele>263.2391293339</ele>
        <time>2026-05-29T20:15:33Z</time>
      </trkpt>
      <trkpt lat="41.40260966824128" lon="-81.74305734953906">
        <ele>262.8825467278</ele>
        <time>2026-05-29T20:16:04Z</time>
      </trkpt>
      <trkpt lat="41.40302932950462" lon="-81.74327405411326">
        <ele>262.2267346905</ele>
        <time>2026-05-29T20:16:43Z</time>
      </trkpt>
      <trkpt lat="41.40344695593017" lon="-81.74347475472443">
        <ele>262.0003979879</ele>
        <time>2026-05-29T20:17:24Z</time>
      </trkpt>
      <trkpt lat="41.40348923958473" lon="-81.74350393971093">
        <ele>261.5848533366</ele>
        <time>2026-05-29T20:17:28Z</time>
      </trkpt>
      <trkpt lat="41.40358990246418" lon="-81.74351943304542">
        <ele>261.7237838492</ele>
        <time>2026-05-29T20:17:38Z</time>
      </trkpt>
      <trkpt lat="41.40399887779328" lon="-81.74350582146407">
        <ele>260.6800456224</ele>
        <time>2026-05-29T20:18:16Z</time>
      </trkpt>
      <trkpt lat="41.40399535305595" lon="-81.74290080163554">
        <ele>261.6964989097</ele>
        <time>2026-05-29T20:18:56Z</time>
      </trkpt>
      <trkpt lat="41.40400156033787" lon="-81.74230940278780">
        <ele>262.0359522545</ele>
        <time>2026-05-29T20:19:57Z</time>
      </trkpt>
      <trkpt lat="41.40399143411979" lon="-81.74170706200260">
        <ele>262.6238534323</ele>
        <time>2026-05-29T20:20:33Z</time>
      </trkpt>
      <trkpt lat="41.40399770614616" lon="-81.74110446613504">
        <ele>262.7344277904</ele>
        <time>2026-05-29T20:21:23Z</time>
      </trkpt>
      <trkpt lat="41.40398621378309" lon="-81.74052194733112">
        <ele>263.5542335967</ele>
        <time>2026-05-29T20:21:59Z</time>
      </trkpt>
      <trkpt lat="41.40399231190987" lon="-81.73991367784409">
        <ele>264.4530979082</ele>
        <time>2026-05-29T20:22:39Z</time>
      </trkpt>
      <trkpt lat="41.40398163729056" lon="-81.73931306909714">
        <ele>264.9413555053</ele>
        <time>2026-05-29T20:23:22Z</time>
      </trkpt>
      <trkpt lat="41.40398053061274" lon="-81.73877905196395">
        <ele>265.3450058883</ele>
        <time>2026-05-29T20:24:07Z</time>
      </trkpt>
      <trkpt lat="41.40354020216029" lon="-81.73878071376683">
        <ele>265.7684214190</ele>
        <time>2026-05-29T20:25:05Z</time>
      </trkpt>
      <trkpt lat="41.40308833845816" lon="-81.73878460663356">
        <ele>266.1508376984</ele>
        <time>2026-05-29T20:25:35Z</time>
      </trkpt>
      <trkpt lat="41.40262551281381" lon="-81.73878156334713">
        <ele>266.7394016290</ele>
        <time>2026-05-29T20:26:32Z</time>
      </trkpt>
      <trkpt lat="41.40222797255491" lon="-81.73877790294445">
        <ele>267.0635169138</ele>
        <time>2026-05-29T20:27:09Z</time>
      </trkpt>
      <trkpt lat="41.40221233589830" lon="-81.73826851643501">
        <ele>267.0863858308</ele>
        <time>2026-05-29T20:27:44Z</time>
      </trkpt>
      <trkpt lat="41.40175972667562" lon="-81.73826747468910">
        <ele>267.5958561359</ele>
        <time>2026-05-29T20:28:29Z</time>
      </trkpt>
      <trkpt lat="41.40132902738519" lon="-81.73827306883511">
        <ele>267.5180007768</ele>
        <time>2026-05-29T20:28:58Z</time>
      </trkpt>
      <trkpt lat="41.40133367465368" lon="-81.73886335838230">
        <ele>267.2656949800</ele>
        <time>2026-05-29T20:29:36Z</time>
      </trkpt>
      <trkpt lat="41.40133429054923" lon="-81.73946275161305">
        <ele>267.2445006249</ele>
        <time>2026-05-29T20:30:22Z</time>
      </trkpt>
      <trkpt lat="41.40134816073994" lon="-81.74006468238083">
        <ele>266.8444302636</ele>
        <time>2026-05-29T20:31:12Z</time>
      </trkpt>
      <trkpt lat="41.40133348335601" lon="-81.74021085959107">
        <ele>266.4890820419</ele>
        <time>2026-05-29T20:31:22Z</time>
      </trkpt>
    </trkseg>
  </trk>
</gpx>