<?xml version='1.0' encoding='UTF-8'?>
<gpx xmlns="http://www.topografix.com/GPX/1/1" creator="https://gpx.studio" version="1.1">
  <metadata>
    <name>Dog Walk - 2026-07-21</name>
  </metadata>
  <trk>
    <name>Dog Walk - 2026-07-21</name>
    <type>dog walk</type>
    <trkseg>
      <trkpt lat="41.40133189817071" lon="-81.74023863328691">
        <ele>266.5911539502</ele>
        <time>2026-07-21T08:35:45Z</time>
      </trkpt>
      <trkpt lat="41.40132773128425" lon="-81.74083788668341">
        <ele>266.2368674122</ele>
        <time>2026-07-21T08:36:28Z</time>
      </trkpt>
      <trkpt lat="41.40132626155265" lon="-81.74142709880765">
        <ele>265.8882296785</ele>
        <time>2026-07-21T08:37:05Z</time>
      </trkpt>
      <trkpt lat="41.40133515081248" lon="-81.74203657714487">
        <ele>265.2576643162</ele>
        <time>2026-07-21T08:37:49Z</time>
      </trkpt>
      <trkpt lat="41.40132448324832" lon="-81.74238849925943">
        <ele>264.5382628209</ele>
        <time>2026-07-21T08:38:18Z</time>
      </trkpt>
      <trkpt lat="41.40090321718043" lon="-81.74220054327195">
        <ele>264.8083497600</ele>
        <time>2026-07-21T08:38:58Z</time>
      </trkpt>
      <trkpt lat="41.40047239620353" lon="-81.74201052069249">
        <ele>265.2880058872</ele>
        <time>2026-07-21T08:39:40Z</time>
      </trkpt>
      <trkpt lat="41.40005178317551" lon="-81.74179747217394">
        <ele>265.3096711745</ele>
        <time>2026-07-21T08:40:39Z</time>
      </trkpt>
      <trkpt lat="41.39963302123013" lon="-81.74162279620320">
        <ele>264.6919115325</ele>
        <time>2026-07-21T08:41:31Z</time>
      </trkpt>
      <trkpt lat="41.39953238332404" lon="-81.74157112403770">
        <ele>264.7460219395</ele>
        <time>2026-07-21T08:41:41Z</time>
      </trkpt>
      <trkpt lat="41.39953248935925" lon="-81.74097625446838">
        <ele>265.6983657731</ele>
        <time>2026-07-21T08:42:25Z</time>
      </trkpt>
      <trkpt lat="41.39952654776706" lon="-81.74037376710858">
        <ele>266.0865909227</ele>
        <time>2026-07-21T08:43:13Z</time>
      </trkpt>
      <trkpt lat="41.39954135895412" lon="-81.73977156103142">
        <ele>266.7135868829</ele>
        <time>2026-07-21T08:43:52Z</time>
      </trkpt>
      <trkpt lat="41.39953809808526" lon="-81.73917928747468">
        <ele>266.8566281543</ele>
        <time>2026-07-21T08:44:31Z</time>
      </trkpt>
      <trkpt lat="41.39953099021810" lon="-81.73857613699437">
        <ele>266.7169125881</ele>
        <time>2026-07-21T08:45:09Z</time>
      </trkpt>
      <trkpt lat="41.39953153086127" lon="-81.73797643828051">
        <ele>266.8019864082</ele>
        <time>2026-07-21T08:45:43Z</time>
      </trkpt>
      <trkpt lat="41.39953713173746" lon="-81.73737421071004">
        <ele>267.3742517742</ele>
        <time>2026-07-21T08:46:27Z</time>
      </trkpt>
      <trkpt lat="41.39952577812040" lon="-81.73677541551781">
        <ele>267.3409650839</ele>
        <time>2026-07-21T08:47:15Z</time>
      </trkpt>
      <trkpt lat="41.39952550150814" lon="-81.73617804196867">
        <ele>267.4987208807</ele>
        <time>2026-07-21T08:47:55Z</time>
      </trkpt>
      <trkpt lat="41.39952544034908" lon="-81.73558358672993">
        <ele>267.4576810875</ele>
        <time>2026-07-21T08:48:26Z</time>
      </trkpt>
      <trkpt lat="41.39953352525475" lon="-81.73497806250276">
        <ele>267.0835512930</ele>
        <time>2026-07-21T08:49:08Z</time>
      </trkpt>
      <trkpt lat="41.39951130586167" lon="-81.73461354299891">
        <ele>267.0475105168</ele>
        <time>2026-07-21T08:49:28Z</time>
      </trkpt>
      <trkpt lat="41.39997331500376" lon="-81.73462868925279">
        <ele>267.0265629971</ele>
        <time>2026-07-21T08:50:02Z</time>
      </trkpt>
      <trkpt lat="41.40043000374840" lon="-81.73463049121315">
        <ele>267.5168704220</ele>
        <time>2026-07-21T08:50:58Z</time>
      </trkpt>
      <trkpt lat="41.40088189215891" lon="-81.73463217393558">
        <ele>267.2360281581</ele>
        <time>2026-07-21T08:51:41Z</time>
      </trkpt>
      <trkpt lat="41.40132244057497" lon="-81.73464110100208">
        <ele>267.0460500394</ele>
        <time>2026-07-21T08:52:15Z</time>
      </trkpt>
      <trkpt lat="41.40132210629510" lon="-81.73524085846256">
        <ele>268.0115573442</ele>
        <time>2026-07-21T08:53:04Z</time>
      </trkpt>
      <trkpt lat="41.40131800358604" lon="-81.73583598186389">
        <ele>268.3327918688</ele>
        <time>2026-07-21T08:53:41Z</time>
      </trkpt>
      <trkpt lat="41.40131865624942" lon="-81.73644195785967">
        <ele>268.2061981457</ele>
        <time>2026-07-21T08:54:14Z</time>
      </trkpt>
      <trkpt lat="41.40133033213128" lon="-81.73703415453423">
        <ele>267.9689541837</ele>
        <time>2026-07-21T08:54:49Z</time>
      </trkpt>
      <trkpt lat="41.40132786345399" lon="-81.73764288991485">
        <ele>268.0938354502</ele>
        <time>2026-07-21T08:55:29Z</time>
      </trkpt>
      <trkpt lat="41.40132678599581" lon="-81.73822849364605">
        <ele>267.6189290107</ele>
        <time>2026-07-21T08:56:03Z</time>
      </trkpt>
      <trkpt lat="41.40133284004546" lon="-81.73883165279086">
        <ele>267.6438596396</ele>
        <time>2026-07-21T08:56:48Z</time>
      </trkpt>
      <trkpt lat="41.40132792420976" lon="-81.73943651499384">
        <ele>266.8615459575</ele>
        <time>2026-07-21T08:57:31Z</time>
      </trkpt>
      <trkpt lat="41.40133506044140" lon="-81.74004419846109">
        <ele>266.6274718720</ele>
        <time>2026-07-21T08:58:08Z</time>
      </trkpt>
      <trkpt lat="41.40133579641488" lon="-81.74021346756919">
        <ele>266.5565464768</ele>
        <time>2026-07-21T08:58:20Z</time>
      </trkpt>
    </trkseg>
  </trk>
</gpx>