<?xml version='1.0' encoding='UTF-8'?>
<gpx xmlns="http://www.topografix.com/GPX/1/1" creator="https://gpx.studio" version="1.1">
  <metadata>
    <name>Dog Walk - 2026-06-19 #4</name>
  </metadata>
  <trk>
    <name>Dog Walk - 2026-06-19 #4</name>
    <type>dog walk</type>
    <trkseg>
      <trkpt lat="41.40133064679755" lon="-81.74023456464519">
        <ele>266.4178090071</ele>
        <time>2026-06-19T19:10:25Z</time>
      </trkpt>
      <trkpt lat="41.40132714986310" lon="-81.74084041232798">
        <ele>266.2785192008</ele>
        <time>2026-06-19T19:11:10Z</time>
      </trkpt>
      <trkpt lat="41.40132874664511" lon="-81.74143670275785">
        <ele>265.8688439421</ele>
        <time>2026-06-19T19:11:53Z</time>
      </trkpt>
      <trkpt lat="41.40132532389465" lon="-81.74203880282774">
        <ele>265.3952493917</ele>
        <time>2026-06-19T19:12:26Z</time>
      </trkpt>
      <trkpt lat="41.40133466725159" lon="-81.74238322232674">
        <ele>264.9361186225</ele>
        <time>2026-06-19T19:12:47Z</time>
      </trkpt>
      <trkpt lat="41.40090808565525" lon="-81.74220018539457">
        <ele>265.1015716433</ele>
        <time>2026-06-19T19:13:32Z</time>
      </trkpt>
      <trkpt lat="41.40047853459082" lon="-81.74199820884020">
        <ele>265.1169648883</ele>
        <time>2026-06-19T19:14:08Z</time>
      </trkpt>
      <trkpt lat="41.40005342805095" lon="-81.74181722228741">
        <ele>265.5022624720</ele>
        <time>2026-06-19T19:14:58Z</time>
      </trkpt>
      <trkpt lat="41.39963124431956" lon="-81.74161447779828">
        <ele>264.7199544016</ele>
        <time>2026-06-19T19:15:40Z</time>
      </trkpt>
      <trkpt lat="41.39954653335871" lon="-81.74157641343511">
        <ele>264.8757822708</ele>
        <time>2026-06-19T19:15:49Z</time>
      </trkpt>
      <trkpt lat="41.39953559295680" lon="-81.74098147464323">
        <ele>265.6785417911</ele>
        <time>2026-06-19T19:16:26Z</time>
      </trkpt>
      <trkpt lat="41.39953067828441" lon="-81.74037623993746">
        <ele>265.7839607642</ele>
        <time>2026-06-19T19:17:04Z</time>
      </trkpt>
      <trkpt lat="41.39953342571651" lon="-81.73978734484652">
        <ele>266.4580657932</ele>
        <time>2026-06-19T19:17:39Z</time>
      </trkpt>
      <trkpt lat="41.39953023217632" lon="-81.73917597950791">
        <ele>266.8495321364</ele>
        <time>2026-06-19T19:18:20Z</time>
      </trkpt>
      <trkpt lat="41.39952666196776" lon="-81.73857312593428">
        <ele>266.9244527335</ele>
        <time>2026-06-19T19:19:06Z</time>
      </trkpt>
      <trkpt lat="41.39952826478297" lon="-81.73797555125276">
        <ele>267.0471686329</ele>
        <time>2026-06-19T19:19:41Z</time>
      </trkpt>
      <trkpt lat="41.39952379786497" lon="-81.73737735402240">
        <ele>266.9593553549</ele>
        <time>2026-06-19T19:20:17Z</time>
      </trkpt>
      <trkpt lat="41.39952491185750" lon="-81.73675941140959">
        <ele>267.5016536792</ele>
        <time>2026-06-19T19:20:53Z</time>
      </trkpt>
      <trkpt lat="41.39952469523551" lon="-81.73617169182026">
        <ele>267.5551996642</ele>
        <time>2026-06-19T19:21:37Z</time>
      </trkpt>
      <trkpt lat="41.39953288163107" lon="-81.73558509948276">
        <ele>267.4923055673</ele>
        <time>2026-06-19T19:22:08Z</time>
      </trkpt>
      <trkpt lat="41.39952330364722" lon="-81.73497919046113">
        <ele>267.1638267958</ele>
        <time>2026-06-19T19:22:51Z</time>
      </trkpt>
      <trkpt lat="41.39952827017374" lon="-81.73461229993070">
        <ele>267.1726716636</ele>
        <time>2026-06-19T19:23:24Z</time>
      </trkpt>
      <trkpt lat="41.39997122246881" lon="-81.73462507683388">
        <ele>267.0366124108</ele>
        <time>2026-06-19T19:24:02Z</time>
      </trkpt>
      <trkpt lat="41.40043174324189" lon="-81.73462334734633">
        <ele>267.2325851560</ele>
        <time>2026-06-19T19:24:51Z</time>
      </trkpt>
      <trkpt lat="41.40087257092772" lon="-81.73463786284466">
        <ele>267.4339634424</ele>
        <time>2026-06-19T19:25:42Z</time>
      </trkpt>
      <trkpt lat="41.40131977977593" lon="-81.73463579741352">
        <ele>267.4935015652</ele>
        <time>2026-06-19T19:26:19Z</time>
      </trkpt>
      <trkpt lat="41.40131217493450" lon="-81.73523186917141">
        <ele>267.8621541192</ele>
        <time>2026-06-19T19:26:57Z</time>
      </trkpt>
      <trkpt lat="41.40132014760695" lon="-81.73583935112831">
        <ele>268.2823077352</ele>
        <time>2026-06-19T19:27:38Z</time>
      </trkpt>
      <trkpt lat="41.40132220415180" lon="-81.73643821215016">
        <ele>268.3247567014</ele>
        <time>2026-06-19T19:28:14Z</time>
      </trkpt>
      <trkpt lat="41.40131971711220" lon="-81.73703634853484">
        <ele>268.1779619455</ele>
        <time>2026-06-19T19:28:46Z</time>
      </trkpt>
      <trkpt lat="41.40132680389105" lon="-81.73763690895362">
        <ele>268.0606284877</ele>
        <time>2026-06-19T19:29:16Z</time>
      </trkpt>
      <trkpt lat="41.40132577224133" lon="-81.73823378455685">
        <ele>267.4995071180</ele>
        <time>2026-06-19T19:29:53Z</time>
      </trkpt>
      <trkpt lat="41.40133276622711" lon="-81.73884241129544">
        <ele>267.2434488246</ele>
        <time>2026-06-19T19:30:34Z</time>
      </trkpt>
      <trkpt lat="41.40132917737259" lon="-81.73942924969452">
        <ele>267.1041951484</ele>
        <time>2026-06-19T19:31:20Z</time>
      </trkpt>
      <trkpt lat="41.40133407921335" lon="-81.74003417358125">
        <ele>266.5963323446</ele>
        <time>2026-06-19T19:31:57Z</time>
      </trkpt>
      <trkpt lat="41.40132816636160" lon="-81.74021388226208">
        <ele>266.6169677388</ele>
        <time>2026-06-19T19:32:15Z</time>
      </trkpt>
    </trkseg>
  </trk>
</gpx>