<?xml version='1.0' encoding='UTF-8'?>
<gpx xmlns="http://www.topografix.com/GPX/1/1" creator="https://gpx.studio" version="1.1">
  <metadata>
    <name>Dog Walk - 2026-06-22 #3</name>
  </metadata>
  <trk>
    <name>Dog Walk - 2026-06-22 #3</name>
    <type>dog walk</type>
    <trkseg>
      <trkpt lat="41.40132768334712" lon="-81.74025316836330">
        <ele>266.3850757105</ele>
        <time>2026-06-22T16:43:14Z</time>
      </trkpt>
      <trkpt lat="41.40132954311890" lon="-81.74025517701941">
        <ele>266.4998353459</ele>
        <time>2026-06-22T16:43:15Z</time>
      </trkpt>
      <trkpt lat="41.40133156244934" lon="-81.74085853739250">
        <ele>266.2597021301</ele>
        <time>2026-06-22T16:43:58Z</time>
      </trkpt>
      <trkpt lat="41.40132613715771" lon="-81.74146315574295">
        <ele>265.8239609612</ele>
        <time>2026-06-22T16:44:50Z</time>
      </trkpt>
      <trkpt lat="41.40132278678361" lon="-81.74206010127142">
        <ele>265.4692690700</ele>
        <time>2026-06-22T16:45:29Z</time>
      </trkpt>
      <trkpt lat="41.40132320840200" lon="-81.74238416675989">
        <ele>264.7390544179</ele>
        <time>2026-06-22T16:45:50Z</time>
      </trkpt>
      <trkpt lat="41.40132878988614" lon="-81.74237525392475">
        <ele>264.7526440988</ele>
        <time>2026-06-22T16:46:09Z</time>
      </trkpt>
      <trkpt lat="41.40090226565269" lon="-81.74217904127175">
        <ele>265.1255853382</ele>
        <time>2026-06-22T16:46:53Z</time>
      </trkpt>
      <trkpt lat="41.40047559839050" lon="-81.74199418940701">
        <ele>265.1340947233</ele>
        <time>2026-06-22T16:47:35Z</time>
      </trkpt>
      <trkpt lat="41.40005552360608" lon="-81.74180138426526">
        <ele>265.5260934795</ele>
        <time>2026-06-22T16:48:33Z</time>
      </trkpt>
      <trkpt lat="41.39961757893455" lon="-81.74160817512609">
        <ele>264.7008370609</ele>
        <time>2026-06-22T16:49:10Z</time>
      </trkpt>
      <trkpt lat="41.39954766799091" lon="-81.74156821487395">
        <ele>264.7136120915</ele>
        <time>2026-06-22T16:49:18Z</time>
      </trkpt>
      <trkpt lat="41.39954878259645" lon="-81.74097131747747">
        <ele>265.6463447298</ele>
        <time>2026-06-22T16:50:11Z</time>
      </trkpt>
      <trkpt lat="41.39954315876280" lon="-81.74038134197100">
        <ele>265.9931334366</ele>
        <time>2026-06-22T16:50:55Z</time>
      </trkpt>
      <trkpt lat="41.39953340218901" lon="-81.73977628780661">
        <ele>266.7344646537</ele>
        <time>2026-06-22T16:51:45Z</time>
      </trkpt>
      <trkpt lat="41.39954062724809" lon="-81.73918462147651">
        <ele>266.7785578987</ele>
        <time>2026-06-22T16:52:21Z</time>
      </trkpt>
      <trkpt lat="41.39952877507119" lon="-81.73858393839733">
        <ele>266.9752254315</ele>
        <time>2026-06-22T16:52:58Z</time>
      </trkpt>
      <trkpt lat="41.39952944214399" lon="-81.73829639396111">
        <ele>266.8077162520</ele>
        <time>2026-06-22T16:53:17Z</time>
      </trkpt>
      <trkpt lat="41.39952596568376" lon="-81.73829175815656">
        <ele>267.0292153990</ele>
        <time>2026-06-22T16:53:18Z</time>
      </trkpt>
      <trkpt lat="41.39998085555769" lon="-81.73829919222128">
        <ele>267.1256128660</ele>
        <time>2026-06-22T16:53:52Z</time>
      </trkpt>
      <trkpt lat="41.40042781085531" lon="-81.73829948538518">
        <ele>267.1459091654</ele>
        <time>2026-06-22T16:54:34Z</time>
      </trkpt>
      <trkpt lat="41.40088883421497" lon="-81.73830052698064">
        <ele>267.5215172397</ele>
        <time>2026-06-22T16:55:23Z</time>
      </trkpt>
      <trkpt lat="41.40133166862787" lon="-81.73830205616166">
        <ele>267.5332975682</ele>
        <time>2026-06-22T16:56:22Z</time>
      </trkpt>
      <trkpt lat="41.40134027211722" lon="-81.73890627081003">
        <ele>267.3837801526</ele>
        <time>2026-06-22T16:56:57Z</time>
      </trkpt>
      <trkpt lat="41.40133240101828" lon="-81.73950011005203">
        <ele>267.2839452477</ele>
        <time>2026-06-22T16:57:36Z</time>
      </trkpt>
      <trkpt lat="41.40134310746700" lon="-81.74009984085914">
        <ele>266.5961082319</ele>
        <time>2026-06-22T16:58:20Z</time>
      </trkpt>
      <trkpt lat="41.40134117906609" lon="-81.74016094670002">
        <ele>266.5804575180</ele>
        <time>2026-06-22T16:58:24Z</time>
      </trkpt>
    </trkseg>
  </trk>
</gpx>