<?xml version='1.0' encoding='UTF-8'?>
<gpx xmlns="http://www.topografix.com/GPX/1/1" creator="https://gpx.studio" version="1.1">
  <metadata>
    <name>Dog Walk - 2026-08-04 #3</name>
  </metadata>
  <trk>
    <name>Dog Walk - 2026-08-04 #3</name>
    <type>dog walk</type>
    <trkseg>
      <trkpt lat="41.40132973945525" lon="-81.74026431679866">
        <ele>266.3581875124</ele>
        <time>2026-08-04T16:58:34Z</time>
      </trkpt>
      <trkpt lat="41.40133899987860" lon="-81.74026419282943">
        <ele>266.7574752382</ele>
        <time>2026-08-04T16:58:35Z</time>
      </trkpt>
      <trkpt lat="41.40133584827957" lon="-81.74085101045399">
        <ele>266.3657979877</ele>
        <time>2026-08-04T16:59:08Z</time>
      </trkpt>
      <trkpt lat="41.40133029987652" lon="-81.74145390989187">
        <ele>265.6330401907</ele>
        <time>2026-08-04T16:59:58Z</time>
      </trkpt>
      <trkpt lat="41.40132724017214" lon="-81.74205506329680">
        <ele>265.3778166855</ele>
        <time>2026-08-04T17:00:27Z</time>
      </trkpt>
      <trkpt lat="41.40131879898510" lon="-81.74237415414964">
        <ele>264.8573928110</ele>
        <time>2026-08-04T17:00:57Z</time>
      </trkpt>
      <trkpt lat="41.40132731910837" lon="-81.74238764893761">
        <ele>264.7795423356</ele>
        <time>2026-08-04T17:00:58Z</time>
      </trkpt>
      <trkpt lat="41.40090052267027" lon="-81.74219622002512">
        <ele>265.2527440141</ele>
        <time>2026-08-04T17:01:43Z</time>
      </trkpt>
      <trkpt lat="41.40046701688952" lon="-81.74199056659398">
        <ele>265.1875409912</ele>
        <time>2026-08-04T17:02:36Z</time>
      </trkpt>
      <trkpt lat="41.40005029272116" lon="-81.74179927353759">
        <ele>265.3674016313</ele>
        <time>2026-08-04T17:03:19Z</time>
      </trkpt>
      <trkpt lat="41.39962040815278" lon="-81.74160197295005">
        <ele>264.7624971746</ele>
        <time>2026-08-04T17:03:55Z</time>
      </trkpt>
      <trkpt lat="41.39954699709099" lon="-81.74156762681781">
        <ele>264.8235874743</ele>
        <time>2026-08-04T17:04:04Z</time>
      </trkpt>
      <trkpt lat="41.39955278079057" lon="-81.74097952762469">
        <ele>265.7753213643</ele>
        <time>2026-08-04T17:04:43Z</time>
      </trkpt>
      <trkpt lat="41.39953886988522" lon="-81.74037019350503">
        <ele>266.1700112810</ele>
        <time>2026-08-04T17:05:34Z</time>
      </trkpt>
      <trkpt lat="41.39953464057400" lon="-81.73977640356338">
        <ele>266.6049574345</ele>
        <time>2026-08-04T17:06:24Z</time>
      </trkpt>
      <trkpt lat="41.39953945286770" lon="-81.73917802962805">
        <ele>266.9674266177</ele>
        <time>2026-08-04T17:07:24Z</time>
      </trkpt>
      <trkpt lat="41.39952912582436" lon="-81.73857481833441">
        <ele>266.7998336722</ele>
        <time>2026-08-04T17:07:54Z</time>
      </trkpt>
      <trkpt lat="41.39953434193078" lon="-81.73829447354598">
        <ele>267.0282190095</ele>
        <time>2026-08-04T17:08:12Z</time>
      </trkpt>
      <trkpt lat="41.39953774094568" lon="-81.73830368690602">
        <ele>266.9607809554</ele>
        <time>2026-08-04T17:08:13Z</time>
      </trkpt>
      <trkpt lat="41.39999282237394" lon="-81.73829582102344">
        <ele>267.1540327959</ele>
        <time>2026-08-04T17:09:05Z</time>
      </trkpt>
      <trkpt lat="41.40043428459542" lon="-81.73830332046855">
        <ele>267.2207389308</ele>
        <time>2026-08-04T17:09:48Z</time>
      </trkpt>
      <trkpt lat="41.40088023306625" lon="-81.73829833219585">
        <ele>267.5543735218</ele>
        <time>2026-08-04T17:10:25Z</time>
      </trkpt>
      <trkpt lat="41.40132693075453" lon="-81.73830876124342">
        <ele>267.5283918584</ele>
        <time>2026-08-04T17:11:01Z</time>
      </trkpt>
      <trkpt lat="41.40133023458286" lon="-81.73890119829856">
        <ele>267.1513246878</ele>
        <time>2026-08-04T17:11:36Z</time>
      </trkpt>
      <trkpt lat="41.40133596459328" lon="-81.73950015765676">
        <ele>267.2413041838</ele>
        <time>2026-08-04T17:12:17Z</time>
      </trkpt>
      <trkpt lat="41.40133765738866" lon="-81.74010704288345">
        <ele>266.7228335188</ele>
        <time>2026-08-04T17:12:50Z</time>
      </trkpt>
      <trkpt lat="41.40133025017754" lon="-81.74016222904626">
        <ele>266.5567236836</ele>
        <time>2026-08-04T17:12:54Z</time>
      </trkpt>
    </trkseg>
  </trk>
</gpx>