<?xml version='1.0' encoding='UTF-8'?>
<gpx xmlns="http://www.topografix.com/GPX/1/1" creator="https://gpx.studio" version="1.1">
  <metadata>
    <name>Dog Walk - 2026-09-16 #1</name>
  </metadata>
  <trk>
    <name>Dog Walk - 2026-09-16 #1</name>
    <type>dog walk</type>
    <trkseg>
      <trkpt lat="41.40133549521441" lon="-81.74024318672303">
        <ele>266.5532543266</ele>
        <time>2026-09-16T08:21:49Z</time>
      </trkpt>
      <trkpt lat="41.40134401173692" lon="-81.74084809233369">
        <ele>266.4019162753</ele>
        <time>2026-09-16T08:22:22Z</time>
      </trkpt>
      <trkpt lat="41.40133894282060" lon="-81.74143501218910">
        <ele>265.9197762403</ele>
        <time>2026-09-16T08:23:08Z</time>
      </trkpt>
      <trkpt lat="41.40133519478092" lon="-81.74202746525656">
        <ele>265.3482927796</ele>
        <time>2026-09-16T08:23:56Z</time>
      </trkpt>
      <trkpt lat="41.40134790879250" lon="-81.74241917259724">
        <ele>264.5338162524</ele>
        <time>2026-09-16T08:24:41Z</time>
      </trkpt>
      <trkpt lat="41.40177559336083" lon="-81.74262004730086">
        <ele>264.3886898295</ele>
        <time>2026-09-16T08:25:23Z</time>
      </trkpt>
      <trkpt lat="41.40220090046593" lon="-81.74282845555777">
        <ele>263.5030492434</ele>
        <time>2026-09-16T08:26:00Z</time>
      </trkpt>
      <trkpt lat="41.40262205614885" lon="-81.74302305293310">
        <ele>263.0197422243</ele>
        <time>2026-09-16T08:26:33Z</time>
      </trkpt>
      <trkpt lat="41.40304094663364" lon="-81.74320938102511">
        <ele>262.4524522271</ele>
        <time>2026-09-16T08:27:15Z</time>
      </trkpt>
      <trkpt lat="41.40311070109046" lon="-81.74324479165762">
        <ele>262.3279269373</ele>
        <time>2026-09-16T08:27:40Z</time>
      </trkpt>
      <trkpt lat="41.40311949783563" lon="-81.74264999478193">
        <ele>263.1892117768</ele>
        <time>2026-09-16T08:28:21Z</time>
      </trkpt>
      <trkpt lat="41.40311469908416" lon="-81.74205142572558">
        <ele>263.7736865462</ele>
        <time>2026-09-16T08:29:26Z</time>
      </trkpt>
      <trkpt lat="41.40311031279195" lon="-81.74145372636758">
        <ele>264.3062512285</ele>
        <time>2026-09-16T08:30:05Z</time>
      </trkpt>
      <trkpt lat="41.40310898106429" lon="-81.74085388744373">
        <ele>264.9425695386</ele>
        <time>2026-09-16T08:31:01Z</time>
      </trkpt>
      <trkpt lat="41.40310778100076" lon="-81.74024536064859">
        <ele>265.5250424102</ele>
        <time>2026-09-16T08:31:40Z</time>
      </trkpt>
      <trkpt lat="41.40310442163306" lon="-81.73965818270779">
        <ele>265.7493602465</ele>
        <time>2026-09-16T08:32:19Z</time>
      </trkpt>
      <trkpt lat="41.40309596812899" lon="-81.73906060572104">
        <ele>266.1390690549</ele>
        <time>2026-09-16T08:33:00Z</time>
      </trkpt>
      <trkpt lat="41.40309184547559" lon="-81.73878134908153">
        <ele>266.0322366554</ele>
        <time>2026-09-16T08:33:14Z</time>
      </trkpt>
      <trkpt lat="41.40264364337208" lon="-81.73878533103914">
        <ele>266.8845536379</ele>
        <time>2026-09-16T08:33:59Z</time>
      </trkpt>
      <trkpt lat="41.40224174345084" lon="-81.73878025598000">
        <ele>267.0579229231</ele>
        <time>2026-09-16T08:34:41Z</time>
      </trkpt>
      <trkpt lat="41.40223023297204" lon="-81.73818136305871">
        <ele>267.0887330334</ele>
        <time>2026-09-16T08:35:24Z</time>
      </trkpt>
      <trkpt lat="41.40223396458903" lon="-81.73757752513364">
        <ele>267.1236585549</ele>
        <time>2026-09-16T08:36:17Z</time>
      </trkpt>
      <trkpt lat="41.40222918707487" lon="-81.73697988195345">
        <ele>266.9461151436</ele>
        <time>2026-09-16T08:37:00Z</time>
      </trkpt>
      <trkpt lat="41.40222447549681" lon="-81.73637651879129">
        <ele>267.1791172318</ele>
        <time>2026-09-16T08:37:55Z</time>
      </trkpt>
      <trkpt lat="41.40222452855478" lon="-81.73577596290609">
        <ele>267.4398919843</ele>
        <time>2026-09-16T08:38:27Z</time>
      </trkpt>
      <trkpt lat="41.40222434143540" lon="-81.73518268025327">
        <ele>267.2654741042</ele>
        <time>2026-09-16T08:39:03Z</time>
      </trkpt>
      <trkpt lat="41.40221714299655" lon="-81.73465411681488">
        <ele>267.1846483284</ele>
        <time>2026-09-16T08:39:32Z</time>
      </trkpt>
      <trkpt lat="41.40176833071473" lon="-81.73463823904416">
        <ele>267.4272571517</ele>
        <time>2026-09-16T08:40:20Z</time>
      </trkpt>
      <trkpt lat="41.40132299975013" lon="-81.73464239770681">
        <ele>267.2860677570</ele>
        <time>2026-09-16T08:40:52Z</time>
      </trkpt>
      <trkpt lat="41.40131119309824" lon="-81.73464440971256">
        <ele>267.2209621082</ele>
        <time>2026-09-16T08:40:53Z</time>
      </trkpt>
      <trkpt lat="41.40132744467365" lon="-81.73522961577770">
        <ele>268.0973631567</ele>
        <time>2026-09-16T08:41:56Z</time>
      </trkpt>
      <trkpt lat="41.40132608840056" lon="-81.73583601627611">
        <ele>268.3261279500</ele>
        <time>2026-09-16T08:42:37Z</time>
      </trkpt>
      <trkpt lat="41.40132573723212" lon="-81.73643194583417">
        <ele>268.1966190888</ele>
        <time>2026-09-16T08:43:13Z</time>
      </trkpt>
      <trkpt lat="41.40132891489008" lon="-81.73703947230473">
        <ele>267.9829290222</ele>
        <time>2026-09-16T08:43:49Z</time>
      </trkpt>
      <trkpt lat="41.40133621713662" lon="-81.73763991013959">
        <ele>268.0166605183</ele>
        <time>2026-09-16T08:44:25Z</time>
      </trkpt>
      <trkpt lat="41.40133275303513" lon="-81.73824109002226">
        <ele>267.5810976126</ele>
        <time>2026-09-16T08:44:56Z</time>
      </trkpt>
      <trkpt lat="41.40133517542291" lon="-81.73883463164552">
        <ele>267.3565299161</ele>
        <time>2026-09-16T08:45:36Z</time>
      </trkpt>
      <trkpt lat="41.40134272602022" lon="-81.73943353820584">
        <ele>267.0982611139</ele>
        <time>2026-09-16T08:46:16Z</time>
      </trkpt>
      <trkpt lat="41.40134866838622" lon="-81.74002394088423">
        <ele>266.4282368335</ele>
        <time>2026-09-16T08:47:01Z</time>
      </trkpt>
      <trkpt lat="41.40134966279421" lon="-81.74016227832460">
        <ele>266.6253914434</ele>
        <time>2026-09-16T08:47:07Z</time>
      </trkpt>
    </trkseg>
  </trk>
</gpx>