<?xml version='1.0' encoding='UTF-8'?>
<gpx xmlns="http://www.topografix.com/GPX/1/1" creator="https://gpx.studio" version="1.1">
  <metadata>
    <name>Dog Walk - 2026-04-30 #1</name>
  </metadata>
  <trk>
    <name>Dog Walk - 2026-04-30 #1</name>
    <type>dog walk</type>
    <trkseg>
      <trkpt lat="41.40134705979538" lon="-81.74023274848498">
        <ele>266.6233770213</ele>
        <time>2026-04-30T07:16:06Z</time>
      </trkpt>
      <trkpt lat="41.40133948100680" lon="-81.74082896608448">
        <ele>266.2136306731</ele>
        <time>2026-04-30T07:16:46Z</time>
      </trkpt>
      <trkpt lat="41.40133625989555" lon="-81.74142727924658">
        <ele>265.8143295408</ele>
        <time>2026-04-30T07:17:19Z</time>
      </trkpt>
      <trkpt lat="41.40133184308041" lon="-81.74202700982252">
        <ele>265.3584671778</ele>
        <time>2026-04-30T07:17:50Z</time>
      </trkpt>
      <trkpt lat="41.40132324497981" lon="-81.74240000383566">
        <ele>264.8006575018</ele>
        <time>2026-04-30T07:18:09Z</time>
      </trkpt>
      <trkpt lat="41.40090150849895" lon="-81.74217647839501">
        <ele>265.1912503994</ele>
        <time>2026-04-30T07:18:52Z</time>
      </trkpt>
      <trkpt lat="41.40049558749912" lon="-81.74196649461921">
        <ele>265.3387284479</ele>
        <time>2026-04-30T07:19:38Z</time>
      </trkpt>
      <trkpt lat="41.40045121732669" lon="-81.74194043550317">
        <ele>265.2766726937</ele>
        <time>2026-04-30T07:19:42Z</time>
      </trkpt>
      <trkpt lat="41.40044003428512" lon="-81.74135467073103">
        <ele>265.8512957683</ele>
        <time>2026-04-30T07:20:21Z</time>
      </trkpt>
      <trkpt lat="41.40044468980652" lon="-81.74075474561154">
        <ele>266.5842468887</ele>
        <time>2026-04-30T07:20:53Z</time>
      </trkpt>
      <trkpt lat="41.40043458174568" lon="-81.74015211645060">
        <ele>266.8739023227</ele>
        <time>2026-04-30T07:21:39Z</time>
      </trkpt>
      <trkpt lat="41.40043770254048" lon="-81.73954849120689">
        <ele>266.9068279533</ele>
        <time>2026-04-30T07:22:22Z</time>
      </trkpt>
      <trkpt lat="41.40043763936101" lon="-81.73895401747610">
        <ele>267.0701318963</ele>
        <time>2026-04-30T07:22:55Z</time>
      </trkpt>
      <trkpt lat="41.40041954802484" lon="-81.73835056492884">
        <ele>267.3098636091</ele>
        <time>2026-04-30T07:23:34Z</time>
      </trkpt>
      <trkpt lat="41.40041887131522" lon="-81.73774861651506">
        <ele>267.6959412707</ele>
        <time>2026-04-30T07:24:58Z</time>
      </trkpt>
      <trkpt lat="41.40041598451295" lon="-81.73714779995018">
        <ele>267.9533704591</ele>
        <time>2026-04-30T07:25:48Z</time>
      </trkpt>
      <trkpt lat="41.40040705823080" lon="-81.73654907049146">
        <ele>267.9220573674</ele>
        <time>2026-04-30T07:26:15Z</time>
      </trkpt>
      <trkpt lat="41.40040657823261" lon="-81.73595788658933">
        <ele>267.9010211890</ele>
        <time>2026-04-30T07:27:37Z</time>
      </trkpt>
      <trkpt lat="41.40039274502694" lon="-81.73536746317278">
        <ele>267.7890658868</ele>
        <time>2026-04-30T07:28:32Z</time>
      </trkpt>
      <trkpt lat="41.40039200352074" lon="-81.73475533814930">
        <ele>267.3215583993</ele>
        <time>2026-04-30T07:29:51Z</time>
      </trkpt>
      <trkpt lat="41.40039364863990" lon="-81.73462997928083">
        <ele>266.9893952642</ele>
        <time>2026-04-30T07:29:59Z</time>
      </trkpt>
      <trkpt lat="41.40084067566911" lon="-81.73463005231679">
        <ele>267.2284044390</ele>
        <time>2026-04-30T07:30:40Z</time>
      </trkpt>
      <trkpt lat="41.40130498477617" lon="-81.73463570332518">
        <ele>267.1059462915</ele>
        <time>2026-04-30T07:31:28Z</time>
      </trkpt>
      <trkpt lat="41.40132366958240" lon="-81.73462367291485">
        <ele>267.2352520930</ele>
        <time>2026-04-30T07:31:30Z</time>
      </trkpt>
      <trkpt lat="41.40132293716633" lon="-81.73523235753456">
        <ele>267.9236487316</ele>
        <time>2026-04-30T07:32:02Z</time>
      </trkpt>
      <trkpt lat="41.40132726034105" lon="-81.73582318824474">
        <ele>268.1849978454</ele>
        <time>2026-04-30T07:32:58Z</time>
      </trkpt>
      <trkpt lat="41.40132929422073" lon="-81.73644377257261">
        <ele>267.9127237673</ele>
        <time>2026-04-30T07:33:34Z</time>
      </trkpt>
      <trkpt lat="41.40132911802357" lon="-81.73702886530126">
        <ele>268.0452605353</ele>
        <time>2026-04-30T07:34:11Z</time>
      </trkpt>
      <trkpt lat="41.40133477001902" lon="-81.73762101458213">
        <ele>267.7731759609</ele>
        <time>2026-04-30T07:34:57Z</time>
      </trkpt>
      <trkpt lat="41.40133822370141" lon="-81.73823040609400">
        <ele>267.4918950069</ele>
        <time>2026-04-30T07:35:44Z</time>
      </trkpt>
      <trkpt lat="41.40134125966416" lon="-81.73882672867259">
        <ele>267.4761411724</ele>
        <time>2026-04-30T07:36:21Z</time>
      </trkpt>
      <trkpt lat="41.40134072798792" lon="-81.73942265483302">
        <ele>267.2747542615</ele>
        <time>2026-04-30T07:37:15Z</time>
      </trkpt>
      <trkpt lat="41.40134653426978" lon="-81.74002727996441">
        <ele>266.6488424617</ele>
        <time>2026-04-30T07:37:48Z</time>
      </trkpt>
      <trkpt lat="41.40134561351197" lon="-81.74020776789038">
        <ele>266.5857918645</ele>
        <time>2026-04-30T07:38:01Z</time>
      </trkpt>
    </trkseg>
  </trk>
</gpx>