<?xml version='1.0' encoding='UTF-8'?>
<gpx xmlns="http://www.topografix.com/GPX/1/1" creator="https://gpx.studio" version="1.1">
  <metadata>
    <name>Dog Walk - 2026-05-12 #4</name>
  </metadata>
  <trk>
    <name>Dog Walk - 2026-05-12 #4</name>
    <type>dog walk</type>
    <trkseg>
      <trkpt lat="41.40135008780654" lon="-81.74023869841014">
        <ele>266.5957498955</ele>
        <time>2026-05-12T17:13:09Z</time>
      </trkpt>
      <trkpt lat="41.40134277220076" lon="-81.74083797829961">
        <ele>265.9846209254</ele>
        <time>2026-05-12T17:14:14Z</time>
      </trkpt>
      <trkpt lat="41.40133430857413" lon="-81.74142932457335">
        <ele>265.8973657430</ele>
        <time>2026-05-12T17:14:48Z</time>
      </trkpt>
      <trkpt lat="41.40132190487356" lon="-81.74203104940497">
        <ele>265.3073355674</ele>
        <time>2026-05-12T17:15:25Z</time>
      </trkpt>
      <trkpt lat="41.40132819763620" lon="-81.74239197268463">
        <ele>264.7772750538</ele>
        <time>2026-05-12T17:15:47Z</time>
      </trkpt>
      <trkpt lat="41.40091169891105" lon="-81.74217596426691">
        <ele>265.3505435529</ele>
        <time>2026-05-12T17:16:16Z</time>
      </trkpt>
      <trkpt lat="41.40048117330901" lon="-81.74196712821865">
        <ele>265.3962361620</ele>
        <time>2026-05-12T17:17:00Z</time>
      </trkpt>
      <trkpt lat="41.40044762032581" lon="-81.74194426250385">
        <ele>265.1504751632</ele>
        <time>2026-05-12T17:17:03Z</time>
      </trkpt>
      <trkpt lat="41.40043940283249" lon="-81.74134341974536">
        <ele>265.9272813367</ele>
        <time>2026-05-12T17:17:41Z</time>
      </trkpt>
      <trkpt lat="41.40043940657085" lon="-81.74075244024529">
        <ele>266.3631149420</ele>
        <time>2026-05-12T17:18:26Z</time>
      </trkpt>
      <trkpt lat="41.40044079591649" lon="-81.74015264922821">
        <ele>266.5420543431</ele>
        <time>2026-05-12T17:19:08Z</time>
      </trkpt>
      <trkpt lat="41.40043092797539" lon="-81.73956179460680">
        <ele>267.0098237234</ele>
        <time>2026-05-12T17:19:47Z</time>
      </trkpt>
      <trkpt lat="41.40043143389941" lon="-81.73896041129505">
        <ele>267.3508635316</ele>
        <time>2026-05-12T17:20:25Z</time>
      </trkpt>
      <trkpt lat="41.40042183873611" lon="-81.73835747022567">
        <ele>267.1080907472</ele>
        <time>2026-05-12T17:20:59Z</time>
      </trkpt>
      <trkpt lat="41.40042010015657" lon="-81.73775264067545">
        <ele>267.5443056739</ele>
        <time>2026-05-12T17:21:50Z</time>
      </trkpt>
      <trkpt lat="41.40041230395496" lon="-81.73715038610997">
        <ele>268.0504992911</ele>
        <time>2026-05-12T17:22:34Z</time>
      </trkpt>
      <trkpt lat="41.40041350356547" lon="-81.73654947119719">
        <ele>267.9826566433</ele>
        <time>2026-05-12T17:23:16Z</time>
      </trkpt>
      <trkpt lat="41.40039917221053" lon="-81.73595311085762">
        <ele>268.0214012545</ele>
        <time>2026-05-12T17:23:52Z</time>
      </trkpt>
      <trkpt lat="41.40040052119877" lon="-81.73536599077828">
        <ele>267.8599398544</ele>
        <time>2026-05-12T17:24:28Z</time>
      </trkpt>
      <trkpt lat="41.40040186242574" lon="-81.73476751822514">
        <ele>267.3664525551</ele>
        <time>2026-05-12T17:25:08Z</time>
      </trkpt>
      <trkpt lat="41.40039699400986" lon="-81.73462043423142">
        <ele>267.1953232525</ele>
        <time>2026-05-12T17:25:15Z</time>
      </trkpt>
      <trkpt lat="41.40084397826404" lon="-81.73463013547990">
        <ele>267.5029823038</ele>
        <time>2026-05-12T17:25:47Z</time>
      </trkpt>
      <trkpt lat="41.40129348718838" lon="-81.73463003579197">
        <ele>267.2738804063</ele>
        <time>2026-05-12T17:26:29Z</time>
      </trkpt>
      <trkpt lat="41.40131791843692" lon="-81.73463924247194">
        <ele>267.2624585765</ele>
        <time>2026-05-12T17:26:32Z</time>
      </trkpt>
      <trkpt lat="41.40132011862259" lon="-81.73523650014872">
        <ele>267.8662173568</ele>
        <time>2026-05-12T17:27:13Z</time>
      </trkpt>
      <trkpt lat="41.40132499110052" lon="-81.73583103289683">
        <ele>268.3353220782</ele>
        <time>2026-05-12T17:27:52Z</time>
      </trkpt>
      <trkpt lat="41.40133362017259" lon="-81.73643412205804">
        <ele>268.1883191647</ele>
        <time>2026-05-12T17:28:33Z</time>
      </trkpt>
      <trkpt lat="41.40133602764722" lon="-81.73703254257585">
        <ele>267.7371587341</ele>
        <time>2026-05-12T17:29:12Z</time>
      </trkpt>
      <trkpt lat="41.40133589348435" lon="-81.73763392413663">
        <ele>267.9745129672</ele>
        <time>2026-05-12T17:29:50Z</time>
      </trkpt>
      <trkpt lat="41.40134089826457" lon="-81.73822425264198">
        <ele>267.5194706681</ele>
        <time>2026-05-12T17:30:30Z</time>
      </trkpt>
      <trkpt lat="41.40133785669423" lon="-81.73884224515562">
        <ele>267.5695227559</ele>
        <time>2026-05-12T17:31:02Z</time>
      </trkpt>
      <trkpt lat="41.40134318833297" lon="-81.73943877056291">
        <ele>267.0553219065</ele>
        <time>2026-05-12T17:31:45Z</time>
      </trkpt>
      <trkpt lat="41.40133802692681" lon="-81.74003326807801">
        <ele>266.6020078300</ele>
        <time>2026-05-12T17:32:47Z</time>
      </trkpt>
      <trkpt lat="41.40134541070148" lon="-81.74019368156357">
        <ele>266.4352500151</ele>
        <time>2026-05-12T17:33:02Z</time>
      </trkpt>
    </trkseg>
  </trk>
</gpx>