<?xml version='1.0' encoding='UTF-8'?>
<gpx xmlns="http://www.topografix.com/GPX/1/1" creator="https://gpx.studio" version="1.1">
  <metadata>
    <name>Dog Walk - 2026-08-03 #2</name>
  </metadata>
  <trk>
    <name>Dog Walk - 2026-08-03 #2</name>
    <type>dog walk</type>
    <trkseg>
      <trkpt lat="41.40133787601799" lon="-81.74025260325340">
        <ele>266.8031224740</ele>
        <time>2026-08-03T11:06:44Z</time>
      </trkpt>
      <trkpt lat="41.40133042589802" lon="-81.74025485010358">
        <ele>266.5221476504</ele>
        <time>2026-08-03T11:06:45Z</time>
      </trkpt>
      <trkpt lat="41.40133464729986" lon="-81.74085486039498">
        <ele>266.2566712336</ele>
        <time>2026-08-03T11:07:16Z</time>
      </trkpt>
      <trkpt lat="41.40133023965292" lon="-81.74146263023954">
        <ele>265.9300572856</ele>
        <time>2026-08-03T11:07:57Z</time>
      </trkpt>
      <trkpt lat="41.40133386242076" lon="-81.74206160000806">
        <ele>265.6816864571</ele>
        <time>2026-08-03T11:08:43Z</time>
      </trkpt>
      <trkpt lat="41.40132049041078" lon="-81.74239028529155">
        <ele>264.6233794818</ele>
        <time>2026-08-03T11:09:09Z</time>
      </trkpt>
      <trkpt lat="41.40133120995934" lon="-81.74237119872335">
        <ele>264.6277803479</ele>
        <time>2026-08-03T11:09:11Z</time>
      </trkpt>
      <trkpt lat="41.40090206843813" lon="-81.74219695137560">
        <ele>265.1693221985</ele>
        <time>2026-08-03T11:09:46Z</time>
      </trkpt>
      <trkpt lat="41.40046874123598" lon="-81.74199454538085">
        <ele>265.2859120287</ele>
        <time>2026-08-03T11:10:34Z</time>
      </trkpt>
      <trkpt lat="41.40004850247016" lon="-81.74180056807657">
        <ele>265.6823795509</ele>
        <time>2026-08-03T11:11:18Z</time>
      </trkpt>
      <trkpt lat="41.39961735866666" lon="-81.74160343695722">
        <ele>264.7263576835</ele>
        <time>2026-08-03T11:11:54Z</time>
      </trkpt>
      <trkpt lat="41.39954851466138" lon="-81.74157723587447">
        <ele>264.8788347318</ele>
        <time>2026-08-03T11:12:00Z</time>
      </trkpt>
      <trkpt lat="41.39954337359174" lon="-81.74097877796081">
        <ele>265.6688626930</ele>
        <time>2026-08-03T11:12:35Z</time>
      </trkpt>
      <trkpt lat="41.39954311011674" lon="-81.74036809920828">
        <ele>266.2110738820</ele>
        <time>2026-08-03T11:13:15Z</time>
      </trkpt>
      <trkpt lat="41.39954182384119" lon="-81.73976890952663">
        <ele>266.6457614618</ele>
        <time>2026-08-03T11:14:15Z</time>
      </trkpt>
      <trkpt lat="41.39953511421254" lon="-81.73916649795288">
        <ele>266.9776270752</ele>
        <time>2026-08-03T11:15:05Z</time>
      </trkpt>
      <trkpt lat="41.39953010099109" lon="-81.73856074520334">
        <ele>266.8869718679</ele>
        <time>2026-08-03T11:15:43Z</time>
      </trkpt>
      <trkpt lat="41.39953102184751" lon="-81.73829003599303">
        <ele>266.8951007147</ele>
        <time>2026-08-03T11:15:59Z</time>
      </trkpt>
      <trkpt lat="41.39953472584286" lon="-81.73829228119237">
        <ele>266.8535578029</ele>
        <time>2026-08-03T11:16:00Z</time>
      </trkpt>
      <trkpt lat="41.39998940450496" lon="-81.73829652242604">
        <ele>267.1610118270</ele>
        <time>2026-08-03T11:16:51Z</time>
      </trkpt>
      <trkpt lat="41.40044020030773" lon="-81.73829800372009">
        <ele>267.2409599015</ele>
        <time>2026-08-03T11:17:25Z</time>
      </trkpt>
      <trkpt lat="41.40088550448857" lon="-81.73831058579789">
        <ele>267.4439042846</ele>
        <time>2026-08-03T11:18:02Z</time>
      </trkpt>
      <trkpt lat="41.40131834256391" lon="-81.73829722149668">
        <ele>267.5437804451</ele>
        <time>2026-08-03T11:18:40Z</time>
      </trkpt>
      <trkpt lat="41.40132678419996" lon="-81.73890171139780">
        <ele>267.1652488106</ele>
        <time>2026-08-03T11:19:22Z</time>
      </trkpt>
      <trkpt lat="41.40132834368210" lon="-81.73951422667157">
        <ele>267.1451976166</ele>
        <time>2026-08-03T11:20:04Z</time>
      </trkpt>
      <trkpt lat="41.40133982411540" lon="-81.74010235920127">
        <ele>266.6102742824</ele>
        <time>2026-08-03T11:20:37Z</time>
      </trkpt>
      <trkpt lat="41.40133980471099" lon="-81.74015270296880">
        <ele>266.7001626662</ele>
        <time>2026-08-03T11:20:41Z</time>
      </trkpt>
    </trkseg>
  </trk>
</gpx>