<?xml version='1.0' encoding='UTF-8'?>
<gpx xmlns="http://www.topografix.com/GPX/1/1" creator="https://gpx.studio" version="1.1">
  <metadata>
    <name>Dog Walk - 2026-04-12 #2</name>
  </metadata>
  <trk>
    <name>Dog Walk - 2026-04-12 #2</name>
    <type>dog walk</type>
    <trkseg>
      <trkpt lat="41.40132395360382" lon="-81.74023989753492">
        <ele>266.8310197161</ele>
        <time>2026-04-12T11:01:30Z</time>
      </trkpt>
      <trkpt lat="41.40132594518990" lon="-81.74084073406992">
        <ele>266.3655680813</ele>
        <time>2026-04-12T11:02:06Z</time>
      </trkpt>
      <trkpt lat="41.40132337414601" lon="-81.74143806820865">
        <ele>265.7982600642</ele>
        <time>2026-04-12T11:03:05Z</time>
      </trkpt>
      <trkpt lat="41.40132978880698" lon="-81.74204010841405">
        <ele>265.2400920369</ele>
        <time>2026-04-12T11:03:56Z</time>
      </trkpt>
      <trkpt lat="41.40133112535192" lon="-81.74239099787754">
        <ele>264.8626927624</ele>
        <time>2026-04-12T11:04:16Z</time>
      </trkpt>
      <trkpt lat="41.40090505179492" lon="-81.74220454672316">
        <ele>265.0186283392</ele>
        <time>2026-04-12T11:04:55Z</time>
      </trkpt>
      <trkpt lat="41.40047998005891" lon="-81.74199329310835">
        <ele>265.1525222035</ele>
        <time>2026-04-12T11:05:59Z</time>
      </trkpt>
      <trkpt lat="41.40004308564150" lon="-81.74180367904093">
        <ele>265.5993474397</ele>
        <time>2026-04-12T11:06:43Z</time>
      </trkpt>
      <trkpt lat="41.39962822609139" lon="-81.74162196318095">
        <ele>264.8801983906</ele>
        <time>2026-04-12T11:07:38Z</time>
      </trkpt>
      <trkpt lat="41.39952913352561" lon="-81.74158021028589">
        <ele>264.8100547584</ele>
        <time>2026-04-12T11:07:47Z</time>
      </trkpt>
      <trkpt lat="41.39952901049824" lon="-81.74097516178358">
        <ele>265.8501697394</ele>
        <time>2026-04-12T11:08:35Z</time>
      </trkpt>
      <trkpt lat="41.39953011939235" lon="-81.74037667231242">
        <ele>266.2197239592</ele>
        <time>2026-04-12T11:09:17Z</time>
      </trkpt>
      <trkpt lat="41.39953268527041" lon="-81.73977015632902">
        <ele>266.7004013696</ele>
        <time>2026-04-12T11:09:53Z</time>
      </trkpt>
      <trkpt lat="41.39953540249751" lon="-81.73917479927725">
        <ele>266.8812046505</ele>
        <time>2026-04-12T11:10:39Z</time>
      </trkpt>
      <trkpt lat="41.39953704344771" lon="-81.73857970087455">
        <ele>266.8533918993</ele>
        <time>2026-04-12T11:11:16Z</time>
      </trkpt>
      <trkpt lat="41.39953493541915" lon="-81.73796410369765">
        <ele>266.9822428862</ele>
        <time>2026-04-12T11:12:22Z</time>
      </trkpt>
      <trkpt lat="41.39953466067043" lon="-81.73737685112303">
        <ele>267.2809502083</ele>
        <time>2026-04-12T11:13:04Z</time>
      </trkpt>
      <trkpt lat="41.39953022492196" lon="-81.73678462760802">
        <ele>267.4529292463</ele>
        <time>2026-04-12T11:13:46Z</time>
      </trkpt>
      <trkpt lat="41.39952195157533" lon="-81.73617694332735">
        <ele>267.4618693094</ele>
        <time>2026-04-12T11:14:33Z</time>
      </trkpt>
      <trkpt lat="41.39951775017387" lon="-81.73558710636259">
        <ele>267.4195407252</ele>
        <time>2026-04-12T11:15:22Z</time>
      </trkpt>
      <trkpt lat="41.39952241385713" lon="-81.73498459351055">
        <ele>267.0616102919</ele>
        <time>2026-04-12T11:16:15Z</time>
      </trkpt>
      <trkpt lat="41.39952445011391" lon="-81.73462019874286">
        <ele>267.1455777642</ele>
        <time>2026-04-12T11:16:44Z</time>
      </trkpt>
      <trkpt lat="41.39997461518119" lon="-81.73462907517614">
        <ele>267.0856449023</ele>
        <time>2026-04-12T11:17:19Z</time>
      </trkpt>
      <trkpt lat="41.40042096741098" lon="-81.73462659439623">
        <ele>267.3418342407</ele>
        <time>2026-04-12T11:18:07Z</time>
      </trkpt>
      <trkpt lat="41.40087090115743" lon="-81.73463432777578">
        <ele>267.4663984069</ele>
        <time>2026-04-12T11:18:46Z</time>
      </trkpt>
      <trkpt lat="41.40132480667284" lon="-81.73463816621307">
        <ele>267.3848303703</ele>
        <time>2026-04-12T11:19:24Z</time>
      </trkpt>
      <trkpt lat="41.40131712086253" lon="-81.73524229909837">
        <ele>268.0705898958</ele>
        <time>2026-04-12T11:19:55Z</time>
      </trkpt>
      <trkpt lat="41.40132366843541" lon="-81.73584738981283">
        <ele>268.3110505841</ele>
        <time>2026-04-12T11:20:47Z</time>
      </trkpt>
      <trkpt lat="41.40132538097320" lon="-81.73644638779855">
        <ele>268.0964128978</ele>
        <time>2026-04-12T11:21:20Z</time>
      </trkpt>
      <trkpt lat="41.40132651687123" lon="-81.73703203404773">
        <ele>268.0807529749</ele>
        <time>2026-04-12T11:21:56Z</time>
      </trkpt>
      <trkpt lat="41.40132737621607" lon="-81.73763508996009">
        <ele>267.9880918187</ele>
        <time>2026-04-12T11:22:33Z</time>
      </trkpt>
      <trkpt lat="41.40132471474321" lon="-81.73823088241754">
        <ele>267.6590636114</ele>
        <time>2026-04-12T11:23:03Z</time>
      </trkpt>
      <trkpt lat="41.40132637171745" lon="-81.73884025969231">
        <ele>267.2986503203</ele>
        <time>2026-04-12T11:23:55Z</time>
      </trkpt>
      <trkpt lat="41.40133659253085" lon="-81.73943650622589">
        <ele>267.1565682090</ele>
        <time>2026-04-12T11:24:47Z</time>
      </trkpt>
      <trkpt lat="41.40133257313529" lon="-81.74003044338342">
        <ele>266.5844237143</ele>
        <time>2026-04-12T11:25:19Z</time>
      </trkpt>
      <trkpt lat="41.40134107568204" lon="-81.74021871732059">
        <ele>266.6836223082</ele>
        <time>2026-04-12T11:25:35Z</time>
      </trkpt>
    </trkseg>
  </trk>
</gpx>