<?xml version='1.0' encoding='UTF-8'?>
<gpx xmlns="http://www.topografix.com/GPX/1/1" creator="https://gpx.studio" version="1.1">
  <metadata>
    <name>Dog Walk - 2026-03-20 #4</name>
  </metadata>
  <trk>
    <name>Dog Walk - 2026-03-20 #4</name>
    <type>dog walk</type>
    <trkseg>
      <trkpt lat="41.40133626477178" lon="-81.74022869499170">
        <ele>266.6394442027</ele>
        <time>2026-03-20T17:17:36Z</time>
      </trkpt>
      <trkpt lat="41.40133883538888" lon="-81.74082673468223">
        <ele>266.1917255536</ele>
        <time>2026-03-20T17:18:11Z</time>
      </trkpt>
      <trkpt lat="41.40133753610633" lon="-81.74141750161547">
        <ele>265.9670198687</ele>
        <time>2026-03-20T17:18:56Z</time>
      </trkpt>
      <trkpt lat="41.40135293588778" lon="-81.74202714706621">
        <ele>265.5410028741</ele>
        <time>2026-03-20T17:19:30Z</time>
      </trkpt>
      <trkpt lat="41.40135228863625" lon="-81.74242066744999">
        <ele>264.7687539967</ele>
        <time>2026-03-20T17:19:57Z</time>
      </trkpt>
      <trkpt lat="41.40176727707380" lon="-81.74262603545726">
        <ele>264.2160812229</ele>
        <time>2026-03-20T17:20:37Z</time>
      </trkpt>
      <trkpt lat="41.40218939659439" lon="-81.74284595988071">
        <ele>263.4064499194</ele>
        <time>2026-03-20T17:21:35Z</time>
      </trkpt>
      <trkpt lat="41.40260901056468" lon="-81.74304657285651">
        <ele>263.0911416175</ele>
        <time>2026-03-20T17:22:21Z</time>
      </trkpt>
      <trkpt lat="41.40302644611809" lon="-81.74326261923723">
        <ele>262.2026151870</ele>
        <time>2026-03-20T17:23:10Z</time>
      </trkpt>
      <trkpt lat="41.40345062116646" lon="-81.74347897165919">
        <ele>261.8516377816</ele>
        <time>2026-03-20T17:23:52Z</time>
      </trkpt>
      <trkpt lat="41.40348668747445" lon="-81.74350701557307">
        <ele>261.8054870723</ele>
        <time>2026-03-20T17:23:55Z</time>
      </trkpt>
      <trkpt lat="41.40359421634417" lon="-81.74352372830208">
        <ele>261.9287733554</ele>
        <time>2026-03-20T17:24:06Z</time>
      </trkpt>
      <trkpt lat="41.40399476023889" lon="-81.74351100817880">
        <ele>260.6488474230</ele>
        <time>2026-03-20T17:24:41Z</time>
      </trkpt>
      <trkpt lat="41.40399839055920" lon="-81.74291222098917">
        <ele>261.6526991394</ele>
        <time>2026-03-20T17:25:21Z</time>
      </trkpt>
      <trkpt lat="41.40398948614676" lon="-81.74229131659271">
        <ele>262.1725879208</ele>
        <time>2026-03-20T17:26:02Z</time>
      </trkpt>
      <trkpt lat="41.40399725336541" lon="-81.74171816639442">
        <ele>262.4035871649</ele>
        <time>2026-03-20T17:26:36Z</time>
      </trkpt>
      <trkpt lat="41.40400110349153" lon="-81.74111064029761">
        <ele>263.0622114845</ele>
        <time>2026-03-20T17:27:18Z</time>
      </trkpt>
      <trkpt lat="41.40398575568135" lon="-81.74051830777746">
        <ele>263.4414397100</ele>
        <time>2026-03-20T17:28:07Z</time>
      </trkpt>
      <trkpt lat="41.40399394662855" lon="-81.73991025417619">
        <ele>264.3979255393</ele>
        <time>2026-03-20T17:28:45Z</time>
      </trkpt>
      <trkpt lat="41.40398722482583" lon="-81.73930697700166">
        <ele>264.9988177809</ele>
        <time>2026-03-20T17:29:26Z</time>
      </trkpt>
      <trkpt lat="41.40398902766503" lon="-81.73878073841847">
        <ele>265.3120615493</ele>
        <time>2026-03-20T17:30:00Z</time>
      </trkpt>
      <trkpt lat="41.40353455815569" lon="-81.73877197767182">
        <ele>265.6370827520</ele>
        <time>2026-03-20T17:30:47Z</time>
      </trkpt>
      <trkpt lat="41.40308264852904" lon="-81.73877885796495">
        <ele>266.1177423824</ele>
        <time>2026-03-20T17:31:28Z</time>
      </trkpt>
      <trkpt lat="41.40263936899014" lon="-81.73877972574778">
        <ele>266.6582388390</ele>
        <time>2026-03-20T17:32:16Z</time>
      </trkpt>
      <trkpt lat="41.40222432254801" lon="-81.73877343333471">
        <ele>267.2364140649</ele>
        <time>2026-03-20T17:33:00Z</time>
      </trkpt>
      <trkpt lat="41.40221747674588" lon="-81.73827531736701">
        <ele>267.1768932766</ele>
        <time>2026-03-20T17:33:41Z</time>
      </trkpt>
      <trkpt lat="41.40176643439885" lon="-81.73827106694284">
        <ele>267.8918058847</ele>
        <time>2026-03-20T17:34:19Z</time>
      </trkpt>
      <trkpt lat="41.40133855447395" lon="-81.73825943688382">
        <ele>267.5054693550</ele>
        <time>2026-03-20T17:34:50Z</time>
      </trkpt>
      <trkpt lat="41.40132748386251" lon="-81.73886625093444">
        <ele>267.2533507195</ele>
        <time>2026-03-20T17:35:41Z</time>
      </trkpt>
      <trkpt lat="41.40133580510929" lon="-81.73947304017362">
        <ele>267.4007057817</ele>
        <time>2026-03-20T17:36:20Z</time>
      </trkpt>
      <trkpt lat="41.40133024647226" lon="-81.74006516088315">
        <ele>266.5330487087</ele>
        <time>2026-03-20T17:36:56Z</time>
      </trkpt>
      <trkpt lat="41.40133924892093" lon="-81.74020865455168">
        <ele>266.3165596756</ele>
        <time>2026-03-20T17:37:06Z</time>
      </trkpt>
    </trkseg>
  </trk>
</gpx>