<?xml version='1.0' encoding='UTF-8'?>
<gpx xmlns="http://www.topografix.com/GPX/1/1" creator="https://gpx.studio" version="1.1">
  <metadata>
    <name>Dog Walk - 2026-05-29 #1</name>
  </metadata>
  <trk>
    <name>Dog Walk - 2026-05-29 #1</name>
    <type>dog walk</type>
    <trkseg>
      <trkpt lat="41.40134760174924" lon="-81.74023444225672">
        <ele>266.2289180469</ele>
        <time>2026-05-29T07:34:36Z</time>
      </trkpt>
      <trkpt lat="41.40134815668074" lon="-81.74083671093602">
        <ele>266.1623757122</ele>
        <time>2026-05-29T07:35:17Z</time>
      </trkpt>
      <trkpt lat="41.40133716175662" lon="-81.74143909043441">
        <ele>265.7214654830</ele>
        <time>2026-05-29T07:36:06Z</time>
      </trkpt>
      <trkpt lat="41.40135037202109" lon="-81.74202856768808">
        <ele>265.3187681274</ele>
        <time>2026-05-29T07:36:44Z</time>
      </trkpt>
      <trkpt lat="41.40135277584884" lon="-81.74242092394044">
        <ele>264.6965540399</ele>
        <time>2026-05-29T07:37:11Z</time>
      </trkpt>
      <trkpt lat="41.40176652444666" lon="-81.74264539441511">
        <ele>264.2630543544</ele>
        <time>2026-05-29T07:37:43Z</time>
      </trkpt>
      <trkpt lat="41.40218777941435" lon="-81.74285026813695">
        <ele>263.6312912513</ele>
        <time>2026-05-29T07:38:30Z</time>
      </trkpt>
      <trkpt lat="41.40222687659265" lon="-81.74287041325502">
        <ele>263.2655873015</ele>
        <time>2026-05-29T07:38:34Z</time>
      </trkpt>
      <trkpt lat="41.40222527685832" lon="-81.74226602801468">
        <ele>263.9932347567</ele>
        <time>2026-05-29T07:39:13Z</time>
      </trkpt>
      <trkpt lat="41.40222705573445" lon="-81.74166283164335">
        <ele>264.7626238539</ele>
        <time>2026-05-29T07:40:00Z</time>
      </trkpt>
      <trkpt lat="41.40221639851202" lon="-81.74107335482525">
        <ele>265.7168421192</ele>
        <time>2026-05-29T07:40:45Z</time>
      </trkpt>
      <trkpt lat="41.40222859320434" lon="-81.74046240346027">
        <ele>265.9267171785</ele>
        <time>2026-05-29T07:41:25Z</time>
      </trkpt>
      <trkpt lat="41.40222473909829" lon="-81.73986150062677">
        <ele>266.5638423525</ele>
        <time>2026-05-29T07:42:19Z</time>
      </trkpt>
      <trkpt lat="41.40221328413622" lon="-81.73926869117203">
        <ele>266.9401736624</ele>
        <time>2026-05-29T07:42:51Z</time>
      </trkpt>
      <trkpt lat="41.40221730284883" lon="-81.73867391303472">
        <ele>267.2123962921</ele>
        <time>2026-05-29T07:43:29Z</time>
      </trkpt>
      <trkpt lat="41.40221802323813" lon="-81.73826876128587">
        <ele>267.2664727732</ele>
        <time>2026-05-29T07:43:53Z</time>
      </trkpt>
      <trkpt lat="41.40176704581716" lon="-81.73825449478593">
        <ele>267.6012943742</ele>
        <time>2026-05-29T07:44:41Z</time>
      </trkpt>
      <trkpt lat="41.40134472964177" lon="-81.73825756203701">
        <ele>267.5534329621</ele>
        <time>2026-05-29T07:45:25Z</time>
      </trkpt>
      <trkpt lat="41.40133522829995" lon="-81.73886703018458">
        <ele>267.3540569941</ele>
        <time>2026-05-29T07:46:16Z</time>
      </trkpt>
      <trkpt lat="41.40134169052725" lon="-81.73946107193353">
        <ele>267.3642263073</ele>
        <time>2026-05-29T07:46:55Z</time>
      </trkpt>
      <trkpt lat="41.40134462597359" lon="-81.74006115137173">
        <ele>266.5916647956</ele>
        <time>2026-05-29T07:47:38Z</time>
      </trkpt>
      <trkpt lat="41.40134101349969" lon="-81.74018809357166">
        <ele>266.5623375118</ele>
        <time>2026-05-29T07:47:48Z</time>
      </trkpt>
    </trkseg>
  </trk>
</gpx>