<?xml version='1.0' encoding='UTF-8'?>
<gpx xmlns="http://www.topografix.com/GPX/1/1" creator="https://gpx.studio" version="1.1">
  <metadata>
    <name>Dog Walk - 2026-06-21 #1</name>
  </metadata>
  <trk>
    <name>Dog Walk - 2026-06-21 #1</name>
    <type>dog walk</type>
    <trkseg>
      <trkpt lat="41.40134692799959" lon="-81.74024216605029">
        <ele>266.4102429111</ele>
        <time>2026-06-21T09:22:25Z</time>
      </trkpt>
      <trkpt lat="41.40134728432054" lon="-81.74082504414540">
        <ele>266.0776456153</ele>
        <time>2026-06-21T09:23:01Z</time>
      </trkpt>
      <trkpt lat="41.40134201433671" lon="-81.74143328991615">
        <ele>265.6531620254</ele>
        <time>2026-06-21T09:23:48Z</time>
      </trkpt>
      <trkpt lat="41.40135173873888" lon="-81.74203434271473">
        <ele>265.4670208975</ele>
        <time>2026-06-21T09:24:21Z</time>
      </trkpt>
      <trkpt lat="41.40134976550435" lon="-81.74242544506855">
        <ele>264.7365391290</ele>
        <time>2026-06-21T09:24:46Z</time>
      </trkpt>
      <trkpt lat="41.40177159092438" lon="-81.74262483359006">
        <ele>264.2748002105</ele>
        <time>2026-06-21T09:25:25Z</time>
      </trkpt>
      <trkpt lat="41.40219001190886" lon="-81.74285818447466">
        <ele>263.4935049380</ele>
        <time>2026-06-21T09:26:04Z</time>
      </trkpt>
      <trkpt lat="41.40221318909994" lon="-81.74286053025190">
        <ele>263.4999850416</ele>
        <time>2026-06-21T09:26:06Z</time>
      </trkpt>
      <trkpt lat="41.40221691650993" lon="-81.74227128535907">
        <ele>264.0661413824</ele>
        <time>2026-06-21T09:26:46Z</time>
      </trkpt>
      <trkpt lat="41.40222086203707" lon="-81.74167356279584">
        <ele>264.8068326900</ele>
        <time>2026-06-21T09:27:25Z</time>
      </trkpt>
      <trkpt lat="41.40221444772224" lon="-81.74106358169352">
        <ele>265.4576153984</ele>
        <time>2026-06-21T09:28:07Z</time>
      </trkpt>
      <trkpt lat="41.40221033350382" lon="-81.74047953284236">
        <ele>266.1060957222</ele>
        <time>2026-06-21T09:28:47Z</time>
      </trkpt>
      <trkpt lat="41.40222552876659" lon="-81.73987875584631">
        <ele>266.3095691663</ele>
        <time>2026-06-21T09:29:39Z</time>
      </trkpt>
      <trkpt lat="41.40221890240993" lon="-81.73926093985853">
        <ele>266.7381209007</ele>
        <time>2026-06-21T09:30:20Z</time>
      </trkpt>
      <trkpt lat="41.40221805966654" lon="-81.73866693340092">
        <ele>267.3195349004</ele>
        <time>2026-06-21T09:31:05Z</time>
      </trkpt>
      <trkpt lat="41.40221647666792" lon="-81.73827783648403">
        <ele>267.2376241202</ele>
        <time>2026-06-21T09:31:27Z</time>
      </trkpt>
      <trkpt lat="41.40177399175120" lon="-81.73826570096951">
        <ele>267.7431430192</ele>
        <time>2026-06-21T09:31:59Z</time>
      </trkpt>
      <trkpt lat="41.40133792846774" lon="-81.73825935121499">
        <ele>267.4862679283</ele>
        <time>2026-06-21T09:32:42Z</time>
      </trkpt>
      <trkpt lat="41.40134081873769" lon="-81.73885315660320">
        <ele>267.3217037302</ele>
        <time>2026-06-21T09:33:20Z</time>
      </trkpt>
      <trkpt lat="41.40134511640951" lon="-81.73945911842100">
        <ele>266.9718565451</ele>
        <time>2026-06-21T09:34:03Z</time>
      </trkpt>
      <trkpt lat="41.40133508530992" lon="-81.74006883831758">
        <ele>266.7091791644</ele>
        <time>2026-06-21T09:34:45Z</time>
      </trkpt>
      <trkpt lat="41.40133417318141" lon="-81.74019349714526">
        <ele>266.4194258446</ele>
        <time>2026-06-21T09:34:54Z</time>
      </trkpt>
    </trkseg>
  </trk>
</gpx>