<?xml version='1.0' encoding='UTF-8'?>
<gpx xmlns="http://www.topografix.com/GPX/1/1" creator="https://gpx.studio" version="1.1">
  <metadata>
    <name>Dog Walk - 2026-03-06 #3</name>
  </metadata>
  <trk>
    <name>Dog Walk - 2026-03-06 #3</name>
    <type>dog walk</type>
    <trkseg>
      <trkpt lat="41.40133092086844" lon="-81.74025016184424">
        <ele>266.5212873630</ele>
        <time>2026-03-06T18:13:26Z</time>
      </trkpt>
      <trkpt lat="41.40133566133415" lon="-81.74025480693348">
        <ele>266.4209957020</ele>
        <time>2026-03-06T18:13:27Z</time>
      </trkpt>
      <trkpt lat="41.40133075620238" lon="-81.74085108811069">
        <ele>266.4221055911</ele>
        <time>2026-03-06T18:14:09Z</time>
      </trkpt>
      <trkpt lat="41.40133409913935" lon="-81.74145604256857">
        <ele>265.9709034131</ele>
        <time>2026-03-06T18:14:53Z</time>
      </trkpt>
      <trkpt lat="41.40132649451772" lon="-81.74205636215679">
        <ele>265.2067023378</ele>
        <time>2026-03-06T18:15:47Z</time>
      </trkpt>
      <trkpt lat="41.40132318178126" lon="-81.74237675707977">
        <ele>264.8538319944</ele>
        <time>2026-03-06T18:16:13Z</time>
      </trkpt>
      <trkpt lat="41.40132989686295" lon="-81.74238218473934">
        <ele>264.7785878710</ele>
        <time>2026-03-06T18:16:14Z</time>
      </trkpt>
      <trkpt lat="41.40089862859970" lon="-81.74218328368761">
        <ele>265.0572553033</ele>
        <time>2026-03-06T18:16:56Z</time>
      </trkpt>
      <trkpt lat="41.40047181246850" lon="-81.74199404608198">
        <ele>265.2582430527</ele>
        <time>2026-03-06T18:17:36Z</time>
      </trkpt>
      <trkpt lat="41.40005207886878" lon="-81.74180046036575">
        <ele>265.3707132248</ele>
        <time>2026-03-06T18:18:08Z</time>
      </trkpt>
      <trkpt lat="41.39961868179658" lon="-81.74161378310288">
        <ele>264.5220553613</ele>
        <time>2026-03-06T18:18:57Z</time>
      </trkpt>
      <trkpt lat="41.39954824502269" lon="-81.74155963157173">
        <ele>264.9281322719</ele>
        <time>2026-03-06T18:19:04Z</time>
      </trkpt>
      <trkpt lat="41.39955328386934" lon="-81.74097786584069">
        <ele>265.6991455641</ele>
        <time>2026-03-06T18:20:04Z</time>
      </trkpt>
      <trkpt lat="41.39954985950688" lon="-81.74037289320167">
        <ele>265.9076138188</ele>
        <time>2026-03-06T18:20:51Z</time>
      </trkpt>
      <trkpt lat="41.39954183034909" lon="-81.73976858158817">
        <ele>266.6382486155</ele>
        <time>2026-03-06T18:21:31Z</time>
      </trkpt>
      <trkpt lat="41.39953771042878" lon="-81.73917673758099">
        <ele>266.7999109711</ele>
        <time>2026-03-06T18:22:10Z</time>
      </trkpt>
      <trkpt lat="41.39953122066995" lon="-81.73857963078825">
        <ele>267.0338290326</ele>
        <time>2026-03-06T18:23:00Z</time>
      </trkpt>
      <trkpt lat="41.39953501305594" lon="-81.73829319698692">
        <ele>266.8334940769</ele>
        <time>2026-03-06T18:23:31Z</time>
      </trkpt>
      <trkpt lat="41.39953789441124" lon="-81.73828664550234">
        <ele>266.8004895116</ele>
        <time>2026-03-06T18:23:32Z</time>
      </trkpt>
      <trkpt lat="41.39999285153448" lon="-81.73830026121972">
        <ele>267.0959852701</ele>
        <time>2026-03-06T18:24:14Z</time>
      </trkpt>
      <trkpt lat="41.40043429365536" lon="-81.73830567775444">
        <ele>267.3884644605</ele>
        <time>2026-03-06T18:24:50Z</time>
      </trkpt>
      <trkpt lat="41.40088405875594" lon="-81.73830332026111">
        <ele>267.6695230634</ele>
        <time>2026-03-06T18:25:33Z</time>
      </trkpt>
      <trkpt lat="41.40132696443960" lon="-81.73829968201228">
        <ele>267.0933232471</ele>
        <time>2026-03-06T18:26:20Z</time>
      </trkpt>
      <trkpt lat="41.40132589534456" lon="-81.73889571345309">
        <ele>267.4001009287</ele>
        <time>2026-03-06T18:27:10Z</time>
      </trkpt>
      <trkpt lat="41.40133715744618" lon="-81.73949520234021">
        <ele>266.9122903496</ele>
        <time>2026-03-06T18:27:47Z</time>
      </trkpt>
      <trkpt lat="41.40133564118084" lon="-81.74010629444273">
        <ele>266.8395560748</ele>
        <time>2026-03-06T18:28:25Z</time>
      </trkpt>
      <trkpt lat="41.40132934906973" lon="-81.74016789321904">
        <ele>266.6685259806</ele>
        <time>2026-03-06T18:28:29Z</time>
      </trkpt>
    </trkseg>
  </trk>
</gpx>