<?xml version='1.0' encoding='UTF-8'?>
<gpx xmlns="http://www.topografix.com/GPX/1/1" creator="https://gpx.studio" version="1.1">
  <metadata>
    <name>Dog Walk - 2026-02-28 #3</name>
  </metadata>
  <trk>
    <name>Dog Walk - 2026-02-28 #3</name>
    <type>dog walk</type>
    <trkseg>
      <trkpt lat="41.40133915397455" lon="-81.74023541487290">
        <ele>266.5536628615</ele>
        <time>2026-02-28T13:00:24Z</time>
      </trkpt>
      <trkpt lat="41.40134264376380" lon="-81.74083719743653">
        <ele>266.1986847689</ele>
        <time>2026-02-28T13:01:01Z</time>
      </trkpt>
      <trkpt lat="41.40134616759786" lon="-81.74143727628814">
        <ele>265.7301747477</ele>
        <time>2026-02-28T13:01:38Z</time>
      </trkpt>
      <trkpt lat="41.40133495733394" lon="-81.74204222432202">
        <ele>265.4022264899</ele>
        <time>2026-02-28T13:02:24Z</time>
      </trkpt>
      <trkpt lat="41.40134922918615" lon="-81.74242763682236">
        <ele>264.7267084890</ele>
        <time>2026-02-28T13:02:50Z</time>
      </trkpt>
      <trkpt lat="41.40176360751460" lon="-81.74262381999486">
        <ele>264.3442851173</ele>
        <time>2026-02-28T13:03:33Z</time>
      </trkpt>
      <trkpt lat="41.40218870094039" lon="-81.74282049155525">
        <ele>263.3776330430</ele>
        <time>2026-02-28T13:04:25Z</time>
      </trkpt>
      <trkpt lat="41.40261574473202" lon="-81.74302419455327">
        <ele>262.9424876469</ele>
        <time>2026-02-28T13:05:00Z</time>
      </trkpt>
      <trkpt lat="41.40305551028500" lon="-81.74322468676083">
        <ele>262.5022271272</ele>
        <time>2026-02-28T13:05:35Z</time>
      </trkpt>
      <trkpt lat="41.40311859782396" lon="-81.74325710037148">
        <ele>262.1000588339</ele>
        <time>2026-02-28T13:05:40Z</time>
      </trkpt>
      <trkpt lat="41.40312186682728" lon="-81.74264889204579">
        <ele>263.0097020644</ele>
        <time>2026-02-28T13:06:35Z</time>
      </trkpt>
      <trkpt lat="41.40310232944699" lon="-81.74206201023415">
        <ele>263.8150092244</ele>
        <time>2026-02-28T13:07:30Z</time>
      </trkpt>
      <trkpt lat="41.40311468207166" lon="-81.74145302870890">
        <ele>264.0901084247</ele>
        <time>2026-02-28T13:08:17Z</time>
      </trkpt>
      <trkpt lat="41.40311091494779" lon="-81.74086878141992">
        <ele>264.9100001163</ele>
        <time>2026-02-28T13:09:12Z</time>
      </trkpt>
      <trkpt lat="41.40310381683107" lon="-81.74026404838033">
        <ele>265.2968246344</ele>
        <time>2026-02-28T13:10:08Z</time>
      </trkpt>
      <trkpt lat="41.40310333794614" lon="-81.73965423803388">
        <ele>265.7942632947</ele>
        <time>2026-02-28T13:10:42Z</time>
      </trkpt>
      <trkpt lat="41.40309878081631" lon="-81.73905568369449">
        <ele>265.9793584784</ele>
        <time>2026-02-28T13:11:17Z</time>
      </trkpt>
      <trkpt lat="41.40310505977445" lon="-81.73878502343979">
        <ele>266.3808528588</ele>
        <time>2026-02-28T13:11:38Z</time>
      </trkpt>
      <trkpt lat="41.40265231911839" lon="-81.73878407815717">
        <ele>266.8006686619</ele>
        <time>2026-02-28T13:12:09Z</time>
      </trkpt>
      <trkpt lat="41.40223340457093" lon="-81.73878158477409">
        <ele>267.2035543752</ele>
        <time>2026-02-28T13:12:57Z</time>
      </trkpt>
      <trkpt lat="41.40222863772456" lon="-81.73817618529499">
        <ele>267.1660651624</ele>
        <time>2026-02-28T13:13:28Z</time>
      </trkpt>
      <trkpt lat="41.40223101709635" lon="-81.73757400620629">
        <ele>267.0540388917</ele>
        <time>2026-02-28T13:14:42Z</time>
      </trkpt>
      <trkpt lat="41.40222720138822" lon="-81.73697609942325">
        <ele>267.3131164981</ele>
        <time>2026-02-28T13:15:26Z</time>
      </trkpt>
      <trkpt lat="41.40222363281950" lon="-81.73636904634883">
        <ele>267.2183869241</ele>
        <time>2026-02-28T13:16:03Z</time>
      </trkpt>
      <trkpt lat="41.40222332487781" lon="-81.73577879773939">
        <ele>267.4514273975</ele>
        <time>2026-02-28T13:16:36Z</time>
      </trkpt>
      <trkpt lat="41.40222430637957" lon="-81.73518967327222">
        <ele>267.0600412434</ele>
        <time>2026-02-28T13:17:24Z</time>
      </trkpt>
      <trkpt lat="41.40222904409827" lon="-81.73464396204780">
        <ele>267.1771169949</ele>
        <time>2026-02-28T13:18:18Z</time>
      </trkpt>
      <trkpt lat="41.40177211628605" lon="-81.73465231199837">
        <ele>266.9358906821</ele>
        <time>2026-02-28T13:18:51Z</time>
      </trkpt>
      <trkpt lat="41.40131889057295" lon="-81.73464101151397">
        <ele>267.5442217512</ele>
        <time>2026-02-28T13:19:27Z</time>
      </trkpt>
      <trkpt lat="41.40131827179281" lon="-81.73463293749356">
        <ele>267.3700197994</ele>
        <time>2026-02-28T13:19:28Z</time>
      </trkpt>
      <trkpt lat="41.40131820949789" lon="-81.73523425352474">
        <ele>267.9068284598</ele>
        <time>2026-02-28T13:20:20Z</time>
      </trkpt>
      <trkpt lat="41.40132011227221" lon="-81.73583028831992">
        <ele>268.2469381079</ele>
        <time>2026-02-28T13:20:54Z</time>
      </trkpt>
      <trkpt lat="41.40133224691542" lon="-81.73643523201213">
        <ele>268.3152344375</ele>
        <time>2026-02-28T13:21:27Z</time>
      </trkpt>
      <trkpt lat="41.40133170948823" lon="-81.73703655405394">
        <ele>267.9421146567</ele>
        <time>2026-02-28T13:22:13Z</time>
      </trkpt>
      <trkpt lat="41.40133226327908" lon="-81.73762871281025">
        <ele>267.8664719452</ele>
        <time>2026-02-28T13:22:52Z</time>
      </trkpt>
      <trkpt lat="41.40133907422180" lon="-81.73822624888861">
        <ele>267.5190382406</ele>
        <time>2026-02-28T13:23:28Z</time>
      </trkpt>
      <trkpt lat="41.40134032899946" lon="-81.73883887117940">
        <ele>267.4206358291</ele>
        <time>2026-02-28T13:23:58Z</time>
      </trkpt>
      <trkpt lat="41.40134088563838" lon="-81.73942428083548">
        <ele>267.1502408210</ele>
        <time>2026-02-28T13:24:44Z</time>
      </trkpt>
      <trkpt lat="41.40134645441529" lon="-81.74002859547012">
        <ele>266.7597600999</ele>
        <time>2026-02-28T13:25:21Z</time>
      </trkpt>
      <trkpt lat="41.40134715536126" lon="-81.74014966969433">
        <ele>266.7057225900</ele>
        <time>2026-02-28T13:25:29Z</time>
      </trkpt>
    </trkseg>
  </trk>
</gpx>