<?xml version='1.0' encoding='UTF-8'?>
<gpx xmlns="http://www.topografix.com/GPX/1/1" creator="https://gpx.studio" version="1.1">
  <metadata>
    <name>Dog Walk - 2026-02-23 #1</name>
  </metadata>
  <trk>
    <name>Dog Walk - 2026-02-23 #1</name>
    <type>dog walk</type>
    <trkseg>
      <trkpt lat="41.40134075363263" lon="-81.74023149565731">
        <ele>266.6727020796</ele>
        <time>2026-02-23T10:01:17Z</time>
      </trkpt>
      <trkpt lat="41.40133536548623" lon="-81.74082718198866">
        <ele>266.0477081931</ele>
        <time>2026-02-23T10:02:24Z</time>
      </trkpt>
      <trkpt lat="41.40134889977379" lon="-81.74143316579871">
        <ele>265.7750219373</ele>
        <time>2026-02-23T10:03:12Z</time>
      </trkpt>
      <trkpt lat="41.40133873915107" lon="-81.74202801484904">
        <ele>265.3032518702</ele>
        <time>2026-02-23T10:03:55Z</time>
      </trkpt>
      <trkpt lat="41.40134674800564" lon="-81.74241967428517">
        <ele>264.7496157271</ele>
        <time>2026-02-23T10:04:40Z</time>
      </trkpt>
      <trkpt lat="41.40175905943138" lon="-81.74263169291201">
        <ele>264.1344160851</ele>
        <time>2026-02-23T10:05:29Z</time>
      </trkpt>
      <trkpt lat="41.40219097492635" lon="-81.74283782642564">
        <ele>263.6062328696</ele>
        <time>2026-02-23T10:06:11Z</time>
      </trkpt>
      <trkpt lat="41.40261593186408" lon="-81.74304594642662">
        <ele>263.1048044532</ele>
        <time>2026-02-23T10:06:52Z</time>
      </trkpt>
      <trkpt lat="41.40302944109874" lon="-81.74327076967934">
        <ele>262.3573514492</ele>
        <time>2026-02-23T10:07:44Z</time>
      </trkpt>
      <trkpt lat="41.40345961897211" lon="-81.74348345941041">
        <ele>261.9233856550</ele>
        <time>2026-02-23T10:08:34Z</time>
      </trkpt>
      <trkpt lat="41.40349750064533" lon="-81.74349352688746">
        <ele>261.7947977413</ele>
        <time>2026-02-23T10:08:56Z</time>
      </trkpt>
      <trkpt lat="41.40359522552388" lon="-81.74351747792035">
        <ele>261.6454830115</ele>
        <time>2026-02-23T10:09:09Z</time>
      </trkpt>
      <trkpt lat="41.40399556360522" lon="-81.74350941732290">
        <ele>260.6657481427</ele>
        <time>2026-02-23T10:09:39Z</time>
      </trkpt>
      <trkpt lat="41.40399295944460" lon="-81.74291175782533">
        <ele>261.4586278319</ele>
        <time>2026-02-23T10:10:34Z</time>
      </trkpt>
      <trkpt lat="41.40399160958241" lon="-81.74231127578588">
        <ele>261.9545161170</ele>
        <time>2026-02-23T10:11:12Z</time>
      </trkpt>
      <trkpt lat="41.40398841946671" lon="-81.74171948426968">
        <ele>262.5723662737</ele>
        <time>2026-02-23T10:12:02Z</time>
      </trkpt>
      <trkpt lat="41.40398355729995" lon="-81.74110589144767">
        <ele>262.8307969106</ele>
        <time>2026-02-23T10:12:51Z</time>
      </trkpt>
      <trkpt lat="41.40398686257939" lon="-81.74051083419165">
        <ele>263.4706254370</ele>
        <time>2026-02-23T10:13:28Z</time>
      </trkpt>
      <trkpt lat="41.40399084350424" lon="-81.73991228211523">
        <ele>264.3422148796</ele>
        <time>2026-02-23T10:14:11Z</time>
      </trkpt>
      <trkpt lat="41.40398098590266" lon="-81.73930205486576">
        <ele>265.0043390231</ele>
        <time>2026-02-23T10:14:50Z</time>
      </trkpt>
      <trkpt lat="41.40398501722326" lon="-81.73878207747363">
        <ele>265.2923176662</ele>
        <time>2026-02-23T10:15:31Z</time>
      </trkpt>
      <trkpt lat="41.40354627787431" lon="-81.73877466617243">
        <ele>265.7260262359</ele>
        <time>2026-02-23T10:16:05Z</time>
      </trkpt>
      <trkpt lat="41.40308318754295" lon="-81.73878882158360">
        <ele>266.1571884522</ele>
        <time>2026-02-23T10:16:48Z</time>
      </trkpt>
      <trkpt lat="41.40264109331085" lon="-81.73877872172417">
        <ele>266.7132836307</ele>
        <time>2026-02-23T10:17:29Z</time>
      </trkpt>
      <trkpt lat="41.40222412799798" lon="-81.73877598047072">
        <ele>267.0066793339</ele>
        <time>2026-02-23T10:18:06Z</time>
      </trkpt>
      <trkpt lat="41.40220963694473" lon="-81.73826881536056">
        <ele>266.9792286696</ele>
        <time>2026-02-23T10:18:52Z</time>
      </trkpt>
      <trkpt lat="41.40176608842733" lon="-81.73826739472875">
        <ele>267.9007035115</ele>
        <time>2026-02-23T10:19:41Z</time>
      </trkpt>
      <trkpt lat="41.40132998424612" lon="-81.73825710493260">
        <ele>267.3374208429</ele>
        <time>2026-02-23T10:20:19Z</time>
      </trkpt>
      <trkpt lat="41.40133426582506" lon="-81.73885726255081">
        <ele>267.3193266366</ele>
        <time>2026-02-23T10:20:55Z</time>
      </trkpt>
      <trkpt lat="41.40133485135442" lon="-81.73946749795512">
        <ele>267.0449300480</ele>
        <time>2026-02-23T10:21:42Z</time>
      </trkpt>
      <trkpt lat="41.40134174703862" lon="-81.74005979636367">
        <ele>266.5270008625</ele>
        <time>2026-02-23T10:22:26Z</time>
      </trkpt>
      <trkpt lat="41.40133286338455" lon="-81.74020604102233">
        <ele>266.6376854854</ele>
        <time>2026-02-23T10:22:34Z</time>
      </trkpt>
    </trkseg>
  </trk>
</gpx>