<?xml version='1.0' encoding='UTF-8'?>
<gpx xmlns="http://www.topografix.com/GPX/1/1" creator="https://gpx.studio" version="1.1">
  <metadata>
    <name>Dog Walk - 2026-05-11 #1</name>
  </metadata>
  <trk>
    <name>Dog Walk - 2026-05-11 #1</name>
    <type>dog walk</type>
    <trkseg>
      <trkpt lat="41.40132444027866" lon="-81.74023069052923">
        <ele>266.4204040772</ele>
        <time>2026-05-11T10:08:45Z</time>
      </trkpt>
      <trkpt lat="41.40133826160337" lon="-81.74083146803942">
        <ele>266.1567884198</ele>
        <time>2026-05-11T10:09:20Z</time>
      </trkpt>
      <trkpt lat="41.40133566039750" lon="-81.74143098529440">
        <ele>265.7545858046</ele>
        <time>2026-05-11T10:10:00Z</time>
      </trkpt>
      <trkpt lat="41.40133982648278" lon="-81.74202798089603">
        <ele>265.2407958297</ele>
        <time>2026-05-11T10:10:36Z</time>
      </trkpt>
      <trkpt lat="41.40135791414482" lon="-81.74243086864298">
        <ele>264.7270217193</ele>
        <time>2026-05-11T10:11:05Z</time>
      </trkpt>
      <trkpt lat="41.40177278956710" lon="-81.74263675189063">
        <ele>264.2730997671</ele>
        <time>2026-05-11T10:11:40Z</time>
      </trkpt>
      <trkpt lat="41.40218600293885" lon="-81.74284169437576">
        <ele>263.7645503630</ele>
        <time>2026-05-11T10:12:12Z</time>
      </trkpt>
      <trkpt lat="41.40260973171772" lon="-81.74305086784278">
        <ele>263.0089935774</ele>
        <time>2026-05-11T10:12:50Z</time>
      </trkpt>
      <trkpt lat="41.40302427643434" lon="-81.74325809957422">
        <ele>262.4433483343</ele>
        <time>2026-05-11T10:13:40Z</time>
      </trkpt>
      <trkpt lat="41.40345063263320" lon="-81.74348442939942">
        <ele>261.7634868441</ele>
        <time>2026-05-11T10:14:32Z</time>
      </trkpt>
      <trkpt lat="41.40348816981558" lon="-81.74349612224844">
        <ele>261.8522112649</ele>
        <time>2026-05-11T10:14:36Z</time>
      </trkpt>
      <trkpt lat="41.40359259644369" lon="-81.74352417678560">
        <ele>261.6918717769</ele>
        <time>2026-05-11T10:14:48Z</time>
      </trkpt>
      <trkpt lat="41.40398692463735" lon="-81.74350171573695">
        <ele>260.7434199858</ele>
        <time>2026-05-11T10:15:16Z</time>
      </trkpt>
      <trkpt lat="41.40399687452380" lon="-81.74291517849257">
        <ele>261.4586951665</ele>
        <time>2026-05-11T10:16:03Z</time>
      </trkpt>
      <trkpt lat="41.40398624120196" lon="-81.74229840876765">
        <ele>262.1919546354</ele>
        <time>2026-05-11T10:16:49Z</time>
      </trkpt>
      <trkpt lat="41.40399465305450" lon="-81.74170988339732">
        <ele>262.3847967534</ele>
        <time>2026-05-11T10:17:37Z</time>
      </trkpt>
      <trkpt lat="41.40399202856131" lon="-81.74111063801564">
        <ele>262.6912624025</ele>
        <time>2026-05-11T10:18:14Z</time>
      </trkpt>
      <trkpt lat="41.40398651997786" lon="-81.74051295529331">
        <ele>263.6576303355</ele>
        <time>2026-05-11T10:18:52Z</time>
      </trkpt>
      <trkpt lat="41.40398876764198" lon="-81.73991644190828">
        <ele>264.2468079317</ele>
        <time>2026-05-11T10:19:20Z</time>
      </trkpt>
      <trkpt lat="41.40398520766981" lon="-81.73931096379229">
        <ele>264.7761182670</ele>
        <time>2026-05-11T10:20:04Z</time>
      </trkpt>
      <trkpt lat="41.40398284640448" lon="-81.73877896207975">
        <ele>265.3583670477</ele>
        <time>2026-05-11T10:20:49Z</time>
      </trkpt>
      <trkpt lat="41.40353312335071" lon="-81.73877989953331">
        <ele>265.8274707798</ele>
        <time>2026-05-11T10:21:37Z</time>
      </trkpt>
      <trkpt lat="41.40308731582278" lon="-81.73877267907027">
        <ele>266.4192205543</ele>
        <time>2026-05-11T10:22:10Z</time>
      </trkpt>
      <trkpt lat="41.40263184298254" lon="-81.73877328707255">
        <ele>266.8837439212</ele>
        <time>2026-05-11T10:22:47Z</time>
      </trkpt>
      <trkpt lat="41.40222680722277" lon="-81.73878242102236">
        <ele>267.1998471853</ele>
        <time>2026-05-11T10:23:23Z</time>
      </trkpt>
      <trkpt lat="41.40221274304525" lon="-81.73827199101278">
        <ele>267.0150300242</ele>
        <time>2026-05-11T10:24:00Z</time>
      </trkpt>
      <trkpt lat="41.40176543740885" lon="-81.73827120033208">
        <ele>267.8492575847</ele>
        <time>2026-05-11T10:24:37Z</time>
      </trkpt>
      <trkpt lat="41.40133187802882" lon="-81.73827680797365">
        <ele>267.5474729054</ele>
        <time>2026-05-11T10:25:19Z</time>
      </trkpt>
      <trkpt lat="41.40134031501947" lon="-81.73886945505515">
        <ele>267.4394062797</ele>
        <time>2026-05-11T10:25:54Z</time>
      </trkpt>
      <trkpt lat="41.40133447762876" lon="-81.73947632608795">
        <ele>267.2710482701</ele>
        <time>2026-05-11T10:26:34Z</time>
      </trkpt>
      <trkpt lat="41.40133745150550" lon="-81.74006654960530">
        <ele>266.7153050706</ele>
        <time>2026-05-11T10:27:10Z</time>
      </trkpt>
      <trkpt lat="41.40133617527130" lon="-81.74020843762774">
        <ele>266.5653322908</ele>
        <time>2026-05-11T10:27:21Z</time>
      </trkpt>
    </trkseg>
  </trk>
</gpx>