<?xml version='1.0' encoding='UTF-8'?>
<gpx xmlns="http://www.topografix.com/GPX/1/1" creator="https://gpx.studio" version="1.1">
  <metadata>
    <name>Dog Walk - 2026-07-25 #1</name>
  </metadata>
  <trk>
    <name>Dog Walk - 2026-07-25 #1</name>
    <type>dog walk</type>
    <trkseg>
      <trkpt lat="41.40134145897178" lon="-81.74024110445764">
        <ele>266.6784157734</ele>
        <time>2026-07-25T07:17:45Z</time>
      </trkpt>
      <trkpt lat="41.40132984383428" lon="-81.74083229524453">
        <ele>266.4437707962</ele>
        <time>2026-07-25T07:18:33Z</time>
      </trkpt>
      <trkpt lat="41.40132478113350" lon="-81.74143529019982">
        <ele>265.7582984247</ele>
        <time>2026-07-25T07:19:16Z</time>
      </trkpt>
      <trkpt lat="41.40132350346842" lon="-81.74204064519382">
        <ele>265.4211941467</ele>
        <time>2026-07-25T07:20:05Z</time>
      </trkpt>
      <trkpt lat="41.40133012258394" lon="-81.74239425337261">
        <ele>264.8567101984</ele>
        <time>2026-07-25T07:20:30Z</time>
      </trkpt>
      <trkpt lat="41.40090078932705" lon="-81.74219186134241">
        <ele>264.9729806824</ele>
        <time>2026-07-25T07:21:06Z</time>
      </trkpt>
      <trkpt lat="41.40048598746505" lon="-81.74199931646019">
        <ele>265.1053606184</ele>
        <time>2026-07-25T07:21:42Z</time>
      </trkpt>
      <trkpt lat="41.40004991080260" lon="-81.74181465302772">
        <ele>265.5982126950</ele>
        <time>2026-07-25T07:22:19Z</time>
      </trkpt>
      <trkpt lat="41.39963609145412" lon="-81.74162621199469">
        <ele>264.6552677394</ele>
        <time>2026-07-25T07:23:05Z</time>
      </trkpt>
      <trkpt lat="41.39953897001936" lon="-81.74157095386961">
        <ele>264.9306597561</ele>
        <time>2026-07-25T07:23:15Z</time>
      </trkpt>
      <trkpt lat="41.39953169931815" lon="-81.74098096885085">
        <ele>265.7567108251</ele>
        <time>2026-07-25T07:23:53Z</time>
      </trkpt>
      <trkpt lat="41.39953014338251" lon="-81.74037731972800">
        <ele>266.2469128307</ele>
        <time>2026-07-25T07:24:35Z</time>
      </trkpt>
      <trkpt lat="41.39953115504041" lon="-81.73978702319364">
        <ele>266.8509278787</ele>
        <time>2026-07-25T07:25:07Z</time>
      </trkpt>
      <trkpt lat="41.39953108393279" lon="-81.73918495224218">
        <ele>266.6571913026</ele>
        <time>2026-07-25T07:25:47Z</time>
      </trkpt>
      <trkpt lat="41.39953572976955" lon="-81.73857248891068">
        <ele>266.8976328029</ele>
        <time>2026-07-25T07:26:29Z</time>
      </trkpt>
      <trkpt lat="41.39952629758106" lon="-81.73797506375688">
        <ele>267.1229650404</ele>
        <time>2026-07-25T07:27:03Z</time>
      </trkpt>
      <trkpt lat="41.39952807580890" lon="-81.73738055501728">
        <ele>267.2583812062</ele>
        <time>2026-07-25T07:27:43Z</time>
      </trkpt>
      <trkpt lat="41.39952580998190" lon="-81.73677645149893">
        <ele>267.3887860107</ele>
        <time>2026-07-25T07:28:19Z</time>
      </trkpt>
      <trkpt lat="41.39953070917462" lon="-81.73617563894807">
        <ele>267.4109619615</ele>
        <time>2026-07-25T07:28:58Z</time>
      </trkpt>
      <trkpt lat="41.39952883342894" lon="-81.73557038612797">
        <ele>267.2650305715</ele>
        <time>2026-07-25T07:29:41Z</time>
      </trkpt>
      <trkpt lat="41.39953571061026" lon="-81.73498444592789">
        <ele>267.2533485127</ele>
        <time>2026-07-25T07:30:22Z</time>
      </trkpt>
      <trkpt lat="41.39952410869059" lon="-81.73461466363449">
        <ele>267.2226137209</ele>
        <time>2026-07-25T07:30:51Z</time>
      </trkpt>
      <trkpt lat="41.39997779248217" lon="-81.73462096190720">
        <ele>267.2019341676</ele>
        <time>2026-07-25T07:31:38Z</time>
      </trkpt>
      <trkpt lat="41.40043071001375" lon="-81.73462780194161">
        <ele>267.3762779850</ele>
        <time>2026-07-25T07:32:20Z</time>
      </trkpt>
      <trkpt lat="41.40088260451571" lon="-81.73463419957434">
        <ele>267.2772138520</ele>
        <time>2026-07-25T07:32:56Z</time>
      </trkpt>
      <trkpt lat="41.40133452978927" lon="-81.73463762129404">
        <ele>267.2637806387</ele>
        <time>2026-07-25T07:33:30Z</time>
      </trkpt>
      <trkpt lat="41.40132533154295" lon="-81.73524106856109">
        <ele>267.9834302643</ele>
        <time>2026-07-25T07:34:05Z</time>
      </trkpt>
      <trkpt lat="41.40132401605391" lon="-81.73583104869489">
        <ele>268.1421212863</ele>
        <time>2026-07-25T07:34:40Z</time>
      </trkpt>
      <trkpt lat="41.40132791544221" lon="-81.73644428553941">
        <ele>268.3697577568</ele>
        <time>2026-07-25T07:35:22Z</time>
      </trkpt>
      <trkpt lat="41.40132408510206" lon="-81.73704448960919">
        <ele>267.9702510616</ele>
        <time>2026-07-25T07:36:02Z</time>
      </trkpt>
      <trkpt lat="41.40132388696343" lon="-81.73763826092322">
        <ele>268.1186012712</ele>
        <time>2026-07-25T07:36:58Z</time>
      </trkpt>
      <trkpt lat="41.40133242801378" lon="-81.73824091890613">
        <ele>267.6587552501</ele>
        <time>2026-07-25T07:37:32Z</time>
      </trkpt>
      <trkpt lat="41.40133382524844" lon="-81.73884718766443">
        <ele>267.2758642654</ele>
        <time>2026-07-25T07:38:06Z</time>
      </trkpt>
      <trkpt lat="41.40133980647931" lon="-81.73943963057083">
        <ele>267.2584267741</ele>
        <time>2026-07-25T07:38:50Z</time>
      </trkpt>
      <trkpt lat="41.40133717713181" lon="-81.74003329884526">
        <ele>266.5336687098</ele>
        <time>2026-07-25T07:39:38Z</time>
      </trkpt>
      <trkpt lat="41.40133392378669" lon="-81.74021533736212">
        <ele>266.5768959834</ele>
        <time>2026-07-25T07:39:54Z</time>
      </trkpt>
    </trkseg>
  </trk>
</gpx>