<?xml version='1.0' encoding='UTF-8'?>
<gpx xmlns="http://www.topografix.com/GPX/1/1" creator="https://gpx.studio" version="1.1">
  <metadata>
    <name>Dog Walk - 2026-06-21 #3</name>
  </metadata>
  <trk>
    <name>Dog Walk - 2026-06-21 #3</name>
    <type>dog walk</type>
    <trkseg>
      <trkpt lat="41.40133038227329" lon="-81.74025349937848">
        <ele>266.6126063803</ele>
        <time>2026-06-21T20:26:01Z</time>
      </trkpt>
      <trkpt lat="41.40133214511862" lon="-81.74026668105638">
        <ele>266.4510710757</ele>
        <time>2026-06-21T20:26:02Z</time>
      </trkpt>
      <trkpt lat="41.40133439947296" lon="-81.74085479477048">
        <ele>266.0965328548</ele>
        <time>2026-06-21T20:26:37Z</time>
      </trkpt>
      <trkpt lat="41.40132693688036" lon="-81.74145025846111">
        <ele>265.7072316955</ele>
        <time>2026-06-21T20:27:15Z</time>
      </trkpt>
      <trkpt lat="41.40132887447497" lon="-81.74206826119691">
        <ele>265.5083895575</ele>
        <time>2026-06-21T20:27:58Z</time>
      </trkpt>
      <trkpt lat="41.40133172140948" lon="-81.74237885097058">
        <ele>265.0482947788</ele>
        <time>2026-06-21T20:28:17Z</time>
      </trkpt>
      <trkpt lat="41.40132294393376" lon="-81.74237533229295">
        <ele>264.7217467513</ele>
        <time>2026-06-21T20:28:18Z</time>
      </trkpt>
      <trkpt lat="41.40089680302331" lon="-81.74217660535014">
        <ele>265.1459796045</ele>
        <time>2026-06-21T20:28:53Z</time>
      </trkpt>
      <trkpt lat="41.40047360882247" lon="-81.74199385823987">
        <ele>265.3755350367</ele>
        <time>2026-06-21T20:29:29Z</time>
      </trkpt>
      <trkpt lat="41.40005197141291" lon="-81.74178958628083">
        <ele>265.2833016645</ele>
        <time>2026-06-21T20:30:04Z</time>
      </trkpt>
      <trkpt lat="41.39962563631406" lon="-81.74161558241906">
        <ele>264.6344605090</ele>
        <time>2026-06-21T20:30:34Z</time>
      </trkpt>
      <trkpt lat="41.39954447781856" lon="-81.74156638543822">
        <ele>265.0079263136</ele>
        <time>2026-06-21T20:30:42Z</time>
      </trkpt>
      <trkpt lat="41.39954622810910" lon="-81.74097760264253">
        <ele>265.7805774197</ele>
        <time>2026-06-21T20:31:15Z</time>
      </trkpt>
      <trkpt lat="41.39954274201262" lon="-81.74038294536963">
        <ele>266.1169887312</ele>
        <time>2026-06-21T20:31:48Z</time>
      </trkpt>
      <trkpt lat="41.39954340651320" lon="-81.73975762777884">
        <ele>266.7231767970</ele>
        <time>2026-06-21T20:32:26Z</time>
      </trkpt>
      <trkpt lat="41.39953989323994" lon="-81.73916940991522">
        <ele>266.8428694610</ele>
        <time>2026-06-21T20:33:01Z</time>
      </trkpt>
      <trkpt lat="41.39953286194412" lon="-81.73856918584549">
        <ele>266.7326825357</ele>
        <time>2026-06-21T20:33:34Z</time>
      </trkpt>
      <trkpt lat="41.39954009108189" lon="-81.73828849241757">
        <ele>266.9369579987</ele>
        <time>2026-06-21T20:33:51Z</time>
      </trkpt>
      <trkpt lat="41.39952908142233" lon="-81.73829193543116">
        <ele>267.0226361266</ele>
        <time>2026-06-21T20:33:52Z</time>
      </trkpt>
      <trkpt lat="41.39998635169432" lon="-81.73829856670977">
        <ele>267.0593670442</ele>
        <time>2026-06-21T20:34:38Z</time>
      </trkpt>
      <trkpt lat="41.40044140970332" lon="-81.73829791064968">
        <ele>267.2659392854</ele>
        <time>2026-06-21T20:35:34Z</time>
      </trkpt>
      <trkpt lat="41.40088844222436" lon="-81.73830271171275">
        <ele>267.4945318958</ele>
        <time>2026-06-21T20:36:29Z</time>
      </trkpt>
      <trkpt lat="41.40131945413793" lon="-81.73830610175018">
        <ele>267.5573315867</ele>
        <time>2026-06-21T20:37:04Z</time>
      </trkpt>
      <trkpt lat="41.40133215315553" lon="-81.73890593841249">
        <ele>267.3802352990</ele>
        <time>2026-06-21T20:37:38Z</time>
      </trkpt>
      <trkpt lat="41.40132786950593" lon="-81.73949983807880">
        <ele>267.0401060592</ele>
        <time>2026-06-21T20:38:24Z</time>
      </trkpt>
      <trkpt lat="41.40133892018294" lon="-81.74010679966516">
        <ele>266.6123949764</ele>
        <time>2026-06-21T20:39:08Z</time>
      </trkpt>
      <trkpt lat="41.40134399058177" lon="-81.74016827108844">
        <ele>266.4667948721</ele>
        <time>2026-06-21T20:39:12Z</time>
      </trkpt>
    </trkseg>
  </trk>
</gpx>