<?xml version='1.0' encoding='UTF-8'?>
<gpx xmlns="http://www.topografix.com/GPX/1/1" creator="https://gpx.studio" version="1.1">
  <metadata>
    <name>Dog Walk - 2026-04-20 #5</name>
  </metadata>
  <trk>
    <name>Dog Walk - 2026-04-20 #5</name>
    <type>dog walk</type>
    <trkseg>
      <trkpt lat="41.40134623133929" lon="-81.74023565172610">
        <ele>266.4924451552</ele>
        <time>2026-04-20T18:54:45Z</time>
      </trkpt>
      <trkpt lat="41.40134747129413" lon="-81.74083503505632">
        <ele>266.2091900049</ele>
        <time>2026-04-20T18:55:31Z</time>
      </trkpt>
      <trkpt lat="41.40134176504404" lon="-81.74143495682576">
        <ele>265.6541817367</ele>
        <time>2026-04-20T18:56:09Z</time>
      </trkpt>
      <trkpt lat="41.40135367152720" lon="-81.74203320452557">
        <ele>265.2443735345</ele>
        <time>2026-04-20T18:56:55Z</time>
      </trkpt>
      <trkpt lat="41.40134931256485" lon="-81.74243171103105">
        <ele>264.6320534081</ele>
        <time>2026-04-20T18:57:23Z</time>
      </trkpt>
      <trkpt lat="41.40177908113444" lon="-81.74262160240752">
        <ele>264.4150462553</ele>
        <time>2026-04-20T18:58:00Z</time>
      </trkpt>
      <trkpt lat="41.40219175584868" lon="-81.74281421168726">
        <ele>263.2751294241</ele>
        <time>2026-04-20T18:58:36Z</time>
      </trkpt>
      <trkpt lat="41.40261503354752" lon="-81.74302394586579">
        <ele>263.1381075552</ele>
        <time>2026-04-20T18:59:05Z</time>
      </trkpt>
      <trkpt lat="41.40304686029407" lon="-81.74322429264484">
        <ele>262.6041001906</ele>
        <time>2026-04-20T18:59:49Z</time>
      </trkpt>
      <trkpt lat="41.40312104207919" lon="-81.74325202898733">
        <ele>262.4221000813</ele>
        <time>2026-04-20T19:00:11Z</time>
      </trkpt>
      <trkpt lat="41.40311791253036" lon="-81.74266049497322">
        <ele>263.0864927520</ele>
        <time>2026-04-20T19:00:54Z</time>
      </trkpt>
      <trkpt lat="41.40310911178314" lon="-81.74205109069354">
        <ele>263.7706988529</ele>
        <time>2026-04-20T19:01:40Z</time>
      </trkpt>
      <trkpt lat="41.40310508553704" lon="-81.74145343708035">
        <ele>263.9365606142</ele>
        <time>2026-04-20T19:02:18Z</time>
      </trkpt>
      <trkpt lat="41.40311050216985" lon="-81.74084755765924">
        <ele>264.7504934086</ele>
        <time>2026-04-20T19:02:51Z</time>
      </trkpt>
      <trkpt lat="41.40310403701363" lon="-81.74024666213575">
        <ele>265.2563891830</ele>
        <time>2026-04-20T19:03:30Z</time>
      </trkpt>
      <trkpt lat="41.40310538308975" lon="-81.73965334301884">
        <ele>265.7105194518</ele>
        <time>2026-04-20T19:04:06Z</time>
      </trkpt>
      <trkpt lat="41.40310551568688" lon="-81.73905990568552">
        <ele>265.8374290590</ele>
        <time>2026-04-20T19:04:45Z</time>
      </trkpt>
      <trkpt lat="41.40309628834796" lon="-81.73879325374003">
        <ele>266.3818008531</ele>
        <time>2026-04-20T19:05:09Z</time>
      </trkpt>
      <trkpt lat="41.40264622809475" lon="-81.73879030267530">
        <ele>267.0289957426</ele>
        <time>2026-04-20T19:05:46Z</time>
      </trkpt>
      <trkpt lat="41.40222538298892" lon="-81.73878339911722">
        <ele>267.1611393639</ele>
        <time>2026-04-20T19:06:24Z</time>
      </trkpt>
      <trkpt lat="41.40223864232411" lon="-81.73819297148572">
        <ele>267.3236917243</ele>
        <time>2026-04-20T19:07:01Z</time>
      </trkpt>
      <trkpt lat="41.40223116649423" lon="-81.73757847757479">
        <ele>266.9375772776</ele>
        <time>2026-04-20T19:07:52Z</time>
      </trkpt>
      <trkpt lat="41.40222829262532" lon="-81.73698067548740">
        <ele>267.2079213764</ele>
        <time>2026-04-20T19:08:31Z</time>
      </trkpt>
      <trkpt lat="41.40223612116505" lon="-81.73638024119455">
        <ele>267.3698589367</ele>
        <time>2026-04-20T19:09:07Z</time>
      </trkpt>
      <trkpt lat="41.40222774650782" lon="-81.73578519004786">
        <ele>267.3235773774</ele>
        <time>2026-04-20T19:09:59Z</time>
      </trkpt>
      <trkpt lat="41.40222031934879" lon="-81.73518437745693">
        <ele>267.3153506406</ele>
        <time>2026-04-20T19:10:44Z</time>
      </trkpt>
      <trkpt lat="41.40221470954135" lon="-81.73465213467188">
        <ele>267.1991024508</ele>
        <time>2026-04-20T19:11:23Z</time>
      </trkpt>
      <trkpt lat="41.40177233233883" lon="-81.73465000427413">
        <ele>267.2198458490</ele>
        <time>2026-04-20T19:12:06Z</time>
      </trkpt>
      <trkpt lat="41.40133259576676" lon="-81.73463285206748">
        <ele>267.2143362215</ele>
        <time>2026-04-20T19:12:36Z</time>
      </trkpt>
      <trkpt lat="41.40131679428202" lon="-81.73463910735123">
        <ele>267.3549794602</ele>
        <time>2026-04-20T19:12:37Z</time>
      </trkpt>
      <trkpt lat="41.40132024706259" lon="-81.73523282241457">
        <ele>267.8040712089</ele>
        <time>2026-04-20T19:13:12Z</time>
      </trkpt>
      <trkpt lat="41.40132767001891" lon="-81.73584067429653">
        <ele>268.2348816896</ele>
        <time>2026-04-20T19:13:51Z</time>
      </trkpt>
      <trkpt lat="41.40132430545444" lon="-81.73644324344180">
        <ele>268.0232647973</ele>
        <time>2026-04-20T19:14:36Z</time>
      </trkpt>
      <trkpt lat="41.40132781173755" lon="-81.73704596005528">
        <ele>268.1323485602</ele>
        <time>2026-04-20T19:15:26Z</time>
      </trkpt>
      <trkpt lat="41.40132853013875" lon="-81.73763574840999">
        <ele>267.8060792252</ele>
        <time>2026-04-20T19:15:56Z</time>
      </trkpt>
      <trkpt lat="41.40133255915060" lon="-81.73823064635978">
        <ele>267.5381741263</ele>
        <time>2026-04-20T19:16:40Z</time>
      </trkpt>
      <trkpt lat="41.40134302939160" lon="-81.73883560001302">
        <ele>267.6136115116</ele>
        <time>2026-04-20T19:17:22Z</time>
      </trkpt>
      <trkpt lat="41.40135363602813" lon="-81.73942917512930">
        <ele>267.3221870772</ele>
        <time>2026-04-20T19:18:05Z</time>
      </trkpt>
      <trkpt lat="41.40135050811907" lon="-81.74003246885067">
        <ele>266.6247843243</ele>
        <time>2026-04-20T19:18:55Z</time>
      </trkpt>
      <trkpt lat="41.40134476572980" lon="-81.74015568154167">
        <ele>266.3608538580</ele>
        <time>2026-04-20T19:19:07Z</time>
      </trkpt>
    </trkseg>
  </trk>
</gpx>