<?xml version='1.0' encoding='UTF-8'?>
<gpx xmlns="http://www.topografix.com/GPX/1/1" creator="https://gpx.studio" version="1.1">
  <metadata>
    <name>Dog Walk - 2026-03-03 #3</name>
  </metadata>
  <trk>
    <name>Dog Walk - 2026-03-03 #3</name>
    <type>dog walk</type>
    <trkseg>
      <trkpt lat="41.40132835206241" lon="-81.74022940049505">
        <ele>266.4437691847</ele>
        <time>2026-03-03T19:41:54Z</time>
      </trkpt>
      <trkpt lat="41.40134135436644" lon="-81.74084288244534">
        <ele>266.1324771305</ele>
        <time>2026-03-03T19:42:39Z</time>
      </trkpt>
      <trkpt lat="41.40134217215392" lon="-81.74143290079144">
        <ele>265.9323316290</ele>
        <time>2026-03-03T19:43:11Z</time>
      </trkpt>
      <trkpt lat="41.40134197937552" lon="-81.74203066011103">
        <ele>265.4455221763</ele>
        <time>2026-03-03T19:44:00Z</time>
      </trkpt>
      <trkpt lat="41.40135275583042" lon="-81.74242010614738">
        <ele>264.7875050634</ele>
        <time>2026-03-03T19:44:25Z</time>
      </trkpt>
      <trkpt lat="41.40176833783473" lon="-81.74262949829280">
        <ele>264.1470299184</ele>
        <time>2026-03-03T19:45:14Z</time>
      </trkpt>
      <trkpt lat="41.40219616709479" lon="-81.74283128636134">
        <ele>263.2999967141</ele>
        <time>2026-03-03T19:46:05Z</time>
      </trkpt>
      <trkpt lat="41.40260868787379" lon="-81.74305457593238">
        <ele>262.9507728005</ele>
        <time>2026-03-03T19:46:45Z</time>
      </trkpt>
      <trkpt lat="41.40302805600725" lon="-81.74326463546242">
        <ele>262.5988737264</ele>
        <time>2026-03-03T19:47:30Z</time>
      </trkpt>
      <trkpt lat="41.40345514996494" lon="-81.74347126992723">
        <ele>261.8260985921</ele>
        <time>2026-03-03T19:48:13Z</time>
      </trkpt>
      <trkpt lat="41.40348340514344" lon="-81.74349993730901">
        <ele>261.8240683323</ele>
        <time>2026-03-03T19:48:16Z</time>
      </trkpt>
      <trkpt lat="41.40359795774274" lon="-81.74353604417783">
        <ele>261.6006331128</ele>
        <time>2026-03-03T19:48:29Z</time>
      </trkpt>
      <trkpt lat="41.40399546948519" lon="-81.74351485814523">
        <ele>261.0188834234</ele>
        <time>2026-03-03T19:49:07Z</time>
      </trkpt>
      <trkpt lat="41.40399415056547" lon="-81.74290156719130">
        <ele>261.5011240011</ele>
        <time>2026-03-03T19:49:48Z</time>
      </trkpt>
      <trkpt lat="41.40399316490475" lon="-81.74231078912756">
        <ele>262.0980144168</ele>
        <time>2026-03-03T19:50:22Z</time>
      </trkpt>
      <trkpt lat="41.40399607043472" lon="-81.74170895937455">
        <ele>262.2894159704</ele>
        <time>2026-03-03T19:50:58Z</time>
      </trkpt>
      <trkpt lat="41.40399112868779" lon="-81.74111975648299">
        <ele>262.8084153100</ele>
        <time>2026-03-03T19:51:40Z</time>
      </trkpt>
      <trkpt lat="41.40398138006498" lon="-81.74051202844188">
        <ele>263.8269691276</ele>
        <time>2026-03-03T19:52:20Z</time>
      </trkpt>
      <trkpt lat="41.40398828962162" lon="-81.73990976577606">
        <ele>264.3078565511</ele>
        <time>2026-03-03T19:52:58Z</time>
      </trkpt>
      <trkpt lat="41.40398747107628" lon="-81.73931747248676">
        <ele>265.1295570519</ele>
        <time>2026-03-03T19:53:37Z</time>
      </trkpt>
      <trkpt lat="41.40398516122497" lon="-81.73876868657844">
        <ele>265.2808955466</ele>
        <time>2026-03-03T19:54:16Z</time>
      </trkpt>
      <trkpt lat="41.40353034657246" lon="-81.73877528840735">
        <ele>265.9716597937</ele>
        <time>2026-03-03T19:54:56Z</time>
      </trkpt>
      <trkpt lat="41.40309001323854" lon="-81.73878049091489">
        <ele>266.2046380172</ele>
        <time>2026-03-03T19:55:35Z</time>
      </trkpt>
      <trkpt lat="41.40264370025101" lon="-81.73877735573099">
        <ele>266.7413694297</ele>
        <time>2026-03-03T19:56:09Z</time>
      </trkpt>
      <trkpt lat="41.40222737602549" lon="-81.73878425183058">
        <ele>267.1845075252</ele>
        <time>2026-03-03T19:56:59Z</time>
      </trkpt>
      <trkpt lat="41.40221536711524" lon="-81.73826790498408">
        <ele>267.0589409347</ele>
        <time>2026-03-03T19:57:31Z</time>
      </trkpt>
      <trkpt lat="41.40175654326848" lon="-81.73826965716087">
        <ele>267.9705966012</ele>
        <time>2026-03-03T19:58:26Z</time>
      </trkpt>
      <trkpt lat="41.40133216477829" lon="-81.73825686136239">
        <ele>267.4838244264</ele>
        <time>2026-03-03T19:59:13Z</time>
      </trkpt>
      <trkpt lat="41.40133117168957" lon="-81.73886970932666">
        <ele>267.3900103048</ele>
        <time>2026-03-03T19:59:49Z</time>
      </trkpt>
      <trkpt lat="41.40132900558599" lon="-81.73946562283301">
        <ele>267.2988745768</ele>
        <time>2026-03-03T20:00:24Z</time>
      </trkpt>
      <trkpt lat="41.40133197036348" lon="-81.74006938801493">
        <ele>266.6187325948</ele>
        <time>2026-03-03T20:01:03Z</time>
      </trkpt>
      <trkpt lat="41.40133241943667" lon="-81.74020565405635">
        <ele>266.4467065965</ele>
        <time>2026-03-03T20:01:11Z</time>
      </trkpt>
    </trkseg>
  </trk>
</gpx>