<?xml version='1.0' encoding='UTF-8'?>
<gpx xmlns="http://www.topografix.com/GPX/1/1" creator="https://gpx.studio" version="1.1">
  <metadata>
    <name>Dog Walk - 2026-08-31 #3</name>
  </metadata>
  <trk>
    <name>Dog Walk - 2026-08-31 #3</name>
    <type>dog walk</type>
    <trkseg>
      <trkpt lat="41.40134229697246" lon="-81.74023696381505">
        <ele>266.4599193978</ele>
        <time>2026-08-31T17:00:45Z</time>
      </trkpt>
      <trkpt lat="41.40134196560133" lon="-81.74083593884509">
        <ele>266.1266782878</ele>
        <time>2026-08-31T17:01:38Z</time>
      </trkpt>
      <trkpt lat="41.40134423453100" lon="-81.74144492843466">
        <ele>265.6683219359</ele>
        <time>2026-08-31T17:02:19Z</time>
      </trkpt>
      <trkpt lat="41.40134570047237" lon="-81.74204348547391">
        <ele>265.2297392894</ele>
        <time>2026-08-31T17:03:03Z</time>
      </trkpt>
      <trkpt lat="41.40134249256396" lon="-81.74242155359180">
        <ele>264.4728223543</ele>
        <time>2026-08-31T17:03:32Z</time>
      </trkpt>
      <trkpt lat="41.40176891862120" lon="-81.74263034873209">
        <ele>264.1507687004</ele>
        <time>2026-08-31T17:04:12Z</time>
      </trkpt>
      <trkpt lat="41.40219117914912" lon="-81.74281477839521">
        <ele>263.7557649869</ele>
        <time>2026-08-31T17:05:00Z</time>
      </trkpt>
      <trkpt lat="41.40262144883003" lon="-81.74301893490068">
        <ele>263.0444464537</ele>
        <time>2026-08-31T17:05:46Z</time>
      </trkpt>
      <trkpt lat="41.40303888623236" lon="-81.74321803773699">
        <ele>262.5038933151</ele>
        <time>2026-08-31T17:06:25Z</time>
      </trkpt>
      <trkpt lat="41.40312026046657" lon="-81.74325028987434">
        <ele>262.3741617686</ele>
        <time>2026-08-31T17:06:33Z</time>
      </trkpt>
      <trkpt lat="41.40311548194551" lon="-81.74264740013770">
        <ele>262.9522445081</ele>
        <time>2026-08-31T17:07:16Z</time>
      </trkpt>
      <trkpt lat="41.40311444177750" lon="-81.74206207277145">
        <ele>263.8111044805</ele>
        <time>2026-08-31T17:07:48Z</time>
      </trkpt>
      <trkpt lat="41.40310638145716" lon="-81.74144506652044">
        <ele>264.1031908223</ele>
        <time>2026-08-31T17:08:30Z</time>
      </trkpt>
      <trkpt lat="41.40310804051853" lon="-81.74086071589200">
        <ele>264.9582080086</ele>
        <time>2026-08-31T17:09:14Z</time>
      </trkpt>
      <trkpt lat="41.40310215141852" lon="-81.74025897330195">
        <ele>265.4785090670</ele>
        <time>2026-08-31T17:09:59Z</time>
      </trkpt>
      <trkpt lat="41.40310942342833" lon="-81.73964222302121">
        <ele>265.7899376341</ele>
        <time>2026-08-31T17:10:42Z</time>
      </trkpt>
      <trkpt lat="41.40310155436836" lon="-81.73905761137102">
        <ele>265.9728858470</ele>
        <time>2026-08-31T17:11:19Z</time>
      </trkpt>
      <trkpt lat="41.40310634201221" lon="-81.73877351274891">
        <ele>266.0755896231</ele>
        <time>2026-08-31T17:11:43Z</time>
      </trkpt>
      <trkpt lat="41.40264422593304" lon="-81.73878509771303">
        <ele>266.9586342199</ele>
        <time>2026-08-31T17:12:43Z</time>
      </trkpt>
      <trkpt lat="41.40223887651403" lon="-81.73878850581404">
        <ele>267.2795023024</ele>
        <time>2026-08-31T17:13:35Z</time>
      </trkpt>
      <trkpt lat="41.40223203224081" lon="-81.73817366356666">
        <ele>267.1069069671</ele>
        <time>2026-08-31T17:14:14Z</time>
      </trkpt>
      <trkpt lat="41.40222607333228" lon="-81.73756777837519">
        <ele>266.9944716706</ele>
        <time>2026-08-31T17:15:09Z</time>
      </trkpt>
      <trkpt lat="41.40222967249612" lon="-81.73697702134342">
        <ele>267.2854062094</ele>
        <time>2026-08-31T17:15:57Z</time>
      </trkpt>
      <trkpt lat="41.40222674853777" lon="-81.73637732887154">
        <ele>267.2768136199</ele>
        <time>2026-08-31T17:16:39Z</time>
      </trkpt>
      <trkpt lat="41.40223098919626" lon="-81.73578400500909">
        <ele>267.3454923415</ele>
        <time>2026-08-31T17:17:17Z</time>
      </trkpt>
      <trkpt lat="41.40222880547146" lon="-81.73518050148046">
        <ele>267.0874884223</ele>
        <time>2026-08-31T17:18:11Z</time>
      </trkpt>
      <trkpt lat="41.40221213056393" lon="-81.73465615486832">
        <ele>267.1079722850</ele>
        <time>2026-08-31T17:18:44Z</time>
      </trkpt>
      <trkpt lat="41.40177225133494" lon="-81.73464436032354">
        <ele>267.2406547977</ele>
        <time>2026-08-31T17:19:17Z</time>
      </trkpt>
      <trkpt lat="41.40131738480927" lon="-81.73463511970694">
        <ele>267.1839992415</ele>
        <time>2026-08-31T17:20:03Z</time>
      </trkpt>
      <trkpt lat="41.40131154461165" lon="-81.73463799322489">
        <ele>267.5364388755</ele>
        <time>2026-08-31T17:20:04Z</time>
      </trkpt>
      <trkpt lat="41.40131618180050" lon="-81.73524115491510">
        <ele>267.6894022891</ele>
        <time>2026-08-31T17:20:51Z</time>
      </trkpt>
      <trkpt lat="41.40132570838035" lon="-81.73583612622568">
        <ele>268.0131508557</ele>
        <time>2026-08-31T17:21:37Z</time>
      </trkpt>
      <trkpt lat="41.40133203996081" lon="-81.73644488646690">
        <ele>268.1607492638</ele>
        <time>2026-08-31T17:22:24Z</time>
      </trkpt>
      <trkpt lat="41.40132460009430" lon="-81.73703724132515">
        <ele>268.2598884156</ele>
        <time>2026-08-31T17:23:06Z</time>
      </trkpt>
      <trkpt lat="41.40133394897281" lon="-81.73763668323791">
        <ele>268.0604052974</ele>
        <time>2026-08-31T17:23:45Z</time>
      </trkpt>
      <trkpt lat="41.40133141930802" lon="-81.73823924754130">
        <ele>267.6479070732</ele>
        <time>2026-08-31T17:24:22Z</time>
      </trkpt>
      <trkpt lat="41.40134207782730" lon="-81.73883756545024">
        <ele>267.5425635353</ele>
        <time>2026-08-31T17:24:59Z</time>
      </trkpt>
      <trkpt lat="41.40134412138365" lon="-81.73943989644147">
        <ele>267.2068933753</ele>
        <time>2026-08-31T17:25:31Z</time>
      </trkpt>
      <trkpt lat="41.40135279115971" lon="-81.74002175781472">
        <ele>266.7010577761</ele>
        <time>2026-08-31T17:26:12Z</time>
      </trkpt>
      <trkpt lat="41.40134474385994" lon="-81.74016205827064">
        <ele>266.6074713722</ele>
        <time>2026-08-31T17:26:22Z</time>
      </trkpt>
    </trkseg>
  </trk>
</gpx>