<?xml version='1.0' encoding='UTF-8'?>
<gpx xmlns="http://www.topografix.com/GPX/1/1" creator="https://gpx.studio" version="1.1">
  <metadata>
    <name>Dog Walk - 2026-06-22 #1</name>
  </metadata>
  <trk>
    <name>Dog Walk - 2026-06-22 #1</name>
    <type>dog walk</type>
    <trkseg>
      <trkpt lat="41.40134298912059" lon="-81.74023328526268">
        <ele>266.6108970638</ele>
        <time>2026-06-22T06:47:20Z</time>
      </trkpt>
      <trkpt lat="41.40133198149409" lon="-81.74083088386237">
        <ele>266.2191063339</ele>
        <time>2026-06-22T06:47:51Z</time>
      </trkpt>
      <trkpt lat="41.40134379556824" lon="-81.74143889144960">
        <ele>265.7193134217</ele>
        <time>2026-06-22T06:48:33Z</time>
      </trkpt>
      <trkpt lat="41.40133993651135" lon="-81.74203155176222">
        <ele>265.1112704052</ele>
        <time>2026-06-22T06:49:20Z</time>
      </trkpt>
      <trkpt lat="41.40134222547768" lon="-81.74241209945104">
        <ele>264.6211037568</ele>
        <time>2026-06-22T06:49:43Z</time>
      </trkpt>
      <trkpt lat="41.40176588512935" lon="-81.74262268680994">
        <ele>264.2425383843</ele>
        <time>2026-06-22T06:50:18Z</time>
      </trkpt>
      <trkpt lat="41.40220064267105" lon="-81.74281639056879">
        <ele>263.5105993066</ele>
        <time>2026-06-22T06:51:04Z</time>
      </trkpt>
      <trkpt lat="41.40261787394415" lon="-81.74300559576645">
        <ele>263.0040220885</ele>
        <time>2026-06-22T06:51:45Z</time>
      </trkpt>
      <trkpt lat="41.40304127799977" lon="-81.74321984414846">
        <ele>262.6698193857</ele>
        <time>2026-06-22T06:52:29Z</time>
      </trkpt>
      <trkpt lat="41.40312106608136" lon="-81.74325269962111">
        <ele>262.3195478960</ele>
        <time>2026-06-22T06:52:35Z</time>
      </trkpt>
      <trkpt lat="41.40311273657586" lon="-81.74264880297558">
        <ele>262.9811683695</ele>
        <time>2026-06-22T06:53:16Z</time>
      </trkpt>
      <trkpt lat="41.40311715416028" lon="-81.74205057024221">
        <ele>263.5046375253</ele>
        <time>2026-06-22T06:54:00Z</time>
      </trkpt>
      <trkpt lat="41.40310967291352" lon="-81.74146033894408">
        <ele>264.1838198805</ele>
        <time>2026-06-22T06:54:53Z</time>
      </trkpt>
      <trkpt lat="41.40311262265919" lon="-81.74084924425020">
        <ele>264.8164644143</ele>
        <time>2026-06-22T06:55:36Z</time>
      </trkpt>
      <trkpt lat="41.40310580626973" lon="-81.74024782165687">
        <ele>265.5890704563</ele>
        <time>2026-06-22T06:56:10Z</time>
      </trkpt>
      <trkpt lat="41.40309642902692" lon="-81.73965702156231">
        <ele>265.8620198370</ele>
        <time>2026-06-22T06:56:39Z</time>
      </trkpt>
      <trkpt lat="41.40309899557749" lon="-81.73906784371934">
        <ele>266.3126078401</ele>
        <time>2026-06-22T06:57:22Z</time>
      </trkpt>
      <trkpt lat="41.40309697813078" lon="-81.73878646294412">
        <ele>265.9596670720</ele>
        <time>2026-06-22T06:57:35Z</time>
      </trkpt>
      <trkpt lat="41.40265299485487" lon="-81.73878025670349">
        <ele>266.5926752024</ele>
        <time>2026-06-22T06:58:24Z</time>
      </trkpt>
      <trkpt lat="41.40223706026433" lon="-81.73878041916741">
        <ele>267.0417051023</ele>
        <time>2026-06-22T06:59:00Z</time>
      </trkpt>
      <trkpt lat="41.40224014154795" lon="-81.73818726038736">
        <ele>266.8800847586</ele>
        <time>2026-06-22T06:59:43Z</time>
      </trkpt>
      <trkpt lat="41.40223444794012" lon="-81.73758762194666">
        <ele>266.8966295412</ele>
        <time>2026-06-22T07:00:37Z</time>
      </trkpt>
      <trkpt lat="41.40223608106157" lon="-81.73698150411691">
        <ele>267.1933949618</ele>
        <time>2026-06-22T07:01:25Z</time>
      </trkpt>
      <trkpt lat="41.40222926043045" lon="-81.73637491719022">
        <ele>267.0674492006</ele>
        <time>2026-06-22T07:02:00Z</time>
      </trkpt>
      <trkpt lat="41.40223703723677" lon="-81.73578375578310">
        <ele>267.1786921908</ele>
        <time>2026-06-22T07:02:51Z</time>
      </trkpt>
      <trkpt lat="41.40222722369550" lon="-81.73517674377044">
        <ele>267.1823260724</ele>
        <time>2026-06-22T07:03:34Z</time>
      </trkpt>
      <trkpt lat="41.40221379659872" lon="-81.73465497122524">
        <ele>267.0773001752</ele>
        <time>2026-06-22T07:04:06Z</time>
      </trkpt>
      <trkpt lat="41.40176799847197" lon="-81.73464214796989">
        <ele>267.2424196565</ele>
        <time>2026-06-22T07:04:44Z</time>
      </trkpt>
      <trkpt lat="41.40132126809394" lon="-81.73463005391869">
        <ele>267.3581588469</ele>
        <time>2026-06-22T07:05:26Z</time>
      </trkpt>
      <trkpt lat="41.40130309727513" lon="-81.73464020914815">
        <ele>267.4149446854</ele>
        <time>2026-06-22T07:05:28Z</time>
      </trkpt>
      <trkpt lat="41.40132122178509" lon="-81.73523564206170">
        <ele>267.9076295544</ele>
        <time>2026-06-22T07:06:00Z</time>
      </trkpt>
      <trkpt lat="41.40131887765929" lon="-81.73583061893561">
        <ele>268.4214333832</ele>
        <time>2026-06-22T07:06:36Z</time>
      </trkpt>
      <trkpt lat="41.40132331339298" lon="-81.73643295104362">
        <ele>268.1218288149</ele>
        <time>2026-06-22T07:07:24Z</time>
      </trkpt>
      <trkpt lat="41.40132586230386" lon="-81.73703702387100">
        <ele>268.1254286712</ele>
        <time>2026-06-22T07:07:58Z</time>
      </trkpt>
      <trkpt lat="41.40132949666680" lon="-81.73763132448956">
        <ele>267.9232143630</ele>
        <time>2026-06-22T07:09:22Z</time>
      </trkpt>
      <trkpt lat="41.40133886139877" lon="-81.73823499218344">
        <ele>267.5139131878</ele>
        <time>2026-06-22T07:10:04Z</time>
      </trkpt>
      <trkpt lat="41.40134417282926" lon="-81.73883084605352">
        <ele>267.6174619528</ele>
        <time>2026-06-22T07:10:44Z</time>
      </trkpt>
      <trkpt lat="41.40134451245653" lon="-81.73943356373537">
        <ele>267.0218164401</ele>
        <time>2026-06-22T07:11:28Z</time>
      </trkpt>
      <trkpt lat="41.40134700122394" lon="-81.74002719705796">
        <ele>266.5592569516</ele>
        <time>2026-06-22T07:12:15Z</time>
      </trkpt>
      <trkpt lat="41.40134311817680" lon="-81.74015785359042">
        <ele>266.4697613016</ele>
        <time>2026-06-22T07:12:26Z</time>
      </trkpt>
    </trkseg>
  </trk>
</gpx>