<?xml version='1.0' encoding='UTF-8'?>
<gpx xmlns="http://www.topografix.com/GPX/1/1" creator="https://gpx.studio" version="1.1">
  <metadata>
    <name>Dog Walk - 2026-09-10 #4</name>
  </metadata>
  <trk>
    <name>Dog Walk - 2026-09-10 #4</name>
    <type>dog walk</type>
    <trkseg>
      <trkpt lat="41.40133945769744" lon="-81.74024518275762">
        <ele>266.2612430467</ele>
        <time>2026-09-10T15:54:10Z</time>
      </trkpt>
      <trkpt lat="41.40134123572010" lon="-81.74083187903611">
        <ele>266.1019087810</ele>
        <time>2026-09-10T15:54:48Z</time>
      </trkpt>
      <trkpt lat="41.40134810452356" lon="-81.74143450442159">
        <ele>265.7746220720</ele>
        <time>2026-09-10T15:55:40Z</time>
      </trkpt>
      <trkpt lat="41.40135433959212" lon="-81.74203879841579">
        <ele>265.2429808323</ele>
        <time>2026-09-10T15:56:22Z</time>
      </trkpt>
      <trkpt lat="41.40134283143822" lon="-81.74241633183009">
        <ele>264.7352587622</ele>
        <time>2026-09-10T15:56:44Z</time>
      </trkpt>
      <trkpt lat="41.40176550101808" lon="-81.74263148416260">
        <ele>264.5730353200</ele>
        <time>2026-09-10T15:57:24Z</time>
      </trkpt>
      <trkpt lat="41.40218347264803" lon="-81.74285518274880">
        <ele>263.5176963463</ele>
        <time>2026-09-10T15:58:21Z</time>
      </trkpt>
      <trkpt lat="41.40221520176547" lon="-81.74286829480944">
        <ele>263.3434824080</ele>
        <time>2026-09-10T15:58:24Z</time>
      </trkpt>
      <trkpt lat="41.40220884815350" lon="-81.74226085285196">
        <ele>264.2984777860</ele>
        <time>2026-09-10T15:59:12Z</time>
      </trkpt>
      <trkpt lat="41.40220937732117" lon="-81.74166232223800">
        <ele>264.8203854234</ele>
        <time>2026-09-10T15:59:54Z</time>
      </trkpt>
      <trkpt lat="41.40222343429870" lon="-81.74107063693994">
        <ele>265.2697434492</ele>
        <time>2026-09-10T16:00:40Z</time>
      </trkpt>
      <trkpt lat="41.40222374405295" lon="-81.74047115006896">
        <ele>266.1602182052</ele>
        <time>2026-09-10T16:01:12Z</time>
      </trkpt>
      <trkpt lat="41.40222340139186" lon="-81.73986826030020">
        <ele>266.6327486944</ele>
        <time>2026-09-10T16:01:43Z</time>
      </trkpt>
      <trkpt lat="41.40222279300491" lon="-81.73927261044285">
        <ele>267.0416483312</ele>
        <time>2026-09-10T16:02:18Z</time>
      </trkpt>
      <trkpt lat="41.40221956652396" lon="-81.73866753333216">
        <ele>267.2785372700</ele>
        <time>2026-09-10T16:02:57Z</time>
      </trkpt>
      <trkpt lat="41.40221974218581" lon="-81.73827155454418">
        <ele>267.1329859811</ele>
        <time>2026-09-10T16:03:29Z</time>
      </trkpt>
      <trkpt lat="41.40177681872289" lon="-81.73826474499235">
        <ele>267.6039713432</ele>
        <time>2026-09-10T16:04:03Z</time>
      </trkpt>
      <trkpt lat="41.40134220855954" lon="-81.73825820222508">
        <ele>267.6478841158</ele>
        <time>2026-09-10T16:04:36Z</time>
      </trkpt>
      <trkpt lat="41.40134295066709" lon="-81.73886722734846">
        <ele>267.2383992937</ele>
        <time>2026-09-10T16:05:12Z</time>
      </trkpt>
      <trkpt lat="41.40133662224280" lon="-81.73946279389010">
        <ele>267.1282691962</ele>
        <time>2026-09-10T16:05:46Z</time>
      </trkpt>
      <trkpt lat="41.40134044214893" lon="-81.74005293255955">
        <ele>266.3810958193</ele>
        <time>2026-09-10T16:06:33Z</time>
      </trkpt>
      <trkpt lat="41.40133484905931" lon="-81.74019347726529">
        <ele>266.4079073699</ele>
        <time>2026-09-10T16:06:43Z</time>
      </trkpt>
    </trkseg>
  </trk>
</gpx>