<?xml version='1.0' encoding='UTF-8'?>
<gpx xmlns="http://www.topografix.com/GPX/1/1" creator="https://gpx.studio" version="1.1">
  <metadata>
    <name>Dog Walk - 2026-06-13</name>
  </metadata>
  <trk>
    <name>Dog Walk - 2026-06-13</name>
    <type>dog walk</type>
    <trkseg>
      <trkpt lat="41.40134328573654" lon="-81.74022820576758">
        <ele>266.5311737667</ele>
        <time>2026-06-13T15:15:02Z</time>
      </trkpt>
      <trkpt lat="41.40134163290121" lon="-81.74083439993251">
        <ele>266.2464131616</ele>
        <time>2026-06-13T15:15:36Z</time>
      </trkpt>
      <trkpt lat="41.40134770596543" lon="-81.74142337964882">
        <ele>265.8348777207</ele>
        <time>2026-06-13T15:16:13Z</time>
      </trkpt>
      <trkpt lat="41.40135254443792" lon="-81.74202371989068">
        <ele>265.1151552036</ele>
        <time>2026-06-13T15:17:06Z</time>
      </trkpt>
      <trkpt lat="41.40134113060516" lon="-81.74241950501776">
        <ele>264.5968135562</ele>
        <time>2026-06-13T15:17:33Z</time>
      </trkpt>
      <trkpt lat="41.40177109647061" lon="-81.74262870669143">
        <ele>264.1438104741</ele>
        <time>2026-06-13T15:18:22Z</time>
      </trkpt>
      <trkpt lat="41.40219524254402" lon="-81.74284170588595">
        <ele>263.3941713083</ele>
        <time>2026-06-13T15:19:09Z</time>
      </trkpt>
      <trkpt lat="41.40261253503104" lon="-81.74305510447955">
        <ele>262.8295505963</ele>
        <time>2026-06-13T15:19:46Z</time>
      </trkpt>
      <trkpt lat="41.40303857976014" lon="-81.74327418781361">
        <ele>262.4677694279</ele>
        <time>2026-06-13T15:20:21Z</time>
      </trkpt>
      <trkpt lat="41.40345189558011" lon="-81.74349443253072">
        <ele>261.9603499688</ele>
        <time>2026-06-13T15:20:59Z</time>
      </trkpt>
      <trkpt lat="41.40349371177334" lon="-81.74349958284698">
        <ele>261.7185500894</ele>
        <time>2026-06-13T15:21:02Z</time>
      </trkpt>
      <trkpt lat="41.40359454990990" lon="-81.74351731415044">
        <ele>261.6304199895</ele>
        <time>2026-06-13T15:21:12Z</time>
      </trkpt>
      <trkpt lat="41.40399304226486" lon="-81.74351881942206">
        <ele>260.7951780404</ele>
        <time>2026-06-13T15:21:56Z</time>
      </trkpt>
      <trkpt lat="41.40398731310953" lon="-81.74289992119041">
        <ele>261.5556473848</ele>
        <time>2026-06-13T15:22:32Z</time>
      </trkpt>
      <trkpt lat="41.40399344766752" lon="-81.74230227155076">
        <ele>262.2248690312</ele>
        <time>2026-06-13T15:23:14Z</time>
      </trkpt>
      <trkpt lat="41.40399356774004" lon="-81.74171045397097">
        <ele>262.5476417967</ele>
        <time>2026-06-13T15:24:13Z</time>
      </trkpt>
      <trkpt lat="41.40399215407552" lon="-81.74110667522959">
        <ele>262.9005738443</ele>
        <time>2026-06-13T15:24:54Z</time>
      </trkpt>
      <trkpt lat="41.40399455537710" lon="-81.74051440567537">
        <ele>263.4996815229</ele>
        <time>2026-06-13T15:25:34Z</time>
      </trkpt>
      <trkpt lat="41.40399396524032" lon="-81.73992401656896">
        <ele>264.1732988983</ele>
        <time>2026-06-13T15:26:25Z</time>
      </trkpt>
      <trkpt lat="41.40398798657675" lon="-81.73931192848343">
        <ele>264.9277963470</ele>
        <time>2026-06-13T15:27:08Z</time>
      </trkpt>
      <trkpt lat="41.40398897783854" lon="-81.73877656631454">
        <ele>265.5563752788</ele>
        <time>2026-06-13T15:27:35Z</time>
      </trkpt>
      <trkpt lat="41.40353537687946" lon="-81.73878279464245">
        <ele>265.8017895180</ele>
        <time>2026-06-13T15:28:19Z</time>
      </trkpt>
      <trkpt lat="41.40308809627376" lon="-81.73877629505414">
        <ele>266.0398979828</ele>
        <time>2026-06-13T15:29:06Z</time>
      </trkpt>
      <trkpt lat="41.40264300421176" lon="-81.73877903173654">
        <ele>266.7136830299</ele>
        <time>2026-06-13T15:29:50Z</time>
      </trkpt>
      <trkpt lat="41.40223558763614" lon="-81.73877427109817">
        <ele>267.0829748310</ele>
        <time>2026-06-13T15:30:28Z</time>
      </trkpt>
      <trkpt lat="41.40221881653156" lon="-81.73827160339859">
        <ele>267.0926943686</ele>
        <time>2026-06-13T15:31:17Z</time>
      </trkpt>
      <trkpt lat="41.40176173197543" lon="-81.73826551106174">
        <ele>267.6610072187</ele>
        <time>2026-06-13T15:31:58Z</time>
      </trkpt>
      <trkpt lat="41.40133178463617" lon="-81.73827151959851">
        <ele>267.7773095578</ele>
        <time>2026-06-13T15:32:42Z</time>
      </trkpt>
      <trkpt lat="41.40134175308714" lon="-81.73886336507795">
        <ele>267.3215950509</ele>
        <time>2026-06-13T15:33:46Z</time>
      </trkpt>
      <trkpt lat="41.40133244988107" lon="-81.73946917916204">
        <ele>267.2484493709</ele>
        <time>2026-06-13T15:34:42Z</time>
      </trkpt>
      <trkpt lat="41.40133735729232" lon="-81.74007073420360">
        <ele>266.6263341672</ele>
        <time>2026-06-13T15:35:31Z</time>
      </trkpt>
      <trkpt lat="41.40133384338424" lon="-81.74020097335652">
        <ele>266.6529838490</ele>
        <time>2026-06-13T15:35:39Z</time>
      </trkpt>
    </trkseg>
  </trk>
</gpx>