<?xml version='1.0' encoding='UTF-8'?>
<gpx xmlns="http://www.topografix.com/GPX/1/1" creator="https://gpx.studio" version="1.1">
  <metadata>
    <name>Dog Walk - 2026-04-14 #1</name>
  </metadata>
  <trk>
    <name>Dog Walk - 2026-04-14 #1</name>
    <type>dog walk</type>
    <trkseg>
      <trkpt lat="41.40132922141472" lon="-81.74024085817784">
        <ele>266.5733603555</ele>
        <time>2026-04-14T10:15:18Z</time>
      </trkpt>
      <trkpt lat="41.40133069780257" lon="-81.74083833669216">
        <ele>266.1720832032</ele>
        <time>2026-04-14T10:16:06Z</time>
      </trkpt>
      <trkpt lat="41.40132831658460" lon="-81.74143610062781">
        <ele>265.8159288365</ele>
        <time>2026-04-14T10:16:48Z</time>
      </trkpt>
      <trkpt lat="41.40133482058884" lon="-81.74202847380869">
        <ele>265.3664538283</ele>
        <time>2026-04-14T10:17:27Z</time>
      </trkpt>
      <trkpt lat="41.40132773032511" lon="-81.74239042283747">
        <ele>264.6532006404</ele>
        <time>2026-04-14T10:18:03Z</time>
      </trkpt>
      <trkpt lat="41.40090312176063" lon="-81.74219498799508">
        <ele>265.2270512917</ele>
        <time>2026-04-14T10:18:34Z</time>
      </trkpt>
      <trkpt lat="41.40048112176716" lon="-81.74199964824138">
        <ele>265.2386938157</ele>
        <time>2026-04-14T10:19:07Z</time>
      </trkpt>
      <trkpt lat="41.40005255471004" lon="-81.74180678477421">
        <ele>265.4804527403</ele>
        <time>2026-04-14T10:19:42Z</time>
      </trkpt>
      <trkpt lat="41.39962932151323" lon="-81.74162183905639">
        <ele>264.8047652970</ele>
        <time>2026-04-14T10:20:17Z</time>
      </trkpt>
      <trkpt lat="41.39952956150138" lon="-81.74157135125655">
        <ele>264.8562703927</ele>
        <time>2026-04-14T10:20:26Z</time>
      </trkpt>
      <trkpt lat="41.39953545814168" lon="-81.74097649705587">
        <ele>265.7245164834</ele>
        <time>2026-04-14T10:21:03Z</time>
      </trkpt>
      <trkpt lat="41.39953304111471" lon="-81.74036887017326">
        <ele>266.1876892920</ele>
        <time>2026-04-14T10:21:49Z</time>
      </trkpt>
      <trkpt lat="41.39953253732487" lon="-81.73977972603295">
        <ele>266.5117790313</ele>
        <time>2026-04-14T10:22:40Z</time>
      </trkpt>
      <trkpt lat="41.39953314918145" lon="-81.73916787904362">
        <ele>266.8866723326</ele>
        <time>2026-04-14T10:23:37Z</time>
      </trkpt>
      <trkpt lat="41.39953005641328" lon="-81.73857097982854">
        <ele>266.8544515027</ele>
        <time>2026-04-14T10:24:13Z</time>
      </trkpt>
      <trkpt lat="41.39953366324053" lon="-81.73797671163975">
        <ele>267.2063066429</ele>
        <time>2026-04-14T10:24:57Z</time>
      </trkpt>
      <trkpt lat="41.39954258605508" lon="-81.73737182681973">
        <ele>267.1665017862</ele>
        <time>2026-04-14T10:25:37Z</time>
      </trkpt>
      <trkpt lat="41.39952576476900" lon="-81.73677965660856">
        <ele>267.4270009116</ele>
        <time>2026-04-14T10:26:21Z</time>
      </trkpt>
      <trkpt lat="41.39953072693330" lon="-81.73617422374586">
        <ele>267.4535814089</ele>
        <time>2026-04-14T10:27:02Z</time>
      </trkpt>
      <trkpt lat="41.39953112602760" lon="-81.73557864034881">
        <ele>267.2678509753</ele>
        <time>2026-04-14T10:27:44Z</time>
      </trkpt>
      <trkpt lat="41.39953173704438" lon="-81.73498355530475">
        <ele>267.3056841867</ele>
        <time>2026-04-14T10:28:26Z</time>
      </trkpt>
      <trkpt lat="41.39952649996514" lon="-81.73460911640059">
        <ele>267.0511005355</ele>
        <time>2026-04-14T10:28:58Z</time>
      </trkpt>
      <trkpt lat="41.39997578400544" lon="-81.73462106505336">
        <ele>267.2473711859</ele>
        <time>2026-04-14T10:29:36Z</time>
      </trkpt>
      <trkpt lat="41.40042490600896" lon="-81.73462467483557">
        <ele>267.0569166206</ele>
        <time>2026-04-14T10:30:27Z</time>
      </trkpt>
      <trkpt lat="41.40086637024216" lon="-81.73462812183240">
        <ele>267.2455732241</ele>
        <time>2026-04-14T10:31:15Z</time>
      </trkpt>
      <trkpt lat="41.40132202922648" lon="-81.73464410833725">
        <ele>267.2244766661</ele>
        <time>2026-04-14T10:31:46Z</time>
      </trkpt>
      <trkpt lat="41.40132939534912" lon="-81.73524090638576">
        <ele>268.0144547514</ele>
        <time>2026-04-14T10:32:21Z</time>
      </trkpt>
      <trkpt lat="41.40132011514032" lon="-81.73584114220041">
        <ele>268.1626655951</ele>
        <time>2026-04-14T10:32:53Z</time>
      </trkpt>
      <trkpt lat="41.40132312750174" lon="-81.73643012761526">
        <ele>268.1983708209</ele>
        <time>2026-04-14T10:33:34Z</time>
      </trkpt>
      <trkpt lat="41.40132661305248" lon="-81.73704769032905">
        <ele>267.9686335332</ele>
        <time>2026-04-14T10:34:21Z</time>
      </trkpt>
      <trkpt lat="41.40132663127957" lon="-81.73762549371719">
        <ele>268.0360380920</ele>
        <time>2026-04-14T10:35:05Z</time>
      </trkpt>
      <trkpt lat="41.40132173719577" lon="-81.73823678178498">
        <ele>267.4808932715</ele>
        <time>2026-04-14T10:35:51Z</time>
      </trkpt>
      <trkpt lat="41.40133235238649" lon="-81.73883181980041">
        <ele>267.4338881810</ele>
        <time>2026-04-14T10:36:28Z</time>
      </trkpt>
      <trkpt lat="41.40132953614462" lon="-81.73943725908276">
        <ele>267.1269172541</ele>
        <time>2026-04-14T10:37:09Z</time>
      </trkpt>
      <trkpt lat="41.40133006728472" lon="-81.74003677819890">
        <ele>266.6442067420</ele>
        <time>2026-04-14T10:38:14Z</time>
      </trkpt>
      <trkpt lat="41.40133516185902" lon="-81.74021470342504">
        <ele>266.4647641771</ele>
        <time>2026-04-14T10:38:25Z</time>
      </trkpt>
    </trkseg>
  </trk>
</gpx>