<?xml version='1.0' encoding='UTF-8'?>
<gpx xmlns="http://www.topografix.com/GPX/1/1" creator="https://gpx.studio" version="1.1">
  <metadata>
    <name>Dog Walk - 2026-05-05 #5</name>
  </metadata>
  <trk>
    <name>Dog Walk - 2026-05-05 #5</name>
    <type>dog walk</type>
    <trkseg>
      <trkpt lat="41.40133468516475" lon="-81.74025202382957">
        <ele>266.6759697011</ele>
        <time>2026-05-05T19:06:33Z</time>
      </trkpt>
      <trkpt lat="41.40133653399277" lon="-81.74026588527866">
        <ele>266.4024005879</ele>
        <time>2026-05-05T19:06:34Z</time>
      </trkpt>
      <trkpt lat="41.40132483194272" lon="-81.74085205974018">
        <ele>266.4375515436</ele>
        <time>2026-05-05T19:07:27Z</time>
      </trkpt>
      <trkpt lat="41.40131949512114" lon="-81.74145333446532">
        <ele>265.6528607216</ele>
        <time>2026-05-05T19:08:06Z</time>
      </trkpt>
      <trkpt lat="41.40132220314584" lon="-81.74205615755754">
        <ele>265.2316486372</ele>
        <time>2026-05-05T19:08:52Z</time>
      </trkpt>
      <trkpt lat="41.40132888057105" lon="-81.74237092496479">
        <ele>264.8373917045</ele>
        <time>2026-05-05T19:09:13Z</time>
      </trkpt>
      <trkpt lat="41.40132087248551" lon="-81.74238069093306">
        <ele>264.6427794244</ele>
        <time>2026-05-05T19:09:19Z</time>
      </trkpt>
      <trkpt lat="41.40089576593518" lon="-81.74218777825133">
        <ele>265.2316712475</ele>
        <time>2026-05-05T19:09:57Z</time>
      </trkpt>
      <trkpt lat="41.40047307308136" lon="-81.74198998438955">
        <ele>265.3898737268</ele>
        <time>2026-05-05T19:10:30Z</time>
      </trkpt>
      <trkpt lat="41.40004704296140" lon="-81.74180022467849">
        <ele>265.3317088331</ele>
        <time>2026-05-05T19:11:18Z</time>
      </trkpt>
      <trkpt lat="41.39961814289568" lon="-81.74160059994243">
        <ele>264.7327887590</ele>
        <time>2026-05-05T19:12:08Z</time>
      </trkpt>
      <trkpt lat="41.39955242574269" lon="-81.74157664625925">
        <ele>264.7593052474</ele>
        <time>2026-05-05T19:12:22Z</time>
      </trkpt>
      <trkpt lat="41.39954277121490" lon="-81.74097686198036">
        <ele>265.7868667089</ele>
        <time>2026-05-05T19:13:12Z</time>
      </trkpt>
      <trkpt lat="41.39954297172933" lon="-81.74036797268144">
        <ele>266.1130353101</ele>
        <time>2026-05-05T19:14:04Z</time>
      </trkpt>
      <trkpt lat="41.39954407111879" lon="-81.73976763467422">
        <ele>266.4277280643</ele>
        <time>2026-05-05T19:14:39Z</time>
      </trkpt>
      <trkpt lat="41.39952754759062" lon="-81.73917564538516">
        <ele>266.8730498743</ele>
        <time>2026-05-05T19:15:18Z</time>
      </trkpt>
      <trkpt lat="41.39953020253935" lon="-81.73857572292970">
        <ele>266.6077019131</ele>
        <time>2026-05-05T19:16:03Z</time>
      </trkpt>
      <trkpt lat="41.39953383744547" lon="-81.73828539024576">
        <ele>266.7845201090</ele>
        <time>2026-05-05T19:16:25Z</time>
      </trkpt>
      <trkpt lat="41.39953786411692" lon="-81.73828939805644">
        <ele>266.7972751749</ele>
        <time>2026-05-05T19:16:26Z</time>
      </trkpt>
      <trkpt lat="41.39997903375729" lon="-81.73828969797358">
        <ele>267.1911729804</ele>
        <time>2026-05-05T19:17:06Z</time>
      </trkpt>
      <trkpt lat="41.40044047208147" lon="-81.73829119997048">
        <ele>267.2451498841</ele>
        <time>2026-05-05T19:17:53Z</time>
      </trkpt>
      <trkpt lat="41.40087408284044" lon="-81.73830649673044">
        <ele>267.5417223812</ele>
        <time>2026-05-05T19:18:40Z</time>
      </trkpt>
      <trkpt lat="41.40132337700518" lon="-81.73830478934002">
        <ele>267.3899647695</ele>
        <time>2026-05-05T19:19:25Z</time>
      </trkpt>
      <trkpt lat="41.40133558219787" lon="-81.73891271774080">
        <ele>267.3042582236</ele>
        <time>2026-05-05T19:20:04Z</time>
      </trkpt>
      <trkpt lat="41.40133598081145" lon="-81.73950546704198">
        <ele>267.1149450697</ele>
        <time>2026-05-05T19:20:46Z</time>
      </trkpt>
      <trkpt lat="41.40134189733100" lon="-81.74009609288015">
        <ele>266.5944965935</ele>
        <time>2026-05-05T19:21:40Z</time>
      </trkpt>
      <trkpt lat="41.40133542053509" lon="-81.74015439224124">
        <ele>266.6974424836</ele>
        <time>2026-05-05T19:21:43Z</time>
      </trkpt>
    </trkseg>
  </trk>
</gpx>