<?xml version='1.0' encoding='UTF-8'?>
<gpx xmlns="http://www.topografix.com/GPX/1/1" creator="https://gpx.studio" version="1.1">
  <metadata>
    <name>Dog Walk - 2026-05-18 #3</name>
  </metadata>
  <trk>
    <name>Dog Walk - 2026-05-18 #3</name>
    <type>dog walk</type>
    <trkseg>
      <trkpt lat="41.40133489575262" lon="-81.74023736348502">
        <ele>266.3101626551</ele>
        <time>2026-05-18T18:21:34Z</time>
      </trkpt>
      <trkpt lat="41.40134202604894" lon="-81.74084224998724">
        <ele>266.2235930434</ele>
        <time>2026-05-18T18:22:05Z</time>
      </trkpt>
      <trkpt lat="41.40135010750695" lon="-81.74142412379140">
        <ele>265.4827717492</ele>
        <time>2026-05-18T18:22:47Z</time>
      </trkpt>
      <trkpt lat="41.40134133130195" lon="-81.74203502858175">
        <ele>265.4512099311</ele>
        <time>2026-05-18T18:23:27Z</time>
      </trkpt>
      <trkpt lat="41.40134780061128" lon="-81.74242175386415">
        <ele>264.6394141748</ele>
        <time>2026-05-18T18:23:47Z</time>
      </trkpt>
      <trkpt lat="41.40176844014301" lon="-81.74262454698025">
        <ele>264.2692810477</ele>
        <time>2026-05-18T18:24:25Z</time>
      </trkpt>
      <trkpt lat="41.40219715279096" lon="-81.74284758906633">
        <ele>263.5156703948</ele>
        <time>2026-05-18T18:25:04Z</time>
      </trkpt>
      <trkpt lat="41.40221945598639" lon="-81.74286506460281">
        <ele>263.4809833411</ele>
        <time>2026-05-18T18:25:06Z</time>
      </trkpt>
      <trkpt lat="41.40222021000538" lon="-81.74226678242036">
        <ele>264.2560737570</ele>
        <time>2026-05-18T18:25:43Z</time>
      </trkpt>
      <trkpt lat="41.40221053206846" lon="-81.74166218711265">
        <ele>264.6114398973</ele>
        <time>2026-05-18T18:26:24Z</time>
      </trkpt>
      <trkpt lat="41.40222333654132" lon="-81.74106148597001">
        <ele>265.4043867485</ele>
        <time>2026-05-18T18:26:57Z</time>
      </trkpt>
      <trkpt lat="41.40222433079607" lon="-81.74047544466154">
        <ele>266.2320506788</ele>
        <time>2026-05-18T18:27:42Z</time>
      </trkpt>
      <trkpt lat="41.40222088399223" lon="-81.73986398021194">
        <ele>266.4249197950</ele>
        <time>2026-05-18T18:28:28Z</time>
      </trkpt>
      <trkpt lat="41.40221568033780" lon="-81.73926642250046">
        <ele>266.7896346979</ele>
        <time>2026-05-18T18:29:13Z</time>
      </trkpt>
      <trkpt lat="41.40222030637415" lon="-81.73867043243659">
        <ele>267.4584607492</ele>
        <time>2026-05-18T18:29:47Z</time>
      </trkpt>
      <trkpt lat="41.40221907397426" lon="-81.73826174031402">
        <ele>267.1470168891</ele>
        <time>2026-05-18T18:30:13Z</time>
      </trkpt>
      <trkpt lat="41.40176532769910" lon="-81.73826414549316">
        <ele>267.6283555324</ele>
        <time>2026-05-18T18:30:48Z</time>
      </trkpt>
      <trkpt lat="41.40133880300236" lon="-81.73826037133493">
        <ele>267.3988349594</ele>
        <time>2026-05-18T18:31:33Z</time>
      </trkpt>
      <trkpt lat="41.40134235753905" lon="-81.73886220529347">
        <ele>267.2786570039</ele>
        <time>2026-05-18T18:32:17Z</time>
      </trkpt>
      <trkpt lat="41.40133542552294" lon="-81.73946786350544">
        <ele>267.1615033120</ele>
        <time>2026-05-18T18:33:03Z</time>
      </trkpt>
      <trkpt lat="41.40133729899539" lon="-81.74005649728663">
        <ele>266.6665766080</ele>
        <time>2026-05-18T18:33:39Z</time>
      </trkpt>
      <trkpt lat="41.40134144556129" lon="-81.74018265047904">
        <ele>266.4523026521</ele>
        <time>2026-05-18T18:33:46Z</time>
      </trkpt>
    </trkseg>
  </trk>
</gpx>