<?xml version='1.0' encoding='UTF-8'?>
<gpx xmlns="http://www.topografix.com/GPX/1/1" creator="https://gpx.studio" version="1.1">
  <metadata>
    <name>Dog Walk - 2026-09-13 #1</name>
  </metadata>
  <trk>
    <name>Dog Walk - 2026-09-13 #1</name>
    <type>dog walk</type>
    <trkseg>
      <trkpt lat="41.40133414589134" lon="-81.74025902933307">
        <ele>266.4487627307</ele>
        <time>2026-09-13T10:26:46Z</time>
      </trkpt>
      <trkpt lat="41.40133174942083" lon="-81.74025993165696">
        <ele>266.4751182742</ele>
        <time>2026-09-13T10:26:47Z</time>
      </trkpt>
      <trkpt lat="41.40132423209282" lon="-81.74084684178186">
        <ele>266.2783132761</ele>
        <time>2026-09-13T10:27:24Z</time>
      </trkpt>
      <trkpt lat="41.40132633726286" lon="-81.74146127851027">
        <ele>265.7771261168</ele>
        <time>2026-09-13T10:28:10Z</time>
      </trkpt>
      <trkpt lat="41.40132778401244" lon="-81.74205305106786">
        <ele>265.3619258355</ele>
        <time>2026-09-13T10:28:54Z</time>
      </trkpt>
      <trkpt lat="41.40132484320862" lon="-81.74236732946449">
        <ele>264.7688941930</ele>
        <time>2026-09-13T10:29:16Z</time>
      </trkpt>
      <trkpt lat="41.40131927736877" lon="-81.74237762056123">
        <ele>264.7067842781</ele>
        <time>2026-09-13T10:29:17Z</time>
      </trkpt>
      <trkpt lat="41.40089513681734" lon="-81.74217619074713">
        <ele>265.1491087221</ele>
        <time>2026-09-13T10:29:59Z</time>
      </trkpt>
      <trkpt lat="41.40047500947810" lon="-81.74199260334237">
        <ele>265.0511910632</ele>
        <time>2026-09-13T10:30:53Z</time>
      </trkpt>
      <trkpt lat="41.40004679075360" lon="-81.74179808581162">
        <ele>265.4989867946</ele>
        <time>2026-09-13T10:31:32Z</time>
      </trkpt>
      <trkpt lat="41.39961786467315" lon="-81.74160406247293">
        <ele>264.6156148941</ele>
        <time>2026-09-13T10:32:06Z</time>
      </trkpt>
      <trkpt lat="41.39954420309256" lon="-81.74157210743232">
        <ele>264.6520583634</ele>
        <time>2026-09-13T10:32:15Z</time>
      </trkpt>
      <trkpt lat="41.39954157232557" lon="-81.74096551625689">
        <ele>265.8021989147</ele>
        <time>2026-09-13T10:32:51Z</time>
      </trkpt>
      <trkpt lat="41.39953882766316" lon="-81.74037242523659">
        <ele>266.1584117584</ele>
        <time>2026-09-13T10:33:46Z</time>
      </trkpt>
      <trkpt lat="41.39953014425782" lon="-81.73977534008927">
        <ele>266.4459268599</ele>
        <time>2026-09-13T10:34:22Z</time>
      </trkpt>
      <trkpt lat="41.39953085963965" lon="-81.73916678607594">
        <ele>266.7288100929</ele>
        <time>2026-09-13T10:35:04Z</time>
      </trkpt>
      <trkpt lat="41.39953326033168" lon="-81.73857817852989">
        <ele>266.7467347764</ele>
        <time>2026-09-13T10:35:43Z</time>
      </trkpt>
      <trkpt lat="41.39953251077551" lon="-81.73830325649124">
        <ele>267.0747640398</ele>
        <time>2026-09-13T10:35:59Z</time>
      </trkpt>
      <trkpt lat="41.39953501706162" lon="-81.73829935807582">
        <ele>267.1916817749</ele>
        <time>2026-09-13T10:36:00Z</time>
      </trkpt>
      <trkpt lat="41.39998320916510" lon="-81.73830075419839">
        <ele>267.1605302384</ele>
        <time>2026-09-13T10:36:41Z</time>
      </trkpt>
      <trkpt lat="41.40042876738682" lon="-81.73830480988757">
        <ele>267.3498627001</ele>
        <time>2026-09-13T10:37:16Z</time>
      </trkpt>
      <trkpt lat="41.40088730266550" lon="-81.73829498576097">
        <ele>267.4911327387</ele>
        <time>2026-09-13T10:37:43Z</time>
      </trkpt>
      <trkpt lat="41.40131888039306" lon="-81.73831190443062">
        <ele>267.6528378256</ele>
        <time>2026-09-13T10:38:21Z</time>
      </trkpt>
      <trkpt lat="41.40132582874700" lon="-81.73890851701861">
        <ele>267.3419516407</ele>
        <time>2026-09-13T10:39:03Z</time>
      </trkpt>
      <trkpt lat="41.40133179614576" lon="-81.73950280021218">
        <ele>267.0785002753</ele>
        <time>2026-09-13T10:39:51Z</time>
      </trkpt>
      <trkpt lat="41.40134567276382" lon="-81.74009201692282">
        <ele>266.6362079576</ele>
        <time>2026-09-13T10:40:32Z</time>
      </trkpt>
      <trkpt lat="41.40133594155696" lon="-81.74015655406247">
        <ele>266.6229694864</ele>
        <time>2026-09-13T10:40:36Z</time>
      </trkpt>
    </trkseg>
  </trk>
</gpx>