<?xml version='1.0' encoding='UTF-8'?>
<gpx xmlns="http://www.topografix.com/GPX/1/1" creator="https://gpx.studio" version="1.1">
  <metadata>
    <name>Dog Walk - 2026-08-22 #3</name>
  </metadata>
  <trk>
    <name>Dog Walk - 2026-08-22 #3</name>
    <type>dog walk</type>
    <trkseg>
      <trkpt lat="41.40133722822009" lon="-81.74024101081486">
        <ele>266.5162659723</ele>
        <time>2026-08-22T14:35:34Z</time>
      </trkpt>
      <trkpt lat="41.40135272441930" lon="-81.74082872398454">
        <ele>266.1881042540</ele>
        <time>2026-08-22T14:36:18Z</time>
      </trkpt>
      <trkpt lat="41.40134369109128" lon="-81.74143235067272">
        <ele>265.8924461832</ele>
        <time>2026-08-22T14:36:58Z</time>
      </trkpt>
      <trkpt lat="41.40134494117588" lon="-81.74203182093447">
        <ele>265.2739470816</ele>
        <time>2026-08-22T14:37:54Z</time>
      </trkpt>
      <trkpt lat="41.40135117713511" lon="-81.74241588020053">
        <ele>264.5604049690</ele>
        <time>2026-08-22T14:38:23Z</time>
      </trkpt>
      <trkpt lat="41.40177016432835" lon="-81.74263956251914">
        <ele>264.2118040896</ele>
        <time>2026-08-22T14:39:04Z</time>
      </trkpt>
      <trkpt lat="41.40218376505393" lon="-81.74285334350995">
        <ele>263.5260394898</ele>
        <time>2026-08-22T14:39:47Z</time>
      </trkpt>
      <trkpt lat="41.40221527234505" lon="-81.74286466575094">
        <ele>263.5726290085</ele>
        <time>2026-08-22T14:39:52Z</time>
      </trkpt>
      <trkpt lat="41.40222110117267" lon="-81.74227099340544">
        <ele>264.2873233566</ele>
        <time>2026-08-22T14:40:26Z</time>
      </trkpt>
      <trkpt lat="41.40221405738036" lon="-81.74166708292314">
        <ele>264.5278292589</ele>
        <time>2026-08-22T14:41:04Z</time>
      </trkpt>
      <trkpt lat="41.40221980136695" lon="-81.74107019645768">
        <ele>265.8293573397</ele>
        <time>2026-08-22T14:41:49Z</time>
      </trkpt>
      <trkpt lat="41.40222055296060" lon="-81.74047098625820">
        <ele>266.0444764600</ele>
        <time>2026-08-22T14:42:28Z</time>
      </trkpt>
      <trkpt lat="41.40221829514332" lon="-81.73986124295925">
        <ele>266.5070303381</ele>
        <time>2026-08-22T14:43:12Z</time>
      </trkpt>
      <trkpt lat="41.40222083229288" lon="-81.73926749988175">
        <ele>266.5645082996</ele>
        <time>2026-08-22T14:44:03Z</time>
      </trkpt>
      <trkpt lat="41.40221860197754" lon="-81.73866855392011">
        <ele>267.1571355416</ele>
        <time>2026-08-22T14:44:50Z</time>
      </trkpt>
      <trkpt lat="41.40222096727825" lon="-81.73825721121960">
        <ele>266.8345204773</ele>
        <time>2026-08-22T14:45:16Z</time>
      </trkpt>
      <trkpt lat="41.40177554777524" lon="-81.73827261657385">
        <ele>267.6564300641</ele>
        <time>2026-08-22T14:46:10Z</time>
      </trkpt>
      <trkpt lat="41.40133998798052" lon="-81.73825917013767">
        <ele>267.3558128602</ele>
        <time>2026-08-22T14:46:48Z</time>
      </trkpt>
      <trkpt lat="41.40133655600278" lon="-81.73886454862108">
        <ele>267.4024982297</ele>
        <time>2026-08-22T14:47:21Z</time>
      </trkpt>
      <trkpt lat="41.40133786528703" lon="-81.73944835463409">
        <ele>267.2313349931</ele>
        <time>2026-08-22T14:47:56Z</time>
      </trkpt>
      <trkpt lat="41.40133687607195" lon="-81.74005612285791">
        <ele>266.4885501776</ele>
        <time>2026-08-22T14:48:30Z</time>
      </trkpt>
      <trkpt lat="41.40133718980596" lon="-81.74019222513915">
        <ele>266.6068273821</ele>
        <time>2026-08-22T14:48:40Z</time>
      </trkpt>
    </trkseg>
  </trk>
</gpx>