<?xml version='1.0' encoding='UTF-8'?>
<gpx xmlns="http://www.topografix.com/GPX/1/1" creator="https://gpx.studio" version="1.1">
  <metadata>
    <name>Dog Walk - 2026-04-18 #4</name>
  </metadata>
  <trk>
    <name>Dog Walk - 2026-04-18 #4</name>
    <type>dog walk</type>
    <trkseg>
      <trkpt lat="41.40133872648196" lon="-81.74022725892311">
        <ele>266.4673813913</ele>
        <time>2026-04-18T18:41:49Z</time>
      </trkpt>
      <trkpt lat="41.40133978786444" lon="-81.74084109765900">
        <ele>266.1479705571</ele>
        <time>2026-04-18T18:42:39Z</time>
      </trkpt>
      <trkpt lat="41.40134374020938" lon="-81.74142781683969">
        <ele>265.7123543673</ele>
        <time>2026-04-18T18:43:07Z</time>
      </trkpt>
      <trkpt lat="41.40134746007489" lon="-81.74203452756167">
        <ele>265.3306393191</ele>
        <time>2026-04-18T18:43:46Z</time>
      </trkpt>
      <trkpt lat="41.40134602804421" lon="-81.74242893246939">
        <ele>264.8575029738</ele>
        <time>2026-04-18T18:44:13Z</time>
      </trkpt>
      <trkpt lat="41.40177075175204" lon="-81.74261924008982">
        <ele>264.3338167658</ele>
        <time>2026-04-18T18:44:49Z</time>
      </trkpt>
      <trkpt lat="41.40219431343761" lon="-81.74281707432546">
        <ele>263.7394939006</ele>
        <time>2026-04-18T18:45:29Z</time>
      </trkpt>
      <trkpt lat="41.40262239790847" lon="-81.74301819835945">
        <ele>263.1612730449</ele>
        <time>2026-04-18T18:46:18Z</time>
      </trkpt>
      <trkpt lat="41.40304481806798" lon="-81.74322322748304">
        <ele>262.3836154960</ele>
        <time>2026-04-18T18:47:04Z</time>
      </trkpt>
      <trkpt lat="41.40312143411793" lon="-81.74325453133171">
        <ele>262.3828992089</ele>
        <time>2026-04-18T18:47:09Z</time>
      </trkpt>
      <trkpt lat="41.40311331489789" lon="-81.74264240489542">
        <ele>263.1148532346</ele>
        <time>2026-04-18T18:47:45Z</time>
      </trkpt>
      <trkpt lat="41.40310245066251" lon="-81.74206460925929">
        <ele>263.6037442016</ele>
        <time>2026-04-18T18:48:28Z</time>
      </trkpt>
      <trkpt lat="41.40311324900762" lon="-81.74144603642537">
        <ele>264.2322766508</ele>
        <time>2026-04-18T18:49:05Z</time>
      </trkpt>
      <trkpt lat="41.40310646953242" lon="-81.74085678172436">
        <ele>264.8551183775</ele>
        <time>2026-04-18T18:49:39Z</time>
      </trkpt>
      <trkpt lat="41.40310539885028" lon="-81.74025721030212">
        <ele>265.4360734669</ele>
        <time>2026-04-18T18:50:15Z</time>
      </trkpt>
      <trkpt lat="41.40310218772213" lon="-81.73965088578045">
        <ele>265.7698770292</ele>
        <time>2026-04-18T18:50:51Z</time>
      </trkpt>
      <trkpt lat="41.40310735328733" lon="-81.73906396727628">
        <ele>266.0514428989</ele>
        <time>2026-04-18T18:51:33Z</time>
      </trkpt>
      <trkpt lat="41.40310331888521" lon="-81.73878933491201">
        <ele>266.1791419005</ele>
        <time>2026-04-18T18:51:47Z</time>
      </trkpt>
      <trkpt lat="41.40265096933808" lon="-81.73878700876193">
        <ele>266.6366720016</ele>
        <time>2026-04-18T18:52:26Z</time>
      </trkpt>
      <trkpt lat="41.40223694073196" lon="-81.73877751891793">
        <ele>267.0965079128</ele>
        <time>2026-04-18T18:53:05Z</time>
      </trkpt>
      <trkpt lat="41.40222947966920" lon="-81.73818679971812">
        <ele>267.1589079719</ele>
        <time>2026-04-18T18:53:39Z</time>
      </trkpt>
      <trkpt lat="41.40223038864248" lon="-81.73758420926430">
        <ele>267.0093858283</ele>
        <time>2026-04-18T18:54:09Z</time>
      </trkpt>
      <trkpt lat="41.40223181018820" lon="-81.73698126185478">
        <ele>267.0954297526</ele>
        <time>2026-04-18T18:55:00Z</time>
      </trkpt>
      <trkpt lat="41.40222953987206" lon="-81.73638630157546">
        <ele>267.0989798778</ele>
        <time>2026-04-18T18:55:34Z</time>
      </trkpt>
      <trkpt lat="41.40223303685303" lon="-81.73577927078421">
        <ele>267.0997181868</ele>
        <time>2026-04-18T18:56:11Z</time>
      </trkpt>
      <trkpt lat="41.40222129889892" lon="-81.73518289611398">
        <ele>267.1868133311</ele>
        <time>2026-04-18T18:56:48Z</time>
      </trkpt>
      <trkpt lat="41.40221779919435" lon="-81.73465669962023">
        <ele>267.2126571349</ele>
        <time>2026-04-18T18:57:22Z</time>
      </trkpt>
      <trkpt lat="41.40177315210850" lon="-81.73465170116680">
        <ele>267.3041282040</ele>
        <time>2026-04-18T18:58:09Z</time>
      </trkpt>
      <trkpt lat="41.40132077283188" lon="-81.73464512231470">
        <ele>267.4016557152</ele>
        <time>2026-04-18T18:58:50Z</time>
      </trkpt>
      <trkpt lat="41.40131602042454" lon="-81.73463538970611">
        <ele>267.1326326179</ele>
        <time>2026-04-18T18:58:51Z</time>
      </trkpt>
      <trkpt lat="41.40131792716948" lon="-81.73524687544398">
        <ele>267.9717934556</ele>
        <time>2026-04-18T18:59:26Z</time>
      </trkpt>
      <trkpt lat="41.40132339078013" lon="-81.73583764539566">
        <ele>268.3195861261</ele>
        <time>2026-04-18T19:00:23Z</time>
      </trkpt>
      <trkpt lat="41.40132635668625" lon="-81.73644449401644">
        <ele>268.2598683089</ele>
        <time>2026-04-18T19:01:08Z</time>
      </trkpt>
      <trkpt lat="41.40132601773556" lon="-81.73703979400186">
        <ele>268.0065014682</ele>
        <time>2026-04-18T19:01:43Z</time>
      </trkpt>
      <trkpt lat="41.40133326689434" lon="-81.73763736938233">
        <ele>267.8068687407</ele>
        <time>2026-04-18T19:02:21Z</time>
      </trkpt>
      <trkpt lat="41.40133998884621" lon="-81.73823948767944">
        <ele>267.6389357887</ele>
        <time>2026-04-18T19:02:56Z</time>
      </trkpt>
      <trkpt lat="41.40134082617244" lon="-81.73883287016517">
        <ele>267.4333267005</ele>
        <time>2026-04-18T19:03:36Z</time>
      </trkpt>
      <trkpt lat="41.40134163706160" lon="-81.73943164157369">
        <ele>267.1868129457</ele>
        <time>2026-04-18T19:04:27Z</time>
      </trkpt>
      <trkpt lat="41.40134567838744" lon="-81.74002055277272">
        <ele>266.6219216398</ele>
        <time>2026-04-18T19:05:20Z</time>
      </trkpt>
      <trkpt lat="41.40134182247439" lon="-81.74015575758770">
        <ele>266.6805848340</ele>
        <time>2026-04-18T19:05:32Z</time>
      </trkpt>
    </trkseg>
  </trk>
</gpx>