<?xml version='1.0' encoding='UTF-8'?>
<gpx xmlns="http://www.topografix.com/GPX/1/1" creator="https://gpx.studio" version="1.1">
  <metadata>
    <name>Dog Walk - 2026-09-04 #2</name>
  </metadata>
  <trk>
    <name>Dog Walk - 2026-09-04 #2</name>
    <type>dog walk</type>
    <trkseg>
      <trkpt lat="41.40134135964016" lon="-81.74024142226136">
        <ele>266.5760865020</ele>
        <time>2026-09-04T19:02:30Z</time>
      </trkpt>
      <trkpt lat="41.40134336129375" lon="-81.74082841173301">
        <ele>266.1295880014</ele>
        <time>2026-09-04T19:03:05Z</time>
      </trkpt>
      <trkpt lat="41.40135444582798" lon="-81.74143987449885">
        <ele>265.4886003572</ele>
        <time>2026-09-04T19:03:43Z</time>
      </trkpt>
      <trkpt lat="41.40133639575190" lon="-81.74203729091825">
        <ele>265.3454378246</ele>
        <time>2026-09-04T19:04:22Z</time>
      </trkpt>
      <trkpt lat="41.40134649492775" lon="-81.74241438191235">
        <ele>264.9607058576</ele>
        <time>2026-09-04T19:04:43Z</time>
      </trkpt>
      <trkpt lat="41.40177091526297" lon="-81.74263800263701">
        <ele>264.1349529994</ele>
        <time>2026-09-04T19:05:50Z</time>
      </trkpt>
      <trkpt lat="41.40218690778857" lon="-81.74285744362126">
        <ele>263.4536522871</ele>
        <time>2026-09-04T19:06:31Z</time>
      </trkpt>
      <trkpt lat="41.40221177761081" lon="-81.74286679331975">
        <ele>263.6291154138</ele>
        <time>2026-09-04T19:06:34Z</time>
      </trkpt>
      <trkpt lat="41.40222698529696" lon="-81.74226300387058">
        <ele>264.0552094255</ele>
        <time>2026-09-04T19:07:13Z</time>
      </trkpt>
      <trkpt lat="41.40221698547569" lon="-81.74166452633415">
        <ele>264.7644846833</ele>
        <time>2026-09-04T19:07:54Z</time>
      </trkpt>
      <trkpt lat="41.40222155675909" lon="-81.74106204435438">
        <ele>265.2999052252</ele>
        <time>2026-09-04T19:08:33Z</time>
      </trkpt>
      <trkpt lat="41.40222380011721" lon="-81.74045958888107">
        <ele>266.0306355094</ele>
        <time>2026-09-04T19:09:09Z</time>
      </trkpt>
      <trkpt lat="41.40221200467945" lon="-81.73985980339195">
        <ele>266.4053025668</ele>
        <time>2026-09-04T19:09:47Z</time>
      </trkpt>
      <trkpt lat="41.40222688749864" lon="-81.73927702903340">
        <ele>266.8879968271</ele>
        <time>2026-09-04T19:10:15Z</time>
      </trkpt>
      <trkpt lat="41.40222181779416" lon="-81.73868231365184">
        <ele>267.1628010202</ele>
        <time>2026-09-04T19:10:49Z</time>
      </trkpt>
      <trkpt lat="41.40222472650440" lon="-81.73827309424919">
        <ele>267.2794656619</ele>
        <time>2026-09-04T19:11:21Z</time>
      </trkpt>
      <trkpt lat="41.40177751475390" lon="-81.73826916002361">
        <ele>267.8529479364</ele>
        <time>2026-09-04T19:11:56Z</time>
      </trkpt>
      <trkpt lat="41.40134630414843" lon="-81.73825854814815">
        <ele>267.6127554690</ele>
        <time>2026-09-04T19:12:27Z</time>
      </trkpt>
      <trkpt lat="41.40134015397309" lon="-81.73886673003678">
        <ele>267.2902472681</ele>
        <time>2026-09-04T19:13:02Z</time>
      </trkpt>
      <trkpt lat="41.40134190897761" lon="-81.73946259221452">
        <ele>267.3210981425</ele>
        <time>2026-09-04T19:13:31Z</time>
      </trkpt>
      <trkpt lat="41.40134333913834" lon="-81.74006128489214">
        <ele>266.4644807728</ele>
        <time>2026-09-04T19:14:12Z</time>
      </trkpt>
      <trkpt lat="41.40134370630108" lon="-81.74018894728806">
        <ele>266.7786892287</ele>
        <time>2026-09-04T19:14:25Z</time>
      </trkpt>
    </trkseg>
  </trk>
</gpx>