<?xml version='1.0' encoding='UTF-8'?>
<gpx xmlns="http://www.topografix.com/GPX/1/1" creator="https://gpx.studio" version="1.1">
  <metadata>
    <name>Dog Walk - 2026-05-10 #3</name>
  </metadata>
  <trk>
    <name>Dog Walk - 2026-05-10 #3</name>
    <type>dog walk</type>
    <trkseg>
      <trkpt lat="41.40134254523988" lon="-81.74023339920991">
        <ele>266.7502001782</ele>
        <time>2026-05-10T20:06:50Z</time>
      </trkpt>
      <trkpt lat="41.40133782045084" lon="-81.74082287483439">
        <ele>266.3304639634</ele>
        <time>2026-05-10T20:07:26Z</time>
      </trkpt>
      <trkpt lat="41.40133875041720" lon="-81.74142210526728">
        <ele>265.7703394925</ele>
        <time>2026-05-10T20:08:02Z</time>
      </trkpt>
      <trkpt lat="41.40133468515977" lon="-81.74202482856694">
        <ele>265.5565444278</ele>
        <time>2026-05-10T20:09:11Z</time>
      </trkpt>
      <trkpt lat="41.40132285537823" lon="-81.74239163423455">
        <ele>264.7993421541</ele>
        <time>2026-05-10T20:09:41Z</time>
      </trkpt>
      <trkpt lat="41.40090172457545" lon="-81.74217148927268">
        <ele>265.2117731296</ele>
        <time>2026-05-10T20:10:17Z</time>
      </trkpt>
      <trkpt lat="41.40048563786783" lon="-81.74197153147674">
        <ele>265.0197498940</ele>
        <time>2026-05-10T20:10:51Z</time>
      </trkpt>
      <trkpt lat="41.40044447439513" lon="-81.74194977104969">
        <ele>265.4083583349</ele>
        <time>2026-05-10T20:10:55Z</time>
      </trkpt>
      <trkpt lat="41.40044946344141" lon="-81.74135132585026">
        <ele>266.1824845727</ele>
        <time>2026-05-10T20:11:49Z</time>
      </trkpt>
      <trkpt lat="41.40043621252205" lon="-81.74074949652996">
        <ele>266.4515172133</ele>
        <time>2026-05-10T20:12:23Z</time>
      </trkpt>
      <trkpt lat="41.40044557562150" lon="-81.74015335062998">
        <ele>266.6138434028</ele>
        <time>2026-05-10T20:13:33Z</time>
      </trkpt>
      <trkpt lat="41.40043179607962" lon="-81.73955043686460">
        <ele>266.9660181588</ele>
        <time>2026-05-10T20:14:15Z</time>
      </trkpt>
      <trkpt lat="41.40043058881717" lon="-81.73895479484577">
        <ele>267.0696653661</ele>
        <time>2026-05-10T20:14:49Z</time>
      </trkpt>
      <trkpt lat="41.40041068264117" lon="-81.73834883053421">
        <ele>267.1768394899</ele>
        <time>2026-05-10T20:15:29Z</time>
      </trkpt>
      <trkpt lat="41.40041206651127" lon="-81.73775867598044">
        <ele>267.6564183117</ele>
        <time>2026-05-10T20:16:09Z</time>
      </trkpt>
      <trkpt lat="41.40042098660424" lon="-81.73715512089282">
        <ele>267.9002346386</ele>
        <time>2026-05-10T20:16:46Z</time>
      </trkpt>
      <trkpt lat="41.40041419418691" lon="-81.73655419685981">
        <ele>268.1552025717</ele>
        <time>2026-05-10T20:17:23Z</time>
      </trkpt>
      <trkpt lat="41.40039924707391" lon="-81.73595064776204">
        <ele>268.0743553768</ele>
        <time>2026-05-10T20:18:05Z</time>
      </trkpt>
      <trkpt lat="41.40040183004454" lon="-81.73536089983877">
        <ele>267.8638496398</ele>
        <time>2026-05-10T20:18:52Z</time>
      </trkpt>
      <trkpt lat="41.40039437138570" lon="-81.73475924239331">
        <ele>267.4012349126</ele>
        <time>2026-05-10T20:19:24Z</time>
      </trkpt>
      <trkpt lat="41.40038723221903" lon="-81.73462958199114">
        <ele>267.0834850680</ele>
        <time>2026-05-10T20:19:32Z</time>
      </trkpt>
      <trkpt lat="41.40084834043603" lon="-81.73462114660239">
        <ele>267.1651749920</ele>
        <time>2026-05-10T20:20:13Z</time>
      </trkpt>
      <trkpt lat="41.40130377324898" lon="-81.73464870121734">
        <ele>267.1221165794</ele>
        <time>2026-05-10T20:20:46Z</time>
      </trkpt>
      <trkpt lat="41.40132256628450" lon="-81.73463049789753">
        <ele>267.4922661139</ele>
        <time>2026-05-10T20:20:48Z</time>
      </trkpt>
      <trkpt lat="41.40132577227303" lon="-81.73523284240507">
        <ele>267.8500522389</ele>
        <time>2026-05-10T20:21:24Z</time>
      </trkpt>
      <trkpt lat="41.40132092477269" lon="-81.73582100647188">
        <ele>268.2161635877</ele>
        <time>2026-05-10T20:22:16Z</time>
      </trkpt>
      <trkpt lat="41.40132286736064" lon="-81.73642789943870">
        <ele>268.0565345883</ele>
        <time>2026-05-10T20:23:02Z</time>
      </trkpt>
      <trkpt lat="41.40132327547556" lon="-81.73702565705884">
        <ele>267.8343488055</ele>
        <time>2026-05-10T20:23:44Z</time>
      </trkpt>
      <trkpt lat="41.40133493258391" lon="-81.73764481662784">
        <ele>267.8394363274</ele>
        <time>2026-05-10T20:24:29Z</time>
      </trkpt>
      <trkpt lat="41.40132957483283" lon="-81.73823048694268">
        <ele>267.5917077483</ele>
        <time>2026-05-10T20:24:59Z</time>
      </trkpt>
      <trkpt lat="41.40134026773428" lon="-81.73882587086032">
        <ele>267.2940311140</ele>
        <time>2026-05-10T20:25:41Z</time>
      </trkpt>
      <trkpt lat="41.40134259409623" lon="-81.73942731786953">
        <ele>267.2914251145</ele>
        <time>2026-05-10T20:26:20Z</time>
      </trkpt>
      <trkpt lat="41.40134328703166" lon="-81.74002647332271">
        <ele>266.7470644446</ele>
        <time>2026-05-10T20:26:56Z</time>
      </trkpt>
      <trkpt lat="41.40134117398850" lon="-81.74020331503272">
        <ele>266.3747549226</ele>
        <time>2026-05-10T20:27:07Z</time>
      </trkpt>
    </trkseg>
  </trk>
</gpx>