<?xml version='1.0' encoding='UTF-8'?>
<gpx xmlns="http://www.topografix.com/GPX/1/1" creator="https://gpx.studio" version="1.1">
  <metadata>
    <name>Dog Walk - 2026-03-08 #1</name>
  </metadata>
  <trk>
    <name>Dog Walk - 2026-03-08 #1</name>
    <type>dog walk</type>
    <trkseg>
      <trkpt lat="41.40133770670176" lon="-81.74023433121970">
        <ele>266.5432604187</ele>
        <time>2026-03-08T07:26:42Z</time>
      </trkpt>
      <trkpt lat="41.40134169526180" lon="-81.74083487072949">
        <ele>266.2362645159</ele>
        <time>2026-03-08T07:27:23Z</time>
      </trkpt>
      <trkpt lat="41.40134230473506" lon="-81.74143656800044">
        <ele>265.7799796842</ele>
        <time>2026-03-08T07:28:03Z</time>
      </trkpt>
      <trkpt lat="41.40135055533005" lon="-81.74204528934233">
        <ele>265.3153799290</ele>
        <time>2026-03-08T07:28:42Z</time>
      </trkpt>
      <trkpt lat="41.40134082876335" lon="-81.74242576542179">
        <ele>264.7714757120</ele>
        <time>2026-03-08T07:29:03Z</time>
      </trkpt>
      <trkpt lat="41.40176484326396" lon="-81.74262604808833">
        <ele>264.3540383812</ele>
        <time>2026-03-08T07:29:52Z</time>
      </trkpt>
      <trkpt lat="41.40219332107750" lon="-81.74284685262963">
        <ele>263.3385049604</ele>
        <time>2026-03-08T07:30:21Z</time>
      </trkpt>
      <trkpt lat="41.40222322712788" lon="-81.74287212242010">
        <ele>263.5614833321</ele>
        <time>2026-03-08T07:30:35Z</time>
      </trkpt>
      <trkpt lat="41.40221113834414" lon="-81.74226227350692">
        <ele>264.0515432037</ele>
        <time>2026-03-08T07:31:16Z</time>
      </trkpt>
      <trkpt lat="41.40222083073777" lon="-81.74166352559892">
        <ele>264.7216873333</ele>
        <time>2026-03-08T07:32:08Z</time>
      </trkpt>
      <trkpt lat="41.40221470275435" lon="-81.74106171219140">
        <ele>265.3140973458</ele>
        <time>2026-03-08T07:32:51Z</time>
      </trkpt>
      <trkpt lat="41.40221640084849" lon="-81.74046250220934">
        <ele>266.0102066637</ele>
        <time>2026-03-08T07:33:39Z</time>
      </trkpt>
      <trkpt lat="41.40221839172971" lon="-81.73985812136807">
        <ele>266.4680683635</ele>
        <time>2026-03-08T07:34:15Z</time>
      </trkpt>
      <trkpt lat="41.40220977202407" lon="-81.73926708999026">
        <ele>266.8283208363</ele>
        <time>2026-03-08T07:35:02Z</time>
      </trkpt>
      <trkpt lat="41.40221436989253" lon="-81.73866860659174">
        <ele>267.1425207021</ele>
        <time>2026-03-08T07:36:00Z</time>
      </trkpt>
      <trkpt lat="41.40221231665014" lon="-81.73827066775441">
        <ele>266.9927267264</ele>
        <time>2026-03-08T07:36:23Z</time>
      </trkpt>
      <trkpt lat="41.40177398576891" lon="-81.73826554693639">
        <ele>267.6369966869</ele>
        <time>2026-03-08T07:37:05Z</time>
      </trkpt>
      <trkpt lat="41.40133832788541" lon="-81.73826415030290">
        <ele>267.6610231300</ele>
        <time>2026-03-08T07:38:07Z</time>
      </trkpt>
      <trkpt lat="41.40134178977927" lon="-81.73886342154302">
        <ele>267.2583583534</ele>
        <time>2026-03-08T07:38:51Z</time>
      </trkpt>
      <trkpt lat="41.40133965508304" lon="-81.73946350812645">
        <ele>267.1210935736</ele>
        <time>2026-03-08T07:39:37Z</time>
      </trkpt>
      <trkpt lat="41.40133854675693" lon="-81.74005637919673">
        <ele>266.7857199550</ele>
        <time>2026-03-08T07:40:23Z</time>
      </trkpt>
      <trkpt lat="41.40133827539157" lon="-81.74019528261618">
        <ele>266.4504529506</ele>
        <time>2026-03-08T07:40:35Z</time>
      </trkpt>
    </trkseg>
  </trk>
</gpx>