<?xml version='1.0' encoding='UTF-8'?>
<gpx xmlns="http://www.topografix.com/GPX/1/1" creator="https://gpx.studio" version="1.1">
  <metadata>
    <name>Dog Walk - 2026-07-27 #2</name>
  </metadata>
  <trk>
    <name>Dog Walk - 2026-07-27 #2</name>
    <type>dog walk</type>
    <trkseg>
      <trkpt lat="41.40134506930429" lon="-81.74022349670032">
        <ele>266.4981576954</ele>
        <time>2026-07-27T10:29:15Z</time>
      </trkpt>
      <trkpt lat="41.40133617491806" lon="-81.74082399090614">
        <ele>266.0780023202</ele>
        <time>2026-07-27T10:30:01Z</time>
      </trkpt>
      <trkpt lat="41.40133671317577" lon="-81.74143424062368">
        <ele>265.7749434594</ele>
        <time>2026-07-27T10:30:41Z</time>
      </trkpt>
      <trkpt lat="41.40133105862947" lon="-81.74202633675203">
        <ele>265.3544644840</ele>
        <time>2026-07-27T10:31:29Z</time>
      </trkpt>
      <trkpt lat="41.40133111880980" lon="-81.74238795237800">
        <ele>264.7442775623</ele>
        <time>2026-07-27T10:31:54Z</time>
      </trkpt>
      <trkpt lat="41.40090584296860" lon="-81.74218707457528">
        <ele>265.1794659232</ele>
        <time>2026-07-27T10:32:47Z</time>
      </trkpt>
      <trkpt lat="41.40049490851089" lon="-81.74196368091175">
        <ele>265.2518880794</ele>
        <time>2026-07-27T10:33:20Z</time>
      </trkpt>
      <trkpt lat="41.40044847901743" lon="-81.74194758579183">
        <ele>265.2996063908</ele>
        <time>2026-07-27T10:33:25Z</time>
      </trkpt>
      <trkpt lat="41.40044322804157" lon="-81.74134435358913">
        <ele>265.8628515833</ele>
        <time>2026-07-27T10:34:18Z</time>
      </trkpt>
      <trkpt lat="41.40044186074492" lon="-81.74074900520246">
        <ele>266.4586184601</ele>
        <time>2026-07-27T10:34:55Z</time>
      </trkpt>
      <trkpt lat="41.40043323418439" lon="-81.74015103087214">
        <ele>266.7223561755</ele>
        <time>2026-07-27T10:35:41Z</time>
      </trkpt>
      <trkpt lat="41.40043191606673" lon="-81.73954869194378">
        <ele>266.9409504932</ele>
        <time>2026-07-27T10:36:27Z</time>
      </trkpt>
      <trkpt lat="41.40042695741965" lon="-81.73894605244664">
        <ele>267.0709689100</ele>
        <time>2026-07-27T10:37:05Z</time>
      </trkpt>
      <trkpt lat="41.40042036088707" lon="-81.73836264661092">
        <ele>267.0117887673</ele>
        <time>2026-07-27T10:37:59Z</time>
      </trkpt>
      <trkpt lat="41.40041878961960" lon="-81.73775465173826">
        <ele>267.6726447692</ele>
        <time>2026-07-27T10:38:29Z</time>
      </trkpt>
      <trkpt lat="41.40041006277210" lon="-81.73714362435737">
        <ele>268.1767428366</ele>
        <time>2026-07-27T10:39:09Z</time>
      </trkpt>
      <trkpt lat="41.40041113000314" lon="-81.73655184057354">
        <ele>268.1926412884</ele>
        <time>2026-07-27T10:40:00Z</time>
      </trkpt>
      <trkpt lat="41.40040732804986" lon="-81.73595633372091">
        <ele>268.0516508098</ele>
        <time>2026-07-27T10:40:44Z</time>
      </trkpt>
      <trkpt lat="41.40039569041213" lon="-81.73536779659864">
        <ele>268.1150871080</ele>
        <time>2026-07-27T10:41:22Z</time>
      </trkpt>
      <trkpt lat="41.40039952971496" lon="-81.73475023271061">
        <ele>267.0884789960</ele>
        <time>2026-07-27T10:42:00Z</time>
      </trkpt>
      <trkpt lat="41.40039423126864" lon="-81.73462016882327">
        <ele>267.3015893226</ele>
        <time>2026-07-27T10:42:08Z</time>
      </trkpt>
      <trkpt lat="41.40085179086506" lon="-81.73463338654157">
        <ele>267.6232938052</ele>
        <time>2026-07-27T10:42:59Z</time>
      </trkpt>
      <trkpt lat="41.40129401086511" lon="-81.73462732362124">
        <ele>267.3614979044</ele>
        <time>2026-07-27T10:43:45Z</time>
      </trkpt>
      <trkpt lat="41.40131862467027" lon="-81.73464321608380">
        <ele>267.3458237787</ele>
        <time>2026-07-27T10:43:47Z</time>
      </trkpt>
      <trkpt lat="41.40132294534296" lon="-81.73522536397924">
        <ele>267.9704802195</ele>
        <time>2026-07-27T10:44:23Z</time>
      </trkpt>
      <trkpt lat="41.40133460002507" lon="-81.73583671748412">
        <ele>268.4582421861</ele>
        <time>2026-07-27T10:44:56Z</time>
      </trkpt>
      <trkpt lat="41.40133330765167" lon="-81.73643934762815">
        <ele>268.2506670794</ele>
        <time>2026-07-27T10:45:33Z</time>
      </trkpt>
      <trkpt lat="41.40133603794116" lon="-81.73702091685995">
        <ele>267.9849742722</ele>
        <time>2026-07-27T10:46:09Z</time>
      </trkpt>
      <trkpt lat="41.40132552875932" lon="-81.73763017432999">
        <ele>267.9518710661</ele>
        <time>2026-07-27T10:46:46Z</time>
      </trkpt>
      <trkpt lat="41.40134043399935" lon="-81.73822600437259">
        <ele>267.4529272807</ele>
        <time>2026-07-27T10:47:26Z</time>
      </trkpt>
      <trkpt lat="41.40133245267724" lon="-81.73882165991965">
        <ele>267.3541744685</ele>
        <time>2026-07-27T10:47:59Z</time>
      </trkpt>
      <trkpt lat="41.40134922146314" lon="-81.73943773419484">
        <ele>267.0934599513</ele>
        <time>2026-07-27T10:48:38Z</time>
      </trkpt>
      <trkpt lat="41.40134432732579" lon="-81.74002978280403">
        <ele>266.8313790397</ele>
        <time>2026-07-27T10:49:34Z</time>
      </trkpt>
      <trkpt lat="41.40135009953198" lon="-81.74020383030985">
        <ele>266.3950364214</ele>
        <time>2026-07-27T10:49:43Z</time>
      </trkpt>
    </trkseg>
  </trk>
</gpx>