<?xml version='1.0' encoding='UTF-8'?>
<gpx xmlns="http://www.topografix.com/GPX/1/1" creator="https://gpx.studio" version="1.1">
  <metadata>
    <name>Dog Walk - 2026-02-25 #1</name>
  </metadata>
  <trk>
    <name>Dog Walk - 2026-02-25 #1</name>
    <type>dog walk</type>
    <trkseg>
      <trkpt lat="41.40133271615291" lon="-81.74023562690203">
        <ele>266.4537089003</ele>
        <time>2026-02-25T09:50:53Z</time>
      </trkpt>
      <trkpt lat="41.40133948250756" lon="-81.74082221099414">
        <ele>266.1787853749</ele>
        <time>2026-02-25T09:51:26Z</time>
      </trkpt>
      <trkpt lat="41.40134026714144" lon="-81.74141922210897">
        <ele>265.9339881040</ele>
        <time>2026-02-25T09:52:05Z</time>
      </trkpt>
      <trkpt lat="41.40134869943076" lon="-81.74202957826722">
        <ele>265.3799975557</ele>
        <time>2026-02-25T09:52:42Z</time>
      </trkpt>
      <trkpt lat="41.40134214368566" lon="-81.74241034293367">
        <ele>264.6690197228</ele>
        <time>2026-02-25T09:53:02Z</time>
      </trkpt>
      <trkpt lat="41.40177061575443" lon="-81.74263235097722">
        <ele>263.9628264249</ele>
        <time>2026-02-25T09:53:43Z</time>
      </trkpt>
      <trkpt lat="41.40219114500796" lon="-81.74284516312422">
        <ele>263.7258873961</ele>
        <time>2026-02-25T09:54:26Z</time>
      </trkpt>
      <trkpt lat="41.40261742611981" lon="-81.74304516739598">
        <ele>262.7834913507</ele>
        <time>2026-02-25T09:55:13Z</time>
      </trkpt>
      <trkpt lat="41.40303406411947" lon="-81.74326129834061">
        <ele>262.4184804578</ele>
        <time>2026-02-25T09:55:48Z</time>
      </trkpt>
      <trkpt lat="41.40344894352295" lon="-81.74348711709963">
        <ele>261.8059075067</ele>
        <time>2026-02-25T09:56:29Z</time>
      </trkpt>
      <trkpt lat="41.40349846994791" lon="-81.74349882192887">
        <ele>261.9399213763</ele>
        <time>2026-02-25T09:56:33Z</time>
      </trkpt>
      <trkpt lat="41.40359042753459" lon="-81.74352426604942">
        <ele>261.8023146397</ele>
        <time>2026-02-25T09:56:42Z</time>
      </trkpt>
      <trkpt lat="41.40399785390174" lon="-81.74350405000037">
        <ele>260.6173070391</ele>
        <time>2026-02-25T09:57:26Z</time>
      </trkpt>
      <trkpt lat="41.40399871606870" lon="-81.74290855868249">
        <ele>261.5168793625</ele>
        <time>2026-02-25T09:58:15Z</time>
      </trkpt>
      <trkpt lat="41.40399860253977" lon="-81.74230941097744">
        <ele>262.1826201252</ele>
        <time>2026-02-25T09:58:59Z</time>
      </trkpt>
      <trkpt lat="41.40399390472449" lon="-81.74170635477408">
        <ele>262.6060469597</ele>
        <time>2026-02-25T09:59:36Z</time>
      </trkpt>
      <trkpt lat="41.40398935287209" lon="-81.74111603889718">
        <ele>262.9025239067</ele>
        <time>2026-02-25T10:00:10Z</time>
      </trkpt>
      <trkpt lat="41.40398954830128" lon="-81.74051670981727">
        <ele>263.5259945939</ele>
        <time>2026-02-25T10:00:50Z</time>
      </trkpt>
      <trkpt lat="41.40399508678490" lon="-81.73991663782766">
        <ele>264.4547262744</ele>
        <time>2026-02-25T10:01:45Z</time>
      </trkpt>
      <trkpt lat="41.40398934961873" lon="-81.73930188726042">
        <ele>265.3942535702</ele>
        <time>2026-02-25T10:02:17Z</time>
      </trkpt>
      <trkpt lat="41.40398004172297" lon="-81.73877872022940">
        <ele>265.2208572681</ele>
        <time>2026-02-25T10:03:05Z</time>
      </trkpt>
      <trkpt lat="41.40353153707349" lon="-81.73877185541480">
        <ele>265.9164505483</ele>
        <time>2026-02-25T10:03:42Z</time>
      </trkpt>
      <trkpt lat="41.40308119796806" lon="-81.73878184167036">
        <ele>266.3405068097</ele>
        <time>2026-02-25T10:04:23Z</time>
      </trkpt>
      <trkpt lat="41.40263549742946" lon="-81.73876372591263">
        <ele>266.8004055530</ele>
        <time>2026-02-25T10:04:57Z</time>
      </trkpt>
      <trkpt lat="41.40221891757111" lon="-81.73877026958745">
        <ele>267.1473502122</ele>
        <time>2026-02-25T10:05:36Z</time>
      </trkpt>
      <trkpt lat="41.40220613081898" lon="-81.73827457334365">
        <ele>267.2271590089</ele>
        <time>2026-02-25T10:06:12Z</time>
      </trkpt>
      <trkpt lat="41.40175959015409" lon="-81.73827235168925">
        <ele>267.7156431299</ele>
        <time>2026-02-25T10:06:45Z</time>
      </trkpt>
      <trkpt lat="41.40133417162533" lon="-81.73827340352184">
        <ele>267.4525108748</ele>
        <time>2026-02-25T10:07:34Z</time>
      </trkpt>
      <trkpt lat="41.40133152839496" lon="-81.73886185099151">
        <ele>267.2160739609</ele>
        <time>2026-02-25T10:08:09Z</time>
      </trkpt>
      <trkpt lat="41.40133129745831" lon="-81.73947131326183">
        <ele>267.2210387913</ele>
        <time>2026-02-25T10:08:45Z</time>
      </trkpt>
      <trkpt lat="41.40133852088941" lon="-81.74006475339073">
        <ele>266.7105166968</ele>
        <time>2026-02-25T10:09:25Z</time>
      </trkpt>
      <trkpt lat="41.40134300922470" lon="-81.74021473593139">
        <ele>266.5390829724</ele>
        <time>2026-02-25T10:09:37Z</time>
      </trkpt>
    </trkseg>
  </trk>
</gpx>