<?xml version='1.0' encoding='UTF-8'?>
<gpx xmlns="http://www.topografix.com/GPX/1/1" creator="https://gpx.studio" version="1.1">
  <metadata>
    <name>Dog Walk - 2026-05-05 #1</name>
  </metadata>
  <trk>
    <name>Dog Walk - 2026-05-05 #1</name>
    <type>dog walk</type>
    <trkseg>
      <trkpt lat="41.40134083678805" lon="-81.74022970263533">
        <ele>266.3966457312</ele>
        <time>2026-05-05T07:15:52Z</time>
      </trkpt>
      <trkpt lat="41.40133551211771" lon="-81.74083014403639">
        <ele>266.2274428670</ele>
        <time>2026-05-05T07:16:33Z</time>
      </trkpt>
      <trkpt lat="41.40133386459579" lon="-81.74143047255039">
        <ele>265.7977541755</ele>
        <time>2026-05-05T07:17:09Z</time>
      </trkpt>
      <trkpt lat="41.40132620442048" lon="-81.74203542242839">
        <ele>265.2225156103</ele>
        <time>2026-05-05T07:18:11Z</time>
      </trkpt>
      <trkpt lat="41.40132681072352" lon="-81.74238613891571">
        <ele>264.8014389566</ele>
        <time>2026-05-05T07:18:35Z</time>
      </trkpt>
      <trkpt lat="41.40090314036706" lon="-81.74217664872580">
        <ele>265.2967569027</ele>
        <time>2026-05-05T07:19:24Z</time>
      </trkpt>
      <trkpt lat="41.40048685329585" lon="-81.74196440177093">
        <ele>265.3016626285</ele>
        <time>2026-05-05T07:20:26Z</time>
      </trkpt>
      <trkpt lat="41.40045289010851" lon="-81.74194697617685">
        <ele>265.3814266368</ele>
        <time>2026-05-05T07:20:29Z</time>
      </trkpt>
      <trkpt lat="41.40044453003323" lon="-81.74135488680922">
        <ele>266.0288039252</ele>
        <time>2026-05-05T07:21:03Z</time>
      </trkpt>
      <trkpt lat="41.40044578166986" lon="-81.74074687262147">
        <ele>266.6966295559</ele>
        <time>2026-05-05T07:21:46Z</time>
      </trkpt>
      <trkpt lat="41.40042755797049" lon="-81.74014586019878">
        <ele>266.8857379683</ele>
        <time>2026-05-05T07:22:28Z</time>
      </trkpt>
      <trkpt lat="41.40042795079437" lon="-81.73955103531836">
        <ele>267.0197438387</ele>
        <time>2026-05-05T07:23:18Z</time>
      </trkpt>
      <trkpt lat="41.40042343708130" lon="-81.73895326226997">
        <ele>266.9981643757</ele>
        <time>2026-05-05T07:23:51Z</time>
      </trkpt>
      <trkpt lat="41.40042625565054" lon="-81.73835270281947">
        <ele>267.3037443528</ele>
        <time>2026-05-05T07:24:51Z</time>
      </trkpt>
      <trkpt lat="41.40041711757485" lon="-81.73774891481024">
        <ele>267.7431557487</ele>
        <time>2026-05-05T07:25:46Z</time>
      </trkpt>
      <trkpt lat="41.40041196874301" lon="-81.73716174326067">
        <ele>267.9879984877</ele>
        <time>2026-05-05T07:26:25Z</time>
      </trkpt>
      <trkpt lat="41.40041284284112" lon="-81.73654497884559">
        <ele>268.3553092689</ele>
        <time>2026-05-05T07:27:10Z</time>
      </trkpt>
      <trkpt lat="41.40040086814950" lon="-81.73595478733168">
        <ele>267.9911326116</ele>
        <time>2026-05-05T07:28:04Z</time>
      </trkpt>
      <trkpt lat="41.40039985681204" lon="-81.73535876580117">
        <ele>267.9120433977</ele>
        <time>2026-05-05T07:29:17Z</time>
      </trkpt>
      <trkpt lat="41.40039638599607" lon="-81.73475728722327">
        <ele>267.3846866392</ele>
        <time>2026-05-05T07:29:53Z</time>
      </trkpt>
      <trkpt lat="41.40039647000118" lon="-81.73461819237446">
        <ele>267.1337618139</ele>
        <time>2026-05-05T07:30:03Z</time>
      </trkpt>
      <trkpt lat="41.40085072565589" lon="-81.73462924007315">
        <ele>267.3391752824</ele>
        <time>2026-05-05T07:30:48Z</time>
      </trkpt>
      <trkpt lat="41.40129491652070" lon="-81.73463366619622">
        <ele>267.1843994532</ele>
        <time>2026-05-05T07:31:36Z</time>
      </trkpt>
      <trkpt lat="41.40132596283157" lon="-81.73464173906508">
        <ele>267.3669216535</ele>
        <time>2026-05-05T07:31:38Z</time>
      </trkpt>
      <trkpt lat="41.40130863160954" lon="-81.73523913859547">
        <ele>267.9978639271</ele>
        <time>2026-05-05T07:32:14Z</time>
      </trkpt>
      <trkpt lat="41.40131803704227" lon="-81.73583922338972">
        <ele>268.3185373289</ele>
        <time>2026-05-05T07:32:59Z</time>
      </trkpt>
      <trkpt lat="41.40132797831136" lon="-81.73642859492672">
        <ele>268.4041485907</ele>
        <time>2026-05-05T07:33:29Z</time>
      </trkpt>
      <trkpt lat="41.40132823837754" lon="-81.73704307306056">
        <ele>268.0418617799</ele>
        <time>2026-05-05T07:34:13Z</time>
      </trkpt>
      <trkpt lat="41.40133170769420" lon="-81.73763251506112">
        <ele>267.8444006982</ele>
        <time>2026-05-05T07:35:00Z</time>
      </trkpt>
      <trkpt lat="41.40133010153686" lon="-81.73822972050500">
        <ele>267.3373195022</ele>
        <time>2026-05-05T07:35:42Z</time>
      </trkpt>
      <trkpt lat="41.40133641271343" lon="-81.73883095223776">
        <ele>267.0347832762</ele>
        <time>2026-05-05T07:36:29Z</time>
      </trkpt>
      <trkpt lat="41.40134746809731" lon="-81.73943280118644">
        <ele>267.3994228126</ele>
        <time>2026-05-05T07:37:04Z</time>
      </trkpt>
      <trkpt lat="41.40134798061857" lon="-81.74002513247899">
        <ele>266.5034597425</ele>
        <time>2026-05-05T07:37:57Z</time>
      </trkpt>
      <trkpt lat="41.40134769952193" lon="-81.74019950230789">
        <ele>266.7108573158</ele>
        <time>2026-05-05T07:38:07Z</time>
      </trkpt>
    </trkseg>
  </trk>
</gpx>