<?xml version='1.0' encoding='UTF-8'?>
<gpx xmlns="http://www.topografix.com/GPX/1/1" creator="https://gpx.studio" version="1.1">
  <metadata>
    <name>Dog Walk - 2026-07-09 #1</name>
  </metadata>
  <trk>
    <name>Dog Walk - 2026-07-09 #1</name>
    <type>dog walk</type>
    <trkseg>
      <trkpt lat="41.40133879549713" lon="-81.74023366117534">
        <ele>266.6284972847</ele>
        <time>2026-07-09T07:43:31Z</time>
      </trkpt>
      <trkpt lat="41.40133662980941" lon="-81.74083872768139">
        <ele>266.0424401756</ele>
        <time>2026-07-09T07:44:15Z</time>
      </trkpt>
      <trkpt lat="41.40134257128260" lon="-81.74144131576477">
        <ele>265.6984060794</ele>
        <time>2026-07-09T07:44:53Z</time>
      </trkpt>
      <trkpt lat="41.40135343607100" lon="-81.74202914316730">
        <ele>265.0945677631</ele>
        <time>2026-07-09T07:45:35Z</time>
      </trkpt>
      <trkpt lat="41.40135385390150" lon="-81.74241404873959">
        <ele>264.8653859520</ele>
        <time>2026-07-09T07:45:57Z</time>
      </trkpt>
      <trkpt lat="41.40176912252142" lon="-81.74262899863712">
        <ele>264.3839679779</ele>
        <time>2026-07-09T07:46:43Z</time>
      </trkpt>
      <trkpt lat="41.40220134287952" lon="-81.74282073780527">
        <ele>263.6074003962</ele>
        <time>2026-07-09T07:47:19Z</time>
      </trkpt>
      <trkpt lat="41.40261657070856" lon="-81.74303038275482">
        <ele>263.1877478925</ele>
        <time>2026-07-09T07:47:55Z</time>
      </trkpt>
      <trkpt lat="41.40303379775211" lon="-81.74321573801272">
        <ele>262.1949471517</ele>
        <time>2026-07-09T07:48:32Z</time>
      </trkpt>
      <trkpt lat="41.40311778858997" lon="-81.74324815226413">
        <ele>262.2784848912</ele>
        <time>2026-07-09T07:48:42Z</time>
      </trkpt>
      <trkpt lat="41.40311892135875" lon="-81.74266382752363">
        <ele>263.1942310769</ele>
        <time>2026-07-09T07:49:27Z</time>
      </trkpt>
      <trkpt lat="41.40310723887663" lon="-81.74204866984860">
        <ele>264.0006325643</ele>
        <time>2026-07-09T07:49:57Z</time>
      </trkpt>
      <trkpt lat="41.40310336416574" lon="-81.74146012695189">
        <ele>264.1379409899</ele>
        <time>2026-07-09T07:50:40Z</time>
      </trkpt>
      <trkpt lat="41.40311003025040" lon="-81.74085465766443">
        <ele>264.6252909838</ele>
        <time>2026-07-09T07:51:34Z</time>
      </trkpt>
      <trkpt lat="41.40309810826191" lon="-81.74025976206971">
        <ele>265.3756742833</ele>
        <time>2026-07-09T07:52:12Z</time>
      </trkpt>
      <trkpt lat="41.40310323699639" lon="-81.73965564576935">
        <ele>265.8119923200</ele>
        <time>2026-07-09T07:53:01Z</time>
      </trkpt>
      <trkpt lat="41.40310453214266" lon="-81.73905728838442">
        <ele>266.1847862329</ele>
        <time>2026-07-09T07:54:20Z</time>
      </trkpt>
      <trkpt lat="41.40310034567944" lon="-81.73878247022023">
        <ele>266.2851031818</ele>
        <time>2026-07-09T07:54:40Z</time>
      </trkpt>
      <trkpt lat="41.40264981230938" lon="-81.73877918850415">
        <ele>266.5267846474</ele>
        <time>2026-07-09T07:55:26Z</time>
      </trkpt>
      <trkpt lat="41.40223894189732" lon="-81.73877715449652">
        <ele>267.2114061511</ele>
        <time>2026-07-09T07:56:05Z</time>
      </trkpt>
      <trkpt lat="41.40223292900377" lon="-81.73817693879487">
        <ele>267.1459088152</ele>
        <time>2026-07-09T07:56:41Z</time>
      </trkpt>
      <trkpt lat="41.40222291445095" lon="-81.73757807905875">
        <ele>267.0136144785</ele>
        <time>2026-07-09T07:57:15Z</time>
      </trkpt>
      <trkpt lat="41.40222530707565" lon="-81.73698732732360">
        <ele>267.2523070760</ele>
        <time>2026-07-09T07:57:53Z</time>
      </trkpt>
      <trkpt lat="41.40221897763448" lon="-81.73636891362970">
        <ele>267.0305679812</ele>
        <time>2026-07-09T07:58:39Z</time>
      </trkpt>
      <trkpt lat="41.40222675311775" lon="-81.73578371118521">
        <ele>267.1783107115</ele>
        <time>2026-07-09T07:59:13Z</time>
      </trkpt>
      <trkpt lat="41.40222292884118" lon="-81.73518142559108">
        <ele>267.1653196767</ele>
        <time>2026-07-09T07:59:53Z</time>
      </trkpt>
      <trkpt lat="41.40222507759730" lon="-81.73465618170083">
        <ele>267.0047361794</ele>
        <time>2026-07-09T08:00:28Z</time>
      </trkpt>
      <trkpt lat="41.40177235630510" lon="-81.73465230005689">
        <ele>267.5168567333</ele>
        <time>2026-07-09T08:01:13Z</time>
      </trkpt>
      <trkpt lat="41.40132921174632" lon="-81.73462863553110">
        <ele>267.3548535769</ele>
        <time>2026-07-09T08:01:46Z</time>
      </trkpt>
      <trkpt lat="41.40131550111126" lon="-81.73463545438531">
        <ele>267.4339469616</ele>
        <time>2026-07-09T08:01:47Z</time>
      </trkpt>
      <trkpt lat="41.40131690902626" lon="-81.73523942884120">
        <ele>268.0460796041</ele>
        <time>2026-07-09T08:02:31Z</time>
      </trkpt>
      <trkpt lat="41.40132882089721" lon="-81.73583363847987">
        <ele>268.4611553596</ele>
        <time>2026-07-09T08:03:10Z</time>
      </trkpt>
      <trkpt lat="41.40132465130660" lon="-81.73643796100262">
        <ele>268.0944036994</ele>
        <time>2026-07-09T08:03:47Z</time>
      </trkpt>
      <trkpt lat="41.40132819319553" lon="-81.73704481014242">
        <ele>268.0035233929</ele>
        <time>2026-07-09T08:04:45Z</time>
      </trkpt>
      <trkpt lat="41.40133211100795" lon="-81.73763956684013">
        <ele>268.0804667147</ele>
        <time>2026-07-09T08:05:24Z</time>
      </trkpt>
      <trkpt lat="41.40134004615722" lon="-81.73822777495550">
        <ele>267.4001592485</ele>
        <time>2026-07-09T08:06:23Z</time>
      </trkpt>
      <trkpt lat="41.40133999175025" lon="-81.73882490522286">
        <ele>267.3345143216</ele>
        <time>2026-07-09T08:07:30Z</time>
      </trkpt>
      <trkpt lat="41.40133870337296" lon="-81.73943617766352">
        <ele>267.0052428566</ele>
        <time>2026-07-09T08:08:12Z</time>
      </trkpt>
      <trkpt lat="41.40134436408990" lon="-81.74003016536258">
        <ele>266.6226016640</ele>
        <time>2026-07-09T08:08:50Z</time>
      </trkpt>
      <trkpt lat="41.40134004693234" lon="-81.74015013826155">
        <ele>266.6288381132</ele>
        <time>2026-07-09T08:09:00Z</time>
      </trkpt>
    </trkseg>
  </trk>
</gpx>