<?xml version='1.0' encoding='UTF-8'?>
<gpx xmlns="http://www.topografix.com/GPX/1/1" creator="https://gpx.studio" version="1.1">
  <metadata>
    <name>Dog Walk - 2026-04-12 #4</name>
  </metadata>
  <trk>
    <name>Dog Walk - 2026-04-12 #4</name>
    <type>dog walk</type>
    <trkseg>
      <trkpt lat="41.40133291923016" lon="-81.74025349690818">
        <ele>266.5063303907</ele>
        <time>2026-04-12T16:19:40Z</time>
      </trkpt>
      <trkpt lat="41.40132238158647" lon="-81.74026466873414">
        <ele>266.4102108230</ele>
        <time>2026-04-12T16:19:41Z</time>
      </trkpt>
      <trkpt lat="41.40133424585591" lon="-81.74085968755251">
        <ele>266.2911691983</ele>
        <time>2026-04-12T16:20:28Z</time>
      </trkpt>
      <trkpt lat="41.40132865563210" lon="-81.74145832170697">
        <ele>266.0711120447</ele>
        <time>2026-04-12T16:21:02Z</time>
      </trkpt>
      <trkpt lat="41.40132455216303" lon="-81.74206206237461">
        <ele>265.6003183566</ele>
        <time>2026-04-12T16:21:44Z</time>
      </trkpt>
      <trkpt lat="41.40131671565080" lon="-81.74237967080437">
        <ele>264.5814815326</ele>
        <time>2026-04-12T16:22:20Z</time>
      </trkpt>
      <trkpt lat="41.40133053469908" lon="-81.74237397165307">
        <ele>264.8286385404</ele>
        <time>2026-04-12T16:22:21Z</time>
      </trkpt>
      <trkpt lat="41.40089802245650" lon="-81.74217603146685">
        <ele>265.1602934940</ele>
        <time>2026-04-12T16:22:59Z</time>
      </trkpt>
      <trkpt lat="41.40046549702767" lon="-81.74199581346235">
        <ele>265.2044631979</ele>
        <time>2026-04-12T16:23:40Z</time>
      </trkpt>
      <trkpt lat="41.40004379572046" lon="-81.74179659547038">
        <ele>265.6733307500</ele>
        <time>2026-04-12T16:24:11Z</time>
      </trkpt>
      <trkpt lat="41.39962204591774" lon="-81.74160132294560">
        <ele>264.9855578622</ele>
        <time>2026-04-12T16:25:06Z</time>
      </trkpt>
      <trkpt lat="41.39954594148042" lon="-81.74157304285903">
        <ele>264.6547762123</ele>
        <time>2026-04-12T16:25:13Z</time>
      </trkpt>
      <trkpt lat="41.39954015982902" lon="-81.74097662458880">
        <ele>265.6850492435</ele>
        <time>2026-04-12T16:26:04Z</time>
      </trkpt>
      <trkpt lat="41.39954225689917" lon="-81.74036993100334">
        <ele>266.0078989002</ele>
        <time>2026-04-12T16:26:46Z</time>
      </trkpt>
      <trkpt lat="41.39955057987611" lon="-81.73977514021421">
        <ele>266.4622898244</ele>
        <time>2026-04-12T16:27:22Z</time>
      </trkpt>
      <trkpt lat="41.39954836212594" lon="-81.73917954121325">
        <ele>267.0000920531</ele>
        <time>2026-04-12T16:28:01Z</time>
      </trkpt>
      <trkpt lat="41.39952761731474" lon="-81.73857487191458">
        <ele>267.0411341219</ele>
        <time>2026-04-12T16:28:45Z</time>
      </trkpt>
      <trkpt lat="41.39953812487983" lon="-81.73829780817795">
        <ele>267.0612990463</ele>
        <time>2026-04-12T16:29:00Z</time>
      </trkpt>
      <trkpt lat="41.39953572573147" lon="-81.73829701689108">
        <ele>267.1270839518</ele>
        <time>2026-04-12T16:29:01Z</time>
      </trkpt>
      <trkpt lat="41.39997674743613" lon="-81.73829870928320">
        <ele>267.0215583923</ele>
        <time>2026-04-12T16:29:47Z</time>
      </trkpt>
      <trkpt lat="41.40043488892154" lon="-81.73830374359480">
        <ele>267.2057424548</ele>
        <time>2026-04-12T16:30:33Z</time>
      </trkpt>
      <trkpt lat="41.40088338610450" lon="-81.73829564577318">
        <ele>267.4351384658</ele>
        <time>2026-04-12T16:31:14Z</time>
      </trkpt>
      <trkpt lat="41.40132012597050" lon="-81.73830659705783">
        <ele>267.2878287481</ele>
        <time>2026-04-12T16:31:55Z</time>
      </trkpt>
      <trkpt lat="41.40132355177418" lon="-81.73890274788607">
        <ele>267.5195852788</ele>
        <time>2026-04-12T16:32:35Z</time>
      </trkpt>
      <trkpt lat="41.40133888541433" lon="-81.73949644108542">
        <ele>267.3093514242</ele>
        <time>2026-04-12T16:33:10Z</time>
      </trkpt>
      <trkpt lat="41.40133863695362" lon="-81.74010483401990">
        <ele>266.5578609913</ele>
        <time>2026-04-12T16:33:44Z</time>
      </trkpt>
      <trkpt lat="41.40134415455366" lon="-81.74015762140641">
        <ele>266.6173845569</ele>
        <time>2026-04-12T16:33:47Z</time>
      </trkpt>
    </trkseg>
  </trk>
</gpx>