<?xml version='1.0' encoding='UTF-8'?>
<gpx xmlns="http://www.topografix.com/GPX/1/1" creator="https://gpx.studio" version="1.1">
  <metadata>
    <name>Dog Walk - 2026-03-27 #2</name>
  </metadata>
  <trk>
    <name>Dog Walk - 2026-03-27 #2</name>
    <type>dog walk</type>
    <trkseg>
      <trkpt lat="41.40134793679575" lon="-81.74022613411877">
        <ele>266.4676294320</ele>
        <time>2026-03-27T18:34:08Z</time>
      </trkpt>
      <trkpt lat="41.40134532338109" lon="-81.74084660029226">
        <ele>266.1973820931</ele>
        <time>2026-03-27T18:34:41Z</time>
      </trkpt>
      <trkpt lat="41.40135073511311" lon="-81.74142866280557">
        <ele>265.8409359015</ele>
        <time>2026-03-27T18:35:22Z</time>
      </trkpt>
      <trkpt lat="41.40134075455620" lon="-81.74203685986799">
        <ele>265.3747088241</ele>
        <time>2026-03-27T18:36:01Z</time>
      </trkpt>
      <trkpt lat="41.40134321644190" lon="-81.74242053677776">
        <ele>264.7459102659</ele>
        <time>2026-03-27T18:36:26Z</time>
      </trkpt>
      <trkpt lat="41.40176811875141" lon="-81.74263127602858">
        <ele>264.3455404823</ele>
        <time>2026-03-27T18:37:08Z</time>
      </trkpt>
      <trkpt lat="41.40218193479588" lon="-81.74284112136644">
        <ele>263.4524134449</ele>
        <time>2026-03-27T18:38:00Z</time>
      </trkpt>
      <trkpt lat="41.40221780332959" lon="-81.74286788816528">
        <ele>263.3701900009</ele>
        <time>2026-03-27T18:38:04Z</time>
      </trkpt>
      <trkpt lat="41.40221488717920" lon="-81.74226808026312">
        <ele>264.0202508100</ele>
        <time>2026-03-27T18:38:50Z</time>
      </trkpt>
      <trkpt lat="41.40221009339709" lon="-81.74167048438224">
        <ele>264.7000094290</ele>
        <time>2026-03-27T18:39:26Z</time>
      </trkpt>
      <trkpt lat="41.40221904826915" lon="-81.74106636519871">
        <ele>265.4052337717</ele>
        <time>2026-03-27T18:40:10Z</time>
      </trkpt>
      <trkpt lat="41.40222612180530" lon="-81.74046487738778">
        <ele>265.9098688093</ele>
        <time>2026-03-27T18:40:50Z</time>
      </trkpt>
      <trkpt lat="41.40221396101940" lon="-81.73987663768779">
        <ele>266.5642402714</ele>
        <time>2026-03-27T18:41:48Z</time>
      </trkpt>
      <trkpt lat="41.40221750047013" lon="-81.73926043095054">
        <ele>267.0920890858</ele>
        <time>2026-03-27T18:42:43Z</time>
      </trkpt>
      <trkpt lat="41.40221733650840" lon="-81.73867520552758">
        <ele>267.2050859184</ele>
        <time>2026-03-27T18:43:24Z</time>
      </trkpt>
      <trkpt lat="41.40221303681359" lon="-81.73827086983150">
        <ele>267.1289086209</ele>
        <time>2026-03-27T18:43:48Z</time>
      </trkpt>
      <trkpt lat="41.40175934110574" lon="-81.73826591885026">
        <ele>267.8274040352</ele>
        <time>2026-03-27T18:44:26Z</time>
      </trkpt>
      <trkpt lat="41.40133915950706" lon="-81.73826537740975">
        <ele>267.6208951442</ele>
        <time>2026-03-27T18:45:10Z</time>
      </trkpt>
      <trkpt lat="41.40133619746466" lon="-81.73885968646086">
        <ele>267.4034104177</ele>
        <time>2026-03-27T18:45:58Z</time>
      </trkpt>
      <trkpt lat="41.40133311792530" lon="-81.73945591405580">
        <ele>267.1318096498</ele>
        <time>2026-03-27T18:46:29Z</time>
      </trkpt>
      <trkpt lat="41.40133980181533" lon="-81.74005942814881">
        <ele>266.3860083759</ele>
        <time>2026-03-27T18:47:13Z</time>
      </trkpt>
      <trkpt lat="41.40134540312663" lon="-81.74018827399188">
        <ele>266.6326828243</ele>
        <time>2026-03-27T18:47:21Z</time>
      </trkpt>
    </trkseg>
  </trk>
</gpx>