<?xml version='1.0' encoding='UTF-8'?>
<gpx xmlns="http://www.topografix.com/GPX/1/1" creator="https://gpx.studio" version="1.1">
  <metadata>
    <name>Dog Walk - 2026-06-26 #4</name>
  </metadata>
  <trk>
    <name>Dog Walk - 2026-06-26 #4</name>
    <type>dog walk</type>
    <trkseg>
      <trkpt lat="41.40134856547556" lon="-81.74023149162920">
        <ele>266.4931981359</ele>
        <time>2026-06-26T19:54:00Z</time>
      </trkpt>
      <trkpt lat="41.40134040708966" lon="-81.74082689001857">
        <ele>266.1645386523</ele>
        <time>2026-06-26T19:54:42Z</time>
      </trkpt>
      <trkpt lat="41.40133281483595" lon="-81.74143234735399">
        <ele>265.8267639550</ele>
        <time>2026-06-26T19:55:16Z</time>
      </trkpt>
      <trkpt lat="41.40133687254553" lon="-81.74202277293107">
        <ele>265.3686213942</ele>
        <time>2026-06-26T19:55:47Z</time>
      </trkpt>
      <trkpt lat="41.40134154662543" lon="-81.74238523679476">
        <ele>264.8708115177</ele>
        <time>2026-06-26T19:56:17Z</time>
      </trkpt>
      <trkpt lat="41.40091009408724" lon="-81.74218019627847">
        <ele>265.2434801488</ele>
        <time>2026-06-26T19:57:25Z</time>
      </trkpt>
      <trkpt lat="41.40049498889929" lon="-81.74196183226726">
        <ele>265.2139716103</ele>
        <time>2026-06-26T19:58:00Z</time>
      </trkpt>
      <trkpt lat="41.40045592142673" lon="-81.74195543972890">
        <ele>265.3707594309</ele>
        <time>2026-06-26T19:58:03Z</time>
      </trkpt>
      <trkpt lat="41.40044091680063" lon="-81.74134645805975">
        <ele>266.0049751454</ele>
        <time>2026-06-26T19:58:46Z</time>
      </trkpt>
      <trkpt lat="41.40044628737131" lon="-81.74074235091770">
        <ele>266.5790319638</ele>
        <time>2026-06-26T19:59:25Z</time>
      </trkpt>
      <trkpt lat="41.40044792231593" lon="-81.74014596545467">
        <ele>266.7525717728</ele>
        <time>2026-06-26T20:00:08Z</time>
      </trkpt>
      <trkpt lat="41.40042828813626" lon="-81.73955586194595">
        <ele>266.8386126826</ele>
        <time>2026-06-26T20:00:54Z</time>
      </trkpt>
      <trkpt lat="41.40041948310129" lon="-81.73895759901164">
        <ele>267.0431352737</ele>
        <time>2026-06-26T20:01:38Z</time>
      </trkpt>
      <trkpt lat="41.40042140841257" lon="-81.73834734253334">
        <ele>267.2487772436</ele>
        <time>2026-06-26T20:02:15Z</time>
      </trkpt>
      <trkpt lat="41.40041251772476" lon="-81.73774473084332">
        <ele>267.7567334141</ele>
        <time>2026-06-26T20:03:00Z</time>
      </trkpt>
      <trkpt lat="41.40041552164115" lon="-81.73714945699982">
        <ele>268.0456893149</ele>
        <time>2026-06-26T20:03:33Z</time>
      </trkpt>
      <trkpt lat="41.40040645408540" lon="-81.73655393639098">
        <ele>267.9881294705</ele>
        <time>2026-06-26T20:04:12Z</time>
      </trkpt>
      <trkpt lat="41.40040544613315" lon="-81.73595940096833">
        <ele>268.0411380675</ele>
        <time>2026-06-26T20:04:48Z</time>
      </trkpt>
      <trkpt lat="41.40039676838553" lon="-81.73535877943053">
        <ele>267.8394970735</ele>
        <time>2026-06-26T20:05:28Z</time>
      </trkpt>
      <trkpt lat="41.40039921197617" lon="-81.73475399742178">
        <ele>267.5624985218</ele>
        <time>2026-06-26T20:06:12Z</time>
      </trkpt>
      <trkpt lat="41.40040196437889" lon="-81.73463218641704">
        <ele>267.3877729568</ele>
        <time>2026-06-26T20:06:19Z</time>
      </trkpt>
      <trkpt lat="41.40084573524816" lon="-81.73463216296361">
        <ele>267.2835863790</ele>
        <time>2026-06-26T20:07:04Z</time>
      </trkpt>
      <trkpt lat="41.40129673096774" lon="-81.73463960513098">
        <ele>267.2301334455</ele>
        <time>2026-06-26T20:07:53Z</time>
      </trkpt>
      <trkpt lat="41.40131981006855" lon="-81.73463194245996">
        <ele>267.3848776922</ele>
        <time>2026-06-26T20:07:56Z</time>
      </trkpt>
      <trkpt lat="41.40131768760019" lon="-81.73524320411967">
        <ele>267.8123703954</ele>
        <time>2026-06-26T20:08:44Z</time>
      </trkpt>
      <trkpt lat="41.40132267045094" lon="-81.73583729075041">
        <ele>268.1386802275</ele>
        <time>2026-06-26T20:09:24Z</time>
      </trkpt>
      <trkpt lat="41.40132740263435" lon="-81.73642202671007">
        <ele>268.3690177087</ele>
        <time>2026-06-26T20:10:16Z</time>
      </trkpt>
      <trkpt lat="41.40132511751121" lon="-81.73702777421487">
        <ele>268.1068456906</ele>
        <time>2026-06-26T20:10:51Z</time>
      </trkpt>
      <trkpt lat="41.40133331832423" lon="-81.73762721762300">
        <ele>267.9180007959</ele>
        <time>2026-06-26T20:11:27Z</time>
      </trkpt>
      <trkpt lat="41.40133575085506" lon="-81.73822751625997">
        <ele>267.6771988837</ele>
        <time>2026-06-26T20:12:11Z</time>
      </trkpt>
      <trkpt lat="41.40133817156475" lon="-81.73882673982872">
        <ele>267.1976473885</ele>
        <time>2026-06-26T20:12:58Z</time>
      </trkpt>
      <trkpt lat="41.40134563501472" lon="-81.73942064741453">
        <ele>267.1885972816</ele>
        <time>2026-06-26T20:13:33Z</time>
      </trkpt>
      <trkpt lat="41.40134906989613" lon="-81.74002837179340">
        <ele>266.6278357875</ele>
        <time>2026-06-26T20:14:16Z</time>
      </trkpt>
      <trkpt lat="41.40134374615102" lon="-81.74019753020484">
        <ele>266.5025049684</ele>
        <time>2026-06-26T20:14:26Z</time>
      </trkpt>
    </trkseg>
  </trk>
</gpx>