<?xml version='1.0' encoding='UTF-8'?>
<gpx xmlns="http://www.topografix.com/GPX/1/1" creator="https://gpx.studio" version="1.1">
  <metadata>
    <name>Dog Walk - 2026-03-21 #1</name>
  </metadata>
  <trk>
    <name>Dog Walk - 2026-03-21 #1</name>
    <type>dog walk</type>
    <trkseg>
      <trkpt lat="41.40134402306621" lon="-81.74022776056908">
        <ele>266.8107103119</ele>
        <time>2026-03-21T07:03:49Z</time>
      </trkpt>
      <trkpt lat="41.40134561013456" lon="-81.74083357049804">
        <ele>266.2094254230</ele>
        <time>2026-03-21T07:04:33Z</time>
      </trkpt>
      <trkpt lat="41.40132842749346" lon="-81.74143373388442">
        <ele>265.8074964161</ele>
        <time>2026-03-21T07:05:24Z</time>
      </trkpt>
      <trkpt lat="41.40132712875958" lon="-81.74202067514378">
        <ele>265.2685615425</ele>
        <time>2026-03-21T07:06:11Z</time>
      </trkpt>
      <trkpt lat="41.40132692874152" lon="-81.74239804067412">
        <ele>265.0246801818</ele>
        <time>2026-03-21T07:06:37Z</time>
      </trkpt>
      <trkpt lat="41.40089950928689" lon="-81.74217232723177">
        <ele>265.3068819495</ele>
        <time>2026-03-21T07:07:09Z</time>
      </trkpt>
      <trkpt lat="41.40049240390463" lon="-81.74196960755052">
        <ele>265.1344397133</ele>
        <time>2026-03-21T07:08:09Z</time>
      </trkpt>
      <trkpt lat="41.40045057816340" lon="-81.74195080731145">
        <ele>265.2339485679</ele>
        <time>2026-03-21T07:08:13Z</time>
      </trkpt>
      <trkpt lat="41.40044576275729" lon="-81.74135866139746">
        <ele>265.8432744443</ele>
        <time>2026-03-21T07:08:57Z</time>
      </trkpt>
      <trkpt lat="41.40044504001671" lon="-81.74075377994799">
        <ele>266.2477743198</ele>
        <time>2026-03-21T07:09:39Z</time>
      </trkpt>
      <trkpt lat="41.40043128730022" lon="-81.74015755245318">
        <ele>266.6386996009</ele>
        <time>2026-03-21T07:10:19Z</time>
      </trkpt>
      <trkpt lat="41.40043593639518" lon="-81.73955303955113">
        <ele>267.1264157204</ele>
        <time>2026-03-21T07:11:04Z</time>
      </trkpt>
      <trkpt lat="41.40043397925057" lon="-81.73895082732336">
        <ele>267.1620610019</ele>
        <time>2026-03-21T07:11:58Z</time>
      </trkpt>
      <trkpt lat="41.40043608462614" lon="-81.73834786787447">
        <ele>267.2070421617</ele>
        <time>2026-03-21T07:12:39Z</time>
      </trkpt>
      <trkpt lat="41.40041350260876" lon="-81.73776140852131">
        <ele>267.6832495552</ele>
        <time>2026-03-21T07:13:24Z</time>
      </trkpt>
      <trkpt lat="41.40041069024604" lon="-81.73715139004412">
        <ele>267.9425224879</ele>
        <time>2026-03-21T07:14:02Z</time>
      </trkpt>
      <trkpt lat="41.40040715042682" lon="-81.73654294556800">
        <ele>268.1279045346</ele>
        <time>2026-03-21T07:14:37Z</time>
      </trkpt>
      <trkpt lat="41.40040121339697" lon="-81.73595853888737">
        <ele>267.9015955704</ele>
        <time>2026-03-21T07:15:08Z</time>
      </trkpt>
      <trkpt lat="41.40039776348310" lon="-81.73534123713921">
        <ele>267.8975610776</ele>
        <time>2026-03-21T07:15:52Z</time>
      </trkpt>
      <trkpt lat="41.40038838155424" lon="-81.73473964140226">
        <ele>267.6022412927</ele>
        <time>2026-03-21T07:16:44Z</time>
      </trkpt>
      <trkpt lat="41.40040176239049" lon="-81.73463401739490">
        <ele>267.3485355574</ele>
        <time>2026-03-21T07:16:52Z</time>
      </trkpt>
      <trkpt lat="41.40084087159254" lon="-81.73462388216795">
        <ele>267.0462221559</ele>
        <time>2026-03-21T07:17:40Z</time>
      </trkpt>
      <trkpt lat="41.40130041823969" lon="-81.73462614802986">
        <ele>267.6332134370</ele>
        <time>2026-03-21T07:18:20Z</time>
      </trkpt>
      <trkpt lat="41.40131405329263" lon="-81.73462830153667">
        <ele>267.3938264305</ele>
        <time>2026-03-21T07:18:21Z</time>
      </trkpt>
      <trkpt lat="41.40132486747516" lon="-81.73523344442016">
        <ele>267.9014454745</ele>
        <time>2026-03-21T07:18:53Z</time>
      </trkpt>
      <trkpt lat="41.40133140951315" lon="-81.73582766444905">
        <ele>268.2596258091</ele>
        <time>2026-03-21T07:19:36Z</time>
      </trkpt>
      <trkpt lat="41.40132767096214" lon="-81.73643981052888">
        <ele>268.1629748381</ele>
        <time>2026-03-21T07:20:13Z</time>
      </trkpt>
      <trkpt lat="41.40133948002696" lon="-81.73703457589373">
        <ele>268.0504070178</ele>
        <time>2026-03-21T07:21:00Z</time>
      </trkpt>
      <trkpt lat="41.40132826710351" lon="-81.73763694872882">
        <ele>267.9383468776</ele>
        <time>2026-03-21T07:21:47Z</time>
      </trkpt>
      <trkpt lat="41.40133763758788" lon="-81.73823086150682">
        <ele>267.5992426242</ele>
        <time>2026-03-21T07:22:22Z</time>
      </trkpt>
      <trkpt lat="41.40134452544548" lon="-81.73883400190257">
        <ele>267.3343007554</ele>
        <time>2026-03-21T07:23:13Z</time>
      </trkpt>
      <trkpt lat="41.40134372251366" lon="-81.73942942106409">
        <ele>267.3583578235</ele>
        <time>2026-03-21T07:23:51Z</time>
      </trkpt>
      <trkpt lat="41.40133968951311" lon="-81.74001456006343">
        <ele>266.6085878454</ele>
        <time>2026-03-21T07:24:28Z</time>
      </trkpt>
      <trkpt lat="41.40134834215348" lon="-81.74020230966499">
        <ele>266.5462483410</ele>
        <time>2026-03-21T07:24:41Z</time>
      </trkpt>
    </trkseg>
  </trk>
</gpx>