<?xml version='1.0' encoding='UTF-8'?>
<gpx xmlns="http://www.topografix.com/GPX/1/1" creator="https://gpx.studio" version="1.1">
  <metadata>
    <name>Dog Walk - 2026-08-23 #3</name>
  </metadata>
  <trk>
    <name>Dog Walk - 2026-08-23 #3</name>
    <type>dog walk</type>
    <trkseg>
      <trkpt lat="41.40134323785504" lon="-81.74023738279145">
        <ele>266.4581119085</ele>
        <time>2026-08-23T19:48:14Z</time>
      </trkpt>
      <trkpt lat="41.40133859903644" lon="-81.74082655140256">
        <ele>266.3723391103</ele>
        <time>2026-08-23T19:48:52Z</time>
      </trkpt>
      <trkpt lat="41.40133751995513" lon="-81.74143389568069">
        <ele>265.7338896854</ele>
        <time>2026-08-23T19:49:27Z</time>
      </trkpt>
      <trkpt lat="41.40133630138859" lon="-81.74202591106067">
        <ele>265.2346767926</ele>
        <time>2026-08-23T19:49:53Z</time>
      </trkpt>
      <trkpt lat="41.40132892470880" lon="-81.74239661882632">
        <ele>264.4606590193</ele>
        <time>2026-08-23T19:50:14Z</time>
      </trkpt>
      <trkpt lat="41.40090834974275" lon="-81.74217759193709">
        <ele>265.2805256215</ele>
        <time>2026-08-23T19:50:50Z</time>
      </trkpt>
      <trkpt lat="41.40048612643612" lon="-81.74197086060332">
        <ele>265.0554441420</ele>
        <time>2026-08-23T19:51:49Z</time>
      </trkpt>
      <trkpt lat="41.40045131817038" lon="-81.74194993736590">
        <ele>265.3567536133</ele>
        <time>2026-08-23T19:51:52Z</time>
      </trkpt>
      <trkpt lat="41.40045346065170" lon="-81.74134460188711">
        <ele>265.8925469046</ele>
        <time>2026-08-23T19:52:36Z</time>
      </trkpt>
      <trkpt lat="41.40043627049371" lon="-81.74074182442357">
        <ele>266.3825780604</ele>
        <time>2026-08-23T19:53:13Z</time>
      </trkpt>
      <trkpt lat="41.40044418003512" lon="-81.74014589945561">
        <ele>266.7963895737</ele>
        <time>2026-08-23T19:53:51Z</time>
      </trkpt>
      <trkpt lat="41.40043025272359" lon="-81.73954301903406">
        <ele>267.0038362440</ele>
        <time>2026-08-23T19:54:30Z</time>
      </trkpt>
      <trkpt lat="41.40042375383540" lon="-81.73894944639797">
        <ele>267.0865681131</ele>
        <time>2026-08-23T19:55:24Z</time>
      </trkpt>
      <trkpt lat="41.40042316883057" lon="-81.73835941631621">
        <ele>267.3724819806</ele>
        <time>2026-08-23T19:56:03Z</time>
      </trkpt>
      <trkpt lat="41.40041927303347" lon="-81.73775817065780">
        <ele>267.6350616861</ele>
        <time>2026-08-23T19:56:34Z</time>
      </trkpt>
      <trkpt lat="41.40041472241160" lon="-81.73715925868440">
        <ele>267.5810279528</ele>
        <time>2026-08-23T19:57:17Z</time>
      </trkpt>
      <trkpt lat="41.40040975364648" lon="-81.73655693658378">
        <ele>268.0122523306</ele>
        <time>2026-08-23T19:58:01Z</time>
      </trkpt>
      <trkpt lat="41.40040513911676" lon="-81.73594572152565">
        <ele>268.0287673814</ele>
        <time>2026-08-23T19:58:33Z</time>
      </trkpt>
      <trkpt lat="41.40039633833346" lon="-81.73534782321876">
        <ele>267.8419880425</ele>
        <time>2026-08-23T19:59:03Z</time>
      </trkpt>
      <trkpt lat="41.40039432060078" lon="-81.73475131730640">
        <ele>267.4855617632</ele>
        <time>2026-08-23T19:59:43Z</time>
      </trkpt>
      <trkpt lat="41.40038257634151" lon="-81.73463140834737">
        <ele>267.1309990878</ele>
        <time>2026-08-23T19:59:51Z</time>
      </trkpt>
      <trkpt lat="41.40083735224866" lon="-81.73462988020988">
        <ele>267.2981840334</ele>
        <time>2026-08-23T20:00:36Z</time>
      </trkpt>
      <trkpt lat="41.40129263190062" lon="-81.73463075595312">
        <ele>267.3349884054</ele>
        <time>2026-08-23T20:01:17Z</time>
      </trkpt>
      <trkpt lat="41.40132135271379" lon="-81.73464337875747">
        <ele>267.3472311092</ele>
        <time>2026-08-23T20:01:19Z</time>
      </trkpt>
      <trkpt lat="41.40131700354755" lon="-81.73522866561258">
        <ele>267.9606261411</ele>
        <time>2026-08-23T20:02:03Z</time>
      </trkpt>
      <trkpt lat="41.40132928721980" lon="-81.73583953685689">
        <ele>268.2592606480</ele>
        <time>2026-08-23T20:02:36Z</time>
      </trkpt>
      <trkpt lat="41.40132457683054" lon="-81.73643802750496">
        <ele>268.1671868119</ele>
        <time>2026-08-23T20:03:10Z</time>
      </trkpt>
      <trkpt lat="41.40133579512773" lon="-81.73703230958915">
        <ele>268.0814297082</ele>
        <time>2026-08-23T20:03:53Z</time>
      </trkpt>
      <trkpt lat="41.40133350517774" lon="-81.73763794949595">
        <ele>267.7738472463</ele>
        <time>2026-08-23T20:04:40Z</time>
      </trkpt>
      <trkpt lat="41.40133570959344" lon="-81.73822122377116">
        <ele>267.6763973925</ele>
        <time>2026-08-23T20:05:17Z</time>
      </trkpt>
      <trkpt lat="41.40133060828182" lon="-81.73882807731403">
        <ele>267.3708592095</ele>
        <time>2026-08-23T20:06:06Z</time>
      </trkpt>
      <trkpt lat="41.40134022616991" lon="-81.73943616157280">
        <ele>267.1408966951</ele>
        <time>2026-08-23T20:06:38Z</time>
      </trkpt>
      <trkpt lat="41.40134956634334" lon="-81.74002831193633">
        <ele>266.8857450585</ele>
        <time>2026-08-23T20:07:17Z</time>
      </trkpt>
      <trkpt lat="41.40134522534216" lon="-81.74019745319836">
        <ele>266.6464156226</ele>
        <time>2026-08-23T20:07:29Z</time>
      </trkpt>
    </trkseg>
  </trk>
</gpx>