<?xml version='1.0' encoding='UTF-8'?>
<gpx xmlns="http://www.topografix.com/GPX/1/1" creator="https://gpx.studio" version="1.1">
  <metadata>
    <name>Dog Walk - 2026-02-22 #1</name>
  </metadata>
  <trk>
    <name>Dog Walk - 2026-02-22 #1</name>
    <type>dog walk</type>
    <trkseg>
      <trkpt lat="41.40134426148785" lon="-81.74023935959082">
        <ele>266.7714273947</ele>
        <time>2026-02-22T09:48:45Z</time>
      </trkpt>
      <trkpt lat="41.40134386969794" lon="-81.74083109415346">
        <ele>266.2041631692</ele>
        <time>2026-02-22T09:49:18Z</time>
      </trkpt>
      <trkpt lat="41.40133731273853" lon="-81.74143511182129">
        <ele>265.9694066672</ele>
        <time>2026-02-22T09:49:53Z</time>
      </trkpt>
      <trkpt lat="41.40133040584550" lon="-81.74203590990807">
        <ele>265.2740916804</ele>
        <time>2026-02-22T09:50:25Z</time>
      </trkpt>
      <trkpt lat="41.40133726465366" lon="-81.74237599997652">
        <ele>264.6206413415</ele>
        <time>2026-02-22T09:50:57Z</time>
      </trkpt>
      <trkpt lat="41.40090779031162" lon="-81.74217441005146">
        <ele>265.1172895937</ele>
        <time>2026-02-22T09:51:32Z</time>
      </trkpt>
      <trkpt lat="41.40049183972620" lon="-81.74196727633696">
        <ele>265.2079125318</ele>
        <time>2026-02-22T09:52:02Z</time>
      </trkpt>
      <trkpt lat="41.40044978573295" lon="-81.74194942802060">
        <ele>265.4286629047</ele>
        <time>2026-02-22T09:52:07Z</time>
      </trkpt>
      <trkpt lat="41.40044210993226" lon="-81.74134879759120">
        <ele>266.1096476889</ele>
        <time>2026-02-22T09:53:02Z</time>
      </trkpt>
      <trkpt lat="41.40043906838997" lon="-81.74075333380291">
        <ele>266.3238861245</ele>
        <time>2026-02-22T09:53:32Z</time>
      </trkpt>
      <trkpt lat="41.40043047562244" lon="-81.74014747088540">
        <ele>266.6285844708</ele>
        <time>2026-02-22T09:54:14Z</time>
      </trkpt>
      <trkpt lat="41.40043645149256" lon="-81.73954716668402">
        <ele>267.0596345846</ele>
        <time>2026-02-22T09:55:04Z</time>
      </trkpt>
      <trkpt lat="41.40042994196065" lon="-81.73896402695082">
        <ele>267.2674188099</ele>
        <time>2026-02-22T09:55:33Z</time>
      </trkpt>
      <trkpt lat="41.40041992513459" lon="-81.73834560617104">
        <ele>267.2347407740</ele>
        <time>2026-02-22T09:56:10Z</time>
      </trkpt>
      <trkpt lat="41.40041753187226" lon="-81.73774801132011">
        <ele>267.5214717861</ele>
        <time>2026-02-22T09:57:01Z</time>
      </trkpt>
      <trkpt lat="41.40040778774326" lon="-81.73715559846539">
        <ele>268.1287239776</ele>
        <time>2026-02-22T09:57:41Z</time>
      </trkpt>
      <trkpt lat="41.40040727931195" lon="-81.73655282151482">
        <ele>267.9642842136</ele>
        <time>2026-02-22T09:58:19Z</time>
      </trkpt>
      <trkpt lat="41.40040618538507" lon="-81.73594763299141">
        <ele>268.0229412278</ele>
        <time>2026-02-22T09:58:56Z</time>
      </trkpt>
      <trkpt lat="41.40039654235274" lon="-81.73536079810221">
        <ele>268.0473878925</ele>
        <time>2026-02-22T09:59:27Z</time>
      </trkpt>
      <trkpt lat="41.40039318810198" lon="-81.73475727257151">
        <ele>267.2976706948</ele>
        <time>2026-02-22T10:00:34Z</time>
      </trkpt>
      <trkpt lat="41.40038133131993" lon="-81.73463986230394">
        <ele>267.5395446623</ele>
        <time>2026-02-22T10:00:43Z</time>
      </trkpt>
      <trkpt lat="41.40084654847757" lon="-81.73463719173927">
        <ele>267.2869097188</ele>
        <time>2026-02-22T10:01:29Z</time>
      </trkpt>
      <trkpt lat="41.40129108487098" lon="-81.73463507195295">
        <ele>267.4480097610</ele>
        <time>2026-02-22T10:02:23Z</time>
      </trkpt>
      <trkpt lat="41.40131612744268" lon="-81.73463938655802">
        <ele>267.3669733338</ele>
        <time>2026-02-22T10:02:26Z</time>
      </trkpt>
      <trkpt lat="41.40132726191182" lon="-81.73523224270895">
        <ele>267.7858196448</ele>
        <time>2026-02-22T10:03:05Z</time>
      </trkpt>
      <trkpt lat="41.40131853471527" lon="-81.73583254817564">
        <ele>268.0674638168</ele>
        <time>2026-02-22T10:03:38Z</time>
      </trkpt>
      <trkpt lat="41.40133230911610" lon="-81.73643173471822">
        <ele>268.0110313971</ele>
        <time>2026-02-22T10:04:17Z</time>
      </trkpt>
      <trkpt lat="41.40132978701860" lon="-81.73703149013922">
        <ele>267.9944093393</ele>
        <time>2026-02-22T10:05:05Z</time>
      </trkpt>
      <trkpt lat="41.40133117573163" lon="-81.73762469365906">
        <ele>268.0294417940</ele>
        <time>2026-02-22T10:05:40Z</time>
      </trkpt>
      <trkpt lat="41.40133298494724" lon="-81.73822875151599">
        <ele>267.7459362163</ele>
        <time>2026-02-22T10:06:15Z</time>
      </trkpt>
      <trkpt lat="41.40133911367523" lon="-81.73883806546297">
        <ele>267.6567643914</ele>
        <time>2026-02-22T10:06:53Z</time>
      </trkpt>
      <trkpt lat="41.40133888747327" lon="-81.73943073837059">
        <ele>267.1982817752</ele>
        <time>2026-02-22T10:07:34Z</time>
      </trkpt>
      <trkpt lat="41.40135469838300" lon="-81.74003539015236">
        <ele>266.8606205859</ele>
        <time>2026-02-22T10:08:27Z</time>
      </trkpt>
      <trkpt lat="41.40135171437867" lon="-81.74019885093317">
        <ele>266.5914230998</ele>
        <time>2026-02-22T10:08:37Z</time>
      </trkpt>
    </trkseg>
  </trk>
</gpx>