<?xml version='1.0' encoding='UTF-8'?>
<gpx xmlns="http://www.topografix.com/GPX/1/1" creator="https://gpx.studio" version="1.1">
  <metadata>
    <name>Dog Walk - 2026-06-16 #1</name>
  </metadata>
  <trk>
    <name>Dog Walk - 2026-06-16 #1</name>
    <type>dog walk</type>
    <trkseg>
      <trkpt lat="41.40132474573584" lon="-81.74022920204750">
        <ele>266.5408631227</ele>
        <time>2026-06-16T08:40:54Z</time>
      </trkpt>
      <trkpt lat="41.40132931793018" lon="-81.74083729904550">
        <ele>266.1544000625</ele>
        <time>2026-06-16T08:41:50Z</time>
      </trkpt>
      <trkpt lat="41.40133985181306" lon="-81.74143269949195">
        <ele>265.8646378940</ele>
        <time>2026-06-16T08:42:28Z</time>
      </trkpt>
      <trkpt lat="41.40132663686491" lon="-81.74203216602166">
        <ele>265.4315679345</ele>
        <time>2026-06-16T08:43:14Z</time>
      </trkpt>
      <trkpt lat="41.40132843876387" lon="-81.74239717573445">
        <ele>264.9434498783</ele>
        <time>2026-06-16T08:43:38Z</time>
      </trkpt>
      <trkpt lat="41.40090100977226" lon="-81.74220122816928">
        <ele>265.1882774502</ele>
        <time>2026-06-16T08:44:34Z</time>
      </trkpt>
      <trkpt lat="41.40047975793270" lon="-81.74200017240248">
        <ele>265.2578732413</ele>
        <time>2026-06-16T08:45:20Z</time>
      </trkpt>
      <trkpt lat="41.40005413020680" lon="-81.74180770019649">
        <ele>265.1646855630</ele>
        <time>2026-06-16T08:45:56Z</time>
      </trkpt>
      <trkpt lat="41.39962339004764" lon="-81.74161536665396">
        <ele>264.7927682187</ele>
        <time>2026-06-16T08:46:29Z</time>
      </trkpt>
      <trkpt lat="41.39952779302779" lon="-81.74157746728298">
        <ele>265.0207196334</ele>
        <time>2026-06-16T08:46:36Z</time>
      </trkpt>
      <trkpt lat="41.39953417102634" lon="-81.74097005991719">
        <ele>265.8082299446</ele>
        <time>2026-06-16T08:47:12Z</time>
      </trkpt>
      <trkpt lat="41.39954148253316" lon="-81.74037396632572">
        <ele>266.1901477321</ele>
        <time>2026-06-16T08:47:55Z</time>
      </trkpt>
      <trkpt lat="41.39952382465372" lon="-81.73978175054019">
        <ele>266.6238031283</ele>
        <time>2026-06-16T08:48:42Z</time>
      </trkpt>
      <trkpt lat="41.39953581592962" lon="-81.73917421581336">
        <ele>266.8828102757</ele>
        <time>2026-06-16T08:49:17Z</time>
      </trkpt>
      <trkpt lat="41.39952949413424" lon="-81.73858032541366">
        <ele>266.7355113254</ele>
        <time>2026-06-16T08:49:59Z</time>
      </trkpt>
      <trkpt lat="41.39953538495968" lon="-81.73797759983675">
        <ele>267.0832728338</ele>
        <time>2026-06-16T08:50:44Z</time>
      </trkpt>
      <trkpt lat="41.39953186763506" lon="-81.73737873075466">
        <ele>267.1208690667</ele>
        <time>2026-06-16T08:51:22Z</time>
      </trkpt>
      <trkpt lat="41.39953141311948" lon="-81.73678988241318">
        <ele>267.5213740734</ele>
        <time>2026-06-16T08:52:02Z</time>
      </trkpt>
      <trkpt lat="41.39952495926578" lon="-81.73618128103826">
        <ele>267.2775277944</ele>
        <time>2026-06-16T08:52:51Z</time>
      </trkpt>
      <trkpt lat="41.39953110691670" lon="-81.73557932943751">
        <ele>267.2587774324</ele>
        <time>2026-06-16T08:53:32Z</time>
      </trkpt>
      <trkpt lat="41.39952189650149" lon="-81.73498195004719">
        <ele>267.2827408448</ele>
        <time>2026-06-16T08:54:18Z</time>
      </trkpt>
      <trkpt lat="41.39952434984300" lon="-81.73462010378853">
        <ele>267.0193535636</ele>
        <time>2026-06-16T08:54:43Z</time>
      </trkpt>
      <trkpt lat="41.39997981095692" lon="-81.73462156070148">
        <ele>267.2056098750</ele>
        <time>2026-06-16T08:55:24Z</time>
      </trkpt>
      <trkpt lat="41.40042691701153" lon="-81.73462488825567">
        <ele>267.2920191065</ele>
        <time>2026-06-16T08:56:16Z</time>
      </trkpt>
      <trkpt lat="41.40088172638756" lon="-81.73463778407981">
        <ele>267.3318767835</ele>
        <time>2026-06-16T08:57:08Z</time>
      </trkpt>
      <trkpt lat="41.40131905532817" lon="-81.73464214344325">
        <ele>267.2969689556</ele>
        <time>2026-06-16T08:57:46Z</time>
      </trkpt>
      <trkpt lat="41.40132462153208" lon="-81.73524731365579">
        <ele>267.9539566479</ele>
        <time>2026-06-16T08:58:21Z</time>
      </trkpt>
      <trkpt lat="41.40131992817978" lon="-81.73584484341470">
        <ele>268.0595276109</ele>
        <time>2026-06-16T08:58:55Z</time>
      </trkpt>
      <trkpt lat="41.40131758932935" lon="-81.73644902577529">
        <ele>268.1868346795</ele>
        <time>2026-06-16T08:59:24Z</time>
      </trkpt>
      <trkpt lat="41.40132580797000" lon="-81.73703256433367">
        <ele>268.0061185080</ele>
        <time>2026-06-16T09:00:28Z</time>
      </trkpt>
      <trkpt lat="41.40132180321503" lon="-81.73763216294729">
        <ele>267.8183602933</ele>
        <time>2026-06-16T09:01:12Z</time>
      </trkpt>
      <trkpt lat="41.40132359519845" lon="-81.73823634475750">
        <ele>267.5371625765</ele>
        <time>2026-06-16T09:01:51Z</time>
      </trkpt>
      <trkpt lat="41.40133021570777" lon="-81.73884076004310">
        <ele>267.3214726810</ele>
        <time>2026-06-16T09:02:34Z</time>
      </trkpt>
      <trkpt lat="41.40133708384834" lon="-81.73943635144887">
        <ele>267.2844593212</ele>
        <time>2026-06-16T09:03:07Z</time>
      </trkpt>
      <trkpt lat="41.40133764712422" lon="-81.74003411307361">
        <ele>266.6349943485</ele>
        <time>2026-06-16T09:03:37Z</time>
      </trkpt>
      <trkpt lat="41.40133563464330" lon="-81.74022318473047">
        <ele>266.6337923923</ele>
        <time>2026-06-16T09:03:53Z</time>
      </trkpt>
    </trkseg>
  </trk>
</gpx>