<?xml version='1.0' encoding='UTF-8'?>
<gpx xmlns="http://www.topografix.com/GPX/1/1" creator="https://gpx.studio" version="1.1">
  <metadata>
    <name>Dog Walk - 2026-05-30 #4</name>
  </metadata>
  <trk>
    <name>Dog Walk - 2026-05-30 #4</name>
    <type>dog walk</type>
    <trkseg>
      <trkpt lat="41.40134413876125" lon="-81.74023730903517">
        <ele>266.8185465872</ele>
        <time>2026-05-30T16:07:06Z</time>
      </trkpt>
      <trkpt lat="41.40134400010569" lon="-81.74083968438201">
        <ele>266.1175362033</ele>
        <time>2026-05-30T16:07:51Z</time>
      </trkpt>
      <trkpt lat="41.40133702122719" lon="-81.74143477874243">
        <ele>265.8144120726</ele>
        <time>2026-05-30T16:08:52Z</time>
      </trkpt>
      <trkpt lat="41.40135167177925" lon="-81.74203581913011">
        <ele>265.4046146956</ele>
        <time>2026-05-30T16:09:27Z</time>
      </trkpt>
      <trkpt lat="41.40134640824942" lon="-81.74242239358900">
        <ele>264.6298639138</ele>
        <time>2026-05-30T16:10:02Z</time>
      </trkpt>
      <trkpt lat="41.40177549102782" lon="-81.74261656059258">
        <ele>264.2463263007</ele>
        <time>2026-05-30T16:10:37Z</time>
      </trkpt>
      <trkpt lat="41.40219155173091" lon="-81.74281595593085">
        <ele>263.6343129426</ele>
        <time>2026-05-30T16:11:20Z</time>
      </trkpt>
      <trkpt lat="41.40261814296962" lon="-81.74301407238141">
        <ele>263.0104115064</ele>
        <time>2026-05-30T16:12:24Z</time>
      </trkpt>
      <trkpt lat="41.40304009452090" lon="-81.74321607683723">
        <ele>262.3832016793</ele>
        <time>2026-05-30T16:13:05Z</time>
      </trkpt>
      <trkpt lat="41.40311381752891" lon="-81.74324458499234">
        <ele>262.1954341142</ele>
        <time>2026-05-30T16:13:11Z</time>
      </trkpt>
      <trkpt lat="41.40311097524680" lon="-81.74265013823862">
        <ele>263.4290338178</ele>
        <time>2026-05-30T16:13:41Z</time>
      </trkpt>
      <trkpt lat="41.40311267394982" lon="-81.74205344169202">
        <ele>263.8094869313</ele>
        <time>2026-05-30T16:14:18Z</time>
      </trkpt>
      <trkpt lat="41.40311808331256" lon="-81.74146203402051">
        <ele>264.1537898206</ele>
        <time>2026-05-30T16:15:01Z</time>
      </trkpt>
      <trkpt lat="41.40311040110302" lon="-81.74085529266404">
        <ele>264.9118489198</ele>
        <time>2026-05-30T16:15:55Z</time>
      </trkpt>
      <trkpt lat="41.40310038448992" lon="-81.74025429533407">
        <ele>265.4849961302</ele>
        <time>2026-05-30T16:16:28Z</time>
      </trkpt>
      <trkpt lat="41.40310009681890" lon="-81.73964774063218">
        <ele>265.8711125272</ele>
        <time>2026-05-30T16:17:07Z</time>
      </trkpt>
      <trkpt lat="41.40310355141444" lon="-81.73904983426181">
        <ele>266.0482351056</ele>
        <time>2026-05-30T16:17:42Z</time>
      </trkpt>
      <trkpt lat="41.40309975323748" lon="-81.73879435413249">
        <ele>266.0598267356</ele>
        <time>2026-05-30T16:17:57Z</time>
      </trkpt>
      <trkpt lat="41.40265128073629" lon="-81.73877344688253">
        <ele>266.6470477395</ele>
        <time>2026-05-30T16:18:42Z</time>
      </trkpt>
      <trkpt lat="41.40223374944313" lon="-81.73878140415222">
        <ele>266.8653001273</ele>
        <time>2026-05-30T16:19:19Z</time>
      </trkpt>
      <trkpt lat="41.40223079370710" lon="-81.73818809755009">
        <ele>267.3007891164</ele>
        <time>2026-05-30T16:20:16Z</time>
      </trkpt>
      <trkpt lat="41.40223775877062" lon="-81.73757748729447">
        <ele>267.0969176860</ele>
        <time>2026-05-30T16:20:55Z</time>
      </trkpt>
      <trkpt lat="41.40223248852265" lon="-81.73698048951421">
        <ele>267.1970889917</ele>
        <time>2026-05-30T16:21:28Z</time>
      </trkpt>
      <trkpt lat="41.40223114347232" lon="-81.73639592839439">
        <ele>267.1776043107</ele>
        <time>2026-05-30T16:22:03Z</time>
      </trkpt>
      <trkpt lat="41.40223382636196" lon="-81.73578037300655">
        <ele>267.3624953936</ele>
        <time>2026-05-30T16:22:56Z</time>
      </trkpt>
      <trkpt lat="41.40222263681510" lon="-81.73517985329646">
        <ele>267.2897065483</ele>
        <time>2026-05-30T16:23:35Z</time>
      </trkpt>
      <trkpt lat="41.40223501781048" lon="-81.73465537641690">
        <ele>267.2068712189</ele>
        <time>2026-05-30T16:24:03Z</time>
      </trkpt>
      <trkpt lat="41.40176497791758" lon="-81.73464311934127">
        <ele>267.1429604417</ele>
        <time>2026-05-30T16:25:01Z</time>
      </trkpt>
      <trkpt lat="41.40132342018128" lon="-81.73463408246380">
        <ele>267.4969540780</ele>
        <time>2026-05-30T16:25:46Z</time>
      </trkpt>
      <trkpt lat="41.40131713745529" lon="-81.73463440729680">
        <ele>267.3729479586</ele>
        <time>2026-05-30T16:25:47Z</time>
      </trkpt>
      <trkpt lat="41.40130653540700" lon="-81.73522036791968">
        <ele>268.0675931830</ele>
        <time>2026-05-30T16:26:26Z</time>
      </trkpt>
      <trkpt lat="41.40132691971920" lon="-81.73584155507298">
        <ele>268.2774937200</ele>
        <time>2026-05-30T16:26:58Z</time>
      </trkpt>
      <trkpt lat="41.40132576370900" lon="-81.73643336282211">
        <ele>268.0093742781</ele>
        <time>2026-05-30T16:27:30Z</time>
      </trkpt>
      <trkpt lat="41.40132867962996" lon="-81.73703381865936">
        <ele>267.9903267887</ele>
        <time>2026-05-30T16:28:12Z</time>
      </trkpt>
      <trkpt lat="41.40132929168275" lon="-81.73762974465417">
        <ele>267.8629571438</ele>
        <time>2026-05-30T16:29:07Z</time>
      </trkpt>
      <trkpt lat="41.40133185392504" lon="-81.73823850487135">
        <ele>267.6068810205</ele>
        <time>2026-05-30T16:29:44Z</time>
      </trkpt>
      <trkpt lat="41.40134696208832" lon="-81.73883934311868">
        <ele>267.5286708125</ele>
        <time>2026-05-30T16:30:21Z</time>
      </trkpt>
      <trkpt lat="41.40133638301953" lon="-81.73942513791214">
        <ele>267.1805837200</ele>
        <time>2026-05-30T16:30:50Z</time>
      </trkpt>
      <trkpt lat="41.40134420392885" lon="-81.74002182270273">
        <ele>266.6282768871</ele>
        <time>2026-05-30T16:31:41Z</time>
      </trkpt>
      <trkpt lat="41.40135139177364" lon="-81.74015762839689">
        <ele>266.5512881968</ele>
        <time>2026-05-30T16:32:06Z</time>
      </trkpt>
    </trkseg>
  </trk>
</gpx>