<?xml version='1.0' encoding='UTF-8'?>
<gpx xmlns="http://www.topografix.com/GPX/1/1" creator="https://gpx.studio" version="1.1">
  <metadata>
    <name>Dog Walk - 2026-07-07 #4</name>
  </metadata>
  <trk>
    <name>Dog Walk - 2026-07-07 #4</name>
    <type>dog walk</type>
    <trkseg>
      <trkpt lat="41.40135310700104" lon="-81.74023606263734">
        <ele>266.5836057692</ele>
        <time>2026-07-07T17:09:04Z</time>
      </trkpt>
      <trkpt lat="41.40133409889217" lon="-81.74082822793761">
        <ele>266.3093575150</ele>
        <time>2026-07-07T17:09:43Z</time>
      </trkpt>
      <trkpt lat="41.40133224532124" lon="-81.74142812830156">
        <ele>265.6517944083</ele>
        <time>2026-07-07T17:10:17Z</time>
      </trkpt>
      <trkpt lat="41.40132833989862" lon="-81.74202815452202">
        <ele>265.3449850929</ele>
        <time>2026-07-07T17:10:48Z</time>
      </trkpt>
      <trkpt lat="41.40131630689186" lon="-81.74238829006090">
        <ele>264.7324851915</ele>
        <time>2026-07-07T17:11:10Z</time>
      </trkpt>
      <trkpt lat="41.40091278573322" lon="-81.74217209376469">
        <ele>265.0639279239</ele>
        <time>2026-07-07T17:11:57Z</time>
      </trkpt>
      <trkpt lat="41.40048339909213" lon="-81.74196928474758">
        <ele>265.1397280567</ele>
        <time>2026-07-07T17:12:50Z</time>
      </trkpt>
      <trkpt lat="41.40045053326838" lon="-81.74194399725248">
        <ele>265.3879451666</ele>
        <time>2026-07-07T17:12:54Z</time>
      </trkpt>
      <trkpt lat="41.40044450565376" lon="-81.74134871277030">
        <ele>266.2021367919</ele>
        <time>2026-07-07T17:13:35Z</time>
      </trkpt>
      <trkpt lat="41.40044116591725" lon="-81.74074541520827">
        <ele>266.4891986938</ele>
        <time>2026-07-07T17:14:07Z</time>
      </trkpt>
      <trkpt lat="41.40043874770208" lon="-81.74014332355455">
        <ele>266.9075565601</ele>
        <time>2026-07-07T17:14:54Z</time>
      </trkpt>
      <trkpt lat="41.40043190272664" lon="-81.73954667906315">
        <ele>266.8614252882</ele>
        <time>2026-07-07T17:15:40Z</time>
      </trkpt>
      <trkpt lat="41.40043311281454" lon="-81.73895550121844">
        <ele>266.8681581388</ele>
        <time>2026-07-07T17:16:18Z</time>
      </trkpt>
      <trkpt lat="41.40042026532684" lon="-81.73835196992272">
        <ele>267.1058860234</ele>
        <time>2026-07-07T17:17:07Z</time>
      </trkpt>
      <trkpt lat="41.40042459491062" lon="-81.73775225680241">
        <ele>267.5784233680</ele>
        <time>2026-07-07T17:17:39Z</time>
      </trkpt>
      <trkpt lat="41.40041081337363" lon="-81.73716436141945">
        <ele>268.1688401361</ele>
        <time>2026-07-07T17:18:20Z</time>
      </trkpt>
      <trkpt lat="41.40041109229832" lon="-81.73655686238092">
        <ele>267.8848170759</ele>
        <time>2026-07-07T17:19:04Z</time>
      </trkpt>
      <trkpt lat="41.40039867809897" lon="-81.73594591517856">
        <ele>268.0047214365</ele>
        <time>2026-07-07T17:19:39Z</time>
      </trkpt>
      <trkpt lat="41.40041292674761" lon="-81.73535577240064">
        <ele>267.7298106724</ele>
        <time>2026-07-07T17:20:23Z</time>
      </trkpt>
      <trkpt lat="41.40038490170161" lon="-81.73475954192945">
        <ele>267.1953432465</ele>
        <time>2026-07-07T17:20:56Z</time>
      </trkpt>
      <trkpt lat="41.40039335957287" lon="-81.73462907470544">
        <ele>267.2099775859</ele>
        <time>2026-07-07T17:21:03Z</time>
      </trkpt>
      <trkpt lat="41.40083747449182" lon="-81.73462753458270">
        <ele>267.4451529338</ele>
        <time>2026-07-07T17:21:36Z</time>
      </trkpt>
      <trkpt lat="41.40128715585023" lon="-81.73463940582485">
        <ele>267.3271392419</ele>
        <time>2026-07-07T17:22:22Z</time>
      </trkpt>
      <trkpt lat="41.40132176544000" lon="-81.73463417399600">
        <ele>267.3313373495</ele>
        <time>2026-07-07T17:22:25Z</time>
      </trkpt>
      <trkpt lat="41.40131461299616" lon="-81.73523124641225">
        <ele>268.0249833617</ele>
        <time>2026-07-07T17:23:09Z</time>
      </trkpt>
      <trkpt lat="41.40133010901150" lon="-81.73583445656919">
        <ele>268.4531406361</ele>
        <time>2026-07-07T17:24:07Z</time>
      </trkpt>
      <trkpt lat="41.40133362338826" lon="-81.73643624590787">
        <ele>268.1591775527</ele>
        <time>2026-07-07T17:24:50Z</time>
      </trkpt>
      <trkpt lat="41.40133148032071" lon="-81.73702730317946">
        <ele>268.1406070157</ele>
        <time>2026-07-07T17:25:52Z</time>
      </trkpt>
      <trkpt lat="41.40133879916558" lon="-81.73762454542901">
        <ele>268.0081986017</ele>
        <time>2026-07-07T17:26:38Z</time>
      </trkpt>
      <trkpt lat="41.40133587368048" lon="-81.73823405361306">
        <ele>267.5227477520</ele>
        <time>2026-07-07T17:27:13Z</time>
      </trkpt>
      <trkpt lat="41.40133870957032" lon="-81.73882751122899">
        <ele>267.3500172040</ele>
        <time>2026-07-07T17:28:07Z</time>
      </trkpt>
      <trkpt lat="41.40134577013448" lon="-81.73943050639178">
        <ele>267.1410627580</ele>
        <time>2026-07-07T17:28:42Z</time>
      </trkpt>
      <trkpt lat="41.40133842008688" lon="-81.74002553277114">
        <ele>266.7945403271</ele>
        <time>2026-07-07T17:29:19Z</time>
      </trkpt>
      <trkpt lat="41.40135204993313" lon="-81.74018831115526">
        <ele>266.5609804264</ele>
        <time>2026-07-07T17:29:32Z</time>
      </trkpt>
    </trkseg>
  </trk>
</gpx>