<?xml version='1.0' encoding='UTF-8'?>
<gpx xmlns="http://www.topografix.com/GPX/1/1" creator="https://gpx.studio" version="1.1">
  <metadata>
    <name>Dog Walk - 2026-04-02 #5</name>
  </metadata>
  <trk>
    <name>Dog Walk - 2026-04-02 #5</name>
    <type>dog walk</type>
    <trkseg>
      <trkpt lat="41.40134963959916" lon="-81.74022820345292">
        <ele>266.4460905908</ele>
        <time>2026-04-02T20:12:46Z</time>
      </trkpt>
      <trkpt lat="41.40134060800723" lon="-81.74083191564736">
        <ele>266.1890414603</ele>
        <time>2026-04-02T20:13:28Z</time>
      </trkpt>
      <trkpt lat="41.40133057343426" lon="-81.74143044560763">
        <ele>265.7156667616</ele>
        <time>2026-04-02T20:14:07Z</time>
      </trkpt>
      <trkpt lat="41.40133319911631" lon="-81.74202953813545">
        <ele>265.3682213318</ele>
        <time>2026-04-02T20:14:39Z</time>
      </trkpt>
      <trkpt lat="41.40132523160265" lon="-81.74239866641010">
        <ele>264.5948050353</ele>
        <time>2026-04-02T20:15:05Z</time>
      </trkpt>
      <trkpt lat="41.40089974859649" lon="-81.74218016557001">
        <ele>265.2997681211</ele>
        <time>2026-04-02T20:15:40Z</time>
      </trkpt>
      <trkpt lat="41.40048493485973" lon="-81.74197610767085">
        <ele>265.2101920020</ele>
        <time>2026-04-02T20:16:22Z</time>
      </trkpt>
      <trkpt lat="41.40044664734260" lon="-81.74194507344525">
        <ele>265.4884321876</ele>
        <time>2026-04-02T20:16:27Z</time>
      </trkpt>
      <trkpt lat="41.40044372544091" lon="-81.74135141979890">
        <ele>265.8819586868</ele>
        <time>2026-04-02T20:17:18Z</time>
      </trkpt>
      <trkpt lat="41.40044248336903" lon="-81.74074584566681">
        <ele>266.4179868422</ele>
        <time>2026-04-02T20:18:33Z</time>
      </trkpt>
      <trkpt lat="41.40043716626761" lon="-81.74015334605384">
        <ele>266.7175441392</ele>
        <time>2026-04-02T20:19:10Z</time>
      </trkpt>
      <trkpt lat="41.40043787997384" lon="-81.73954926350827">
        <ele>267.0050710928</ele>
        <time>2026-04-02T20:19:56Z</time>
      </trkpt>
      <trkpt lat="41.40043539590464" lon="-81.73894477247451">
        <ele>266.9991694538</ele>
        <time>2026-04-02T20:20:33Z</time>
      </trkpt>
      <trkpt lat="41.40042490198194" lon="-81.73835328899825">
        <ele>267.2692542698</ele>
        <time>2026-04-02T20:21:15Z</time>
      </trkpt>
      <trkpt lat="41.40042330639115" lon="-81.73775448906949">
        <ele>267.6487763656</ele>
        <time>2026-04-02T20:21:54Z</time>
      </trkpt>
      <trkpt lat="41.40041203045068" lon="-81.73715371666847">
        <ele>267.8121571336</ele>
        <time>2026-04-02T20:22:41Z</time>
      </trkpt>
      <trkpt lat="41.40040161396724" lon="-81.73655213378636">
        <ele>267.8563838454</ele>
        <time>2026-04-02T20:23:26Z</time>
      </trkpt>
      <trkpt lat="41.40040181710216" lon="-81.73595540173734">
        <ele>267.8497255458</ele>
        <time>2026-04-02T20:24:06Z</time>
      </trkpt>
      <trkpt lat="41.40039201235145" lon="-81.73535330480880">
        <ele>267.7668971063</ele>
        <time>2026-04-02T20:24:53Z</time>
      </trkpt>
      <trkpt lat="41.40039699646833" lon="-81.73475196289668">
        <ele>267.2133663754</ele>
        <time>2026-04-02T20:25:30Z</time>
      </trkpt>
      <trkpt lat="41.40038635163025" lon="-81.73462940129892">
        <ele>267.0654342198</ele>
        <time>2026-04-02T20:25:38Z</time>
      </trkpt>
      <trkpt lat="41.40084208759342" lon="-81.73462628864525">
        <ele>267.4481539279</ele>
        <time>2026-04-02T20:26:17Z</time>
      </trkpt>
      <trkpt lat="41.40129298121398" lon="-81.73462624399320">
        <ele>267.4570624058</ele>
        <time>2026-04-02T20:27:00Z</time>
      </trkpt>
      <trkpt lat="41.40131797453731" lon="-81.73463303647618">
        <ele>267.4475161875</ele>
        <time>2026-04-02T20:27:02Z</time>
      </trkpt>
      <trkpt lat="41.40132824146444" lon="-81.73523362884224">
        <ele>267.8704520938</ele>
        <time>2026-04-02T20:27:36Z</time>
      </trkpt>
      <trkpt lat="41.40132879134122" lon="-81.73584143819710">
        <ele>268.2249699290</ele>
        <time>2026-04-02T20:28:09Z</time>
      </trkpt>
      <trkpt lat="41.40132307233893" lon="-81.73642975383569">
        <ele>268.2164087310</ele>
        <time>2026-04-02T20:28:55Z</time>
      </trkpt>
      <trkpt lat="41.40132535581851" lon="-81.73702906983760">
        <ele>268.0561713708</ele>
        <time>2026-04-02T20:29:50Z</time>
      </trkpt>
      <trkpt lat="41.40133289598511" lon="-81.73764150741493">
        <ele>267.7255087721</ele>
        <time>2026-04-02T20:30:27Z</time>
      </trkpt>
      <trkpt lat="41.40134178135490" lon="-81.73823039936198">
        <ele>267.5152395404</ele>
        <time>2026-04-02T20:31:00Z</time>
      </trkpt>
      <trkpt lat="41.40133944497613" lon="-81.73883097206271">
        <ele>267.4966985671</ele>
        <time>2026-04-02T20:31:47Z</time>
      </trkpt>
      <trkpt lat="41.40134264063710" lon="-81.73942324519824">
        <ele>267.2808236723</ele>
        <time>2026-04-02T20:32:28Z</time>
      </trkpt>
      <trkpt lat="41.40134828076221" lon="-81.74003956114181">
        <ele>266.7498279463</ele>
        <time>2026-04-02T20:33:06Z</time>
      </trkpt>
      <trkpt lat="41.40134530578695" lon="-81.74019790090104">
        <ele>266.3771045402</ele>
        <time>2026-04-02T20:33:15Z</time>
      </trkpt>
    </trkseg>
  </trk>
</gpx>