<?xml version='1.0' encoding='UTF-8'?>
<gpx xmlns="http://www.topografix.com/GPX/1/1" creator="https://gpx.studio" version="1.1">
  <metadata>
    <name>Dog Walk - 2026-04-29 #4</name>
  </metadata>
  <trk>
    <name>Dog Walk - 2026-04-29 #4</name>
    <type>dog walk</type>
    <trkseg>
      <trkpt lat="41.40133789542908" lon="-81.74023994048385">
        <ele>266.4197456426</ele>
        <time>2026-04-29T17:38:20Z</time>
      </trkpt>
      <trkpt lat="41.40133950646071" lon="-81.74082957465232">
        <ele>266.3678817062</ele>
        <time>2026-04-29T17:39:03Z</time>
      </trkpt>
      <trkpt lat="41.40134888831098" lon="-81.74141929314237">
        <ele>265.5934460763</ele>
        <time>2026-04-29T17:40:04Z</time>
      </trkpt>
      <trkpt lat="41.40133882696172" lon="-81.74202754138794">
        <ele>265.4367090293</ele>
        <time>2026-04-29T17:40:57Z</time>
      </trkpt>
      <trkpt lat="41.40135618236066" lon="-81.74242152361883">
        <ele>264.7340697870</ele>
        <time>2026-04-29T17:41:18Z</time>
      </trkpt>
      <trkpt lat="41.40176563631483" lon="-81.74262378701617">
        <ele>264.5008411036</ele>
        <time>2026-04-29T17:41:52Z</time>
      </trkpt>
      <trkpt lat="41.40219359355467" lon="-81.74282799688756">
        <ele>263.4987707625</ele>
        <time>2026-04-29T17:42:33Z</time>
      </trkpt>
      <trkpt lat="41.40260413307237" lon="-81.74304361828094">
        <ele>262.7481014367</ele>
        <time>2026-04-29T17:43:17Z</time>
      </trkpt>
      <trkpt lat="41.40302742149778" lon="-81.74326355300796">
        <ele>262.2931707308</ele>
        <time>2026-04-29T17:44:04Z</time>
      </trkpt>
      <trkpt lat="41.40344891275166" lon="-81.74348094102244">
        <ele>261.8067672025</ele>
        <time>2026-04-29T17:44:48Z</time>
      </trkpt>
      <trkpt lat="41.40349359728722" lon="-81.74349977845729">
        <ele>261.9211481212</ele>
        <time>2026-04-29T17:44:53Z</time>
      </trkpt>
      <trkpt lat="41.40359240908751" lon="-81.74351149610284">
        <ele>261.7049283358</ele>
        <time>2026-04-29T17:45:00Z</time>
      </trkpt>
      <trkpt lat="41.40399553831860" lon="-81.74350895981696">
        <ele>260.7330175870</ele>
        <time>2026-04-29T17:45:37Z</time>
      </trkpt>
      <trkpt lat="41.40399953434793" lon="-81.74290060813669">
        <ele>261.7007435805</ele>
        <time>2026-04-29T17:46:13Z</time>
      </trkpt>
      <trkpt lat="41.40398804140880" lon="-81.74230545569253">
        <ele>262.0687967488</ele>
        <time>2026-04-29T17:46:50Z</time>
      </trkpt>
      <trkpt lat="41.40398594703924" lon="-81.74170654505130">
        <ele>262.3864766175</ele>
        <time>2026-04-29T17:47:27Z</time>
      </trkpt>
      <trkpt lat="41.40398740171491" lon="-81.74109360114531">
        <ele>262.7706204920</ele>
        <time>2026-04-29T17:47:54Z</time>
      </trkpt>
      <trkpt lat="41.40398617512768" lon="-81.74051661894811">
        <ele>263.5224148694</ele>
        <time>2026-04-29T17:48:25Z</time>
      </trkpt>
      <trkpt lat="41.40398771964177" lon="-81.73990188132322">
        <ele>264.4341297607</ele>
        <time>2026-04-29T17:49:07Z</time>
      </trkpt>
      <trkpt lat="41.40398527795895" lon="-81.73931199097269">
        <ele>264.9158262307</ele>
        <time>2026-04-29T17:49:45Z</time>
      </trkpt>
      <trkpt lat="41.40399435399753" lon="-81.73877346312263">
        <ele>265.4415221442</ele>
        <time>2026-04-29T17:50:17Z</time>
      </trkpt>
      <trkpt lat="41.40353376569536" lon="-81.73878911864833">
        <ele>265.8369485624</ele>
        <time>2026-04-29T17:51:13Z</time>
      </trkpt>
      <trkpt lat="41.40308936851304" lon="-81.73876711825889">
        <ele>266.3683202925</ele>
        <time>2026-04-29T17:51:57Z</time>
      </trkpt>
      <trkpt lat="41.40264177106121" lon="-81.73878129089474">
        <ele>266.9304981024</ele>
        <time>2026-04-29T17:52:38Z</time>
      </trkpt>
      <trkpt lat="41.40223557254317" lon="-81.73877608160865">
        <ele>267.0705046632</ele>
        <time>2026-04-29T17:53:09Z</time>
      </trkpt>
      <trkpt lat="41.40221186395842" lon="-81.73828019844034">
        <ele>267.1722471852</ele>
        <time>2026-04-29T17:53:37Z</time>
      </trkpt>
      <trkpt lat="41.40177310363359" lon="-81.73827043347161">
        <ele>267.6654068304</ele>
        <time>2026-04-29T17:54:19Z</time>
      </trkpt>
      <trkpt lat="41.40133191636203" lon="-81.73826206719669">
        <ele>267.5839947530</ele>
        <time>2026-04-29T17:55:03Z</time>
      </trkpt>
      <trkpt lat="41.40132710300085" lon="-81.73887185656118">
        <ele>267.4715895152</ele>
        <time>2026-04-29T17:55:36Z</time>
      </trkpt>
      <trkpt lat="41.40133544016766" lon="-81.73945444308401">
        <ele>267.0399202436</ele>
        <time>2026-04-29T17:56:14Z</time>
      </trkpt>
      <trkpt lat="41.40133397691912" lon="-81.74006592284512">
        <ele>266.7794275304</ele>
        <time>2026-04-29T17:57:09Z</time>
      </trkpt>
      <trkpt lat="41.40133697673913" lon="-81.74021058673515">
        <ele>266.6221534917</ele>
        <time>2026-04-29T17:57:37Z</time>
      </trkpt>
    </trkseg>
  </trk>
</gpx>