<?xml version='1.0' encoding='UTF-8'?>
<gpx xmlns="http://www.topografix.com/GPX/1/1" creator="https://gpx.studio" version="1.1">
  <metadata>
    <name>Dog Walk - 2026-03-05 #2</name>
  </metadata>
  <trk>
    <name>Dog Walk - 2026-03-05 #2</name>
    <type>dog walk</type>
    <trkseg>
      <trkpt lat="41.40134414227704" lon="-81.74022270254969">
        <ele>266.4337690128</ele>
        <time>2026-03-05T20:04:29Z</time>
      </trkpt>
      <trkpt lat="41.40134445676753" lon="-81.74083081635237">
        <ele>266.1160403153</ele>
        <time>2026-03-05T20:05:25Z</time>
      </trkpt>
      <trkpt lat="41.40133719267952" lon="-81.74143277512167">
        <ele>265.7911465691</ele>
        <time>2026-03-05T20:06:13Z</time>
      </trkpt>
      <trkpt lat="41.40133970082658" lon="-81.74202000442571">
        <ele>265.4774537730</ele>
        <time>2026-03-05T20:06:53Z</time>
      </trkpt>
      <trkpt lat="41.40132216440725" lon="-81.74239465111599">
        <ele>264.7460992233</ele>
        <time>2026-03-05T20:07:13Z</time>
      </trkpt>
      <trkpt lat="41.40090696912509" lon="-81.74217247463656">
        <ele>265.1285004305</ele>
        <time>2026-03-05T20:07:54Z</time>
      </trkpt>
      <trkpt lat="41.40049628398284" lon="-81.74196499771192">
        <ele>265.3394670945</ele>
        <time>2026-03-05T20:08:38Z</time>
      </trkpt>
      <trkpt lat="41.40044807955214" lon="-81.74195134483004">
        <ele>265.3771726270</ele>
        <time>2026-03-05T20:08:42Z</time>
      </trkpt>
      <trkpt lat="41.40044511303614" lon="-81.74135556777820">
        <ele>265.8641976535</ele>
        <time>2026-03-05T20:09:52Z</time>
      </trkpt>
      <trkpt lat="41.40043052377494" lon="-81.74075511170727">
        <ele>266.3845383486</ele>
        <time>2026-03-05T20:10:29Z</time>
      </trkpt>
      <trkpt lat="41.40043869578088" lon="-81.74015370501752">
        <ele>266.6986890387</ele>
        <time>2026-03-05T20:11:17Z</time>
      </trkpt>
      <trkpt lat="41.40043263729123" lon="-81.73955566435978">
        <ele>266.8785980960</ele>
        <time>2026-03-05T20:11:57Z</time>
      </trkpt>
      <trkpt lat="41.40043287465900" lon="-81.73895487072055">
        <ele>267.1998400086</ele>
        <time>2026-03-05T20:12:41Z</time>
      </trkpt>
      <trkpt lat="41.40041735632806" lon="-81.73834882983364">
        <ele>267.2751371046</ele>
        <time>2026-03-05T20:13:16Z</time>
      </trkpt>
      <trkpt lat="41.40041174780190" lon="-81.73775974494649">
        <ele>267.4048200457</ele>
        <time>2026-03-05T20:14:05Z</time>
      </trkpt>
      <trkpt lat="41.40040573465038" lon="-81.73714861404882">
        <ele>268.1431669185</ele>
        <time>2026-03-05T20:14:53Z</time>
      </trkpt>
      <trkpt lat="41.40040499395767" lon="-81.73655137102732">
        <ele>268.1192878695</ele>
        <time>2026-03-05T20:15:27Z</time>
      </trkpt>
      <trkpt lat="41.40040820860510" lon="-81.73595555996889">
        <ele>268.0076195491</ele>
        <time>2026-03-05T20:16:19Z</time>
      </trkpt>
      <trkpt lat="41.40039291353639" lon="-81.73535794337721">
        <ele>268.1104632697</ele>
        <time>2026-03-05T20:17:01Z</time>
      </trkpt>
      <trkpt lat="41.40039371636518" lon="-81.73474632504062">
        <ele>267.2980999119</ele>
        <time>2026-03-05T20:17:48Z</time>
      </trkpt>
      <trkpt lat="41.40038811307224" lon="-81.73462562111011">
        <ele>267.2747695563</ele>
        <time>2026-03-05T20:17:56Z</time>
      </trkpt>
      <trkpt lat="41.40084698391287" lon="-81.73463441724121">
        <ele>267.3944434806</ele>
        <time>2026-03-05T20:18:40Z</time>
      </trkpt>
      <trkpt lat="41.40129837409577" lon="-81.73463451782678">
        <ele>267.5296496436</ele>
        <time>2026-03-05T20:19:16Z</time>
      </trkpt>
      <trkpt lat="41.40132277031935" lon="-81.73463609766290">
        <ele>267.3478886460</ele>
        <time>2026-03-05T20:19:18Z</time>
      </trkpt>
      <trkpt lat="41.40132049685619" lon="-81.73523302244003">
        <ele>267.8492891137</ele>
        <time>2026-03-05T20:20:09Z</time>
      </trkpt>
      <trkpt lat="41.40132141479435" lon="-81.73582800784726">
        <ele>268.4223169835</ele>
        <time>2026-03-05T20:21:06Z</time>
      </trkpt>
      <trkpt lat="41.40132645599265" lon="-81.73643104468626">
        <ele>268.3738791042</ele>
        <time>2026-03-05T20:21:37Z</time>
      </trkpt>
      <trkpt lat="41.40133241424155" lon="-81.73703250870855">
        <ele>268.0621301288</ele>
        <time>2026-03-05T20:22:08Z</time>
      </trkpt>
      <trkpt lat="41.40133673415772" lon="-81.73762863303750">
        <ele>267.7281314832</ele>
        <time>2026-03-05T20:22:44Z</time>
      </trkpt>
      <trkpt lat="41.40133864542665" lon="-81.73822573534228">
        <ele>267.5079411385</ele>
        <time>2026-03-05T20:23:20Z</time>
      </trkpt>
      <trkpt lat="41.40133825237830" lon="-81.73882880336920">
        <ele>267.5300906897</ele>
        <time>2026-03-05T20:23:53Z</time>
      </trkpt>
      <trkpt lat="41.40134322455332" lon="-81.73943486114648">
        <ele>267.1126777682</ele>
        <time>2026-03-05T20:24:36Z</time>
      </trkpt>
      <trkpt lat="41.40134995896322" lon="-81.74003690786198">
        <ele>266.7690128993</ele>
        <time>2026-03-05T20:25:11Z</time>
      </trkpt>
      <trkpt lat="41.40134901241798" lon="-81.74018951564621">
        <ele>266.5366141063</ele>
        <time>2026-03-05T20:25:22Z</time>
      </trkpt>
    </trkseg>
  </trk>
</gpx>