<?xml version='1.0' encoding='UTF-8'?>
<gpx xmlns="http://www.topografix.com/GPX/1/1" creator="https://gpx.studio" version="1.1">
  <metadata>
    <name>Dog Walk - 2026-07-29 #2</name>
  </metadata>
  <trk>
    <name>Dog Walk - 2026-07-29 #2</name>
    <type>dog walk</type>
    <trkseg>
      <trkpt lat="41.40133801855149" lon="-81.74023799498144">
        <ele>266.4747744375</ele>
        <time>2026-07-29T19:34:40Z</time>
      </trkpt>
      <trkpt lat="41.40134090324378" lon="-81.74083647430197">
        <ele>266.2947580218</ele>
        <time>2026-07-29T19:35:20Z</time>
      </trkpt>
      <trkpt lat="41.40134409525005" lon="-81.74144125070090">
        <ele>265.6362233553</ele>
        <time>2026-07-29T19:36:01Z</time>
      </trkpt>
      <trkpt lat="41.40134550460666" lon="-81.74203436403175">
        <ele>265.2525096131</ele>
        <time>2026-07-29T19:36:42Z</time>
      </trkpt>
      <trkpt lat="41.40134908566574" lon="-81.74241820255524">
        <ele>264.7011421686</ele>
        <time>2026-07-29T19:37:05Z</time>
      </trkpt>
      <trkpt lat="41.40176243715537" lon="-81.74263306426954">
        <ele>264.1280963802</ele>
        <time>2026-07-29T19:38:03Z</time>
      </trkpt>
      <trkpt lat="41.40218456449724" lon="-81.74284055634435">
        <ele>263.6803829622</ele>
        <time>2026-07-29T19:38:41Z</time>
      </trkpt>
      <trkpt lat="41.40221142273771" lon="-81.74287299022777">
        <ele>263.4536918068</ele>
        <time>2026-07-29T19:38:43Z</time>
      </trkpt>
      <trkpt lat="41.40221969697402" lon="-81.74227513470895">
        <ele>264.2938693301</ele>
        <time>2026-07-29T19:39:21Z</time>
      </trkpt>
      <trkpt lat="41.40222016995317" lon="-81.74166641248820">
        <ele>264.7104467672</ele>
        <time>2026-07-29T19:40:01Z</time>
      </trkpt>
      <trkpt lat="41.40221916433328" lon="-81.74106549162664">
        <ele>265.6693450886</ele>
        <time>2026-07-29T19:40:37Z</time>
      </trkpt>
      <trkpt lat="41.40221571467502" lon="-81.74046504824337">
        <ele>266.1178019675</ele>
        <time>2026-07-29T19:41:15Z</time>
      </trkpt>
      <trkpt lat="41.40222311474417" lon="-81.73986352992696">
        <ele>266.3824535276</ele>
        <time>2026-07-29T19:41:59Z</time>
      </trkpt>
      <trkpt lat="41.40222287472837" lon="-81.73927246379453">
        <ele>266.9374239498</ele>
        <time>2026-07-29T19:42:41Z</time>
      </trkpt>
      <trkpt lat="41.40222923433995" lon="-81.73866761599744">
        <ele>267.0077365970</ele>
        <time>2026-07-29T19:43:22Z</time>
      </trkpt>
      <trkpt lat="41.40222174156258" lon="-81.73827611882550">
        <ele>266.8376259284</ele>
        <time>2026-07-29T19:43:45Z</time>
      </trkpt>
      <trkpt lat="41.40177474999673" lon="-81.73827028172511">
        <ele>267.6536358648</ele>
        <time>2026-07-29T19:44:25Z</time>
      </trkpt>
      <trkpt lat="41.40134628515140" lon="-81.73826944415092">
        <ele>267.3590236899</ele>
        <time>2026-07-29T19:44:55Z</time>
      </trkpt>
      <trkpt lat="41.40134235696519" lon="-81.73886765551066">
        <ele>267.3683612632</ele>
        <time>2026-07-29T19:45:37Z</time>
      </trkpt>
      <trkpt lat="41.40134459990942" lon="-81.73946182974119">
        <ele>267.1435086657</ele>
        <time>2026-07-29T19:46:20Z</time>
      </trkpt>
      <trkpt lat="41.40133829393413" lon="-81.74004636976487">
        <ele>266.6980328458</ele>
        <time>2026-07-29T19:47:02Z</time>
      </trkpt>
      <trkpt lat="41.40133478318653" lon="-81.74018689979266">
        <ele>266.3772255145</ele>
        <time>2026-07-29T19:47:14Z</time>
      </trkpt>
    </trkseg>
  </trk>
</gpx>