<?xml version='1.0' encoding='UTF-8'?>
<gpx xmlns="http://www.topografix.com/GPX/1/1" creator="https://gpx.studio" version="1.1">
  <metadata>
    <name>Dog Walk - 2026-07-07 #3</name>
  </metadata>
  <trk>
    <name>Dog Walk - 2026-07-07 #3</name>
    <type>dog walk</type>
    <trkseg>
      <trkpt lat="41.40134013571372" lon="-81.74023123733255">
        <ele>266.5101897275</ele>
        <time>2026-07-07T14:46:14Z</time>
      </trkpt>
      <trkpt lat="41.40132919394836" lon="-81.74082920968478">
        <ele>266.2341250584</ele>
        <time>2026-07-07T14:46:51Z</time>
      </trkpt>
      <trkpt lat="41.40133153965656" lon="-81.74142918386600">
        <ele>265.7894863913</ele>
        <time>2026-07-07T14:47:33Z</time>
      </trkpt>
      <trkpt lat="41.40132184714140" lon="-81.74203569952154">
        <ele>265.2864508974</ele>
        <time>2026-07-07T14:48:13Z</time>
      </trkpt>
      <trkpt lat="41.40133406850457" lon="-81.74238781656599">
        <ele>264.7634665502</ele>
        <time>2026-07-07T14:48:35Z</time>
      </trkpt>
      <trkpt lat="41.40089951745410" lon="-81.74219015422655">
        <ele>265.1177070843</ele>
        <time>2026-07-07T14:49:25Z</time>
      </trkpt>
      <trkpt lat="41.40047293174906" lon="-81.74200884251211">
        <ele>265.3983148285</ele>
        <time>2026-07-07T14:50:03Z</time>
      </trkpt>
      <trkpt lat="41.40005474088269" lon="-81.74181394044984">
        <ele>265.4207602468</ele>
        <time>2026-07-07T14:50:36Z</time>
      </trkpt>
      <trkpt lat="41.39963270247165" lon="-81.74162021418782">
        <ele>264.7379825025</ele>
        <time>2026-07-07T14:51:22Z</time>
      </trkpt>
      <trkpt lat="41.39953865773985" lon="-81.74156615252323">
        <ele>264.9020586857</ele>
        <time>2026-07-07T14:51:31Z</time>
      </trkpt>
      <trkpt lat="41.39954181657490" lon="-81.74097620950816">
        <ele>265.7967036399</ele>
        <time>2026-07-07T14:52:23Z</time>
      </trkpt>
      <trkpt lat="41.39954450240577" lon="-81.74038478415682">
        <ele>266.2498010837</ele>
        <time>2026-07-07T14:53:03Z</time>
      </trkpt>
      <trkpt lat="41.39953247578941" lon="-81.73977874942898">
        <ele>266.6552877461</ele>
        <time>2026-07-07T14:53:43Z</time>
      </trkpt>
      <trkpt lat="41.39953376567112" lon="-81.73918009032887">
        <ele>266.7104162360</ele>
        <time>2026-07-07T14:54:24Z</time>
      </trkpt>
      <trkpt lat="41.39952399421539" lon="-81.73857876576417">
        <ele>267.1464809056</ele>
        <time>2026-07-07T14:55:09Z</time>
      </trkpt>
      <trkpt lat="41.39954125671979" lon="-81.73797444971521">
        <ele>267.1459584740</ele>
        <time>2026-07-07T14:55:53Z</time>
      </trkpt>
      <trkpt lat="41.39952732962799" lon="-81.73737914075612">
        <ele>267.4006529970</ele>
        <time>2026-07-07T14:56:40Z</time>
      </trkpt>
      <trkpt lat="41.39952586089539" lon="-81.73678070243579">
        <ele>267.2655837155</ele>
        <time>2026-07-07T14:57:21Z</time>
      </trkpt>
      <trkpt lat="41.39952869268755" lon="-81.73617114248660">
        <ele>267.4107308952</ele>
        <time>2026-07-07T14:58:09Z</time>
      </trkpt>
      <trkpt lat="41.39952864605339" lon="-81.73557903740759">
        <ele>267.5729273789</ele>
        <time>2026-07-07T14:58:40Z</time>
      </trkpt>
      <trkpt lat="41.39952518071781" lon="-81.73497978039629">
        <ele>267.1086173456</ele>
        <time>2026-07-07T14:59:17Z</time>
      </trkpt>
      <trkpt lat="41.39952220702364" lon="-81.73460972445842">
        <ele>267.2907509825</ele>
        <time>2026-07-07T14:59:40Z</time>
      </trkpt>
      <trkpt lat="41.39997305889869" lon="-81.73461970400010">
        <ele>267.1461811597</ele>
        <time>2026-07-07T15:00:21Z</time>
      </trkpt>
      <trkpt lat="41.40042512243924" lon="-81.73462611376364">
        <ele>267.2890417131</ele>
        <time>2026-07-07T15:01:26Z</time>
      </trkpt>
      <trkpt lat="41.40086877313938" lon="-81.73462827248922">
        <ele>267.3835935887</ele>
        <time>2026-07-07T15:01:58Z</time>
      </trkpt>
      <trkpt lat="41.40130710596408" lon="-81.73463584149248">
        <ele>267.4208865454</ele>
        <time>2026-07-07T15:02:30Z</time>
      </trkpt>
      <trkpt lat="41.40132366922069" lon="-81.73524248189362">
        <ele>267.9607095283</ele>
        <time>2026-07-07T15:03:19Z</time>
      </trkpt>
      <trkpt lat="41.40130887644636" lon="-81.73584409863574">
        <ele>268.2559645274</ele>
        <time>2026-07-07T15:03:57Z</time>
      </trkpt>
      <trkpt lat="41.40131609549682" lon="-81.73644226496194">
        <ele>268.2158427958</ele>
        <time>2026-07-07T15:04:36Z</time>
      </trkpt>
      <trkpt lat="41.40132899083594" lon="-81.73703296315004">
        <ele>267.9195297293</ele>
        <time>2026-07-07T15:05:09Z</time>
      </trkpt>
      <trkpt lat="41.40131862401172" lon="-81.73764304345292">
        <ele>268.0970937495</ele>
        <time>2026-07-07T15:06:05Z</time>
      </trkpt>
      <trkpt lat="41.40132577050704" lon="-81.73823497975795">
        <ele>267.4445383158</ele>
        <time>2026-07-07T15:06:40Z</time>
      </trkpt>
      <trkpt lat="41.40132893914706" lon="-81.73883568452443">
        <ele>267.1806217831</ele>
        <time>2026-07-07T15:07:13Z</time>
      </trkpt>
      <trkpt lat="41.40133311906902" lon="-81.73943419561309">
        <ele>267.2569633532</ele>
        <time>2026-07-07T15:07:53Z</time>
      </trkpt>
      <trkpt lat="41.40133280165947" lon="-81.74004325168404">
        <ele>266.4073387842</ele>
        <time>2026-07-07T15:08:30Z</time>
      </trkpt>
      <trkpt lat="41.40133225970375" lon="-81.74022144101804">
        <ele>266.6431743479</ele>
        <time>2026-07-07T15:08:42Z</time>
      </trkpt>
    </trkseg>
  </trk>
</gpx>