<?xml version='1.0' encoding='UTF-8'?>
<gpx xmlns="http://www.topografix.com/GPX/1/1" creator="https://gpx.studio" version="1.1">
  <metadata>
    <name>Dog Walk - 2026-05-01 #4</name>
  </metadata>
  <trk>
    <name>Dog Walk - 2026-05-01 #4</name>
    <type>dog walk</type>
    <trkseg>
      <trkpt lat="41.40133554225111" lon="-81.74023468932360">
        <ele>266.6285993283</ele>
        <time>2026-05-01T18:19:32Z</time>
      </trkpt>
      <trkpt lat="41.40133346515346" lon="-81.74084395698128">
        <ele>266.2550421253</ele>
        <time>2026-05-01T18:20:10Z</time>
      </trkpt>
      <trkpt lat="41.40132852403801" lon="-81.74143831575027">
        <ele>265.7586474781</ele>
        <time>2026-05-01T18:20:49Z</time>
      </trkpt>
      <trkpt lat="41.40133471741872" lon="-81.74203925546077">
        <ele>265.4350809912</ele>
        <time>2026-05-01T18:21:39Z</time>
      </trkpt>
      <trkpt lat="41.40133696303690" lon="-81.74238985089563">
        <ele>264.7658378013</ele>
        <time>2026-05-01T18:22:15Z</time>
      </trkpt>
      <trkpt lat="41.40089882657219" lon="-81.74220327682396">
        <ele>265.2053976364</ele>
        <time>2026-05-01T18:23:07Z</time>
      </trkpt>
      <trkpt lat="41.40047542118691" lon="-81.74200493682915">
        <ele>265.0850950016</ele>
        <time>2026-05-01T18:23:47Z</time>
      </trkpt>
      <trkpt lat="41.40005999998981" lon="-81.74180947440108">
        <ele>265.3018519551</ele>
        <time>2026-05-01T18:24:34Z</time>
      </trkpt>
      <trkpt lat="41.39962783585760" lon="-81.74160819624470">
        <ele>264.5711232898</ele>
        <time>2026-05-01T18:25:13Z</time>
      </trkpt>
      <trkpt lat="41.39953438309860" lon="-81.74157694384805">
        <ele>264.9035172816</ele>
        <time>2026-05-01T18:25:38Z</time>
      </trkpt>
      <trkpt lat="41.39953665252231" lon="-81.74096699134941">
        <ele>265.5107870049</ele>
        <time>2026-05-01T18:26:12Z</time>
      </trkpt>
      <trkpt lat="41.39953120576982" lon="-81.74037540998205">
        <ele>266.3189103068</ele>
        <time>2026-05-01T18:26:53Z</time>
      </trkpt>
      <trkpt lat="41.39953885906071" lon="-81.73978229946876">
        <ele>266.5994934903</ele>
        <time>2026-05-01T18:27:34Z</time>
      </trkpt>
      <trkpt lat="41.39952762244436" lon="-81.73917070197487">
        <ele>266.7848069696</ele>
        <time>2026-05-01T18:28:09Z</time>
      </trkpt>
      <trkpt lat="41.39953206853831" lon="-81.73856822236689">
        <ele>267.0564269271</ele>
        <time>2026-05-01T18:28:53Z</time>
      </trkpt>
      <trkpt lat="41.39953140493363" lon="-81.73798406444264">
        <ele>267.0699506097</ele>
        <time>2026-05-01T18:29:50Z</time>
      </trkpt>
      <trkpt lat="41.39953364219246" lon="-81.73737205029799">
        <ele>267.4236203905</ele>
        <time>2026-05-01T18:30:35Z</time>
      </trkpt>
      <trkpt lat="41.39952669425339" lon="-81.73677616772818">
        <ele>267.5042818863</ele>
        <time>2026-05-01T18:31:14Z</time>
      </trkpt>
      <trkpt lat="41.39953438298920" lon="-81.73617624871750">
        <ele>267.4352634910</ele>
        <time>2026-05-01T18:32:07Z</time>
      </trkpt>
      <trkpt lat="41.39952620573808" lon="-81.73558496113664">
        <ele>267.2126618291</ele>
        <time>2026-05-01T18:32:45Z</time>
      </trkpt>
      <trkpt lat="41.39952552110107" lon="-81.73497986504394">
        <ele>267.3681675175</ele>
        <time>2026-05-01T18:33:21Z</time>
      </trkpt>
      <trkpt lat="41.39953254158840" lon="-81.73461646102476">
        <ele>267.1073423146</ele>
        <time>2026-05-01T18:33:48Z</time>
      </trkpt>
      <trkpt lat="41.39997638161572" lon="-81.73461541989718">
        <ele>267.4104087019</ele>
        <time>2026-05-01T18:34:35Z</time>
      </trkpt>
      <trkpt lat="41.40042299430327" lon="-81.73463115413089">
        <ele>267.5046429067</ele>
        <time>2026-05-01T18:35:10Z</time>
      </trkpt>
      <trkpt lat="41.40088128308400" lon="-81.73463229398823">
        <ele>267.3795138945</ele>
        <time>2026-05-01T18:35:53Z</time>
      </trkpt>
      <trkpt lat="41.40132085984624" lon="-81.73463891242531">
        <ele>267.3293419896</ele>
        <time>2026-05-01T18:36:30Z</time>
      </trkpt>
      <trkpt lat="41.40132513976715" lon="-81.73524018020369">
        <ele>268.0332855736</ele>
        <time>2026-05-01T18:37:06Z</time>
      </trkpt>
      <trkpt lat="41.40132737590910" lon="-81.73584667426437">
        <ele>268.4175036718</ele>
        <time>2026-05-01T18:37:55Z</time>
      </trkpt>
      <trkpt lat="41.40132975203814" lon="-81.73643718570895">
        <ele>268.0950235687</ele>
        <time>2026-05-01T18:38:32Z</time>
      </trkpt>
      <trkpt lat="41.40132335617847" lon="-81.73703997240332">
        <ele>267.8020481223</ele>
        <time>2026-05-01T18:39:03Z</time>
      </trkpt>
      <trkpt lat="41.40133377105342" lon="-81.73762947801831">
        <ele>267.9237879165</ele>
        <time>2026-05-01T18:39:37Z</time>
      </trkpt>
      <trkpt lat="41.40133214073413" lon="-81.73824543623574">
        <ele>267.6467297331</ele>
        <time>2026-05-01T18:40:25Z</time>
      </trkpt>
      <trkpt lat="41.40132508361293" lon="-81.73882975208828">
        <ele>267.5941022955</ele>
        <time>2026-05-01T18:41:07Z</time>
      </trkpt>
      <trkpt lat="41.40133035430422" lon="-81.73942744424598">
        <ele>267.0151708164</ele>
        <time>2026-05-01T18:41:43Z</time>
      </trkpt>
      <trkpt lat="41.40133341125193" lon="-81.74004514164507">
        <ele>266.7526781943</ele>
        <time>2026-05-01T18:42:19Z</time>
      </trkpt>
      <trkpt lat="41.40132785652037" lon="-81.74021286559197">
        <ele>266.7557365107</ele>
        <time>2026-05-01T18:42:31Z</time>
      </trkpt>
    </trkseg>
  </trk>
</gpx>