<?xml version='1.0' encoding='UTF-8'?>
<gpx xmlns="http://www.topografix.com/GPX/1/1" creator="https://gpx.studio" version="1.1">
  <metadata>
    <name>Dog Walk - 2026-08-20</name>
  </metadata>
  <trk>
    <name>Dog Walk - 2026-08-20</name>
    <type>dog walk</type>
    <trkseg>
      <trkpt lat="41.40134351271782" lon="-81.74023672002869">
        <ele>266.6677088199</ele>
        <time>2026-08-20T10:12:54Z</time>
      </trkpt>
      <trkpt lat="41.40134812333983" lon="-81.74083295196442">
        <ele>266.5471400355</ele>
        <time>2026-08-20T10:13:35Z</time>
      </trkpt>
      <trkpt lat="41.40134564464281" lon="-81.74144028607546">
        <ele>265.8916555782</ele>
        <time>2026-08-20T10:14:16Z</time>
      </trkpt>
      <trkpt lat="41.40134808924994" lon="-81.74203386268572">
        <ele>265.3375231262</ele>
        <time>2026-08-20T10:14:53Z</time>
      </trkpt>
      <trkpt lat="41.40134954815854" lon="-81.74241207391327">
        <ele>264.6732439613</ele>
        <time>2026-08-20T10:15:18Z</time>
      </trkpt>
      <trkpt lat="41.40176995584567" lon="-81.74262916625649">
        <ele>264.3424553625</ele>
        <time>2026-08-20T10:16:13Z</time>
      </trkpt>
      <trkpt lat="41.40219176787701" lon="-81.74285133264189">
        <ele>263.4805030017</ele>
        <time>2026-08-20T10:16:52Z</time>
      </trkpt>
      <trkpt lat="41.40221850326314" lon="-81.74286755559716">
        <ele>263.6111902735</ele>
        <time>2026-08-20T10:16:55Z</time>
      </trkpt>
      <trkpt lat="41.40221942584463" lon="-81.74226581652768">
        <ele>264.2379381262</ele>
        <time>2026-08-20T10:17:37Z</time>
      </trkpt>
      <trkpt lat="41.40221184202300" lon="-81.74166133898254">
        <ele>264.5421543789</ele>
        <time>2026-08-20T10:18:17Z</time>
      </trkpt>
      <trkpt lat="41.40221597398391" lon="-81.74106086508368">
        <ele>265.3382774592</ele>
        <time>2026-08-20T10:18:52Z</time>
      </trkpt>
      <trkpt lat="41.40221121571800" lon="-81.74046134568097">
        <ele>266.1598524819</ele>
        <time>2026-08-20T10:19:58Z</time>
      </trkpt>
      <trkpt lat="41.40221792342509" lon="-81.73987593979517">
        <ele>266.6466090420</ele>
        <time>2026-08-20T10:20:48Z</time>
      </trkpt>
      <trkpt lat="41.40222333926327" lon="-81.73927139399052">
        <ele>267.0375415360</ele>
        <time>2026-08-20T10:21:32Z</time>
      </trkpt>
      <trkpt lat="41.40221843723625" lon="-81.73866618487540">
        <ele>267.2662524847</ele>
        <time>2026-08-20T10:22:20Z</time>
      </trkpt>
      <trkpt lat="41.40222054285002" lon="-81.73827136496018">
        <ele>267.0313198934</ele>
        <time>2026-08-20T10:22:44Z</time>
      </trkpt>
      <trkpt lat="41.40176991858738" lon="-81.73826127604819">
        <ele>267.9042523001</ele>
        <time>2026-08-20T10:23:18Z</time>
      </trkpt>
      <trkpt lat="41.40133808660293" lon="-81.73825645008459">
        <ele>267.4739063026</ele>
        <time>2026-08-20T10:23:58Z</time>
      </trkpt>
      <trkpt lat="41.40134132177539" lon="-81.73886291638081">
        <ele>267.5441063119</ele>
        <time>2026-08-20T10:24:56Z</time>
      </trkpt>
      <trkpt lat="41.40133385141196" lon="-81.73946699399131">
        <ele>267.0583944185</ele>
        <time>2026-08-20T10:25:37Z</time>
      </trkpt>
      <trkpt lat="41.40134266675044" lon="-81.74006429610669">
        <ele>266.7044196643</ele>
        <time>2026-08-20T10:26:30Z</time>
      </trkpt>
      <trkpt lat="41.40134233478489" lon="-81.74020130226614">
        <ele>266.3969292085</ele>
        <time>2026-08-20T10:26:40Z</time>
      </trkpt>
    </trkseg>
  </trk>
</gpx>