<?xml version='1.0' encoding='UTF-8'?>
<gpx xmlns="http://www.topografix.com/GPX/1/1" creator="https://gpx.studio" version="1.1">
  <metadata>
    <name>Dog Walk - 2026-05-14 #2</name>
  </metadata>
  <trk>
    <name>Dog Walk - 2026-05-14 #2</name>
    <type>dog walk</type>
    <trkseg>
      <trkpt lat="41.40134110940823" lon="-81.74023672560493">
        <ele>266.3867691341</ele>
        <time>2026-05-14T09:34:37Z</time>
      </trkpt>
      <trkpt lat="41.40133518244471" lon="-81.74083004011464">
        <ele>266.2305088241</ele>
        <time>2026-05-14T09:35:31Z</time>
      </trkpt>
      <trkpt lat="41.40134109551390" lon="-81.74142343392640">
        <ele>265.6745803809</ele>
        <time>2026-05-14T09:35:59Z</time>
      </trkpt>
      <trkpt lat="41.40133128481117" lon="-81.74202852852545">
        <ele>265.2614528355</ele>
        <time>2026-05-14T09:36:49Z</time>
      </trkpt>
      <trkpt lat="41.40133885423452" lon="-81.74238513776142">
        <ele>264.6939972892</ele>
        <time>2026-05-14T09:37:09Z</time>
      </trkpt>
      <trkpt lat="41.40091219392643" lon="-81.74218176722422">
        <ele>265.4022622902</ele>
        <time>2026-05-14T09:38:00Z</time>
      </trkpt>
      <trkpt lat="41.40048983247667" lon="-81.74197705111929">
        <ele>265.1278214777</ele>
        <time>2026-05-14T09:38:46Z</time>
      </trkpt>
      <trkpt lat="41.40045208351231" lon="-81.74195821711616">
        <ele>265.4505750964</ele>
        <time>2026-05-14T09:38:50Z</time>
      </trkpt>
      <trkpt lat="41.40044431543420" lon="-81.74135491710435">
        <ele>266.0425338333</ele>
        <time>2026-05-14T09:39:48Z</time>
      </trkpt>
      <trkpt lat="41.40043730341679" lon="-81.74075979051919">
        <ele>266.4339753499</ele>
        <time>2026-05-14T09:40:41Z</time>
      </trkpt>
      <trkpt lat="41.40043733778393" lon="-81.74015714714388">
        <ele>266.6913756852</ele>
        <time>2026-05-14T09:41:26Z</time>
      </trkpt>
      <trkpt lat="41.40042509736096" lon="-81.73955653629606">
        <ele>266.9503006599</ele>
        <time>2026-05-14T09:42:10Z</time>
      </trkpt>
      <trkpt lat="41.40042466369499" lon="-81.73895012437129">
        <ele>267.0985556692</ele>
        <time>2026-05-14T09:42:55Z</time>
      </trkpt>
      <trkpt lat="41.40042804704243" lon="-81.73834652058015">
        <ele>267.1308036736</ele>
        <time>2026-05-14T09:43:34Z</time>
      </trkpt>
      <trkpt lat="41.40041556406783" lon="-81.73775562222150">
        <ele>267.6779328985</ele>
        <time>2026-05-14T09:44:21Z</time>
      </trkpt>
      <trkpt lat="41.40040870894187" lon="-81.73714855390425">
        <ele>268.0561338935</ele>
        <time>2026-05-14T09:44:57Z</time>
      </trkpt>
      <trkpt lat="41.40040970857282" lon="-81.73655559791938">
        <ele>268.1265315353</ele>
        <time>2026-05-14T09:45:38Z</time>
      </trkpt>
      <trkpt lat="41.40040820677260" lon="-81.73596009374491">
        <ele>268.0470327859</ele>
        <time>2026-05-14T09:46:34Z</time>
      </trkpt>
      <trkpt lat="41.40040197998383" lon="-81.73534706555428">
        <ele>267.5367116894</ele>
        <time>2026-05-14T09:47:18Z</time>
      </trkpt>
      <trkpt lat="41.40039543607444" lon="-81.73475976225657">
        <ele>267.4766993140</ele>
        <time>2026-05-14T09:48:08Z</time>
      </trkpt>
      <trkpt lat="41.40039412906895" lon="-81.73462903924604">
        <ele>267.2381495667</ele>
        <time>2026-05-14T09:48:17Z</time>
      </trkpt>
      <trkpt lat="41.40083944756732" lon="-81.73462753278886">
        <ele>267.3248896539</ele>
        <time>2026-05-14T09:48:48Z</time>
      </trkpt>
      <trkpt lat="41.40128960319693" lon="-81.73463790867551">
        <ele>267.3686973214</ele>
        <time>2026-05-14T09:49:29Z</time>
      </trkpt>
      <trkpt lat="41.40132015545865" lon="-81.73463552638667">
        <ele>267.4156263006</ele>
        <time>2026-05-14T09:49:32Z</time>
      </trkpt>
      <trkpt lat="41.40132008583544" lon="-81.73523851880667">
        <ele>268.1859075218</ele>
        <time>2026-05-14T09:50:14Z</time>
      </trkpt>
      <trkpt lat="41.40132011122256" lon="-81.73582941914141">
        <ele>268.2489248670</ele>
        <time>2026-05-14T09:50:44Z</time>
      </trkpt>
      <trkpt lat="41.40132883526950" lon="-81.73643107010049">
        <ele>267.9515414876</ele>
        <time>2026-05-14T09:51:21Z</time>
      </trkpt>
      <trkpt lat="41.40133467194691" lon="-81.73702828476044">
        <ele>268.1042872120</ele>
        <time>2026-05-14T09:52:11Z</time>
      </trkpt>
      <trkpt lat="41.40133573706630" lon="-81.73762332565795">
        <ele>267.8691947517</ele>
        <time>2026-05-14T09:52:44Z</time>
      </trkpt>
      <trkpt lat="41.40132800321076" lon="-81.73823404608513">
        <ele>267.4841086648</ele>
        <time>2026-05-14T09:53:26Z</time>
      </trkpt>
      <trkpt lat="41.40134299866975" lon="-81.73883748735908">
        <ele>267.3332088100</ele>
        <time>2026-05-14T09:54:09Z</time>
      </trkpt>
      <trkpt lat="41.40133807784535" lon="-81.73942151603387">
        <ele>267.4037286415</ele>
        <time>2026-05-14T09:54:40Z</time>
      </trkpt>
      <trkpt lat="41.40134899268603" lon="-81.74003424644361">
        <ele>266.5177323880</ele>
        <time>2026-05-14T09:55:19Z</time>
      </trkpt>
      <trkpt lat="41.40135525029037" lon="-81.74020431948551">
        <ele>266.4899788099</ele>
        <time>2026-05-14T09:55:35Z</time>
      </trkpt>
    </trkseg>
  </trk>
</gpx>