<?xml version='1.0' encoding='UTF-8'?>
<gpx xmlns="http://www.topografix.com/GPX/1/1" creator="https://gpx.studio" version="1.1">
  <metadata>
    <name>Dog Walk - 2026-08-07 #1</name>
  </metadata>
  <trk>
    <name>Dog Walk - 2026-08-07 #1</name>
    <type>dog walk</type>
    <trkseg>
      <trkpt lat="41.40134036428462" lon="-81.74023508688657">
        <ele>266.3861696416</ele>
        <time>2026-08-07T08:13:21Z</time>
      </trkpt>
      <trkpt lat="41.40134146957998" lon="-81.74082986856527">
        <ele>266.2931260272</ele>
        <time>2026-08-07T08:14:17Z</time>
      </trkpt>
      <trkpt lat="41.40134392817910" lon="-81.74143747818178">
        <ele>265.8500922226</ele>
        <time>2026-08-07T08:15:00Z</time>
      </trkpt>
      <trkpt lat="41.40135386522406" lon="-81.74203134641745">
        <ele>265.1121784851</ele>
        <time>2026-08-07T08:15:58Z</time>
      </trkpt>
      <trkpt lat="41.40134599094372" lon="-81.74242590519691">
        <ele>264.8029775389</ele>
        <time>2026-08-07T08:16:20Z</time>
      </trkpt>
      <trkpt lat="41.40176740649108" lon="-81.74261259486123">
        <ele>264.2645386248</ele>
        <time>2026-08-07T08:17:15Z</time>
      </trkpt>
      <trkpt lat="41.40219801026068" lon="-81.74281359899119">
        <ele>263.6019252397</ele>
        <time>2026-08-07T08:18:03Z</time>
      </trkpt>
      <trkpt lat="41.40261723918793" lon="-81.74301276314547">
        <ele>263.1123141038</ele>
        <time>2026-08-07T08:18:42Z</time>
      </trkpt>
      <trkpt lat="41.40304776012206" lon="-81.74321369011953">
        <ele>262.4929071085</ele>
        <time>2026-08-07T08:19:31Z</time>
      </trkpt>
      <trkpt lat="41.40311611094808" lon="-81.74325334694969">
        <ele>262.1995237693</ele>
        <time>2026-08-07T08:19:39Z</time>
      </trkpt>
      <trkpt lat="41.40311769075025" lon="-81.74264899935746">
        <ele>263.0601009921</ele>
        <time>2026-08-07T08:20:22Z</time>
      </trkpt>
      <trkpt lat="41.40309938948567" lon="-81.74205309385748">
        <ele>263.4730777904</ele>
        <time>2026-08-07T08:20:58Z</time>
      </trkpt>
      <trkpt lat="41.40311195391681" lon="-81.74145185238883">
        <ele>264.2145898325</ele>
        <time>2026-08-07T08:22:01Z</time>
      </trkpt>
      <trkpt lat="41.40311619473697" lon="-81.74086234712175">
        <ele>264.7197088480</ele>
        <time>2026-08-07T08:22:38Z</time>
      </trkpt>
      <trkpt lat="41.40310661443065" lon="-81.74025640257507">
        <ele>265.4651677802</ele>
        <time>2026-08-07T08:23:20Z</time>
      </trkpt>
      <trkpt lat="41.40310482414569" lon="-81.73966370778113">
        <ele>266.0729207195</ele>
        <time>2026-08-07T08:23:59Z</time>
      </trkpt>
      <trkpt lat="41.40310762709134" lon="-81.73905570825694">
        <ele>266.0302784204</ele>
        <time>2026-08-07T08:24:46Z</time>
      </trkpt>
      <trkpt lat="41.40309785111566" lon="-81.73878958153918">
        <ele>266.3681645452</ele>
        <time>2026-08-07T08:25:08Z</time>
      </trkpt>
      <trkpt lat="41.40265222677925" lon="-81.73878145605454">
        <ele>266.4917029673</ele>
        <time>2026-08-07T08:26:03Z</time>
      </trkpt>
      <trkpt lat="41.40223538713852" lon="-81.73877088820691">
        <ele>267.0833381407</ele>
        <time>2026-08-07T08:26:45Z</time>
      </trkpt>
      <trkpt lat="41.40223055459322" lon="-81.73818547853688">
        <ele>267.0271663626</ele>
        <time>2026-08-07T08:27:28Z</time>
      </trkpt>
      <trkpt lat="41.40223176331204" lon="-81.73759484661936">
        <ele>267.0471741318</ele>
        <time>2026-08-07T08:28:11Z</time>
      </trkpt>
      <trkpt lat="41.40222985961314" lon="-81.73698468425323">
        <ele>267.3147450650</ele>
        <time>2026-08-07T08:29:02Z</time>
      </trkpt>
      <trkpt lat="41.40222712923004" lon="-81.73637535668254">
        <ele>267.3410630049</ele>
        <time>2026-08-07T08:29:52Z</time>
      </trkpt>
      <trkpt lat="41.40222726976607" lon="-81.73578362643951">
        <ele>267.1925764389</ele>
        <time>2026-08-07T08:30:35Z</time>
      </trkpt>
      <trkpt lat="41.40222784859788" lon="-81.73516798114123">
        <ele>267.1472098961</ele>
        <time>2026-08-07T08:31:10Z</time>
      </trkpt>
      <trkpt lat="41.40222622766154" lon="-81.73464766214772">
        <ele>267.0854449406</ele>
        <time>2026-08-07T08:31:55Z</time>
      </trkpt>
      <trkpt lat="41.40177569797485" lon="-81.73464587327580">
        <ele>267.3185050796</ele>
        <time>2026-08-07T08:32:33Z</time>
      </trkpt>
      <trkpt lat="41.40132216583260" lon="-81.73464343408419">
        <ele>267.4234769220</ele>
        <time>2026-08-07T08:33:19Z</time>
      </trkpt>
      <trkpt lat="41.40132167437690" lon="-81.73463097827587">
        <ele>267.4282783233</ele>
        <time>2026-08-07T08:33:20Z</time>
      </trkpt>
      <trkpt lat="41.40131125845846" lon="-81.73523120728410">
        <ele>267.9582154260</ele>
        <time>2026-08-07T08:33:58Z</time>
      </trkpt>
      <trkpt lat="41.40132695968440" lon="-81.73582760881052">
        <ele>268.2898280050</ele>
        <time>2026-08-07T08:34:49Z</time>
      </trkpt>
      <trkpt lat="41.40132716056874" lon="-81.73643470736314">
        <ele>268.3237738206</ele>
        <time>2026-08-07T08:35:26Z</time>
      </trkpt>
      <trkpt lat="41.40132981142146" lon="-81.73703845106964">
        <ele>268.0335204985</ele>
        <time>2026-08-07T08:36:04Z</time>
      </trkpt>
      <trkpt lat="41.40134020727270" lon="-81.73763688462721">
        <ele>267.7194539674</ele>
        <time>2026-08-07T08:36:35Z</time>
      </trkpt>
      <trkpt lat="41.40132078329118" lon="-81.73823093346036">
        <ele>267.5518359935</ele>
        <time>2026-08-07T08:37:07Z</time>
      </trkpt>
      <trkpt lat="41.40132803798795" lon="-81.73883301502778">
        <ele>267.3364433145</ele>
        <time>2026-08-07T08:37:41Z</time>
      </trkpt>
      <trkpt lat="41.40134086845673" lon="-81.73943411837902">
        <ele>267.2619391250</ele>
        <time>2026-08-07T08:38:25Z</time>
      </trkpt>
      <trkpt lat="41.40133644963652" lon="-81.74003508105834">
        <ele>266.7033449199</ele>
        <time>2026-08-07T08:39:08Z</time>
      </trkpt>
      <trkpt lat="41.40135362637410" lon="-81.74016018856133">
        <ele>266.5341956651</ele>
        <time>2026-08-07T08:39:16Z</time>
      </trkpt>
    </trkseg>
  </trk>
</gpx>