<?xml version='1.0' encoding='UTF-8'?>
<gpx xmlns="http://www.topografix.com/GPX/1/1" creator="https://gpx.studio" version="1.1">
  <metadata>
    <name>Dog Walk - 2026-08-27 #2</name>
  </metadata>
  <trk>
    <name>Dog Walk - 2026-08-27 #2</name>
    <type>dog walk</type>
    <trkseg>
      <trkpt lat="41.40133981110779" lon="-81.74022819315374">
        <ele>266.5354067483</ele>
        <time>2026-08-27T12:14:03Z</time>
      </trkpt>
      <trkpt lat="41.40134662703291" lon="-81.74083759575639">
        <ele>266.2386131994</ele>
        <time>2026-08-27T12:14:46Z</time>
      </trkpt>
      <trkpt lat="41.40134270963769" lon="-81.74143376738192">
        <ele>266.0700882729</ele>
        <time>2026-08-27T12:15:23Z</time>
      </trkpt>
      <trkpt lat="41.40134482822425" lon="-81.74202721430071">
        <ele>265.5284098322</ele>
        <time>2026-08-27T12:15:58Z</time>
      </trkpt>
      <trkpt lat="41.40135080054163" lon="-81.74242101414002">
        <ele>264.7502977628</ele>
        <time>2026-08-27T12:16:23Z</time>
      </trkpt>
      <trkpt lat="41.40177573273203" lon="-81.74263011596841">
        <ele>264.4088490404</ele>
        <time>2026-08-27T12:17:05Z</time>
      </trkpt>
      <trkpt lat="41.40219176772469" lon="-81.74282196999030">
        <ele>263.4067041525</ele>
        <time>2026-08-27T12:17:41Z</time>
      </trkpt>
      <trkpt lat="41.40262247697085" lon="-81.74301967820610">
        <ele>262.8671901757</ele>
        <time>2026-08-27T12:18:20Z</time>
      </trkpt>
      <trkpt lat="41.40304529037626" lon="-81.74321916742704">
        <ele>262.5792368913</ele>
        <time>2026-08-27T12:19:05Z</time>
      </trkpt>
      <trkpt lat="41.40312088768300" lon="-81.74326356847871">
        <ele>262.3113089570</ele>
        <time>2026-08-27T12:19:13Z</time>
      </trkpt>
      <trkpt lat="41.40311552742534" lon="-81.74265163237155">
        <ele>263.3040241454</ele>
        <time>2026-08-27T12:19:50Z</time>
      </trkpt>
      <trkpt lat="41.40311460167763" lon="-81.74205369017170">
        <ele>263.5727633870</ele>
        <time>2026-08-27T12:20:23Z</time>
      </trkpt>
      <trkpt lat="41.40311468797290" lon="-81.74146371422815">
        <ele>264.2546310152</ele>
        <time>2026-08-27T12:20:56Z</time>
      </trkpt>
      <trkpt lat="41.40310424654719" lon="-81.74085275926046">
        <ele>264.9751472215</ele>
        <time>2026-08-27T12:21:29Z</time>
      </trkpt>
      <trkpt lat="41.40310228588668" lon="-81.74024690514845">
        <ele>265.3704318654</ele>
        <time>2026-08-27T12:22:03Z</time>
      </trkpt>
      <trkpt lat="41.40310339421977" lon="-81.73964766768077">
        <ele>265.8335850452</ele>
        <time>2026-08-27T12:22:44Z</time>
      </trkpt>
      <trkpt lat="41.40309917404610" lon="-81.73905599000923">
        <ele>266.1240592926</ele>
        <time>2026-08-27T12:23:14Z</time>
      </trkpt>
      <trkpt lat="41.40309581559396" lon="-81.73879590855387">
        <ele>265.9871253846</ele>
        <time>2026-08-27T12:23:29Z</time>
      </trkpt>
      <trkpt lat="41.40264416167062" lon="-81.73878459209359">
        <ele>266.5284714318</ele>
        <time>2026-08-27T12:24:08Z</time>
      </trkpt>
      <trkpt lat="41.40223480425821" lon="-81.73878187864189">
        <ele>266.8933059362</ele>
        <time>2026-08-27T12:24:40Z</time>
      </trkpt>
      <trkpt lat="41.40222691082064" lon="-81.73818780909234">
        <ele>267.0825086432</ele>
        <time>2026-08-27T12:25:31Z</time>
      </trkpt>
      <trkpt lat="41.40223051154199" lon="-81.73756389794976">
        <ele>266.9901628747</ele>
        <time>2026-08-27T12:26:26Z</time>
      </trkpt>
      <trkpt lat="41.40222652714483" lon="-81.73698883991139">
        <ele>267.1830143677</ele>
        <time>2026-08-27T12:27:07Z</time>
      </trkpt>
      <trkpt lat="41.40223216768582" lon="-81.73638757185222">
        <ele>267.1550197048</ele>
        <time>2026-08-27T12:28:05Z</time>
      </trkpt>
      <trkpt lat="41.40222942476075" lon="-81.73578624927298">
        <ele>267.1921838976</ele>
        <time>2026-08-27T12:28:41Z</time>
      </trkpt>
      <trkpt lat="41.40221829004211" lon="-81.73518156670723">
        <ele>267.2436390566</ele>
        <time>2026-08-27T12:29:33Z</time>
      </trkpt>
      <trkpt lat="41.40222160764490" lon="-81.73465609238720">
        <ele>267.2159805595</ele>
        <time>2026-08-27T12:30:11Z</time>
      </trkpt>
      <trkpt lat="41.40177606882098" lon="-81.73463947775234">
        <ele>267.2163097084</ele>
        <time>2026-08-27T12:30:44Z</time>
      </trkpt>
      <trkpt lat="41.40131681941543" lon="-81.73463231894009">
        <ele>267.4018134990</ele>
        <time>2026-08-27T12:31:28Z</time>
      </trkpt>
      <trkpt lat="41.40131154553150" lon="-81.73464168956856">
        <ele>267.3147672199</ele>
        <time>2026-08-27T12:31:29Z</time>
      </trkpt>
      <trkpt lat="41.40131293373015" lon="-81.73524371651990">
        <ele>267.9922954400</ele>
        <time>2026-08-27T12:32:12Z</time>
      </trkpt>
      <trkpt lat="41.40132529053224" lon="-81.73582709577613">
        <ele>268.1425594213</ele>
        <time>2026-08-27T12:32:54Z</time>
      </trkpt>
      <trkpt lat="41.40132377814281" lon="-81.73643780821527">
        <ele>268.1398243295</ele>
        <time>2026-08-27T12:33:44Z</time>
      </trkpt>
      <trkpt lat="41.40133184320752" lon="-81.73703347493199">
        <ele>268.1409119366</ele>
        <time>2026-08-27T12:34:32Z</time>
      </trkpt>
      <trkpt lat="41.40133644850278" lon="-81.73763429364769">
        <ele>268.1778991165</ele>
        <time>2026-08-27T12:35:25Z</time>
      </trkpt>
      <trkpt lat="41.40133276201923" lon="-81.73823260465443">
        <ele>267.4428763701</ele>
        <time>2026-08-27T12:36:01Z</time>
      </trkpt>
      <trkpt lat="41.40134708727519" lon="-81.73883275243040">
        <ele>267.4153530444</ele>
        <time>2026-08-27T12:36:47Z</time>
      </trkpt>
      <trkpt lat="41.40134789746114" lon="-81.73943855598483">
        <ele>267.3001838849</ele>
        <time>2026-08-27T12:37:23Z</time>
      </trkpt>
      <trkpt lat="41.40134992002561" lon="-81.74003730955322">
        <ele>266.6208904952</ele>
        <time>2026-08-27T12:37:59Z</time>
      </trkpt>
      <trkpt lat="41.40134848395310" lon="-81.74016369381305">
        <ele>266.6581331170</ele>
        <time>2026-08-27T12:38:07Z</time>
      </trkpt>
    </trkseg>
  </trk>
</gpx>