<?xml version='1.0' encoding='UTF-8'?>
<gpx xmlns="http://www.topografix.com/GPX/1/1" creator="https://gpx.studio" version="1.1">
  <metadata>
    <name>Dog Walk - 2026-07-25 #4</name>
  </metadata>
  <trk>
    <name>Dog Walk - 2026-07-25 #4</name>
    <type>dog walk</type>
    <trkseg>
      <trkpt lat="41.40132861689752" lon="-81.74024635399843">
        <ele>266.5840266498</ele>
        <time>2026-07-25T20:06:32Z</time>
      </trkpt>
      <trkpt lat="41.40134082344956" lon="-81.74025210801997">
        <ele>266.5264349625</ele>
        <time>2026-07-25T20:06:33Z</time>
      </trkpt>
      <trkpt lat="41.40132452027348" lon="-81.74086452976645">
        <ele>266.1204852485</ele>
        <time>2026-07-25T20:07:12Z</time>
      </trkpt>
      <trkpt lat="41.40132809696592" lon="-81.74144436894839">
        <ele>265.6379403423</ele>
        <time>2026-07-25T20:07:51Z</time>
      </trkpt>
      <trkpt lat="41.40132420981700" lon="-81.74206245984955">
        <ele>265.3976605159</ele>
        <time>2026-07-25T20:08:34Z</time>
      </trkpt>
      <trkpt lat="41.40132520932975" lon="-81.74239128448652">
        <ele>264.8095876613</ele>
        <time>2026-07-25T20:08:55Z</time>
      </trkpt>
      <trkpt lat="41.40132439595644" lon="-81.74238009070119">
        <ele>264.6440883489</ele>
        <time>2026-07-25T20:08:56Z</time>
      </trkpt>
      <trkpt lat="41.40090279527556" lon="-81.74219280545719">
        <ele>265.1256499952</ele>
        <time>2026-07-25T20:09:28Z</time>
      </trkpt>
      <trkpt lat="41.40047627025624" lon="-81.74198831725103">
        <ele>265.2988784899</ele>
        <time>2026-07-25T20:10:11Z</time>
      </trkpt>
      <trkpt lat="41.40004748313908" lon="-81.74180021594336">
        <ele>265.3502672834</ele>
        <time>2026-07-25T20:10:48Z</time>
      </trkpt>
      <trkpt lat="41.39962609099237" lon="-81.74160025609139">
        <ele>264.7409842885</ele>
        <time>2026-07-25T20:11:28Z</time>
      </trkpt>
      <trkpt lat="41.39954001237876" lon="-81.74156891130386">
        <ele>264.8570938916</ele>
        <time>2026-07-25T20:11:36Z</time>
      </trkpt>
      <trkpt lat="41.39954951717305" lon="-81.74097147631036">
        <ele>265.9127850816</ele>
        <time>2026-07-25T20:12:18Z</time>
      </trkpt>
      <trkpt lat="41.39954712805743" lon="-81.74037301217047">
        <ele>266.0264923146</ele>
        <time>2026-07-25T20:12:54Z</time>
      </trkpt>
      <trkpt lat="41.39954004789181" lon="-81.73978206911104">
        <ele>266.5666693199</ele>
        <time>2026-07-25T20:13:33Z</time>
      </trkpt>
      <trkpt lat="41.39953317300041" lon="-81.73917491802814">
        <ele>266.9699633066</ele>
        <time>2026-07-25T20:14:14Z</time>
      </trkpt>
      <trkpt lat="41.39953061478071" lon="-81.73857574152164">
        <ele>266.8941838860</ele>
        <time>2026-07-25T20:14:56Z</time>
      </trkpt>
      <trkpt lat="41.39953162248691" lon="-81.73830075830938">
        <ele>266.8248416993</ele>
        <time>2026-07-25T20:15:12Z</time>
      </trkpt>
      <trkpt lat="41.39953272932490" lon="-81.73829324171690">
        <ele>266.9674398020</ele>
        <time>2026-07-25T20:15:13Z</time>
      </trkpt>
      <trkpt lat="41.39998701167251" lon="-81.73830189173044">
        <ele>267.2782090428</ele>
        <time>2026-07-25T20:16:00Z</time>
      </trkpt>
      <trkpt lat="41.40044030777872" lon="-81.73829369265576">
        <ele>267.1656392739</ele>
        <time>2026-07-25T20:16:40Z</time>
      </trkpt>
      <trkpt lat="41.40087817086734" lon="-81.73831054191457">
        <ele>267.6254527972</ele>
        <time>2026-07-25T20:17:16Z</time>
      </trkpt>
      <trkpt lat="41.40132918513537" lon="-81.73829799896026">
        <ele>267.4730951900</ele>
        <time>2026-07-25T20:17:52Z</time>
      </trkpt>
      <trkpt lat="41.40133290985614" lon="-81.73890840904758">
        <ele>267.5466060502</ele>
        <time>2026-07-25T20:18:34Z</time>
      </trkpt>
      <trkpt lat="41.40133540328099" lon="-81.73949859127188">
        <ele>267.1716314287</ele>
        <time>2026-07-25T20:19:29Z</time>
      </trkpt>
      <trkpt lat="41.40133118879851" lon="-81.74010719019078">
        <ele>266.5165573649</ele>
        <time>2026-07-25T20:20:13Z</time>
      </trkpt>
      <trkpt lat="41.40133619352057" lon="-81.74016349143466">
        <ele>266.6130137984</ele>
        <time>2026-07-25T20:20:17Z</time>
      </trkpt>
    </trkseg>
  </trk>
</gpx>