<?xml version='1.0' encoding='UTF-8'?>
<gpx xmlns="http://www.topografix.com/GPX/1/1" creator="https://gpx.studio" version="1.1">
  <metadata>
    <name>Dog Walk - 2026-05-30 #2</name>
  </metadata>
  <trk>
    <name>Dog Walk - 2026-05-30 #2</name>
    <type>dog walk</type>
    <trkseg>
      <trkpt lat="41.40133619848387" lon="-81.74023706190938">
        <ele>266.5130361637</ele>
        <time>2026-05-30T11:43:06Z</time>
      </trkpt>
      <trkpt lat="41.40132815456820" lon="-81.74084707313129">
        <ele>266.1689451307</ele>
        <time>2026-05-30T11:43:59Z</time>
      </trkpt>
      <trkpt lat="41.40132484064821" lon="-81.74144234059501">
        <ele>265.6838571874</ele>
        <time>2026-05-30T11:44:38Z</time>
      </trkpt>
      <trkpt lat="41.40133386567044" lon="-81.74203094108600">
        <ele>265.4067187207</ele>
        <time>2026-05-30T11:45:15Z</time>
      </trkpt>
      <trkpt lat="41.40132860439375" lon="-81.74239409599910">
        <ele>264.6174823303</ele>
        <time>2026-05-30T11:45:38Z</time>
      </trkpt>
      <trkpt lat="41.40090091791524" lon="-81.74220316018059">
        <ele>265.1758733420</ele>
        <time>2026-05-30T11:46:12Z</time>
      </trkpt>
      <trkpt lat="41.40048018785012" lon="-81.74200528125529">
        <ele>265.2853615074</ele>
        <time>2026-05-30T11:46:51Z</time>
      </trkpt>
      <trkpt lat="41.40005734931959" lon="-81.74180300036004">
        <ele>265.5502599835</ele>
        <time>2026-05-30T11:47:25Z</time>
      </trkpt>
      <trkpt lat="41.39962726409667" lon="-81.74162271361703">
        <ele>264.7695954364</ele>
        <time>2026-05-30T11:48:16Z</time>
      </trkpt>
      <trkpt lat="41.39953200050706" lon="-81.74156983087252">
        <ele>264.9190517102</ele>
        <time>2026-05-30T11:48:28Z</time>
      </trkpt>
      <trkpt lat="41.39952779674834" lon="-81.74097338118486">
        <ele>265.8748824140</ele>
        <time>2026-05-30T11:49:07Z</time>
      </trkpt>
      <trkpt lat="41.39952824016652" lon="-81.74036268886974">
        <ele>266.0911935909</ele>
        <time>2026-05-30T11:49:48Z</time>
      </trkpt>
      <trkpt lat="41.39953957261010" lon="-81.73977678907849">
        <ele>266.5883697005</ele>
        <time>2026-05-30T11:50:21Z</time>
      </trkpt>
      <trkpt lat="41.39952407926350" lon="-81.73916450271643">
        <ele>266.8615375113</ele>
        <time>2026-05-30T11:51:12Z</time>
      </trkpt>
      <trkpt lat="41.39953372716499" lon="-81.73858479559067">
        <ele>266.8662022039</ele>
        <time>2026-05-30T11:51:48Z</time>
      </trkpt>
      <trkpt lat="41.39953453054974" lon="-81.73798055585678">
        <ele>267.2062971562</ele>
        <time>2026-05-30T11:52:21Z</time>
      </trkpt>
      <trkpt lat="41.39952857829904" lon="-81.73737411756970">
        <ele>267.2810614923</ele>
        <time>2026-05-30T11:53:14Z</time>
      </trkpt>
      <trkpt lat="41.39952392108860" lon="-81.73679072474957">
        <ele>267.3388780866</ele>
        <time>2026-05-30T11:54:02Z</time>
      </trkpt>
      <trkpt lat="41.39952534351493" lon="-81.73618232948286">
        <ele>267.4397270172</ele>
        <time>2026-05-30T11:54:35Z</time>
      </trkpt>
      <trkpt lat="41.39952449513962" lon="-81.73558487700635">
        <ele>267.3374676929</ele>
        <time>2026-05-30T11:55:25Z</time>
      </trkpt>
      <trkpt lat="41.39953381304365" lon="-81.73497817345832">
        <ele>267.2561147792</ele>
        <time>2026-05-30T11:56:00Z</time>
      </trkpt>
      <trkpt lat="41.39952607561066" lon="-81.73461651757115">
        <ele>267.1764519849</ele>
        <time>2026-05-30T11:56:34Z</time>
      </trkpt>
      <trkpt lat="41.39997589369651" lon="-81.73461476996910">
        <ele>267.3491804198</ele>
        <time>2026-05-30T11:57:16Z</time>
      </trkpt>
      <trkpt lat="41.40042438363494" lon="-81.73463021267767">
        <ele>267.4927335855</ele>
        <time>2026-05-30T11:58:03Z</time>
      </trkpt>
      <trkpt lat="41.40088057510093" lon="-81.73463440507317">
        <ele>267.2226866321</ele>
        <time>2026-05-30T11:58:44Z</time>
      </trkpt>
      <trkpt lat="41.40132113202289" lon="-81.73464175174372">
        <ele>267.4028974541</ele>
        <time>2026-05-30T11:59:17Z</time>
      </trkpt>
      <trkpt lat="41.40131374956286" lon="-81.73524093768039">
        <ele>267.6554655534</ele>
        <time>2026-05-30T11:59:58Z</time>
      </trkpt>
      <trkpt lat="41.40132280281792" lon="-81.73584111098516">
        <ele>268.2217784809</ele>
        <time>2026-05-30T12:00:48Z</time>
      </trkpt>
      <trkpt lat="41.40132695749935" lon="-81.73644028992145">
        <ele>268.3912413948</ele>
        <time>2026-05-30T12:01:28Z</time>
      </trkpt>
      <trkpt lat="41.40132475889595" lon="-81.73703826370813">
        <ele>267.7509646069</ele>
        <time>2026-05-30T12:02:08Z</time>
      </trkpt>
      <trkpt lat="41.40132346755738" lon="-81.73763826088569">
        <ele>268.0767343460</ele>
        <time>2026-05-30T12:03:05Z</time>
      </trkpt>
      <trkpt lat="41.40132812792402" lon="-81.73823942205925">
        <ele>267.6745819705</ele>
        <time>2026-05-30T12:03:36Z</time>
      </trkpt>
      <trkpt lat="41.40133650566975" lon="-81.73883090983172">
        <ele>267.1477505745</ele>
        <time>2026-05-30T12:04:10Z</time>
      </trkpt>
      <trkpt lat="41.40133741260242" lon="-81.73944118588911">
        <ele>267.2168023772</ele>
        <time>2026-05-30T12:05:10Z</time>
      </trkpt>
      <trkpt lat="41.40133139548671" lon="-81.74003975711220">
        <ele>266.7119500865</ele>
        <time>2026-05-30T12:05:50Z</time>
      </trkpt>
      <trkpt lat="41.40133485497599" lon="-81.74021735692384">
        <ele>266.6447814158</ele>
        <time>2026-05-30T12:06:01Z</time>
      </trkpt>
    </trkseg>
  </trk>
</gpx>