<?xml version='1.0' encoding='UTF-8'?>
<gpx xmlns="http://www.topografix.com/GPX/1/1" creator="https://gpx.studio" version="1.1">
  <metadata>
    <name>Dog Walk - 2026-07-22 #1</name>
  </metadata>
  <trk>
    <name>Dog Walk - 2026-07-22 #1</name>
    <type>dog walk</type>
    <trkseg>
      <trkpt lat="41.40133491399865" lon="-81.74022896736786">
        <ele>266.4975333257</ele>
        <time>2026-07-22T08:45:07Z</time>
      </trkpt>
      <trkpt lat="41.40133832794971" lon="-81.74084247578938">
        <ele>266.1280798609</ele>
        <time>2026-07-22T08:45:41Z</time>
      </trkpt>
      <trkpt lat="41.40132920793865" lon="-81.74144190617086">
        <ele>265.8672315232</ele>
        <time>2026-07-22T08:46:18Z</time>
      </trkpt>
      <trkpt lat="41.40133519054415" lon="-81.74203639762867">
        <ele>265.2572182552</ele>
        <time>2026-07-22T08:47:18Z</time>
      </trkpt>
      <trkpt lat="41.40132735093638" lon="-81.74239559925515">
        <ele>264.7174993476</ele>
        <time>2026-07-22T08:47:44Z</time>
      </trkpt>
      <trkpt lat="41.40090149039876" lon="-81.74220476720626">
        <ele>265.2678313522</ele>
        <time>2026-07-22T08:48:23Z</time>
      </trkpt>
      <trkpt lat="41.40047375129357" lon="-81.74200450684582">
        <ele>265.0887610048</ele>
        <time>2026-07-22T08:48:58Z</time>
      </trkpt>
      <trkpt lat="41.40005240459513" lon="-81.74180967273212">
        <ele>265.4750920535</ele>
        <time>2026-07-22T08:49:35Z</time>
      </trkpt>
      <trkpt lat="41.39963418632520" lon="-81.74161165646659">
        <ele>264.9284603395</ele>
        <time>2026-07-22T08:50:11Z</time>
      </trkpt>
      <trkpt lat="41.39953671913855" lon="-81.74157184640097">
        <ele>264.7399826611</ele>
        <time>2026-07-22T08:50:23Z</time>
      </trkpt>
      <trkpt lat="41.39953235244872" lon="-81.74097072629228">
        <ele>265.5969180708</ele>
        <time>2026-07-22T08:51:23Z</time>
      </trkpt>
      <trkpt lat="41.39953825283254" lon="-81.74037294802665">
        <ele>266.0904355283</ele>
        <time>2026-07-22T08:52:06Z</time>
      </trkpt>
      <trkpt lat="41.39952558297646" lon="-81.73977025873104">
        <ele>266.7202315559</ele>
        <time>2026-07-22T08:52:41Z</time>
      </trkpt>
      <trkpt lat="41.39953347530351" lon="-81.73917036692569">
        <ele>266.7467620993</ele>
        <time>2026-07-22T08:53:21Z</time>
      </trkpt>
      <trkpt lat="41.39952592458391" lon="-81.73856636719395">
        <ele>266.9643580679</ele>
        <time>2026-07-22T08:54:05Z</time>
      </trkpt>
      <trkpt lat="41.39951796672469" lon="-81.73797875500918">
        <ele>267.1223846830</ele>
        <time>2026-07-22T08:54:53Z</time>
      </trkpt>
      <trkpt lat="41.39952843641657" lon="-81.73737364986948">
        <ele>267.2424154801</ele>
        <time>2026-07-22T08:55:44Z</time>
      </trkpt>
      <trkpt lat="41.39953248939621" lon="-81.73678534900002">
        <ele>267.4374439914</ele>
        <time>2026-07-22T08:56:21Z</time>
      </trkpt>
      <trkpt lat="41.39953424766178" lon="-81.73617324303953">
        <ele>267.4775804542</ele>
        <time>2026-07-22T08:56:56Z</time>
      </trkpt>
      <trkpt lat="41.39952968249745" lon="-81.73558160636833">
        <ele>267.2761206123</ele>
        <time>2026-07-22T08:57:44Z</time>
      </trkpt>
      <trkpt lat="41.39952262053878" lon="-81.73497805657573">
        <ele>267.0399870527</ele>
        <time>2026-07-22T08:58:25Z</time>
      </trkpt>
      <trkpt lat="41.39952985405786" lon="-81.73461245525179">
        <ele>267.1275105597</ele>
        <time>2026-07-22T08:58:54Z</time>
      </trkpt>
      <trkpt lat="41.39998152769951" lon="-81.73462557924046">
        <ele>267.1429932154</ele>
        <time>2026-07-22T08:59:44Z</time>
      </trkpt>
      <trkpt lat="41.40042329573030" lon="-81.73463269384989">
        <ele>267.4383390962</ele>
        <time>2026-07-22T09:00:33Z</time>
      </trkpt>
      <trkpt lat="41.40087174660613" lon="-81.73463546318499">
        <ele>267.2401767811</ele>
        <time>2026-07-22T09:01:11Z</time>
      </trkpt>
      <trkpt lat="41.40131754961964" lon="-81.73463829058043">
        <ele>267.4327397621</ele>
        <time>2026-07-22T09:02:00Z</time>
      </trkpt>
      <trkpt lat="41.40131378562071" lon="-81.73523892408596">
        <ele>268.0188048774</ele>
        <time>2026-07-22T09:02:41Z</time>
      </trkpt>
      <trkpt lat="41.40131440330831" lon="-81.73584216049646">
        <ele>268.4257088428</ele>
        <time>2026-07-22T09:03:15Z</time>
      </trkpt>
      <trkpt lat="41.40132603190283" lon="-81.73643128358681">
        <ele>268.2286207786</ele>
        <time>2026-07-22T09:04:03Z</time>
      </trkpt>
      <trkpt lat="41.40133202712283" lon="-81.73704254303655">
        <ele>268.1792551129</ele>
        <time>2026-07-22T09:04:50Z</time>
      </trkpt>
      <trkpt lat="41.40131956218448" lon="-81.73763619935060">
        <ele>267.9443115013</ele>
        <time>2026-07-22T09:05:22Z</time>
      </trkpt>
      <trkpt lat="41.40132458989416" lon="-81.73823584326564">
        <ele>267.4101773538</ele>
        <time>2026-07-22T09:06:03Z</time>
      </trkpt>
      <trkpt lat="41.40132729735173" lon="-81.73884461919742">
        <ele>267.1572205215</ele>
        <time>2026-07-22T09:06:35Z</time>
      </trkpt>
      <trkpt lat="41.40134033238490" lon="-81.73943736480273">
        <ele>267.2258858312</ele>
        <time>2026-07-22T09:07:12Z</time>
      </trkpt>
      <trkpt lat="41.40132656322026" lon="-81.74003696624332">
        <ele>266.7064855270</ele>
        <time>2026-07-22T09:07:47Z</time>
      </trkpt>
      <trkpt lat="41.40132815937815" lon="-81.74022231522719">
        <ele>266.5093029914</ele>
        <time>2026-07-22T09:07:57Z</time>
      </trkpt>
    </trkseg>
  </trk>
</gpx>