<?xml version='1.0' encoding='UTF-8'?>
<gpx xmlns="http://www.topografix.com/GPX/1/1" creator="https://gpx.studio" version="1.1">
  <metadata>
    <name>Dog Walk - 2026-04-12 #3</name>
  </metadata>
  <trk>
    <name>Dog Walk - 2026-04-12 #3</name>
    <type>dog walk</type>
    <trkseg>
      <trkpt lat="41.40134139691572" lon="-81.74022975612544">
        <ele>266.5711070954</ele>
        <time>2026-04-12T14:00:45Z</time>
      </trkpt>
      <trkpt lat="41.40134063760166" lon="-81.74083087914498">
        <ele>266.2528614123</ele>
        <time>2026-04-12T14:01:45Z</time>
      </trkpt>
      <trkpt lat="41.40134717175169" lon="-81.74143745727010">
        <ele>265.4238395009</ele>
        <time>2026-04-12T14:02:28Z</time>
      </trkpt>
      <trkpt lat="41.40134428391216" lon="-81.74203155362991">
        <ele>265.4419176782</ele>
        <time>2026-04-12T14:03:07Z</time>
      </trkpt>
      <trkpt lat="41.40134566779374" lon="-81.74241994285690">
        <ele>264.5670819997</ele>
        <time>2026-04-12T14:03:34Z</time>
      </trkpt>
      <trkpt lat="41.40176795526352" lon="-81.74262164769361">
        <ele>264.2686637144</ele>
        <time>2026-04-12T14:04:16Z</time>
      </trkpt>
      <trkpt lat="41.40219382380120" lon="-81.74281658251182">
        <ele>263.5272338594</ele>
        <time>2026-04-12T14:04:59Z</time>
      </trkpt>
      <trkpt lat="41.40261858075056" lon="-81.74301070575423">
        <ele>263.2108466875</ele>
        <time>2026-04-12T14:05:38Z</time>
      </trkpt>
      <trkpt lat="41.40304175429732" lon="-81.74322115840495">
        <ele>262.5610403287</ele>
        <time>2026-04-12T14:06:16Z</time>
      </trkpt>
      <trkpt lat="41.40311681033456" lon="-81.74325413171381">
        <ele>262.6705878249</ele>
        <time>2026-04-12T14:06:22Z</time>
      </trkpt>
      <trkpt lat="41.40311349221612" lon="-81.74264478138336">
        <ele>263.0135710368</ele>
        <time>2026-04-12T14:07:11Z</time>
      </trkpt>
      <trkpt lat="41.40311476684813" lon="-81.74205615464989">
        <ele>263.7284329595</ele>
        <time>2026-04-12T14:07:42Z</time>
      </trkpt>
      <trkpt lat="41.40310743028577" lon="-81.74144756005751">
        <ele>264.2349965937</ele>
        <time>2026-04-12T14:08:15Z</time>
      </trkpt>
      <trkpt lat="41.40310384046318" lon="-81.74085640391597">
        <ele>264.7798075531</ele>
        <time>2026-04-12T14:08:59Z</time>
      </trkpt>
      <trkpt lat="41.40310523683790" lon="-81.74026014758742">
        <ele>265.4128128624</ele>
        <time>2026-04-12T14:09:38Z</time>
      </trkpt>
      <trkpt lat="41.40310212933155" lon="-81.73966120950485">
        <ele>265.7153120204</ele>
        <time>2026-04-12T14:10:15Z</time>
      </trkpt>
      <trkpt lat="41.40309917243370" lon="-81.73905421920824">
        <ele>266.0438525660</ele>
        <time>2026-04-12T14:10:57Z</time>
      </trkpt>
      <trkpt lat="41.40309405283117" lon="-81.73877976780544">
        <ele>266.0977729101</ele>
        <time>2026-04-12T14:11:16Z</time>
      </trkpt>
      <trkpt lat="41.40264450322281" lon="-81.73879151166801">
        <ele>266.6273287661</ele>
        <time>2026-04-12T14:11:51Z</time>
      </trkpt>
      <trkpt lat="41.40223608200059" lon="-81.73878706742858">
        <ele>266.8983297516</ele>
        <time>2026-04-12T14:12:24Z</time>
      </trkpt>
      <trkpt lat="41.40224082201698" lon="-81.73818495833365">
        <ele>266.9976786624</ele>
        <time>2026-04-12T14:13:00Z</time>
      </trkpt>
      <trkpt lat="41.40223432238371" lon="-81.73758331795439">
        <ele>267.0780268882</ele>
        <time>2026-04-12T14:13:36Z</time>
      </trkpt>
      <trkpt lat="41.40223369981218" lon="-81.73697725640548">
        <ele>267.2101048813</ele>
        <time>2026-04-12T14:14:20Z</time>
      </trkpt>
      <trkpt lat="41.40223151129621" lon="-81.73638109388133">
        <ele>267.1411863645</ele>
        <time>2026-04-12T14:15:13Z</time>
      </trkpt>
      <trkpt lat="41.40222038098899" lon="-81.73577792849724">
        <ele>267.2911268241</ele>
        <time>2026-04-12T14:15:48Z</time>
      </trkpt>
      <trkpt lat="41.40223309185600" lon="-81.73518007756846">
        <ele>267.2536934939</ele>
        <time>2026-04-12T14:16:20Z</time>
      </trkpt>
      <trkpt lat="41.40222576730341" lon="-81.73464789055723">
        <ele>267.0846240162</ele>
        <time>2026-04-12T14:17:12Z</time>
      </trkpt>
      <trkpt lat="41.40177001285133" lon="-81.73464261342076">
        <ele>267.2091536821</ele>
        <time>2026-04-12T14:17:49Z</time>
      </trkpt>
      <trkpt lat="41.40132252857615" lon="-81.73462497957033">
        <ele>267.3464502812</ele>
        <time>2026-04-12T14:18:35Z</time>
      </trkpt>
      <trkpt lat="41.40131797494389" lon="-81.73464107238260">
        <ele>267.2240948567</ele>
        <time>2026-04-12T14:18:36Z</time>
      </trkpt>
      <trkpt lat="41.40131963775842" lon="-81.73523469849873">
        <ele>267.8663052061</ele>
        <time>2026-04-12T14:19:17Z</time>
      </trkpt>
      <trkpt lat="41.40132466624836" lon="-81.73582199458633">
        <ele>268.1832035940</ele>
        <time>2026-04-12T14:20:08Z</time>
      </trkpt>
      <trkpt lat="41.40132345199360" lon="-81.73643027894325">
        <ele>268.3160322745</ele>
        <time>2026-04-12T14:20:45Z</time>
      </trkpt>
      <trkpt lat="41.40133219828995" lon="-81.73704422613471">
        <ele>268.0753344124</ele>
        <time>2026-04-12T14:21:50Z</time>
      </trkpt>
      <trkpt lat="41.40132960063742" lon="-81.73763362109700">
        <ele>268.0277897658</ele>
        <time>2026-04-12T14:22:49Z</time>
      </trkpt>
      <trkpt lat="41.40132721814630" lon="-81.73823873777728">
        <ele>267.6537382445</ele>
        <time>2026-04-12T14:23:27Z</time>
      </trkpt>
      <trkpt lat="41.40133889774791" lon="-81.73883219757730">
        <ele>267.3446975875</ele>
        <time>2026-04-12T14:24:13Z</time>
      </trkpt>
      <trkpt lat="41.40134433508619" lon="-81.73943886566779">
        <ele>267.1553755702</ele>
        <time>2026-04-12T14:25:20Z</time>
      </trkpt>
      <trkpt lat="41.40134974958165" lon="-81.74002866553997">
        <ele>266.7726719115</ele>
        <time>2026-04-12T14:26:06Z</time>
      </trkpt>
      <trkpt lat="41.40134618060888" lon="-81.74015927130337">
        <ele>266.6275543566</ele>
        <time>2026-04-12T14:26:15Z</time>
      </trkpt>
    </trkseg>
  </trk>
</gpx>