<?xml version='1.0' encoding='UTF-8'?>
<gpx xmlns="http://www.topografix.com/GPX/1/1" creator="https://gpx.studio" version="1.1">
  <metadata>
    <name>Dog Walk - 2026-06-26 #2</name>
  </metadata>
  <trk>
    <name>Dog Walk - 2026-06-26 #2</name>
    <type>dog walk</type>
    <trkseg>
      <trkpt lat="41.40133057695515" lon="-81.74023019048784">
        <ele>266.6581282878</ele>
        <time>2026-06-26T12:08:51Z</time>
      </trkpt>
      <trkpt lat="41.40132825219120" lon="-81.74083051861754">
        <ele>266.2013878687</ele>
        <time>2026-06-26T12:09:27Z</time>
      </trkpt>
      <trkpt lat="41.40133159264926" lon="-81.74143397745507">
        <ele>265.6543553202</ele>
        <time>2026-06-26T12:10:12Z</time>
      </trkpt>
      <trkpt lat="41.40133017856228" lon="-81.74203221958021">
        <ele>265.2662739712</ele>
        <time>2026-06-26T12:10:53Z</time>
      </trkpt>
      <trkpt lat="41.40133819976651" lon="-81.74239865711223">
        <ele>264.8166514603</ele>
        <time>2026-06-26T12:11:14Z</time>
      </trkpt>
      <trkpt lat="41.40090333389276" lon="-81.74220201564779">
        <ele>265.1524525229</ele>
        <time>2026-06-26T12:11:58Z</time>
      </trkpt>
      <trkpt lat="41.40047997372292" lon="-81.74200055280362">
        <ele>265.3594531611</ele>
        <time>2026-06-26T12:12:38Z</time>
      </trkpt>
      <trkpt lat="41.40004854194478" lon="-81.74180821151297">
        <ele>265.1939082929</ele>
        <time>2026-06-26T12:13:12Z</time>
      </trkpt>
      <trkpt lat="41.39962240558224" lon="-81.74161380937468">
        <ele>264.8809030637</ele>
        <time>2026-06-26T12:13:46Z</time>
      </trkpt>
      <trkpt lat="41.39954357242874" lon="-81.74157046980393">
        <ele>264.8390640574</ele>
        <time>2026-06-26T12:13:53Z</time>
      </trkpt>
      <trkpt lat="41.39953697651075" lon="-81.74097219256582">
        <ele>265.6589439967</ele>
        <time>2026-06-26T12:14:54Z</time>
      </trkpt>
      <trkpt lat="41.39953125235063" lon="-81.74037913178434">
        <ele>266.2753888970</ele>
        <time>2026-06-26T12:15:30Z</time>
      </trkpt>
      <trkpt lat="41.39952997025014" lon="-81.73977727348826">
        <ele>266.4005301540</ele>
        <time>2026-06-26T12:16:24Z</time>
      </trkpt>
      <trkpt lat="41.39953865947089" lon="-81.73917737293952">
        <ele>266.9404314849</ele>
        <time>2026-06-26T12:16:55Z</time>
      </trkpt>
      <trkpt lat="41.39952407460029" lon="-81.73858057755282">
        <ele>266.9687508011</ele>
        <time>2026-06-26T12:17:38Z</time>
      </trkpt>
      <trkpt lat="41.39953043923029" lon="-81.73798409679981">
        <ele>266.9111611146</ele>
        <time>2026-06-26T12:18:16Z</time>
      </trkpt>
      <trkpt lat="41.39952644615742" lon="-81.73737873786092">
        <ele>267.4498059927</ele>
        <time>2026-06-26T12:19:05Z</time>
      </trkpt>
      <trkpt lat="41.39952722724506" lon="-81.73677993341936">
        <ele>267.1897754826</ele>
        <time>2026-06-26T12:19:44Z</time>
      </trkpt>
      <trkpt lat="41.39952789891533" lon="-81.73619427782462">
        <ele>267.5022284291</ele>
        <time>2026-06-26T12:20:22Z</time>
      </trkpt>
      <trkpt lat="41.39953953482225" lon="-81.73557261069259">
        <ele>267.4157522342</ele>
        <time>2026-06-26T12:21:02Z</time>
      </trkpt>
      <trkpt lat="41.39952273078963" lon="-81.73498377910099">
        <ele>267.3656622481</ele>
        <time>2026-06-26T12:21:36Z</time>
      </trkpt>
      <trkpt lat="41.39952068070747" lon="-81.73461509856762">
        <ele>267.0785711791</ele>
        <time>2026-06-26T12:22:06Z</time>
      </trkpt>
      <trkpt lat="41.39997528888566" lon="-81.73461277262301">
        <ele>267.2606351613</ele>
        <time>2026-06-26T12:22:51Z</time>
      </trkpt>
      <trkpt lat="41.40042609107410" lon="-81.73463654215836">
        <ele>267.2302598012</ele>
        <time>2026-06-26T12:23:28Z</time>
      </trkpt>
      <trkpt lat="41.40087421385550" lon="-81.73462486839024">
        <ele>267.4931341267</ele>
        <time>2026-06-26T12:24:05Z</time>
      </trkpt>
      <trkpt lat="41.40132357196723" lon="-81.73463922270420">
        <ele>267.0748780079</ele>
        <time>2026-06-26T12:24:55Z</time>
      </trkpt>
      <trkpt lat="41.40132245157942" lon="-81.73523335737875">
        <ele>267.9574641967</ele>
        <time>2026-06-26T12:25:30Z</time>
      </trkpt>
      <trkpt lat="41.40131713892333" lon="-81.73584234339378">
        <ele>268.2346051618</ele>
        <time>2026-06-26T12:26:16Z</time>
      </trkpt>
      <trkpt lat="41.40132702794576" lon="-81.73643350468920">
        <ele>268.3030159808</ele>
        <time>2026-06-26T12:26:58Z</time>
      </trkpt>
      <trkpt lat="41.40132346888100" lon="-81.73704402952974">
        <ele>267.8337959026</ele>
        <time>2026-06-26T12:27:46Z</time>
      </trkpt>
      <trkpt lat="41.40132442582005" lon="-81.73764310539907">
        <ele>267.9266276709</ele>
        <time>2026-06-26T12:28:22Z</time>
      </trkpt>
      <trkpt lat="41.40132473239086" lon="-81.73823877230758">
        <ele>267.6659205287</ele>
        <time>2026-06-26T12:29:00Z</time>
      </trkpt>
      <trkpt lat="41.40132528548528" lon="-81.73883465081923">
        <ele>267.4566608272</ele>
        <time>2026-06-26T12:30:11Z</time>
      </trkpt>
      <trkpt lat="41.40132083937932" lon="-81.73943808001036">
        <ele>267.1536932842</ele>
        <time>2026-06-26T12:30:52Z</time>
      </trkpt>
      <trkpt lat="41.40133521613999" lon="-81.74004045398668">
        <ele>266.7292235226</ele>
        <time>2026-06-26T12:31:40Z</time>
      </trkpt>
      <trkpt lat="41.40133403516882" lon="-81.74020519068283">
        <ele>266.7068035289</ele>
        <time>2026-06-26T12:31:50Z</time>
      </trkpt>
    </trkseg>
  </trk>
</gpx>