<?xml version='1.0' encoding='UTF-8'?>
<gpx xmlns="http://www.topografix.com/GPX/1/1" creator="https://gpx.studio" version="1.1">
  <metadata>
    <name>Dog Walk - 2026-03-31 #3</name>
  </metadata>
  <trk>
    <name>Dog Walk - 2026-03-31 #3</name>
    <type>dog walk</type>
    <trkseg>
      <trkpt lat="41.40134396804430" lon="-81.74024624460874">
        <ele>266.6241857668</ele>
        <time>2026-03-31T20:23:58Z</time>
      </trkpt>
      <trkpt lat="41.40134296181327" lon="-81.74083162466968">
        <ele>266.2186038978</ele>
        <time>2026-03-31T20:24:29Z</time>
      </trkpt>
      <trkpt lat="41.40134726195147" lon="-81.74144339500343">
        <ele>265.6630175308</ele>
        <time>2026-03-31T20:25:33Z</time>
      </trkpt>
      <trkpt lat="41.40134020060238" lon="-81.74203894526696">
        <ele>265.2518001146</ele>
        <time>2026-03-31T20:26:11Z</time>
      </trkpt>
      <trkpt lat="41.40135003060099" lon="-81.74241864298449">
        <ele>264.8637976513</ele>
        <time>2026-03-31T20:26:45Z</time>
      </trkpt>
      <trkpt lat="41.40177166348481" lon="-81.74262719852948">
        <ele>264.4481498726</ele>
        <time>2026-03-31T20:27:27Z</time>
      </trkpt>
      <trkpt lat="41.40219510021424" lon="-81.74281706024441">
        <ele>263.5561523667</ele>
        <time>2026-03-31T20:28:05Z</time>
      </trkpt>
      <trkpt lat="41.40262830869133" lon="-81.74302673530077">
        <ele>263.0386459164</ele>
        <time>2026-03-31T20:28:42Z</time>
      </trkpt>
      <trkpt lat="41.40303897296740" lon="-81.74321104812681">
        <ele>262.4525210252</ele>
        <time>2026-03-31T20:29:30Z</time>
      </trkpt>
      <trkpt lat="41.40311554654976" lon="-81.74325049280719">
        <ele>262.3551990483</ele>
        <time>2026-03-31T20:29:38Z</time>
      </trkpt>
      <trkpt lat="41.40311580249332" lon="-81.74265429419825">
        <ele>263.2024204664</ele>
        <time>2026-03-31T20:30:24Z</time>
      </trkpt>
      <trkpt lat="41.40311285078381" lon="-81.74204869865291">
        <ele>263.7663352093</ele>
        <time>2026-03-31T20:31:02Z</time>
      </trkpt>
      <trkpt lat="41.40310284896063" lon="-81.74145519962234">
        <ele>264.2426683868</ele>
        <time>2026-03-31T20:31:44Z</time>
      </trkpt>
      <trkpt lat="41.40310844493427" lon="-81.74085726773903">
        <ele>264.6965284212</ele>
        <time>2026-03-31T20:32:31Z</time>
      </trkpt>
      <trkpt lat="41.40310565548342" lon="-81.74025672145137">
        <ele>265.4294077787</ele>
        <time>2026-03-31T20:33:08Z</time>
      </trkpt>
      <trkpt lat="41.40310849583965" lon="-81.73965759810694">
        <ele>265.9840982638</ele>
        <time>2026-03-31T20:33:50Z</time>
      </trkpt>
      <trkpt lat="41.40310018946174" lon="-81.73905318717527">
        <ele>266.2434370646</ele>
        <time>2026-03-31T20:34:28Z</time>
      </trkpt>
      <trkpt lat="41.40309096048158" lon="-81.73878779687358">
        <ele>266.0942117355</ele>
        <time>2026-03-31T20:34:44Z</time>
      </trkpt>
      <trkpt lat="41.40264837170837" lon="-81.73878851817952">
        <ele>266.6221001352</ele>
        <time>2026-03-31T20:35:20Z</time>
      </trkpt>
      <trkpt lat="41.40223367648696" lon="-81.73877536239084">
        <ele>267.0776272652</ele>
        <time>2026-03-31T20:36:01Z</time>
      </trkpt>
      <trkpt lat="41.40223383993617" lon="-81.73817170020597">
        <ele>267.1172422256</ele>
        <time>2026-03-31T20:36:37Z</time>
      </trkpt>
      <trkpt lat="41.40222976094985" lon="-81.73757421783674">
        <ele>266.9557953854</ele>
        <time>2026-03-31T20:37:16Z</time>
      </trkpt>
      <trkpt lat="41.40223299127705" lon="-81.73697833113884">
        <ele>267.3363643078</ele>
        <time>2026-03-31T20:37:55Z</time>
      </trkpt>
      <trkpt lat="41.40222478220539" lon="-81.73637566703796">
        <ele>267.1734437743</ele>
        <time>2026-03-31T20:38:29Z</time>
      </trkpt>
      <trkpt lat="41.40222331909872" lon="-81.73578408034786">
        <ele>267.2812343600</ele>
        <time>2026-03-31T20:39:07Z</time>
      </trkpt>
      <trkpt lat="41.40222751022212" lon="-81.73517746226655">
        <ele>267.0646854046</ele>
        <time>2026-03-31T20:39:51Z</time>
      </trkpt>
      <trkpt lat="41.40221687806282" lon="-81.73464653855457">
        <ele>266.9976423630</ele>
        <time>2026-03-31T20:40:24Z</time>
      </trkpt>
      <trkpt lat="41.40177888060336" lon="-81.73464085980852">
        <ele>267.2889794451</ele>
        <time>2026-03-31T20:41:01Z</time>
      </trkpt>
      <trkpt lat="41.40132053594382" lon="-81.73464056014083">
        <ele>267.6777371971</ele>
        <time>2026-03-31T20:41:38Z</time>
      </trkpt>
      <trkpt lat="41.40131102608787" lon="-81.73463307830870">
        <ele>267.4911359094</ele>
        <time>2026-03-31T20:41:39Z</time>
      </trkpt>
      <trkpt lat="41.40131833322768" lon="-81.73524812575040">
        <ele>268.1532326750</ele>
        <time>2026-03-31T20:42:10Z</time>
      </trkpt>
      <trkpt lat="41.40131829590855" lon="-81.73583640426364">
        <ele>268.2966300668</ele>
        <time>2026-03-31T20:42:52Z</time>
      </trkpt>
      <trkpt lat="41.40132106974698" lon="-81.73643226801904">
        <ele>268.4369055840</ele>
        <time>2026-03-31T20:43:26Z</time>
      </trkpt>
      <trkpt lat="41.40133354421081" lon="-81.73702580164225">
        <ele>268.1725564446</ele>
        <time>2026-03-31T20:44:06Z</time>
      </trkpt>
      <trkpt lat="41.40133506511053" lon="-81.73763984459239">
        <ele>267.8502911044</ele>
        <time>2026-03-31T20:44:41Z</time>
      </trkpt>
      <trkpt lat="41.40133854061314" lon="-81.73822829822973">
        <ele>267.5949291322</ele>
        <time>2026-03-31T20:45:21Z</time>
      </trkpt>
      <trkpt lat="41.40133958116616" lon="-81.73882588386854">
        <ele>267.3850635901</ele>
        <time>2026-03-31T20:46:05Z</time>
      </trkpt>
      <trkpt lat="41.40134628106934" lon="-81.73942852769939">
        <ele>267.1117439037</ele>
        <time>2026-03-31T20:46:41Z</time>
      </trkpt>
      <trkpt lat="41.40134575811233" lon="-81.74003832112506">
        <ele>266.9063991774</ele>
        <time>2026-03-31T20:47:27Z</time>
      </trkpt>
      <trkpt lat="41.40135294866636" lon="-81.74015515530242">
        <ele>266.5137146355</ele>
        <time>2026-03-31T20:47:46Z</time>
      </trkpt>
    </trkseg>
  </trk>
</gpx>