<?xml version='1.0' encoding='UTF-8'?>
<gpx xmlns="http://www.topografix.com/GPX/1/1" creator="https://gpx.studio" version="1.1">
  <metadata>
    <name>Dog Walk - 2026-02-16 #4</name>
  </metadata>
  <trk>
    <name>Dog Walk - 2026-02-16 #4</name>
    <type>dog walk</type>
    <trkseg>
      <trkpt lat="41.40133616753849" lon="-81.74025403419762">
        <ele>266.5176355509</ele>
        <time>2026-02-16T20:08:59Z</time>
      </trkpt>
      <trkpt lat="41.40134308228372" lon="-81.74025709603907">
        <ele>266.6174474617</ele>
        <time>2026-02-16T20:09:00Z</time>
      </trkpt>
      <trkpt lat="41.40133603684929" lon="-81.74084972639444">
        <ele>266.1438717998</ele>
        <time>2026-02-16T20:09:40Z</time>
      </trkpt>
      <trkpt lat="41.40133132124814" lon="-81.74146662002953">
        <ele>265.7359031535</ele>
        <time>2026-02-16T20:10:20Z</time>
      </trkpt>
      <trkpt lat="41.40132679973612" lon="-81.74204802698522">
        <ele>265.1864722673</ele>
        <time>2026-02-16T20:11:03Z</time>
      </trkpt>
      <trkpt lat="41.40132337833640" lon="-81.74237456110285">
        <ele>264.7967820409</ele>
        <time>2026-02-16T20:11:24Z</time>
      </trkpt>
      <trkpt lat="41.40132499290213" lon="-81.74235697613383">
        <ele>264.5922811566</ele>
        <time>2026-02-16T20:11:26Z</time>
      </trkpt>
      <trkpt lat="41.40090121041981" lon="-81.74217683137219">
        <ele>265.1988273975</ele>
        <time>2026-02-16T20:12:06Z</time>
      </trkpt>
      <trkpt lat="41.40047540823785" lon="-81.74199683657913">
        <ele>265.2129498296</ele>
        <time>2026-02-16T20:12:39Z</time>
      </trkpt>
      <trkpt lat="41.40004559853224" lon="-81.74179740925096">
        <ele>265.7881830243</ele>
        <time>2026-02-16T20:13:45Z</time>
      </trkpt>
      <trkpt lat="41.39962247028343" lon="-81.74160281469889">
        <ele>264.7768001390</ele>
        <time>2026-02-16T20:14:35Z</time>
      </trkpt>
      <trkpt lat="41.39955560903626" lon="-81.74157417095270">
        <ele>264.8119672636</ele>
        <time>2026-02-16T20:14:42Z</time>
      </trkpt>
      <trkpt lat="41.39954473483346" lon="-81.74096910813418">
        <ele>265.9563933680</ele>
        <time>2026-02-16T20:15:15Z</time>
      </trkpt>
      <trkpt lat="41.39954559730607" lon="-81.74036989699670">
        <ele>266.3278879380</ele>
        <time>2026-02-16T20:15:52Z</time>
      </trkpt>
      <trkpt lat="41.39953540027575" lon="-81.73977061253532">
        <ele>266.5718121700</ele>
        <time>2026-02-16T20:16:28Z</time>
      </trkpt>
      <trkpt lat="41.39953876853507" lon="-81.73916723248601">
        <ele>266.7231926319</ele>
        <time>2026-02-16T20:17:02Z</time>
      </trkpt>
      <trkpt lat="41.39953567098061" lon="-81.73857639192310">
        <ele>266.8980415592</ele>
        <time>2026-02-16T20:17:44Z</time>
      </trkpt>
      <trkpt lat="41.39953168628172" lon="-81.73829649021712">
        <ele>267.0273063659</ele>
        <time>2026-02-16T20:18:06Z</time>
      </trkpt>
      <trkpt lat="41.39953611820251" lon="-81.73828775915881">
        <ele>266.9833141023</ele>
        <time>2026-02-16T20:18:07Z</time>
      </trkpt>
      <trkpt lat="41.39998890436155" lon="-81.73828986695264">
        <ele>267.2057231266</ele>
        <time>2026-02-16T20:18:53Z</time>
      </trkpt>
      <trkpt lat="41.40042672103680" lon="-81.73829804786446">
        <ele>267.1737601965</ele>
        <time>2026-02-16T20:19:35Z</time>
      </trkpt>
      <trkpt lat="41.40088309201139" lon="-81.73830759647542">
        <ele>267.4029553896</ele>
        <time>2026-02-16T20:20:22Z</time>
      </trkpt>
      <trkpt lat="41.40132556176700" lon="-81.73830249131825">
        <ele>267.5070337151</ele>
        <time>2026-02-16T20:20:57Z</time>
      </trkpt>
      <trkpt lat="41.40132452561616" lon="-81.73889598708092">
        <ele>267.5159054506</ele>
        <time>2026-02-16T20:21:39Z</time>
      </trkpt>
      <trkpt lat="41.40133155584726" lon="-81.73950616786520">
        <ele>267.1625139722</ele>
        <time>2026-02-16T20:22:20Z</time>
      </trkpt>
      <trkpt lat="41.40133815615074" lon="-81.74010281127592">
        <ele>266.6944072822</ele>
        <time>2026-02-16T20:22:54Z</time>
      </trkpt>
      <trkpt lat="41.40133081189323" lon="-81.74016698294486">
        <ele>266.5460380419</ele>
        <time>2026-02-16T20:22:59Z</time>
      </trkpt>
    </trkseg>
  </trk>
</gpx>