<?xml version='1.0' encoding='UTF-8'?>
<gpx xmlns="http://www.topografix.com/GPX/1/1" creator="https://gpx.studio" version="1.1">
  <metadata>
    <name>Dog Walk - 2026-04-28 #3</name>
  </metadata>
  <trk>
    <name>Dog Walk - 2026-04-28 #3</name>
    <type>dog walk</type>
    <trkseg>
      <trkpt lat="41.40133441267267" lon="-81.74023856454664">
        <ele>266.6368938343</ele>
        <time>2026-04-28T16:17:29Z</time>
      </trkpt>
      <trkpt lat="41.40134145943383" lon="-81.74083222278641">
        <ele>266.2784296721</ele>
        <time>2026-04-28T16:18:12Z</time>
      </trkpt>
      <trkpt lat="41.40134503940390" lon="-81.74143995945538">
        <ele>265.8087048797</ele>
        <time>2026-04-28T16:18:49Z</time>
      </trkpt>
      <trkpt lat="41.40134463290101" lon="-81.74203575247223">
        <ele>265.3554783351</ele>
        <time>2026-04-28T16:19:40Z</time>
      </trkpt>
      <trkpt lat="41.40134630290238" lon="-81.74242158974052">
        <ele>264.7456612811</ele>
        <time>2026-04-28T16:20:04Z</time>
      </trkpt>
      <trkpt lat="41.40177029186750" lon="-81.74263433677039">
        <ele>264.2610607533</ele>
        <time>2026-04-28T16:20:35Z</time>
      </trkpt>
      <trkpt lat="41.40219066988445" lon="-81.74285029046902">
        <ele>263.4895693734</ele>
        <time>2026-04-28T16:21:19Z</time>
      </trkpt>
      <trkpt lat="41.40260212899894" lon="-81.74305746375558">
        <ele>263.0749154089</ele>
        <time>2026-04-28T16:21:56Z</time>
      </trkpt>
      <trkpt lat="41.40302835627474" lon="-81.74327976000907">
        <ele>262.5094600852</ele>
        <time>2026-04-28T16:22:39Z</time>
      </trkpt>
      <trkpt lat="41.40344734938589" lon="-81.74347695159892">
        <ele>261.9919989864</ele>
        <time>2026-04-28T16:23:17Z</time>
      </trkpt>
      <trkpt lat="41.40348742150128" lon="-81.74349760417385">
        <ele>261.8723745936</ele>
        <time>2026-04-28T16:23:21Z</time>
      </trkpt>
      <trkpt lat="41.40359510078777" lon="-81.74352893218060">
        <ele>261.5559115341</ele>
        <time>2026-04-28T16:23:29Z</time>
      </trkpt>
      <trkpt lat="41.40399540429428" lon="-81.74351055939319">
        <ele>260.7773315977</ele>
        <time>2026-04-28T16:24:03Z</time>
      </trkpt>
      <trkpt lat="41.40399157401846" lon="-81.74290813445381">
        <ele>261.5657956057</ele>
        <time>2026-04-28T16:24:39Z</time>
      </trkpt>
      <trkpt lat="41.40398807755398" lon="-81.74231041991996">
        <ele>262.3534693566</ele>
        <time>2026-04-28T16:25:29Z</time>
      </trkpt>
      <trkpt lat="41.40399391523865" lon="-81.74170949184176">
        <ele>262.6025390562</ele>
        <time>2026-04-28T16:26:07Z</time>
      </trkpt>
      <trkpt lat="41.40399073171110" lon="-81.74110416737560">
        <ele>263.1425580103</ele>
        <time>2026-04-28T16:26:44Z</time>
      </trkpt>
      <trkpt lat="41.40399327775078" lon="-81.74051105832820">
        <ele>263.7398164939</ele>
        <time>2026-04-28T16:27:26Z</time>
      </trkpt>
      <trkpt lat="41.40399211538014" lon="-81.73991359958066">
        <ele>264.1344527570</ele>
        <time>2026-04-28T16:28:01Z</time>
      </trkpt>
      <trkpt lat="41.40398582793973" lon="-81.73930789767407">
        <ele>265.0278105357</ele>
        <time>2026-04-28T16:28:44Z</time>
      </trkpt>
      <trkpt lat="41.40397788583810" lon="-81.73877517187698">
        <ele>265.2026143057</ele>
        <time>2026-04-28T16:29:16Z</time>
      </trkpt>
      <trkpt lat="41.40353675920526" lon="-81.73877752415228">
        <ele>265.7499870324</ele>
        <time>2026-04-28T16:29:53Z</time>
      </trkpt>
      <trkpt lat="41.40308499454841" lon="-81.73877389130018">
        <ele>266.4431735946</ele>
        <time>2026-04-28T16:30:43Z</time>
      </trkpt>
      <trkpt lat="41.40263814893421" lon="-81.73876549962509">
        <ele>266.8366531723</ele>
        <time>2026-04-28T16:31:36Z</time>
      </trkpt>
      <trkpt lat="41.40222130119448" lon="-81.73877787988712">
        <ele>266.9638598255</ele>
        <time>2026-04-28T16:32:10Z</time>
      </trkpt>
      <trkpt lat="41.40221754924231" lon="-81.73827640024521">
        <ele>267.0065764874</ele>
        <time>2026-04-28T16:32:42Z</time>
      </trkpt>
      <trkpt lat="41.40175945853244" lon="-81.73826757230644">
        <ele>267.8768050198</ele>
        <time>2026-04-28T16:33:18Z</time>
      </trkpt>
      <trkpt lat="41.40133637893765" lon="-81.73827614175049">
        <ele>267.5978529475</ele>
        <time>2026-04-28T16:33:55Z</time>
      </trkpt>
      <trkpt lat="41.40133864550318" lon="-81.73887276552846">
        <ele>267.4635426204</ele>
        <time>2026-04-28T16:34:50Z</time>
      </trkpt>
      <trkpt lat="41.40133858296976" lon="-81.73946172386459">
        <ele>267.1535969960</ele>
        <time>2026-04-28T16:35:25Z</time>
      </trkpt>
      <trkpt lat="41.40134190083632" lon="-81.74007221374772">
        <ele>266.7438510655</ele>
        <time>2026-04-28T16:36:07Z</time>
      </trkpt>
      <trkpt lat="41.40133979042457" lon="-81.74021242325115">
        <ele>266.7323198010</ele>
        <time>2026-04-28T16:36:18Z</time>
      </trkpt>
    </trkseg>
  </trk>
</gpx>