<?xml version='1.0' encoding='UTF-8'?>
<gpx xmlns="http://www.topografix.com/GPX/1/1" creator="https://gpx.studio" version="1.1">
  <metadata>
    <name>Dog Walk - 2026-03-26 #2</name>
  </metadata>
  <trk>
    <name>Dog Walk - 2026-03-26 #2</name>
    <type>dog walk</type>
    <trkseg>
      <trkpt lat="41.40135293385669" lon="-81.74023280310531">
        <ele>266.5325135833</ele>
        <time>2026-03-26T12:28:34Z</time>
      </trkpt>
      <trkpt lat="41.40133929247462" lon="-81.74083212345086">
        <ele>266.3464979543</ele>
        <time>2026-03-26T12:29:13Z</time>
      </trkpt>
      <trkpt lat="41.40133831192940" lon="-81.74143615945066">
        <ele>265.7507707036</ele>
        <time>2026-03-26T12:29:59Z</time>
      </trkpt>
      <trkpt lat="41.40133613644289" lon="-81.74202951270075">
        <ele>265.1919278658</ele>
        <time>2026-03-26T12:30:36Z</time>
      </trkpt>
      <trkpt lat="41.40132268762014" lon="-81.74239476164280">
        <ele>264.6291476901</ele>
        <time>2026-03-26T12:31:06Z</time>
      </trkpt>
      <trkpt lat="41.40090945468152" lon="-81.74218169016943">
        <ele>265.1377482955</ele>
        <time>2026-03-26T12:31:50Z</time>
      </trkpt>
      <trkpt lat="41.40049558650385" lon="-81.74195926717267">
        <ele>265.3568798990</ele>
        <time>2026-03-26T12:32:33Z</time>
      </trkpt>
      <trkpt lat="41.40044734689400" lon="-81.74195207040748">
        <ele>265.3265010676</ele>
        <time>2026-03-26T12:32:37Z</time>
      </trkpt>
      <trkpt lat="41.40044806060383" lon="-81.74134961097332">
        <ele>265.9756299904</ele>
        <time>2026-03-26T12:33:26Z</time>
      </trkpt>
      <trkpt lat="41.40044252973732" lon="-81.74074133289608">
        <ele>266.2221129333</ele>
        <time>2026-03-26T12:34:07Z</time>
      </trkpt>
      <trkpt lat="41.40043354243777" lon="-81.74015003433303">
        <ele>266.4270467573</ele>
        <time>2026-03-26T12:34:50Z</time>
      </trkpt>
      <trkpt lat="41.40042720320373" lon="-81.73954725695168">
        <ele>267.0246278218</ele>
        <time>2026-03-26T12:35:42Z</time>
      </trkpt>
      <trkpt lat="41.40043868385389" lon="-81.73895469194149">
        <ele>267.0887466929</ele>
        <time>2026-03-26T12:36:16Z</time>
      </trkpt>
      <trkpt lat="41.40042268894458" lon="-81.73835815255276">
        <ele>267.0923124223</ele>
        <time>2026-03-26T12:36:59Z</time>
      </trkpt>
      <trkpt lat="41.40041914882408" lon="-81.73776037757223">
        <ele>267.5561161337</ele>
        <time>2026-03-26T12:37:47Z</time>
      </trkpt>
      <trkpt lat="41.40041703272567" lon="-81.73715588280344">
        <ele>268.0754108407</ele>
        <time>2026-03-26T12:38:38Z</time>
      </trkpt>
      <trkpt lat="41.40040904245891" lon="-81.73655900956572">
        <ele>268.1741458858</ele>
        <time>2026-03-26T12:39:23Z</time>
      </trkpt>
      <trkpt lat="41.40040395764035" lon="-81.73594650086144">
        <ele>268.0341370227</ele>
        <time>2026-03-26T12:40:24Z</time>
      </trkpt>
      <trkpt lat="41.40040001982718" lon="-81.73535839102914">
        <ele>267.9704752756</ele>
        <time>2026-03-26T12:41:01Z</time>
      </trkpt>
      <trkpt lat="41.40040133251034" lon="-81.73475014136136">
        <ele>267.3325785081</ele>
        <time>2026-03-26T12:41:35Z</time>
      </trkpt>
      <trkpt lat="41.40038982033405" lon="-81.73462847139393">
        <ele>267.3922693990</ele>
        <time>2026-03-26T12:41:43Z</time>
      </trkpt>
      <trkpt lat="41.40084638537299" lon="-81.73463085008045">
        <ele>267.3459908614</ele>
        <time>2026-03-26T12:42:30Z</time>
      </trkpt>
      <trkpt lat="41.40129649941348" lon="-81.73463075149618">
        <ele>267.3160689642</ele>
        <time>2026-03-26T12:43:19Z</time>
      </trkpt>
      <trkpt lat="41.40131874178120" lon="-81.73463928550196">
        <ele>267.3923035752</ele>
        <time>2026-03-26T12:43:20Z</time>
      </trkpt>
      <trkpt lat="41.40132557459147" lon="-81.73523058536382">
        <ele>267.9088633550</ele>
        <time>2026-03-26T12:44:08Z</time>
      </trkpt>
      <trkpt lat="41.40131961418466" lon="-81.73583195245358">
        <ele>268.0748326501</ele>
        <time>2026-03-26T12:44:42Z</time>
      </trkpt>
      <trkpt lat="41.40131461813287" lon="-81.73643534036752">
        <ele>268.1285027344</ele>
        <time>2026-03-26T12:45:23Z</time>
      </trkpt>
      <trkpt lat="41.40132739336430" lon="-81.73703251113523">
        <ele>268.0490401056</ele>
        <time>2026-03-26T12:46:01Z</time>
      </trkpt>
      <trkpt lat="41.40133621249268" lon="-81.73763385049877">
        <ele>267.7376160434</ele>
        <time>2026-03-26T12:46:35Z</time>
      </trkpt>
      <trkpt lat="41.40133951034456" lon="-81.73822455032735">
        <ele>267.6586688770</ele>
        <time>2026-03-26T12:47:28Z</time>
      </trkpt>
      <trkpt lat="41.40134471501877" lon="-81.73883855906348">
        <ele>267.5066887852</ele>
        <time>2026-03-26T12:48:08Z</time>
      </trkpt>
      <trkpt lat="41.40134642665365" lon="-81.73942670000920">
        <ele>267.2171372767</ele>
        <time>2026-03-26T12:48:56Z</time>
      </trkpt>
      <trkpt lat="41.40133473153058" lon="-81.74002804939840">
        <ele>266.5301297447</ele>
        <time>2026-03-26T12:49:29Z</time>
      </trkpt>
      <trkpt lat="41.40134500077839" lon="-81.74020330555368">
        <ele>266.5959084266</ele>
        <time>2026-03-26T12:49:39Z</time>
      </trkpt>
    </trkseg>
  </trk>
</gpx>