<?xml version='1.0' encoding='UTF-8'?>
<gpx xmlns="http://www.topografix.com/GPX/1/1" creator="https://gpx.studio" version="1.1">
  <metadata>
    <name>Dog Walk - 2026-07-03 #1</name>
  </metadata>
  <trk>
    <name>Dog Walk - 2026-07-03 #1</name>
    <type>dog walk</type>
    <trkseg>
      <trkpt lat="41.40134231674887" lon="-81.74023601563518">
        <ele>266.3711414604</ele>
        <time>2026-07-03T09:46:01Z</time>
      </trkpt>
      <trkpt lat="41.40134577969492" lon="-81.74083469883630">
        <ele>266.0920546846</ele>
        <time>2026-07-03T09:46:39Z</time>
      </trkpt>
      <trkpt lat="41.40133002731319" lon="-81.74143271378227">
        <ele>265.7145170424</ele>
        <time>2026-07-03T09:47:19Z</time>
      </trkpt>
      <trkpt lat="41.40132649540117" lon="-81.74202779164685">
        <ele>265.4599853008</ele>
        <time>2026-07-03T09:47:57Z</time>
      </trkpt>
      <trkpt lat="41.40132864656868" lon="-81.74238713389865">
        <ele>264.8372498810</ele>
        <time>2026-07-03T09:48:19Z</time>
      </trkpt>
      <trkpt lat="41.40091050703553" lon="-81.74218570141966">
        <ele>265.1873085006</ele>
        <time>2026-07-03T09:49:07Z</time>
      </trkpt>
      <trkpt lat="41.40048647759695" lon="-81.74196833399844">
        <ele>265.2216229446</ele>
        <time>2026-07-03T09:50:13Z</time>
      </trkpt>
      <trkpt lat="41.40045473372987" lon="-81.74195517550633">
        <ele>265.3175628726</ele>
        <time>2026-07-03T09:50:15Z</time>
      </trkpt>
      <trkpt lat="41.40044761972750" lon="-81.74134582173339">
        <ele>265.9968452374</ele>
        <time>2026-07-03T09:51:00Z</time>
      </trkpt>
      <trkpt lat="41.40044098821512" lon="-81.74075406115962">
        <ele>266.5961164202</ele>
        <time>2026-07-03T09:51:46Z</time>
      </trkpt>
      <trkpt lat="41.40043762916464" lon="-81.74015833569013">
        <ele>266.6907530147</ele>
        <time>2026-07-03T09:52:20Z</time>
      </trkpt>
      <trkpt lat="41.40043846945312" lon="-81.73955509268080">
        <ele>266.8558777557</ele>
        <time>2026-07-03T09:53:07Z</time>
      </trkpt>
      <trkpt lat="41.40043076193720" lon="-81.73894549283696">
        <ele>267.0143970343</ele>
        <time>2026-07-03T09:53:48Z</time>
      </trkpt>
      <trkpt lat="41.40042794154573" lon="-81.73834661163734">
        <ele>267.0761385682</ele>
        <time>2026-07-03T09:54:43Z</time>
      </trkpt>
      <trkpt lat="41.40041610390811" lon="-81.73775602930058">
        <ele>267.5423214538</ele>
        <time>2026-07-03T09:55:27Z</time>
      </trkpt>
      <trkpt lat="41.40041168934152" lon="-81.73715534659692">
        <ele>268.2380854849</ele>
        <time>2026-07-03T09:56:20Z</time>
      </trkpt>
      <trkpt lat="41.40040863742448" lon="-81.73656125213580">
        <ele>268.2900113797</ele>
        <time>2026-07-03T09:56:53Z</time>
      </trkpt>
      <trkpt lat="41.40039768035054" lon="-81.73595854346212">
        <ele>267.8159181188</ele>
        <time>2026-07-03T09:57:29Z</time>
      </trkpt>
      <trkpt lat="41.40040207068985" lon="-81.73535517776895">
        <ele>267.7983944641</ele>
        <time>2026-07-03T09:58:10Z</time>
      </trkpt>
      <trkpt lat="41.40039496645299" lon="-81.73476628718404">
        <ele>267.4552912859</ele>
        <time>2026-07-03T09:58:57Z</time>
      </trkpt>
      <trkpt lat="41.40040108030217" lon="-81.73462316118064">
        <ele>267.4369558507</ele>
        <time>2026-07-03T09:59:07Z</time>
      </trkpt>
      <trkpt lat="41.40084602070116" lon="-81.73463233538970">
        <ele>267.2278979947</ele>
        <time>2026-07-03T09:59:47Z</time>
      </trkpt>
      <trkpt lat="41.40128983277417" lon="-81.73462922022415">
        <ele>267.3527287395</ele>
        <time>2026-07-03T10:00:22Z</time>
      </trkpt>
      <trkpt lat="41.40131738437948" lon="-81.73463382468600">
        <ele>267.3676789488</ele>
        <time>2026-07-03T10:00:25Z</time>
      </trkpt>
      <trkpt lat="41.40132126163901" lon="-81.73523250499336">
        <ele>267.9610724642</ele>
        <time>2026-07-03T10:01:16Z</time>
      </trkpt>
      <trkpt lat="41.40132777055189" lon="-81.73583548589674">
        <ele>268.2142582393</ele>
        <time>2026-07-03T10:01:56Z</time>
      </trkpt>
      <trkpt lat="41.40132966157653" lon="-81.73643460636936">
        <ele>268.2649204727</ele>
        <time>2026-07-03T10:02:34Z</time>
      </trkpt>
      <trkpt lat="41.40133045527141" lon="-81.73703964400839">
        <ele>268.1663599138</ele>
        <time>2026-07-03T10:03:26Z</time>
      </trkpt>
      <trkpt lat="41.40133287091305" lon="-81.73763390995346">
        <ele>267.7752873102</ele>
        <time>2026-07-03T10:04:23Z</time>
      </trkpt>
      <trkpt lat="41.40133437782509" lon="-81.73822195231263">
        <ele>267.5354209365</ele>
        <time>2026-07-03T10:05:06Z</time>
      </trkpt>
      <trkpt lat="41.40133989415543" lon="-81.73881557432625">
        <ele>267.3052851279</ele>
        <time>2026-07-03T10:05:40Z</time>
      </trkpt>
      <trkpt lat="41.40134869645840" lon="-81.73942696412935">
        <ele>267.0877863823</ele>
        <time>2026-07-03T10:06:16Z</time>
      </trkpt>
      <trkpt lat="41.40134564920155" lon="-81.74003643382645">
        <ele>266.7268932373</ele>
        <time>2026-07-03T10:06:55Z</time>
      </trkpt>
      <trkpt lat="41.40134582165597" lon="-81.74019283311928">
        <ele>266.6461434272</ele>
        <time>2026-07-03T10:07:05Z</time>
      </trkpt>
    </trkseg>
  </trk>
</gpx>