<?xml version='1.0' encoding='UTF-8'?>
<gpx xmlns="http://www.topografix.com/GPX/1/1" creator="https://gpx.studio" version="1.1">
  <metadata>
    <name>Dog Walk - 2026-05-03</name>
  </metadata>
  <trk>
    <name>Dog Walk - 2026-05-03</name>
    <type>dog walk</type>
    <trkseg>
      <trkpt lat="41.40133728354141" lon="-81.74022637779248">
        <ele>266.4591334757</ele>
        <time>2026-05-03T15:03:01Z</time>
      </trkpt>
      <trkpt lat="41.40133630509332" lon="-81.74083897737029">
        <ele>266.2897602082</ele>
        <time>2026-05-03T15:03:35Z</time>
      </trkpt>
      <trkpt lat="41.40133970978728" lon="-81.74142737862903">
        <ele>265.8611913486</ele>
        <time>2026-05-03T15:04:13Z</time>
      </trkpt>
      <trkpt lat="41.40135379816591" lon="-81.74203023054562">
        <ele>265.2360921741</ele>
        <time>2026-05-03T15:04:51Z</time>
      </trkpt>
      <trkpt lat="41.40135677748754" lon="-81.74242338968591">
        <ele>264.6730622674</ele>
        <time>2026-05-03T15:05:15Z</time>
      </trkpt>
      <trkpt lat="41.40176984339098" lon="-81.74263595988245">
        <ele>264.3672862619</ele>
        <time>2026-05-03T15:05:47Z</time>
      </trkpt>
      <trkpt lat="41.40217714820258" lon="-81.74284429858714">
        <ele>263.2513276711</ele>
        <time>2026-05-03T15:06:39Z</time>
      </trkpt>
      <trkpt lat="41.40259852995223" lon="-81.74306062994127">
        <ele>263.0175216589</ele>
        <time>2026-05-03T15:07:15Z</time>
      </trkpt>
      <trkpt lat="41.40302606078261" lon="-81.74326130325879">
        <ele>262.5865924282</ele>
        <time>2026-05-03T15:07:59Z</time>
      </trkpt>
      <trkpt lat="41.40345666424417" lon="-81.74349367212564">
        <ele>262.1835866270</ele>
        <time>2026-05-03T15:08:47Z</time>
      </trkpt>
      <trkpt lat="41.40349196082642" lon="-81.74350533111789">
        <ele>261.8407821607</ele>
        <time>2026-05-03T15:08:50Z</time>
      </trkpt>
      <trkpt lat="41.40360045522546" lon="-81.74351759996294">
        <ele>261.7460594967</ele>
        <time>2026-05-03T15:09:00Z</time>
      </trkpt>
      <trkpt lat="41.40399622848836" lon="-81.74351100055179">
        <ele>260.6796653083</ele>
        <time>2026-05-03T15:09:28Z</time>
      </trkpt>
      <trkpt lat="41.40399082623040" lon="-81.74291073277222">
        <ele>261.7563273071</ele>
        <time>2026-05-03T15:10:15Z</time>
      </trkpt>
      <trkpt lat="41.40399089628409" lon="-81.74230454191319">
        <ele>262.1391055271</ele>
        <time>2026-05-03T15:11:01Z</time>
      </trkpt>
      <trkpt lat="41.40398969401255" lon="-81.74171624056113">
        <ele>262.5781468889</ele>
        <time>2026-05-03T15:11:46Z</time>
      </trkpt>
      <trkpt lat="41.40399051520993" lon="-81.74111049279553">
        <ele>262.8423182258</ele>
        <time>2026-05-03T15:12:23Z</time>
      </trkpt>
      <trkpt lat="41.40399187177921" lon="-81.74050804005837">
        <ele>263.5682605123</ele>
        <time>2026-05-03T15:12:52Z</time>
      </trkpt>
      <trkpt lat="41.40399360799408" lon="-81.73991048055886">
        <ele>264.3236921753</ele>
        <time>2026-05-03T15:13:30Z</time>
      </trkpt>
      <trkpt lat="41.40398995490739" lon="-81.73930643758449">
        <ele>264.9739116633</ele>
        <time>2026-05-03T15:14:17Z</time>
      </trkpt>
      <trkpt lat="41.40398920630956" lon="-81.73877177109227">
        <ele>265.3628994213</ele>
        <time>2026-05-03T15:14:52Z</time>
      </trkpt>
      <trkpt lat="41.40353895089893" lon="-81.73877388231881">
        <ele>265.9255273701</ele>
        <time>2026-05-03T15:15:33Z</time>
      </trkpt>
      <trkpt lat="41.40309718394818" lon="-81.73877697801966">
        <ele>266.2494566569</ele>
        <time>2026-05-03T15:16:17Z</time>
      </trkpt>
      <trkpt lat="41.40264013209097" lon="-81.73877319818540">
        <ele>266.5780493226</ele>
        <time>2026-05-03T15:17:05Z</time>
      </trkpt>
      <trkpt lat="41.40221880954300" lon="-81.73877398299076">
        <ele>267.0930959506</ele>
        <time>2026-05-03T15:17:38Z</time>
      </trkpt>
      <trkpt lat="41.40223038786199" lon="-81.73828088598043">
        <ele>267.2570614571</ele>
        <time>2026-05-03T15:18:15Z</time>
      </trkpt>
      <trkpt lat="41.40176406476849" lon="-81.73827742528202">
        <ele>267.5244503597</ele>
        <time>2026-05-03T15:18:55Z</time>
      </trkpt>
      <trkpt lat="41.40132825699730" lon="-81.73826643662092">
        <ele>267.7123025283</ele>
        <time>2026-05-03T15:19:33Z</time>
      </trkpt>
      <trkpt lat="41.40133118960417" lon="-81.73886071820588">
        <ele>267.1969954229</ele>
        <time>2026-05-03T15:20:27Z</time>
      </trkpt>
      <trkpt lat="41.40133268901688" lon="-81.73946940372765">
        <ele>267.3214335398</ele>
        <time>2026-05-03T15:21:09Z</time>
      </trkpt>
      <trkpt lat="41.40133122558788" lon="-81.74006402197212">
        <ele>266.6273672159</ele>
        <time>2026-05-03T15:21:42Z</time>
      </trkpt>
      <trkpt lat="41.40134190915804" lon="-81.74021990666027">
        <ele>266.2111488086</ele>
        <time>2026-05-03T15:21:54Z</time>
      </trkpt>
    </trkseg>
  </trk>
</gpx>