<?xml version='1.0' encoding='UTF-8'?>
<gpx xmlns="http://www.topografix.com/GPX/1/1" creator="https://gpx.studio" version="1.1">
  <metadata>
    <name>Dog Walk - 2026-03-08 #3</name>
  </metadata>
  <trk>
    <name>Dog Walk - 2026-03-08 #3</name>
    <type>dog walk</type>
    <trkseg>
      <trkpt lat="41.40132575816276" lon="-81.74026571421149">
        <ele>266.4281736750</ele>
        <time>2026-03-08T14:45:09Z</time>
      </trkpt>
      <trkpt lat="41.40133178788486" lon="-81.74025210374161">
        <ele>266.4123001281</ele>
        <time>2026-03-08T14:45:16Z</time>
      </trkpt>
      <trkpt lat="41.40132570601592" lon="-81.74086280220290">
        <ele>266.2154790773</ele>
        <time>2026-03-08T14:46:16Z</time>
      </trkpt>
      <trkpt lat="41.40132963922103" lon="-81.74146003935681">
        <ele>265.7856863571</ele>
        <time>2026-03-08T14:47:03Z</time>
      </trkpt>
      <trkpt lat="41.40132451717724" lon="-81.74204725454977">
        <ele>265.4466393965</ele>
        <time>2026-03-08T14:47:50Z</time>
      </trkpt>
      <trkpt lat="41.40132895684559" lon="-81.74237635976799">
        <ele>264.6680125253</ele>
        <time>2026-03-08T14:48:12Z</time>
      </trkpt>
      <trkpt lat="41.40132638255480" lon="-81.74238064907115">
        <ele>264.6393101517</ele>
        <time>2026-03-08T14:48:13Z</time>
      </trkpt>
      <trkpt lat="41.40090210091540" lon="-81.74218595034556">
        <ele>265.4645703748</ele>
        <time>2026-03-08T14:49:02Z</time>
      </trkpt>
      <trkpt lat="41.40047330212939" lon="-81.74198618749527">
        <ele>265.1599633984</ele>
        <time>2026-03-08T14:49:36Z</time>
      </trkpt>
      <trkpt lat="41.40004982503545" lon="-81.74179726889913">
        <ele>265.6549729510</ele>
        <time>2026-03-08T14:50:34Z</time>
      </trkpt>
      <trkpt lat="41.39962648812224" lon="-81.74160954431647">
        <ele>264.7850606508</ele>
        <time>2026-03-08T14:51:23Z</time>
      </trkpt>
      <trkpt lat="41.39954266593187" lon="-81.74157504184335">
        <ele>264.8293042292</ele>
        <time>2026-03-08T14:51:31Z</time>
      </trkpt>
      <trkpt lat="41.39954036777937" lon="-81.74096537823158">
        <ele>265.3931368493</ele>
        <time>2026-03-08T14:52:24Z</time>
      </trkpt>
      <trkpt lat="41.39954492863917" lon="-81.74037125157382">
        <ele>266.1549641253</ele>
        <time>2026-03-08T14:52:58Z</time>
      </trkpt>
      <trkpt lat="41.39954595812574" lon="-81.73976256529143">
        <ele>266.7773501746</ele>
        <time>2026-03-08T14:53:47Z</time>
      </trkpt>
      <trkpt lat="41.39953647172864" lon="-81.73917922754339">
        <ele>266.8274085844</ele>
        <time>2026-03-08T14:54:28Z</time>
      </trkpt>
      <trkpt lat="41.39953478121443" lon="-81.73857208485556">
        <ele>267.0663866595</ele>
        <time>2026-03-08T14:55:05Z</time>
      </trkpt>
      <trkpt lat="41.39953718377989" lon="-81.73829960398035">
        <ele>266.7028922427</ele>
        <time>2026-03-08T14:55:24Z</time>
      </trkpt>
      <trkpt lat="41.39952971053874" lon="-81.73829277322001">
        <ele>266.9019825324</ele>
        <time>2026-03-08T14:55:25Z</time>
      </trkpt>
      <trkpt lat="41.39998767697963" lon="-81.73829218798085">
        <ele>267.2276328024</ele>
        <time>2026-03-08T14:56:14Z</time>
      </trkpt>
      <trkpt lat="41.40043679844698" lon="-81.73830037347766">
        <ele>267.2132322866</ele>
        <time>2026-03-08T14:57:13Z</time>
      </trkpt>
      <trkpt lat="41.40088119333220" lon="-81.73830587125299">
        <ele>267.5068983513</ele>
        <time>2026-03-08T14:57:56Z</time>
      </trkpt>
      <trkpt lat="41.40132725130815" lon="-81.73830501682252">
        <ele>267.5298550786</ele>
        <time>2026-03-08T14:58:46Z</time>
      </trkpt>
      <trkpt lat="41.40132465273776" lon="-81.73889520346454">
        <ele>267.4245575266</ele>
        <time>2026-03-08T14:59:25Z</time>
      </trkpt>
      <trkpt lat="41.40133332901113" lon="-81.73950077011659">
        <ele>267.1089017885</ele>
        <time>2026-03-08T15:00:27Z</time>
      </trkpt>
      <trkpt lat="41.40133401563961" lon="-81.74010369042935">
        <ele>266.6831771312</ele>
        <time>2026-03-08T15:01:28Z</time>
      </trkpt>
      <trkpt lat="41.40134580853915" lon="-81.74015740770865">
        <ele>266.5306369387</ele>
        <time>2026-03-08T15:01:33Z</time>
      </trkpt>
    </trkseg>
  </trk>
</gpx>