<?xml version='1.0' encoding='UTF-8'?>
<gpx xmlns="http://www.topografix.com/GPX/1/1" creator="https://gpx.studio" version="1.1">
  <metadata>
    <name>Dog Walk - 2026-07-11 #2</name>
  </metadata>
  <trk>
    <name>Dog Walk - 2026-07-11 #2</name>
    <type>dog walk</type>
    <trkseg>
      <trkpt lat="41.40132707563617" lon="-81.74026286911860">
        <ele>266.5881821919</ele>
        <time>2026-07-11T12:21:03Z</time>
      </trkpt>
      <trkpt lat="41.40133000921345" lon="-81.74025281252507">
        <ele>266.4201243630</ele>
        <time>2026-07-11T12:21:19Z</time>
      </trkpt>
      <trkpt lat="41.40132652835126" lon="-81.74085857230547">
        <ele>266.5136736482</ele>
        <time>2026-07-11T12:22:02Z</time>
      </trkpt>
      <trkpt lat="41.40132508429631" lon="-81.74145321542886">
        <ele>265.7772091876</ele>
        <time>2026-07-11T12:22:35Z</time>
      </trkpt>
      <trkpt lat="41.40132986378595" lon="-81.74203452585004">
        <ele>265.3655744968</ele>
        <time>2026-07-11T12:23:14Z</time>
      </trkpt>
      <trkpt lat="41.40131340730154" lon="-81.74237376948054">
        <ele>264.8647324073</ele>
        <time>2026-07-11T12:23:34Z</time>
      </trkpt>
      <trkpt lat="41.40132338481941" lon="-81.74237977662375">
        <ele>264.5604171491</ele>
        <time>2026-07-11T12:23:35Z</time>
      </trkpt>
      <trkpt lat="41.40089790460591" lon="-81.74218870645372">
        <ele>265.3054046666</ele>
        <time>2026-07-11T12:24:25Z</time>
      </trkpt>
      <trkpt lat="41.40047302028741" lon="-81.74198700999270">
        <ele>265.3908349864</ele>
        <time>2026-07-11T12:25:03Z</time>
      </trkpt>
      <trkpt lat="41.40004597093382" lon="-81.74179573397487">
        <ele>265.4145145790</ele>
        <time>2026-07-11T12:25:45Z</time>
      </trkpt>
      <trkpt lat="41.39961698365538" lon="-81.74159994727306">
        <ele>264.7692299827</ele>
        <time>2026-07-11T12:26:27Z</time>
      </trkpt>
      <trkpt lat="41.39954390594925" lon="-81.74157202894291">
        <ele>265.0282166709</ele>
        <time>2026-07-11T12:26:34Z</time>
      </trkpt>
      <trkpt lat="41.39954432938220" lon="-81.74097124245188">
        <ele>265.6053667971</ele>
        <time>2026-07-11T12:27:16Z</time>
      </trkpt>
      <trkpt lat="41.39953721903276" lon="-81.74036118670102">
        <ele>266.2184649710</ele>
        <time>2026-07-11T12:28:02Z</time>
      </trkpt>
      <trkpt lat="41.39953783819255" lon="-81.73977504880544">
        <ele>266.5246899821</ele>
        <time>2026-07-11T12:28:37Z</time>
      </trkpt>
      <trkpt lat="41.39953325432433" lon="-81.73917832437616">
        <ele>267.0197787256</ele>
        <time>2026-07-11T12:29:32Z</time>
      </trkpt>
      <trkpt lat="41.39954074320879" lon="-81.73858081025438">
        <ele>267.1257887703</ele>
        <time>2026-07-11T12:30:05Z</time>
      </trkpt>
      <trkpt lat="41.39954545899276" lon="-81.73828573276172">
        <ele>267.0149555445</ele>
        <time>2026-07-11T12:30:26Z</time>
      </trkpt>
      <trkpt lat="41.39953456541481" lon="-81.73829844878723">
        <ele>266.6509850381</ele>
        <time>2026-07-11T12:30:27Z</time>
      </trkpt>
      <trkpt lat="41.39997741466313" lon="-81.73830500553075">
        <ele>267.1088390660</ele>
        <time>2026-07-11T12:31:02Z</time>
      </trkpt>
      <trkpt lat="41.40044318372998" lon="-81.73830245198070">
        <ele>267.2881280902</ele>
        <time>2026-07-11T12:32:04Z</time>
      </trkpt>
      <trkpt lat="41.40088054409683" lon="-81.73829085194446">
        <ele>267.4351688137</ele>
        <time>2026-07-11T12:32:31Z</time>
      </trkpt>
      <trkpt lat="41.40132280845550" lon="-81.73830364669921">
        <ele>267.5179856166</ele>
        <time>2026-07-11T12:33:17Z</time>
      </trkpt>
      <trkpt lat="41.40132972744677" lon="-81.73889318775424">
        <ele>267.3904426825</ele>
        <time>2026-07-11T12:33:54Z</time>
      </trkpt>
      <trkpt lat="41.40133330557522" lon="-81.73950475661094">
        <ele>267.2200007319</ele>
        <time>2026-07-11T12:34:28Z</time>
      </trkpt>
      <trkpt lat="41.40134439456889" lon="-81.74010329409852">
        <ele>266.5943676913</ele>
        <time>2026-07-11T12:35:14Z</time>
      </trkpt>
      <trkpt lat="41.40134077502667" lon="-81.74015555470331">
        <ele>266.6454519913</ele>
        <time>2026-07-11T12:35:18Z</time>
      </trkpt>
    </trkseg>
  </trk>
</gpx>