<?xml version='1.0' encoding='UTF-8'?>
<gpx xmlns="http://www.topografix.com/GPX/1/1" creator="https://gpx.studio" version="1.1">
  <metadata>
    <name>Dog Walk - 2026-05-10 #1</name>
  </metadata>
  <trk>
    <name>Dog Walk - 2026-05-10 #1</name>
    <type>dog walk</type>
    <trkseg>
      <trkpt lat="41.40134052607018" lon="-81.74022930395851">
        <ele>266.4761595523</ele>
        <time>2026-05-10T08:16:11Z</time>
      </trkpt>
      <trkpt lat="41.40134219082028" lon="-81.74083277553413">
        <ele>266.1391600092</ele>
        <time>2026-05-10T08:16:43Z</time>
      </trkpt>
      <trkpt lat="41.40134121048523" lon="-81.74143975449633">
        <ele>265.5622835675</ele>
        <time>2026-05-10T08:17:35Z</time>
      </trkpt>
      <trkpt lat="41.40134489956374" lon="-81.74203891214056">
        <ele>265.4319745618</ele>
        <time>2026-05-10T08:18:19Z</time>
      </trkpt>
      <trkpt lat="41.40134913157131" lon="-81.74241846753314">
        <ele>264.8636378868</ele>
        <time>2026-05-10T08:18:50Z</time>
      </trkpt>
      <trkpt lat="41.40177090243532" lon="-81.74261795131119">
        <ele>264.2599331749</ele>
        <time>2026-05-10T08:19:30Z</time>
      </trkpt>
      <trkpt lat="41.40219232962867" lon="-81.74282536475287">
        <ele>263.6064652679</ele>
        <time>2026-05-10T08:20:09Z</time>
      </trkpt>
      <trkpt lat="41.40262152295778" lon="-81.74301975750470">
        <ele>263.1768246475</ele>
        <time>2026-05-10T08:20:50Z</time>
      </trkpt>
      <trkpt lat="41.40304903469374" lon="-81.74322624277123">
        <ele>262.7525569796</ele>
        <time>2026-05-10T08:21:27Z</time>
      </trkpt>
      <trkpt lat="41.40311787583762" lon="-81.74325745018704">
        <ele>262.2001948132</ele>
        <time>2026-05-10T08:21:34Z</time>
      </trkpt>
      <trkpt lat="41.40311637973276" lon="-81.74265361716562">
        <ele>262.9323816998</ele>
        <time>2026-05-10T08:22:12Z</time>
      </trkpt>
      <trkpt lat="41.40310814123890" lon="-81.74205770832783">
        <ele>263.9706323648</ele>
        <time>2026-05-10T08:22:48Z</time>
      </trkpt>
      <trkpt lat="41.40311538665622" lon="-81.74146636638680">
        <ele>264.1540392744</ele>
        <time>2026-05-10T08:23:26Z</time>
      </trkpt>
      <trkpt lat="41.40310055009166" lon="-81.74086186546806">
        <ele>264.9556409794</ele>
        <time>2026-05-10T08:24:08Z</time>
      </trkpt>
      <trkpt lat="41.40310292805517" lon="-81.74025456038748">
        <ele>265.7527603096</ele>
        <time>2026-05-10T08:24:41Z</time>
      </trkpt>
      <trkpt lat="41.40310008361405" lon="-81.73965292361369">
        <ele>265.5094946656</ele>
        <time>2026-05-10T08:25:30Z</time>
      </trkpt>
      <trkpt lat="41.40309959747634" lon="-81.73904669039328">
        <ele>266.1372173142</ele>
        <time>2026-05-10T08:26:07Z</time>
      </trkpt>
      <trkpt lat="41.40309559529710" lon="-81.73878917795510">
        <ele>266.1706684798</ele>
        <time>2026-05-10T08:26:26Z</time>
      </trkpt>
      <trkpt lat="41.40264859725260" lon="-81.73878806863266">
        <ele>266.7381023432</ele>
        <time>2026-05-10T08:27:00Z</time>
      </trkpt>
      <trkpt lat="41.40224071840632" lon="-81.73878566099938">
        <ele>267.0070008358</ele>
        <time>2026-05-10T08:27:35Z</time>
      </trkpt>
      <trkpt lat="41.40222831221925" lon="-81.73818547802102">
        <ele>267.3224785768</ele>
        <time>2026-05-10T08:28:21Z</time>
      </trkpt>
      <trkpt lat="41.40222848539984" lon="-81.73757060069448">
        <ele>266.9798490925</ele>
        <time>2026-05-10T08:29:07Z</time>
      </trkpt>
      <trkpt lat="41.40222562114361" lon="-81.73699517800446">
        <ele>267.2654195678</ele>
        <time>2026-05-10T08:29:46Z</time>
      </trkpt>
      <trkpt lat="41.40222281866868" lon="-81.73638038114625">
        <ele>267.3307438696</ele>
        <time>2026-05-10T08:30:29Z</time>
      </trkpt>
      <trkpt lat="41.40222155673965" lon="-81.73578350209063">
        <ele>267.4122465052</ele>
        <time>2026-05-10T08:31:03Z</time>
      </trkpt>
      <trkpt lat="41.40222101534206" lon="-81.73519120659060">
        <ele>267.0321975578</ele>
        <time>2026-05-10T08:31:44Z</time>
      </trkpt>
      <trkpt lat="41.40223078572479" lon="-81.73464525656694">
        <ele>266.7429439354</ele>
        <time>2026-05-10T08:32:12Z</time>
      </trkpt>
      <trkpt lat="41.40177317454020" lon="-81.73463439757020">
        <ele>267.1815932038</ele>
        <time>2026-05-10T08:32:46Z</time>
      </trkpt>
      <trkpt lat="41.40132483864245" lon="-81.73463450095799">
        <ele>267.4484333657</ele>
        <time>2026-05-10T08:33:20Z</time>
      </trkpt>
      <trkpt lat="41.40130526346375" lon="-81.73463964027731">
        <ele>267.2679481953</ele>
        <time>2026-05-10T08:33:22Z</time>
      </trkpt>
      <trkpt lat="41.40131390561120" lon="-81.73523625687298">
        <ele>267.9992889499</ele>
        <time>2026-05-10T08:33:58Z</time>
      </trkpt>
      <trkpt lat="41.40132398883197" lon="-81.73583609860711">
        <ele>268.4146970164</ele>
        <time>2026-05-10T08:34:45Z</time>
      </trkpt>
      <trkpt lat="41.40132837855399" lon="-81.73643244117257">
        <ele>268.0881695620</ele>
        <time>2026-05-10T08:35:27Z</time>
      </trkpt>
      <trkpt lat="41.40133019560743" lon="-81.73704369779652">
        <ele>267.9681951420</ele>
        <time>2026-05-10T08:36:14Z</time>
      </trkpt>
      <trkpt lat="41.40133157567499" lon="-81.73762914698335">
        <ele>268.0226694626</ele>
        <time>2026-05-10T08:36:56Z</time>
      </trkpt>
      <trkpt lat="41.40133868362326" lon="-81.73822914266478">
        <ele>267.7011580105</ele>
        <time>2026-05-10T08:37:39Z</time>
      </trkpt>
      <trkpt lat="41.40133388056859" lon="-81.73883097467805">
        <ele>267.2527896403</ele>
        <time>2026-05-10T08:38:16Z</time>
      </trkpt>
      <trkpt lat="41.40134296921194" lon="-81.73942661861517">
        <ele>267.3380654679</ele>
        <time>2026-05-10T08:38:57Z</time>
      </trkpt>
      <trkpt lat="41.40133803203858" lon="-81.74003193689417">
        <ele>266.7487900119</ele>
        <time>2026-05-10T08:39:39Z</time>
      </trkpt>
      <trkpt lat="41.40134285983257" lon="-81.74015300125937">
        <ele>266.5803379980</ele>
        <time>2026-05-10T08:39:47Z</time>
      </trkpt>
    </trkseg>
  </trk>
</gpx>