<?xml version='1.0' encoding='UTF-8'?>
<gpx xmlns="http://www.topografix.com/GPX/1/1" creator="https://gpx.studio" version="1.1">
  <metadata>
    <name>Dog Walk - 2026-05-31 #2</name>
  </metadata>
  <trk>
    <name>Dog Walk - 2026-05-31 #2</name>
    <type>dog walk</type>
    <trkseg>
      <trkpt lat="41.40133848075074" lon="-81.74023984338130">
        <ele>266.4904455400</ele>
        <time>2026-05-31T15:39:00Z</time>
      </trkpt>
      <trkpt lat="41.40134175555867" lon="-81.74082423654568">
        <ele>266.1263513708</ele>
        <time>2026-05-31T15:39:39Z</time>
      </trkpt>
      <trkpt lat="41.40134812088701" lon="-81.74144016217696">
        <ele>265.5098699031</ele>
        <time>2026-05-31T15:40:15Z</time>
      </trkpt>
      <trkpt lat="41.40135214902047" lon="-81.74202358492737">
        <ele>265.2647085301</ele>
        <time>2026-05-31T15:40:56Z</time>
      </trkpt>
      <trkpt lat="41.40134267921803" lon="-81.74241940344106">
        <ele>264.6327982342</ele>
        <time>2026-05-31T15:41:26Z</time>
      </trkpt>
      <trkpt lat="41.40177201831337" lon="-81.74263417260894">
        <ele>264.2565226464</ele>
        <time>2026-05-31T15:42:06Z</time>
      </trkpt>
      <trkpt lat="41.40218281029218" lon="-81.74285189740083">
        <ele>263.6130390808</ele>
        <time>2026-05-31T15:42:50Z</time>
      </trkpt>
      <trkpt lat="41.40222057161101" lon="-81.74286063808059">
        <ele>263.3055571637</ele>
        <time>2026-05-31T15:42:54Z</time>
      </trkpt>
      <trkpt lat="41.40221895207416" lon="-81.74226949976625">
        <ele>264.3396899995</ele>
        <time>2026-05-31T15:43:39Z</time>
      </trkpt>
      <trkpt lat="41.40221985460796" lon="-81.74166968076497">
        <ele>264.7379670055</ele>
        <time>2026-05-31T15:44:33Z</time>
      </trkpt>
      <trkpt lat="41.40222049960338" lon="-81.74106131767174">
        <ele>265.6800732653</ele>
        <time>2026-05-31T15:45:14Z</time>
      </trkpt>
      <trkpt lat="41.40222567894794" lon="-81.74046966596872">
        <ele>266.1699029187</ele>
        <time>2026-05-31T15:46:12Z</time>
      </trkpt>
      <trkpt lat="41.40221633554825" lon="-81.73986958923703">
        <ele>266.6121357511</ele>
        <time>2026-05-31T15:46:44Z</time>
      </trkpt>
      <trkpt lat="41.40221525455550" lon="-81.73927417777955">
        <ele>266.7532737298</ele>
        <time>2026-05-31T15:47:28Z</time>
      </trkpt>
      <trkpt lat="41.40221106453613" lon="-81.73867057677236">
        <ele>267.0447713768</ele>
        <time>2026-05-31T15:48:03Z</time>
      </trkpt>
      <trkpt lat="41.40221108467951" lon="-81.73826292715157">
        <ele>266.9688765830</ele>
        <time>2026-05-31T15:48:29Z</time>
      </trkpt>
      <trkpt lat="41.40178054219964" lon="-81.73827725343422">
        <ele>267.7642011826</ele>
        <time>2026-05-31T15:49:09Z</time>
      </trkpt>
      <trkpt lat="41.40133436626829" lon="-81.73826554787273">
        <ele>267.5365988287</ele>
        <time>2026-05-31T15:49:45Z</time>
      </trkpt>
      <trkpt lat="41.40133540366720" lon="-81.73885249436351">
        <ele>267.2685081271</ele>
        <time>2026-05-31T15:50:22Z</time>
      </trkpt>
      <trkpt lat="41.40133699971753" lon="-81.73946761934057">
        <ele>267.1955373525</ele>
        <time>2026-05-31T15:50:59Z</time>
      </trkpt>
      <trkpt lat="41.40134520752456" lon="-81.74005314934965">
        <ele>266.6854472229</ele>
        <time>2026-05-31T15:51:44Z</time>
      </trkpt>
      <trkpt lat="41.40134519859266" lon="-81.74019619051501">
        <ele>266.5585114564</ele>
        <time>2026-05-31T15:51:52Z</time>
      </trkpt>
    </trkseg>
  </trk>
</gpx>