<?xml version='1.0' encoding='UTF-8'?>
<gpx xmlns="http://www.topografix.com/GPX/1/1" creator="https://gpx.studio" version="1.1">
  <metadata>
    <name>Dog Walk - 2026-03-31 #2</name>
  </metadata>
  <trk>
    <name>Dog Walk - 2026-03-31 #2</name>
    <type>dog walk</type>
    <trkseg>
      <trkpt lat="41.40133042804797" lon="-81.74025786502565">
        <ele>266.4148148329</ele>
        <time>2026-03-31T14:11:06Z</time>
      </trkpt>
      <trkpt lat="41.40132500583715" lon="-81.74025743213203">
        <ele>266.5579241215</ele>
        <time>2026-03-31T14:11:07Z</time>
      </trkpt>
      <trkpt lat="41.40132998020750" lon="-81.74085440850236">
        <ele>266.1705883693</ele>
        <time>2026-03-31T14:11:44Z</time>
      </trkpt>
      <trkpt lat="41.40133520795067" lon="-81.74145458303313">
        <ele>265.7760046713</ele>
        <time>2026-03-31T14:12:20Z</time>
      </trkpt>
      <trkpt lat="41.40132508368848" lon="-81.74204691119743">
        <ele>265.2949423807</ele>
        <time>2026-03-31T14:13:08Z</time>
      </trkpt>
      <trkpt lat="41.40133048112141" lon="-81.74238688706785">
        <ele>264.7923228342</ele>
        <time>2026-03-31T14:13:31Z</time>
      </trkpt>
      <trkpt lat="41.40132903071309" lon="-81.74237544162793">
        <ele>264.8548163595</ele>
        <time>2026-03-31T14:13:32Z</time>
      </trkpt>
      <trkpt lat="41.40089408607457" lon="-81.74218375074057">
        <ele>265.1713691207</ele>
        <time>2026-03-31T14:14:11Z</time>
      </trkpt>
      <trkpt lat="41.40046958353977" lon="-81.74199297262687">
        <ele>265.0368221833</ele>
        <time>2026-03-31T14:15:01Z</time>
      </trkpt>
      <trkpt lat="41.40004454245286" lon="-81.74179649720647">
        <ele>265.5999694994</ele>
        <time>2026-03-31T14:15:42Z</time>
      </trkpt>
      <trkpt lat="41.39962282033635" lon="-81.74160385373467">
        <ele>264.5631041072</ele>
        <time>2026-03-31T14:16:22Z</time>
      </trkpt>
      <trkpt lat="41.39953216912827" lon="-81.74157104834318">
        <ele>264.8359505136</ele>
        <time>2026-03-31T14:16:33Z</time>
      </trkpt>
      <trkpt lat="41.39954906777312" lon="-81.74097458443192">
        <ele>265.7557629575</ele>
        <time>2026-03-31T14:17:12Z</time>
      </trkpt>
      <trkpt lat="41.39954374411511" lon="-81.74036968564474">
        <ele>265.9374107932</ele>
        <time>2026-03-31T14:17:56Z</time>
      </trkpt>
      <trkpt lat="41.39954488755978" lon="-81.73977605194092">
        <ele>266.8311282696</ele>
        <time>2026-03-31T14:18:41Z</time>
      </trkpt>
      <trkpt lat="41.39954034129365" lon="-81.73917588405764">
        <ele>266.7390852619</ele>
        <time>2026-03-31T14:19:22Z</time>
      </trkpt>
      <trkpt lat="41.39953514370762" lon="-81.73857748231275">
        <ele>266.9029937619</ele>
        <time>2026-03-31T14:20:12Z</time>
      </trkpt>
      <trkpt lat="41.39953995207847" lon="-81.73829808345512">
        <ele>267.1549786134</ele>
        <time>2026-03-31T14:20:49Z</time>
      </trkpt>
      <trkpt lat="41.39954356996064" lon="-81.73829453792521">
        <ele>266.8646309450</ele>
        <time>2026-03-31T14:20:50Z</time>
      </trkpt>
      <trkpt lat="41.39998252380456" lon="-81.73829095427064">
        <ele>267.1240582843</ele>
        <time>2026-03-31T14:21:28Z</time>
      </trkpt>
      <trkpt lat="41.40043655579591" lon="-81.73828861173435">
        <ele>267.3102554607</ele>
        <time>2026-03-31T14:22:08Z</time>
      </trkpt>
      <trkpt lat="41.40088354393696" lon="-81.73829721535115">
        <ele>267.4993558545</ele>
        <time>2026-03-31T14:22:42Z</time>
      </trkpt>
      <trkpt lat="41.40132631235784" lon="-81.73831075343030">
        <ele>267.4336537128</ele>
        <time>2026-03-31T14:23:21Z</time>
      </trkpt>
      <trkpt lat="41.40133205096532" lon="-81.73890586848228">
        <ele>267.4094002297</ele>
        <time>2026-03-31T14:23:58Z</time>
      </trkpt>
      <trkpt lat="41.40133527199645" lon="-81.73949083867358">
        <ele>267.2505112606</ele>
        <time>2026-03-31T14:24:37Z</time>
      </trkpt>
      <trkpt lat="41.40133870188074" lon="-81.74011543078645">
        <ele>266.5725772137</ele>
        <time>2026-03-31T14:25:16Z</time>
      </trkpt>
      <trkpt lat="41.40134685581464" lon="-81.74015691131844">
        <ele>266.5532252895</ele>
        <time>2026-03-31T14:25:18Z</time>
      </trkpt>
    </trkseg>
  </trk>
</gpx>