<?xml version='1.0' encoding='UTF-8'?>
<gpx xmlns="http://www.topografix.com/GPX/1/1" creator="https://gpx.studio" version="1.1">
  <metadata>
    <name>Dog Walk - 2026-03-07 #5</name>
  </metadata>
  <trk>
    <name>Dog Walk - 2026-03-07 #5</name>
    <type>dog walk</type>
    <trkseg>
      <trkpt lat="41.40133861855949" lon="-81.74022269243598">
        <ele>266.2970753217</ele>
        <time>2026-03-07T19:34:44Z</time>
      </trkpt>
      <trkpt lat="41.40134582575860" lon="-81.74083561459749">
        <ele>266.1434275337</ele>
        <time>2026-03-07T19:35:29Z</time>
      </trkpt>
      <trkpt lat="41.40133957386730" lon="-81.74142714235677">
        <ele>265.7458833705</ele>
        <time>2026-03-07T19:36:11Z</time>
      </trkpt>
      <trkpt lat="41.40132924412052" lon="-81.74202219105648">
        <ele>265.1944434390</ele>
        <time>2026-03-07T19:36:53Z</time>
      </trkpt>
      <trkpt lat="41.40132796271694" lon="-81.74238918520173">
        <ele>264.7348725875</ele>
        <time>2026-03-07T19:37:16Z</time>
      </trkpt>
      <trkpt lat="41.40091113436578" lon="-81.74217969757758">
        <ele>265.4098698220</ele>
        <time>2026-03-07T19:37:58Z</time>
      </trkpt>
      <trkpt lat="41.40049365953870" lon="-81.74196958313637">
        <ele>265.1258911349</ele>
        <time>2026-03-07T19:38:47Z</time>
      </trkpt>
      <trkpt lat="41.40045019971570" lon="-81.74196015346917">
        <ele>265.2740487157</ele>
        <time>2026-03-07T19:38:50Z</time>
      </trkpt>
      <trkpt lat="41.40045184955700" lon="-81.74134962160139">
        <ele>265.9171965550</ele>
        <time>2026-03-07T19:39:43Z</time>
      </trkpt>
      <trkpt lat="41.40044216127802" lon="-81.74075285592652">
        <ele>266.4040268812</ele>
        <time>2026-03-07T19:40:30Z</time>
      </trkpt>
      <trkpt lat="41.40043875262234" lon="-81.74014742587313">
        <ele>266.6503470293</ele>
        <time>2026-03-07T19:41:02Z</time>
      </trkpt>
      <trkpt lat="41.40043554339772" lon="-81.73955027894590">
        <ele>267.0275726802</ele>
        <time>2026-03-07T19:41:44Z</time>
      </trkpt>
      <trkpt lat="41.40043202283490" lon="-81.73893424467178">
        <ele>267.0213116400</ele>
        <time>2026-03-07T19:42:17Z</time>
      </trkpt>
      <trkpt lat="41.40042595815277" lon="-81.73834966238002">
        <ele>267.0457694836</ele>
        <time>2026-03-07T19:42:48Z</time>
      </trkpt>
      <trkpt lat="41.40043206001894" lon="-81.73775253835979">
        <ele>267.6583947285</ele>
        <time>2026-03-07T19:43:18Z</time>
      </trkpt>
      <trkpt lat="41.40041155382477" lon="-81.73715799941370">
        <ele>268.1024413136</ele>
        <time>2026-03-07T19:44:12Z</time>
      </trkpt>
      <trkpt lat="41.40040779327301" lon="-81.73655456742200">
        <ele>267.9963548614</ele>
        <time>2026-03-07T19:44:58Z</time>
      </trkpt>
      <trkpt lat="41.40040558189295" lon="-81.73595826443048">
        <ele>268.1921511621</ele>
        <time>2026-03-07T19:45:39Z</time>
      </trkpt>
      <trkpt lat="41.40040408295105" lon="-81.73535325627462">
        <ele>268.0280871756</ele>
        <time>2026-03-07T19:46:31Z</time>
      </trkpt>
      <trkpt lat="41.40040219058215" lon="-81.73475804957482">
        <ele>267.1929985955</ele>
        <time>2026-03-07T19:47:13Z</time>
      </trkpt>
      <trkpt lat="41.40039428160883" lon="-81.73462073889876">
        <ele>267.4444087259</ele>
        <time>2026-03-07T19:47:23Z</time>
      </trkpt>
      <trkpt lat="41.40084742205007" lon="-81.73462824149173">
        <ele>267.4106649942</ele>
        <time>2026-03-07T19:48:09Z</time>
      </trkpt>
      <trkpt lat="41.40129394331678" lon="-81.73463773929103">
        <ele>267.3490780687</ele>
        <time>2026-03-07T19:48:53Z</time>
      </trkpt>
      <trkpt lat="41.40132156884126" lon="-81.73463821201861">
        <ele>267.4168352866</ele>
        <time>2026-03-07T19:49:02Z</time>
      </trkpt>
      <trkpt lat="41.40132081075608" lon="-81.73523409981837">
        <ele>267.9110493963</ele>
        <time>2026-03-07T19:49:47Z</time>
      </trkpt>
      <trkpt lat="41.40132954572375" lon="-81.73583262373702">
        <ele>268.0498850347</ele>
        <time>2026-03-07T19:50:45Z</time>
      </trkpt>
      <trkpt lat="41.40133101945037" lon="-81.73642971859657">
        <ele>268.0609258335</ele>
        <time>2026-03-07T19:51:24Z</time>
      </trkpt>
      <trkpt lat="41.40132731486615" lon="-81.73703580280802">
        <ele>268.1168951534</ele>
        <time>2026-03-07T19:52:11Z</time>
      </trkpt>
      <trkpt lat="41.40132916909658" lon="-81.73764256582673">
        <ele>267.9588704208</ele>
        <time>2026-03-07T19:52:47Z</time>
      </trkpt>
      <trkpt lat="41.40134591778306" lon="-81.73822422674931">
        <ele>267.4354715811</ele>
        <time>2026-03-07T19:53:36Z</time>
      </trkpt>
      <trkpt lat="41.40135012384835" lon="-81.73883002696788">
        <ele>267.2820381548</ele>
        <time>2026-03-07T19:54:26Z</time>
      </trkpt>
      <trkpt lat="41.40134197529476" lon="-81.73942638959583">
        <ele>267.1014935673</ele>
        <time>2026-03-07T19:54:57Z</time>
      </trkpt>
      <trkpt lat="41.40133589401943" lon="-81.74002454853000">
        <ele>266.6642952265</ele>
        <time>2026-03-07T19:55:45Z</time>
      </trkpt>
      <trkpt lat="41.40135427331128" lon="-81.74019531175382">
        <ele>266.2533739294</ele>
        <time>2026-03-07T19:55:58Z</time>
      </trkpt>
    </trkseg>
  </trk>
</gpx>