<?xml version='1.0' encoding='UTF-8'?>
<gpx xmlns="http://www.topografix.com/GPX/1/1" creator="https://gpx.studio" version="1.1">
  <metadata>
    <name>Dog Walk - 2026-07-09 #5</name>
  </metadata>
  <trk>
    <name>Dog Walk - 2026-07-09 #5</name>
    <type>dog walk</type>
    <trkseg>
      <trkpt lat="41.40133974597874" lon="-81.74023202031223">
        <ele>266.5240229757</ele>
        <time>2026-07-09T20:13:54Z</time>
      </trkpt>
      <trkpt lat="41.40134689379077" lon="-81.74082787058879">
        <ele>265.8483295578</ele>
        <time>2026-07-09T20:14:38Z</time>
      </trkpt>
      <trkpt lat="41.40134398543010" lon="-81.74143118606754">
        <ele>265.9726389790</ele>
        <time>2026-07-09T20:15:11Z</time>
      </trkpt>
      <trkpt lat="41.40134876245777" lon="-81.74203261092522">
        <ele>265.2491853780</ele>
        <time>2026-07-09T20:16:37Z</time>
      </trkpt>
      <trkpt lat="41.40135182668124" lon="-81.74241002402556">
        <ele>264.8470489731</ele>
        <time>2026-07-09T20:17:03Z</time>
      </trkpt>
      <trkpt lat="41.40176839767901" lon="-81.74262389378725">
        <ele>264.2255261330</ele>
        <time>2026-07-09T20:17:40Z</time>
      </trkpt>
      <trkpt lat="41.40218794720073" lon="-81.74284439230264">
        <ele>263.8121890865</ele>
        <time>2026-07-09T20:18:14Z</time>
      </trkpt>
      <trkpt lat="41.40260837511440" lon="-81.74305042100004">
        <ele>262.9396554091</ele>
        <time>2026-07-09T20:18:51Z</time>
      </trkpt>
      <trkpt lat="41.40302220065367" lon="-81.74327516173882">
        <ele>262.5724027541</ele>
        <time>2026-07-09T20:19:24Z</time>
      </trkpt>
      <trkpt lat="41.40344717565677" lon="-81.74347292085753">
        <ele>261.9377103518</ele>
        <time>2026-07-09T20:20:10Z</time>
      </trkpt>
      <trkpt lat="41.40349243456335" lon="-81.74350464175750">
        <ele>261.9552464281</ele>
        <time>2026-07-09T20:20:30Z</time>
      </trkpt>
      <trkpt lat="41.40359021219397" lon="-81.74351841442429">
        <ele>261.7250709091</ele>
        <time>2026-07-09T20:20:37Z</time>
      </trkpt>
      <trkpt lat="41.40399426567037" lon="-81.74351650012883">
        <ele>260.7678845505</ele>
        <time>2026-07-09T20:21:39Z</time>
      </trkpt>
      <trkpt lat="41.40399742462635" lon="-81.74290775169204">
        <ele>261.4860455853</ele>
        <time>2026-07-09T20:22:44Z</time>
      </trkpt>
      <trkpt lat="41.40399339468937" lon="-81.74231270098491">
        <ele>261.9438534189</ele>
        <time>2026-07-09T20:23:53Z</time>
      </trkpt>
      <trkpt lat="41.40399302129089" lon="-81.74170631981538">
        <ele>262.4561299503</ele>
        <time>2026-07-09T20:24:33Z</time>
      </trkpt>
      <trkpt lat="41.40398429466613" lon="-81.74110345536083">
        <ele>263.1409166527</ele>
        <time>2026-07-09T20:25:12Z</time>
      </trkpt>
      <trkpt lat="41.40398073014093" lon="-81.74051033359791">
        <ele>263.5105047430</ele>
        <time>2026-07-09T20:25:59Z</time>
      </trkpt>
      <trkpt lat="41.40399958115236" lon="-81.73991143987223">
        <ele>264.4040206177</ele>
        <time>2026-07-09T20:27:04Z</time>
      </trkpt>
      <trkpt lat="41.40398479908369" lon="-81.73931583688112">
        <ele>265.1114728104</ele>
        <time>2026-07-09T20:27:50Z</time>
      </trkpt>
      <trkpt lat="41.40398944440251" lon="-81.73877937631480">
        <ele>265.5310789356</ele>
        <time>2026-07-09T20:28:26Z</time>
      </trkpt>
      <trkpt lat="41.40353602377520" lon="-81.73877467009615">
        <ele>265.7743998960</ele>
        <time>2026-07-09T20:29:09Z</time>
      </trkpt>
      <trkpt lat="41.40308483903735" lon="-81.73877368292703">
        <ele>265.9749588692</ele>
        <time>2026-07-09T20:29:47Z</time>
      </trkpt>
      <trkpt lat="41.40264347054514" lon="-81.73877584420354">
        <ele>266.6901723041</ele>
        <time>2026-07-09T20:30:22Z</time>
      </trkpt>
      <trkpt lat="41.40222905975747" lon="-81.73876935346770">
        <ele>266.8624086862</ele>
        <time>2026-07-09T20:31:02Z</time>
      </trkpt>
      <trkpt lat="41.40221380149093" lon="-81.73828377774853">
        <ele>267.1267864562</ele>
        <time>2026-07-09T20:31:34Z</time>
      </trkpt>
      <trkpt lat="41.40177253503795" lon="-81.73826956433022">
        <ele>267.9963607226</ele>
        <time>2026-07-09T20:32:08Z</time>
      </trkpt>
      <trkpt lat="41.40133865008184" lon="-81.73826866234333">
        <ele>267.4666065111</ele>
        <time>2026-07-09T20:32:44Z</time>
      </trkpt>
      <trkpt lat="41.40133099526113" lon="-81.73885365907866">
        <ele>267.3633853833</ele>
        <time>2026-07-09T20:33:16Z</time>
      </trkpt>
      <trkpt lat="41.40133051336137" lon="-81.73946139602029">
        <ele>267.0337213106</ele>
        <time>2026-07-09T20:34:02Z</time>
      </trkpt>
      <trkpt lat="41.40133521962564" lon="-81.74008371993624">
        <ele>266.6427253163</ele>
        <time>2026-07-09T20:35:02Z</time>
      </trkpt>
      <trkpt lat="41.40133774715888" lon="-81.74021457720085">
        <ele>266.4162078418</ele>
        <time>2026-07-09T20:35:09Z</time>
      </trkpt>
    </trkseg>
  </trk>
</gpx>