<?xml version='1.0' encoding='UTF-8'?>
<gpx xmlns="http://www.topografix.com/GPX/1/1" creator="https://gpx.studio" version="1.1">
  <metadata>
    <name>Dog Walk - 2026-08-07 #2</name>
  </metadata>
  <trk>
    <name>Dog Walk - 2026-08-07 #2</name>
    <type>dog walk</type>
    <trkseg>
      <trkpt lat="41.40133491262366" lon="-81.74026064749243">
        <ele>266.4298902762</ele>
        <time>2026-08-07T11:27:25Z</time>
      </trkpt>
      <trkpt lat="41.40134082419729" lon="-81.74025343447046">
        <ele>266.5605102076</ele>
        <time>2026-08-07T11:27:26Z</time>
      </trkpt>
      <trkpt lat="41.40133183405351" lon="-81.74085944544237">
        <ele>266.1667058316</ele>
        <time>2026-08-07T11:28:06Z</time>
      </trkpt>
      <trkpt lat="41.40132212915295" lon="-81.74145015828255">
        <ele>265.7969869637</ele>
        <time>2026-08-07T11:28:44Z</time>
      </trkpt>
      <trkpt lat="41.40132470726275" lon="-81.74205411244537">
        <ele>265.5374676008</ele>
        <time>2026-08-07T11:29:28Z</time>
      </trkpt>
      <trkpt lat="41.40132436256788" lon="-81.74237823109223">
        <ele>264.7254393571</ele>
        <time>2026-08-07T11:29:47Z</time>
      </trkpt>
      <trkpt lat="41.40132396621132" lon="-81.74237964813642">
        <ele>264.8315010095</ele>
        <time>2026-08-07T11:29:48Z</time>
      </trkpt>
      <trkpt lat="41.40089944391347" lon="-81.74217809871016">
        <ele>265.1965963783</ele>
        <time>2026-08-07T11:30:25Z</time>
      </trkpt>
      <trkpt lat="41.40047184580230" lon="-81.74198674064851">
        <ele>265.1289176321</ele>
        <time>2026-08-07T11:31:08Z</time>
      </trkpt>
      <trkpt lat="41.40004845389997" lon="-81.74179704756341">
        <ele>265.4948013407</ele>
        <time>2026-08-07T11:31:50Z</time>
      </trkpt>
      <trkpt lat="41.39961832374712" lon="-81.74160029602815">
        <ele>264.7918577825</ele>
        <time>2026-08-07T11:32:23Z</time>
      </trkpt>
      <trkpt lat="41.39954575402928" lon="-81.74158417632023">
        <ele>264.8496684252</ele>
        <time>2026-08-07T11:32:28Z</time>
      </trkpt>
      <trkpt lat="41.39954820260272" lon="-81.74097673475777">
        <ele>265.5976313520</ele>
        <time>2026-08-07T11:33:02Z</time>
      </trkpt>
      <trkpt lat="41.39954321216707" lon="-81.74036757070230">
        <ele>266.3374097187</ele>
        <time>2026-08-07T11:33:54Z</time>
      </trkpt>
      <trkpt lat="41.39953763322466" lon="-81.73977333873405">
        <ele>266.6434451967</ele>
        <time>2026-08-07T11:34:27Z</time>
      </trkpt>
      <trkpt lat="41.39953540878356" lon="-81.73917696611593">
        <ele>266.5927867867</ele>
        <time>2026-08-07T11:35:22Z</time>
      </trkpt>
      <trkpt lat="41.39953026695952" lon="-81.73856862231969">
        <ele>266.9878552786</ele>
        <time>2026-08-07T11:36:02Z</time>
      </trkpt>
      <trkpt lat="41.39953411378728" lon="-81.73829282386141">
        <ele>266.9347945033</ele>
        <time>2026-08-07T11:36:19Z</time>
      </trkpt>
      <trkpt lat="41.39953112023206" lon="-81.73828796695973">
        <ele>266.9037770264</ele>
        <time>2026-08-07T11:36:20Z</time>
      </trkpt>
      <trkpt lat="41.39998641761209" lon="-81.73829620482779">
        <ele>267.0997462771</ele>
        <time>2026-08-07T11:37:16Z</time>
      </trkpt>
      <trkpt lat="41.40042924170808" lon="-81.73830155419702">
        <ele>267.2655899478</ele>
        <time>2026-08-07T11:37:50Z</time>
      </trkpt>
      <trkpt lat="41.40088279690173" lon="-81.73830608584942">
        <ele>267.4186955863</ele>
        <time>2026-08-07T11:38:22Z</time>
      </trkpt>
      <trkpt lat="41.40132663613314" lon="-81.73830548008942">
        <ele>267.5031276266</ele>
        <time>2026-08-07T11:39:04Z</time>
      </trkpt>
      <trkpt lat="41.40133293095151" lon="-81.73890400693510">
        <ele>267.4678700553</ele>
        <time>2026-08-07T11:39:47Z</time>
      </trkpt>
      <trkpt lat="41.40133049461780" lon="-81.73950530241630">
        <ele>267.2557038596</ele>
        <time>2026-08-07T11:40:37Z</time>
      </trkpt>
      <trkpt lat="41.40133711896762" lon="-81.74010790217251">
        <ele>266.8390612912</ele>
        <time>2026-08-07T11:41:17Z</time>
      </trkpt>
      <trkpt lat="41.40134385736582" lon="-81.74016592221507">
        <ele>266.5222849795</ele>
        <time>2026-08-07T11:41:21Z</time>
      </trkpt>
    </trkseg>
  </trk>
</gpx>