<?xml version='1.0' encoding='UTF-8'?>
<gpx xmlns="http://www.topografix.com/GPX/1/1" creator="https://gpx.studio" version="1.1">
  <metadata>
    <name>Dog Walk - 2026-07-08 #3</name>
  </metadata>
  <trk>
    <name>Dog Walk - 2026-07-08 #3</name>
    <type>dog walk</type>
    <trkseg>
      <trkpt lat="41.40133227941759" lon="-81.74023547652490">
        <ele>266.6267046304</ele>
        <time>2026-07-08T18:37:49Z</time>
      </trkpt>
      <trkpt lat="41.40133779817893" lon="-81.74083251501641">
        <ele>266.3241272567</ele>
        <time>2026-07-08T18:38:20Z</time>
      </trkpt>
      <trkpt lat="41.40132407740261" lon="-81.74144003261083">
        <ele>265.8701535475</ele>
        <time>2026-07-08T18:38:56Z</time>
      </trkpt>
      <trkpt lat="41.40133189464597" lon="-81.74203850848360">
        <ele>265.2611999419</ele>
        <time>2026-07-08T18:39:51Z</time>
      </trkpt>
      <trkpt lat="41.40132880825104" lon="-81.74238982896567">
        <ele>264.5345542414</ele>
        <time>2026-07-08T18:40:12Z</time>
      </trkpt>
      <trkpt lat="41.40090426536006" lon="-81.74219447842239">
        <ele>265.1662474328</ele>
        <time>2026-07-08T18:41:01Z</time>
      </trkpt>
      <trkpt lat="41.40047956573550" lon="-81.74200939949661">
        <ele>265.1144072651</ele>
        <time>2026-07-08T18:41:48Z</time>
      </trkpt>
      <trkpt lat="41.40004683576348" lon="-81.74180621294022">
        <ele>265.3854416361</ele>
        <time>2026-07-08T18:42:26Z</time>
      </trkpt>
      <trkpt lat="41.39962321427939" lon="-81.74161362232248">
        <ele>264.8797035206</ele>
        <time>2026-07-08T18:43:09Z</time>
      </trkpt>
      <trkpt lat="41.39953176112451" lon="-81.74156800910832">
        <ele>264.7711102958</ele>
        <time>2026-07-08T18:43:20Z</time>
      </trkpt>
      <trkpt lat="41.39953349794258" lon="-81.74097806555605">
        <ele>265.5004884894</ele>
        <time>2026-07-08T18:44:10Z</time>
      </trkpt>
      <trkpt lat="41.39952968710316" lon="-81.74037389982171">
        <ele>265.9343311120</ele>
        <time>2026-07-08T18:44:48Z</time>
      </trkpt>
      <trkpt lat="41.39952998619448" lon="-81.73977565127556">
        <ele>266.5783858146</ele>
        <time>2026-07-08T18:45:26Z</time>
      </trkpt>
      <trkpt lat="41.39952740397671" lon="-81.73917874984055">
        <ele>266.8859060323</ele>
        <time>2026-07-08T18:46:02Z</time>
      </trkpt>
      <trkpt lat="41.39953482315148" lon="-81.73858312063906">
        <ele>267.0709807816</ele>
        <time>2026-07-08T18:46:48Z</time>
      </trkpt>
      <trkpt lat="41.39952553829601" lon="-81.73798541586712">
        <ele>267.3505265999</ele>
        <time>2026-07-08T18:47:34Z</time>
      </trkpt>
      <trkpt lat="41.39953052086277" lon="-81.73737609681503">
        <ele>267.1783295175</ele>
        <time>2026-07-08T18:48:16Z</time>
      </trkpt>
      <trkpt lat="41.39953152140691" lon="-81.73677886310139">
        <ele>267.3963153003</ele>
        <time>2026-07-08T18:48:56Z</time>
      </trkpt>
      <trkpt lat="41.39952754353737" lon="-81.73617660445603">
        <ele>267.4470223379</ele>
        <time>2026-07-08T18:49:46Z</time>
      </trkpt>
      <trkpt lat="41.39952889490367" lon="-81.73558094870590">
        <ele>267.4822230075</ele>
        <time>2026-07-08T18:50:26Z</time>
      </trkpt>
      <trkpt lat="41.39952725786153" lon="-81.73497961913019">
        <ele>267.0153344453</ele>
        <time>2026-07-08T18:51:06Z</time>
      </trkpt>
      <trkpt lat="41.39952320263261" lon="-81.73461629107970">
        <ele>266.9808213163</ele>
        <time>2026-07-08T18:51:24Z</time>
      </trkpt>
      <trkpt lat="41.39997311162251" lon="-81.73462014139498">
        <ele>267.1479990347</ele>
        <time>2026-07-08T18:52:20Z</time>
      </trkpt>
      <trkpt lat="41.40042756648010" lon="-81.73463051780784">
        <ele>267.3754299163</ele>
        <time>2026-07-08T18:53:20Z</time>
      </trkpt>
      <trkpt lat="41.40087898421066" lon="-81.73463647493384">
        <ele>267.4624584032</ele>
        <time>2026-07-08T18:53:57Z</time>
      </trkpt>
      <trkpt lat="41.40132304567160" lon="-81.73464763914347">
        <ele>267.3944810810</ele>
        <time>2026-07-08T18:54:31Z</time>
      </trkpt>
      <trkpt lat="41.40132178179062" lon="-81.73524010917725">
        <ele>267.7909647486</ele>
        <time>2026-07-08T18:55:24Z</time>
      </trkpt>
      <trkpt lat="41.40132447619386" lon="-81.73583763765238">
        <ele>268.3445189604</ele>
        <time>2026-07-08T18:55:54Z</time>
      </trkpt>
      <trkpt lat="41.40131922876967" lon="-81.73643917426605">
        <ele>268.0266341712</ele>
        <time>2026-07-08T18:56:52Z</time>
      </trkpt>
      <trkpt lat="41.40131881913245" lon="-81.73703297889608">
        <ele>268.2522293388</ele>
        <time>2026-07-08T18:57:30Z</time>
      </trkpt>
      <trkpt lat="41.40132752619269" lon="-81.73763868305142">
        <ele>268.0583870164</ele>
        <time>2026-07-08T18:58:28Z</time>
      </trkpt>
      <trkpt lat="41.40133252140217" lon="-81.73824323742707">
        <ele>267.6586311473</ele>
        <time>2026-07-08T18:59:25Z</time>
      </trkpt>
      <trkpt lat="41.40132690251448" lon="-81.73884440302211">
        <ele>267.5984912849</ele>
        <time>2026-07-08T19:00:05Z</time>
      </trkpt>
      <trkpt lat="41.40134200376163" lon="-81.73944431876033">
        <ele>267.2632630438</ele>
        <time>2026-07-08T19:00:58Z</time>
      </trkpt>
      <trkpt lat="41.40133909954541" lon="-81.74003928254325">
        <ele>266.7689445339</ele>
        <time>2026-07-08T19:01:39Z</time>
      </trkpt>
      <trkpt lat="41.40131763963041" lon="-81.74021057696734">
        <ele>266.5893670352</ele>
        <time>2026-07-08T19:01:51Z</time>
      </trkpt>
    </trkseg>
  </trk>
</gpx>