<?xml version='1.0' encoding='UTF-8'?>
<gpx xmlns="http://www.topografix.com/GPX/1/1" creator="https://gpx.studio" version="1.1">
  <metadata>
    <name>Dog Walk - 2026-04-18 #1</name>
  </metadata>
  <trk>
    <name>Dog Walk - 2026-04-18 #1</name>
    <type>dog walk</type>
    <trkseg>
      <trkpt lat="41.40134148322554" lon="-81.74023634447073">
        <ele>266.6815042333</ele>
        <time>2026-04-18T08:48:17Z</time>
      </trkpt>
      <trkpt lat="41.40134048549174" lon="-81.74083569094621">
        <ele>265.9563389422</ele>
        <time>2026-04-18T08:48:57Z</time>
      </trkpt>
      <trkpt lat="41.40134466357034" lon="-81.74143484235583">
        <ele>265.8474792938</ele>
        <time>2026-04-18T08:49:36Z</time>
      </trkpt>
      <trkpt lat="41.40134862325381" lon="-81.74203637128758">
        <ele>265.2821316217</ele>
        <time>2026-04-18T08:50:15Z</time>
      </trkpt>
      <trkpt lat="41.40135118977036" lon="-81.74240678793804">
        <ele>264.7156490226</ele>
        <time>2026-04-18T08:50:37Z</time>
      </trkpt>
      <trkpt lat="41.40176152006147" lon="-81.74262658903481">
        <ele>264.3783818936</ele>
        <time>2026-04-18T08:51:13Z</time>
      </trkpt>
      <trkpt lat="41.40217990737566" lon="-81.74283603031931">
        <ele>263.5467673856</ele>
        <time>2026-04-18T08:51:59Z</time>
      </trkpt>
      <trkpt lat="41.40261369270880" lon="-81.74305854361155">
        <ele>262.8633281602</ele>
        <time>2026-04-18T08:52:58Z</time>
      </trkpt>
      <trkpt lat="41.40303173675502" lon="-81.74325664117558">
        <ele>262.4052015714</ele>
        <time>2026-04-18T08:53:49Z</time>
      </trkpt>
      <trkpt lat="41.40345003911737" lon="-81.74348065834997">
        <ele>262.0505574155</ele>
        <time>2026-04-18T08:54:20Z</time>
      </trkpt>
      <trkpt lat="41.40348831349760" lon="-81.74350379785336">
        <ele>261.7224103792</ele>
        <time>2026-04-18T08:54:23Z</time>
      </trkpt>
      <trkpt lat="41.40360255950937" lon="-81.74351370487295">
        <ele>261.8678702163</ele>
        <time>2026-04-18T08:54:34Z</time>
      </trkpt>
      <trkpt lat="41.40400249156362" lon="-81.74351916648594">
        <ele>260.5451460818</ele>
        <time>2026-04-18T08:55:05Z</time>
      </trkpt>
      <trkpt lat="41.40399290793611" lon="-81.74291029543919">
        <ele>261.5062568774</ele>
        <time>2026-04-18T08:55:35Z</time>
      </trkpt>
      <trkpt lat="41.40399545924974" lon="-81.74230558655478">
        <ele>262.0792109178</ele>
        <time>2026-04-18T08:56:10Z</time>
      </trkpt>
      <trkpt lat="41.40399277416110" lon="-81.74171214402112">
        <ele>262.6879314932</ele>
        <time>2026-04-18T08:56:55Z</time>
      </trkpt>
      <trkpt lat="41.40398437468416" lon="-81.74111271737674">
        <ele>262.9201025502</ele>
        <time>2026-04-18T08:57:33Z</time>
      </trkpt>
      <trkpt lat="41.40398426721724" lon="-81.74050051377674">
        <ele>263.6041158722</ele>
        <time>2026-04-18T08:58:14Z</time>
      </trkpt>
      <trkpt lat="41.40398778940032" lon="-81.73991757081885">
        <ele>264.2293036307</ele>
        <time>2026-04-18T08:58:51Z</time>
      </trkpt>
      <trkpt lat="41.40399315184252" lon="-81.73931020365899">
        <ele>264.8569655806</ele>
        <time>2026-04-18T08:59:31Z</time>
      </trkpt>
      <trkpt lat="41.40398960521299" lon="-81.73878125860810">
        <ele>265.5451105147</ele>
        <time>2026-04-18T09:00:14Z</time>
      </trkpt>
      <trkpt lat="41.40352802971999" lon="-81.73878240418708">
        <ele>265.7956799961</ele>
        <time>2026-04-18T09:01:07Z</time>
      </trkpt>
      <trkpt lat="41.40308528885477" lon="-81.73877092997603">
        <ele>266.1416302131</ele>
        <time>2026-04-18T09:02:01Z</time>
      </trkpt>
      <trkpt lat="41.40263661657302" lon="-81.73877998094579">
        <ele>266.7319584584</ele>
        <time>2026-04-18T09:02:34Z</time>
      </trkpt>
      <trkpt lat="41.40223472609911" lon="-81.73877562446951">
        <ele>267.2600564447</ele>
        <time>2026-04-18T09:03:04Z</time>
      </trkpt>
      <trkpt lat="41.40221740401401" lon="-81.73827643285975">
        <ele>266.9970121429</ele>
        <time>2026-04-18T09:03:43Z</time>
      </trkpt>
      <trkpt lat="41.40176463588792" lon="-81.73826888553933">
        <ele>267.8355137381</ele>
        <time>2026-04-18T09:04:23Z</time>
      </trkpt>
      <trkpt lat="41.40131616212626" lon="-81.73827338255292">
        <ele>267.4624088275</ele>
        <time>2026-04-18T09:05:00Z</time>
      </trkpt>
      <trkpt lat="41.40133556318126" lon="-81.73886574309530">
        <ele>267.4087653187</ele>
        <time>2026-04-18T09:05:35Z</time>
      </trkpt>
      <trkpt lat="41.40133344834077" lon="-81.73947020958070">
        <ele>267.3006376491</ele>
        <time>2026-04-18T09:06:09Z</time>
      </trkpt>
      <trkpt lat="41.40134228579898" lon="-81.74006315522520">
        <ele>266.6932329652</ele>
        <time>2026-04-18T09:06:45Z</time>
      </trkpt>
      <trkpt lat="41.40133080051530" lon="-81.74019836521559">
        <ele>266.6964394767</ele>
        <time>2026-04-18T09:07:07Z</time>
      </trkpt>
    </trkseg>
  </trk>
</gpx>