<?xml version='1.0' encoding='UTF-8'?>
<gpx xmlns="http://www.topografix.com/GPX/1/1" creator="https://gpx.studio" version="1.1">
  <metadata>
    <name>Dog Walk - 2026-04-29 #2</name>
  </metadata>
  <trk>
    <name>Dog Walk - 2026-04-29 #2</name>
    <type>dog walk</type>
    <trkseg>
      <trkpt lat="41.40133549757017" lon="-81.74023335210023">
        <ele>266.5091766483</ele>
        <time>2026-04-29T11:17:59Z</time>
      </trkpt>
      <trkpt lat="41.40133541994710" lon="-81.74083064775910">
        <ele>266.2730152118</ele>
        <time>2026-04-29T11:18:54Z</time>
      </trkpt>
      <trkpt lat="41.40133593397718" lon="-81.74143188047995">
        <ele>265.9873993159</ele>
        <time>2026-04-29T11:19:31Z</time>
      </trkpt>
      <trkpt lat="41.40132658513274" lon="-81.74202685612926">
        <ele>265.4697050322</ele>
        <time>2026-04-29T11:20:08Z</time>
      </trkpt>
      <trkpt lat="41.40132704666222" lon="-81.74238692676799">
        <ele>264.6578425459</ele>
        <time>2026-04-29T11:20:34Z</time>
      </trkpt>
      <trkpt lat="41.40090207562353" lon="-81.74220128384093">
        <ele>265.1848650725</ele>
        <time>2026-04-29T11:21:31Z</time>
      </trkpt>
      <trkpt lat="41.40048562380444" lon="-81.74199028346068">
        <ele>265.2562553789</ele>
        <time>2026-04-29T11:22:04Z</time>
      </trkpt>
      <trkpt lat="41.40006013789735" lon="-81.74180095350235">
        <ele>265.4248254908</ele>
        <time>2026-04-29T11:23:06Z</time>
      </trkpt>
      <trkpt lat="41.39962426964745" lon="-81.74161670328839">
        <ele>264.8249621269</ele>
        <time>2026-04-29T11:23:44Z</time>
      </trkpt>
      <trkpt lat="41.39953330875016" lon="-81.74156515681763">
        <ele>264.7604757279</ele>
        <time>2026-04-29T11:23:58Z</time>
      </trkpt>
      <trkpt lat="41.39953588791486" lon="-81.74097844099765">
        <ele>265.7987131324</ele>
        <time>2026-04-29T11:24:31Z</time>
      </trkpt>
      <trkpt lat="41.39953516625970" lon="-81.74037025020682">
        <ele>265.9928200068</ele>
        <time>2026-04-29T11:25:22Z</time>
      </trkpt>
      <trkpt lat="41.39953437597099" lon="-81.73978528335937">
        <ele>266.5765407918</ele>
        <time>2026-04-29T11:26:01Z</time>
      </trkpt>
      <trkpt lat="41.39953040688714" lon="-81.73916977903693">
        <ele>266.7227551858</ele>
        <time>2026-04-29T11:26:35Z</time>
      </trkpt>
      <trkpt lat="41.39953465934182" lon="-81.73857821032593">
        <ele>266.9732230103</ele>
        <time>2026-04-29T11:27:27Z</time>
      </trkpt>
      <trkpt lat="41.39953280475634" lon="-81.73797710452651">
        <ele>267.1928973818</ele>
        <time>2026-04-29T11:28:06Z</time>
      </trkpt>
      <trkpt lat="41.39953759793205" lon="-81.73738294732685">
        <ele>267.2824107632</ele>
        <time>2026-04-29T11:29:23Z</time>
      </trkpt>
      <trkpt lat="41.39952665668532" lon="-81.73678473169799">
        <ele>267.4273701545</ele>
        <time>2026-04-29T11:30:14Z</time>
      </trkpt>
      <trkpt lat="41.39953229657565" lon="-81.73618643621937">
        <ele>267.5588908870</ele>
        <time>2026-04-29T11:30:53Z</time>
      </trkpt>
      <trkpt lat="41.39953018084241" lon="-81.73558262047581">
        <ele>267.5404257858</ele>
        <time>2026-04-29T11:31:25Z</time>
      </trkpt>
      <trkpt lat="41.39952351997250" lon="-81.73497435404741">
        <ele>267.2627164020</ele>
        <time>2026-04-29T11:31:57Z</time>
      </trkpt>
      <trkpt lat="41.39952513833452" lon="-81.73461329871472">
        <ele>267.2796900033</ele>
        <time>2026-04-29T11:32:20Z</time>
      </trkpt>
      <trkpt lat="41.39997762389948" lon="-81.73462248697163">
        <ele>267.2181607345</ele>
        <time>2026-04-29T11:32:58Z</time>
      </trkpt>
      <trkpt lat="41.40042706678491" lon="-81.73462399884218">
        <ele>267.1790124388</ele>
        <time>2026-04-29T11:33:44Z</time>
      </trkpt>
      <trkpt lat="41.40086922037744" lon="-81.73464144868623">
        <ele>267.2067851343</ele>
        <time>2026-04-29T11:34:18Z</time>
      </trkpt>
      <trkpt lat="41.40132091830264" lon="-81.73463961719283">
        <ele>267.4088763085</ele>
        <time>2026-04-29T11:34:53Z</time>
      </trkpt>
      <trkpt lat="41.40132862489475" lon="-81.73523474014084">
        <ele>268.0152171407</ele>
        <time>2026-04-29T11:35:42Z</time>
      </trkpt>
      <trkpt lat="41.40132707189416" lon="-81.73582334941686">
        <ele>268.4387414571</ele>
        <time>2026-04-29T11:36:30Z</time>
      </trkpt>
      <trkpt lat="41.40132860541706" lon="-81.73644016716189">
        <ele>268.2187694322</ele>
        <time>2026-04-29T11:37:25Z</time>
      </trkpt>
      <trkpt lat="41.40131968114604" lon="-81.73703238972250">
        <ele>268.0715556919</ele>
        <time>2026-04-29T11:38:08Z</time>
      </trkpt>
      <trkpt lat="41.40132956612059" lon="-81.73763925032114">
        <ele>268.0401436302</ele>
        <time>2026-04-29T11:38:44Z</time>
      </trkpt>
      <trkpt lat="41.40132329811898" lon="-81.73823261161975">
        <ele>267.5511307928</ele>
        <time>2026-04-29T11:39:17Z</time>
      </trkpt>
      <trkpt lat="41.40133001292730" lon="-81.73883917915468">
        <ele>267.3183001987</ele>
        <time>2026-04-29T11:39:46Z</time>
      </trkpt>
      <trkpt lat="41.40133601229198" lon="-81.73943952310003">
        <ele>267.0915994036</ele>
        <time>2026-04-29T11:40:51Z</time>
      </trkpt>
      <trkpt lat="41.40133966849533" lon="-81.74003148808494">
        <ele>266.6892210750</ele>
        <time>2026-04-29T11:41:45Z</time>
      </trkpt>
      <trkpt lat="41.40133658399697" lon="-81.74021354858357">
        <ele>266.6686683137</ele>
        <time>2026-04-29T11:42:00Z</time>
      </trkpt>
    </trkseg>
  </trk>
</gpx>