<?xml version='1.0' encoding='UTF-8'?>
<gpx xmlns="http://www.topografix.com/GPX/1/1" creator="https://gpx.studio" version="1.1">
  <metadata>
    <name>Dog Walk - 2026-05-21 #1</name>
  </metadata>
  <trk>
    <name>Dog Walk - 2026-05-21 #1</name>
    <type>dog walk</type>
    <trkseg>
      <trkpt lat="41.40133758801765" lon="-81.74021963945779">
        <ele>266.6098451412</ele>
        <time>2026-05-21T12:05:45Z</time>
      </trkpt>
      <trkpt lat="41.40134160967107" lon="-81.74082872064810">
        <ele>266.0836126407</ele>
        <time>2026-05-21T12:06:30Z</time>
      </trkpt>
      <trkpt lat="41.40134193939757" lon="-81.74143908939553">
        <ele>265.6878945436</ele>
        <time>2026-05-21T12:07:07Z</time>
      </trkpt>
      <trkpt lat="41.40135256206467" lon="-81.74203052546491">
        <ele>265.3886714589</ele>
        <time>2026-05-21T12:07:55Z</time>
      </trkpt>
      <trkpt lat="41.40135073034374" lon="-81.74241335247028">
        <ele>264.5336257756</ele>
        <time>2026-05-21T12:08:18Z</time>
      </trkpt>
      <trkpt lat="41.40177076218509" lon="-81.74263105800019">
        <ele>264.1361515884</ele>
        <time>2026-05-21T12:09:06Z</time>
      </trkpt>
      <trkpt lat="41.40218198648332" lon="-81.74284296878935">
        <ele>263.4968938756</ele>
        <time>2026-05-21T12:09:34Z</time>
      </trkpt>
      <trkpt lat="41.40261100950983" lon="-81.74305677648404">
        <ele>263.0140649538</ele>
        <time>2026-05-21T12:10:12Z</time>
      </trkpt>
      <trkpt lat="41.40303467519624" lon="-81.74325664259807">
        <ele>262.3932357521</ele>
        <time>2026-05-21T12:10:55Z</time>
      </trkpt>
      <trkpt lat="41.40344427528003" lon="-81.74347716402835">
        <ele>261.8525935816</ele>
        <time>2026-05-21T12:11:25Z</time>
      </trkpt>
      <trkpt lat="41.40349587299853" lon="-81.74349669871339">
        <ele>261.8014960693</ele>
        <time>2026-05-21T12:11:46Z</time>
      </trkpt>
      <trkpt lat="41.40359602208260" lon="-81.74352773883480">
        <ele>261.5504789707</ele>
        <time>2026-05-21T12:11:55Z</time>
      </trkpt>
      <trkpt lat="41.40399760002816" lon="-81.74350832118954">
        <ele>260.7412563585</ele>
        <time>2026-05-21T12:12:31Z</time>
      </trkpt>
      <trkpt lat="41.40399004088796" lon="-81.74290874896501">
        <ele>261.6150102462</ele>
        <time>2026-05-21T12:13:24Z</time>
      </trkpt>
      <trkpt lat="41.40399077540572" lon="-81.74231364304691">
        <ele>261.8734289664</ele>
        <time>2026-05-21T12:14:03Z</time>
      </trkpt>
      <trkpt lat="41.40399274324377" lon="-81.74170973217915">
        <ele>262.4720486236</ele>
        <time>2026-05-21T12:14:45Z</time>
      </trkpt>
      <trkpt lat="41.40399315624150" lon="-81.74111516795492">
        <ele>262.9869542983</ele>
        <time>2026-05-21T12:15:20Z</time>
      </trkpt>
      <trkpt lat="41.40399164480739" lon="-81.74050675259328">
        <ele>263.4615059023</ele>
        <time>2026-05-21T12:16:01Z</time>
      </trkpt>
      <trkpt lat="41.40399064795766" lon="-81.73990812880869">
        <ele>264.1742628630</ele>
        <time>2026-05-21T12:16:39Z</time>
      </trkpt>
      <trkpt lat="41.40398865496426" lon="-81.73930871837835">
        <ele>264.7548116434</ele>
        <time>2026-05-21T12:17:23Z</time>
      </trkpt>
      <trkpt lat="41.40398955183433" lon="-81.73877765291761">
        <ele>265.3537076350</ele>
        <time>2026-05-21T12:18:15Z</time>
      </trkpt>
      <trkpt lat="41.40354057760643" lon="-81.73876465790330">
        <ele>265.9595046821</ele>
        <time>2026-05-21T12:19:01Z</time>
      </trkpt>
      <trkpt lat="41.40308042362032" lon="-81.73878108029217">
        <ele>266.2192748241</ele>
        <time>2026-05-21T12:19:51Z</time>
      </trkpt>
      <trkpt lat="41.40263575997386" lon="-81.73877416879205">
        <ele>266.9131893347</ele>
        <time>2026-05-21T12:20:33Z</time>
      </trkpt>
      <trkpt lat="41.40222649357609" lon="-81.73876674200774">
        <ele>267.0551699469</ele>
        <time>2026-05-21T12:21:09Z</time>
      </trkpt>
      <trkpt lat="41.40221114409235" lon="-81.73828311832366">
        <ele>267.1043938549</ele>
        <time>2026-05-21T12:21:36Z</time>
      </trkpt>
      <trkpt lat="41.40177482331042" lon="-81.73827466600231">
        <ele>267.9207887708</ele>
        <time>2026-05-21T12:22:21Z</time>
      </trkpt>
      <trkpt lat="41.40132427427134" lon="-81.73826422412624">
        <ele>267.4055734068</ele>
        <time>2026-05-21T12:23:08Z</time>
      </trkpt>
      <trkpt lat="41.40132873638984" lon="-81.73885628079127">
        <ele>267.3944105915</ele>
        <time>2026-05-21T12:23:41Z</time>
      </trkpt>
      <trkpt lat="41.40133323257228" lon="-81.73947409322440">
        <ele>267.0153306512</ele>
        <time>2026-05-21T12:24:27Z</time>
      </trkpt>
      <trkpt lat="41.40133604384187" lon="-81.74006378822553">
        <ele>266.6783842982</ele>
        <time>2026-05-21T12:25:01Z</time>
      </trkpt>
      <trkpt lat="41.40133689173071" lon="-81.74021383654757">
        <ele>266.7498862342</ele>
        <time>2026-05-21T12:25:25Z</time>
      </trkpt>
    </trkseg>
  </trk>
</gpx>