<?xml version='1.0' encoding='UTF-8'?>
<gpx xmlns="http://www.topografix.com/GPX/1/1" creator="https://gpx.studio" version="1.1">
  <metadata>
    <name>Dog Walk - 2026-05-29 #2</name>
  </metadata>
  <trk>
    <name>Dog Walk - 2026-05-29 #2</name>
    <type>dog walk</type>
    <trkseg>
      <trkpt lat="41.40134955676252" lon="-81.74024394474550">
        <ele>266.3299612059</ele>
        <time>2026-05-29T11:36:26Z</time>
      </trkpt>
      <trkpt lat="41.40134896204992" lon="-81.74083271678558">
        <ele>266.2595843090</ele>
        <time>2026-05-29T11:37:14Z</time>
      </trkpt>
      <trkpt lat="41.40134762533015" lon="-81.74142822723130">
        <ele>265.8540982125</ele>
        <time>2026-05-29T11:37:52Z</time>
      </trkpt>
      <trkpt lat="41.40134675475685" lon="-81.74202530102217">
        <ele>265.4851296356</ele>
        <time>2026-05-29T11:38:32Z</time>
      </trkpt>
      <trkpt lat="41.40135101624722" lon="-81.74241306653528">
        <ele>264.7042391198</ele>
        <time>2026-05-29T11:38:49Z</time>
      </trkpt>
      <trkpt lat="41.40176493911071" lon="-81.74263829321124">
        <ele>264.2541755258</ele>
        <time>2026-05-29T11:39:30Z</time>
      </trkpt>
      <trkpt lat="41.40218438406399" lon="-81.74284642466570">
        <ele>263.4116370506</ele>
        <time>2026-05-29T11:40:03Z</time>
      </trkpt>
      <trkpt lat="41.40221966673926" lon="-81.74286528202536">
        <ele>263.1880617358</ele>
        <time>2026-05-29T11:40:06Z</time>
      </trkpt>
      <trkpt lat="41.40222694314811" lon="-81.74226159781442">
        <ele>264.2687140722</ele>
        <time>2026-05-29T11:40:45Z</time>
      </trkpt>
      <trkpt lat="41.40221022587134" lon="-81.74166773837413">
        <ele>264.5698638271</ele>
        <time>2026-05-29T11:41:25Z</time>
      </trkpt>
      <trkpt lat="41.40222170747600" lon="-81.74106493220366">
        <ele>265.7570932041</ele>
        <time>2026-05-29T11:42:01Z</time>
      </trkpt>
      <trkpt lat="41.40221920997082" lon="-81.74047008377219">
        <ele>266.0664471320</ele>
        <time>2026-05-29T11:42:46Z</time>
      </trkpt>
      <trkpt lat="41.40221953612733" lon="-81.73986316941128">
        <ele>266.5688776004</ele>
        <time>2026-05-29T11:43:28Z</time>
      </trkpt>
      <trkpt lat="41.40221956369879" lon="-81.73927000199457">
        <ele>266.6992207158</ele>
        <time>2026-05-29T11:44:22Z</time>
      </trkpt>
      <trkpt lat="41.40222459671412" lon="-81.73866620841436">
        <ele>267.2562668868</ele>
        <time>2026-05-29T11:45:00Z</time>
      </trkpt>
      <trkpt lat="41.40221604080174" lon="-81.73826418858503">
        <ele>266.9412478683</ele>
        <time>2026-05-29T11:45:40Z</time>
      </trkpt>
      <trkpt lat="41.40176881426768" lon="-81.73826113544330">
        <ele>267.9525516483</ele>
        <time>2026-05-29T11:46:16Z</time>
      </trkpt>
      <trkpt lat="41.40134202370650" lon="-81.73825528518130">
        <ele>267.4163413469</ele>
        <time>2026-05-29T11:46:47Z</time>
      </trkpt>
      <trkpt lat="41.40133901861581" lon="-81.73885521439266">
        <ele>267.4984880392</ele>
        <time>2026-05-29T11:47:36Z</time>
      </trkpt>
      <trkpt lat="41.40133864263171" lon="-81.73946113241806">
        <ele>267.1205540059</ele>
        <time>2026-05-29T11:48:17Z</time>
      </trkpt>
      <trkpt lat="41.40134404715069" lon="-81.74006114914184">
        <ele>266.6256257022</ele>
        <time>2026-05-29T11:48:58Z</time>
      </trkpt>
      <trkpt lat="41.40134091838161" lon="-81.74019464573435">
        <ele>266.5730936887</ele>
        <time>2026-05-29T11:49:05Z</time>
      </trkpt>
    </trkseg>
  </trk>
</gpx>