<?xml version='1.0' encoding='UTF-8'?>
<gpx xmlns="http://www.topografix.com/GPX/1/1" creator="https://gpx.studio" version="1.1">
  <metadata>
    <name>Dog Walk - 2026-03-29 #3</name>
  </metadata>
  <trk>
    <name>Dog Walk - 2026-03-29 #3</name>
    <type>dog walk</type>
    <trkseg>
      <trkpt lat="41.40133441852173" lon="-81.74025627880701">
        <ele>266.5651227298</ele>
        <time>2026-03-29T13:26:02Z</time>
      </trkpt>
      <trkpt lat="41.40133468953307" lon="-81.74025806989911">
        <ele>266.5483913192</ele>
        <time>2026-03-29T13:26:10Z</time>
      </trkpt>
      <trkpt lat="41.40133213602671" lon="-81.74084976476533">
        <ele>266.2949508986</ele>
        <time>2026-03-29T13:26:56Z</time>
      </trkpt>
      <trkpt lat="41.40133113732980" lon="-81.74145364103020">
        <ele>265.7578111815</ele>
        <time>2026-03-29T13:27:29Z</time>
      </trkpt>
      <trkpt lat="41.40132751466779" lon="-81.74205989075163">
        <ele>265.2464069283</ele>
        <time>2026-03-29T13:28:07Z</time>
      </trkpt>
      <trkpt lat="41.40131998801208" lon="-81.74237834206771">
        <ele>264.6194042863</ele>
        <time>2026-03-29T13:28:35Z</time>
      </trkpt>
      <trkpt lat="41.40132433049128" lon="-81.74237818439978">
        <ele>264.6130423846</ele>
        <time>2026-03-29T13:28:36Z</time>
      </trkpt>
      <trkpt lat="41.40090021593868" lon="-81.74217857036072">
        <ele>265.3197531513</ele>
        <time>2026-03-29T13:29:16Z</time>
      </trkpt>
      <trkpt lat="41.40047845686244" lon="-81.74199423369987">
        <ele>265.2419912811</ele>
        <time>2026-03-29T13:30:00Z</time>
      </trkpt>
      <trkpt lat="41.40004736089227" lon="-81.74180270737531">
        <ele>265.4745036083</ele>
        <time>2026-03-29T13:31:03Z</time>
      </trkpt>
      <trkpt lat="41.39961731860455" lon="-81.74160938121506">
        <ele>264.6037245000</ele>
        <time>2026-03-29T13:31:45Z</time>
      </trkpt>
      <trkpt lat="41.39954810386330" lon="-81.74157605535213">
        <ele>264.7616944669</ele>
        <time>2026-03-29T13:31:51Z</time>
      </trkpt>
      <trkpt lat="41.39954410307419" lon="-81.74097436397615">
        <ele>265.8826519481</ele>
        <time>2026-03-29T13:32:35Z</time>
      </trkpt>
      <trkpt lat="41.39953279751158" lon="-81.74038019332933">
        <ele>266.0694420377</ele>
        <time>2026-03-29T13:33:24Z</time>
      </trkpt>
      <trkpt lat="41.39954387576628" lon="-81.73976562895176">
        <ele>266.4766362460</ele>
        <time>2026-03-29T13:33:57Z</time>
      </trkpt>
      <trkpt lat="41.39954334522175" lon="-81.73917864022924">
        <ele>266.6491270906</ele>
        <time>2026-03-29T13:34:50Z</time>
      </trkpt>
      <trkpt lat="41.39953332906806" lon="-81.73858324045470">
        <ele>266.9455819355</ele>
        <time>2026-03-29T13:35:39Z</time>
      </trkpt>
      <trkpt lat="41.39953790160061" lon="-81.73829425209229">
        <ele>266.9960123137</ele>
        <time>2026-03-29T13:36:01Z</time>
      </trkpt>
      <trkpt lat="41.39953112940766" lon="-81.73829032704764">
        <ele>266.7077599223</ele>
        <time>2026-03-29T13:36:02Z</time>
      </trkpt>
      <trkpt lat="41.39998764316924" lon="-81.73829811190359">
        <ele>266.9621803975</ele>
        <time>2026-03-29T13:36:37Z</time>
      </trkpt>
      <trkpt lat="41.40043615332588" lon="-81.73830131711593">
        <ele>267.3191044080</ele>
        <time>2026-03-29T13:37:31Z</time>
      </trkpt>
      <trkpt lat="41.40088220333006" lon="-81.73830048183616">
        <ele>267.4342021390</ele>
        <time>2026-03-29T13:38:05Z</time>
      </trkpt>
      <trkpt lat="41.40132107934699" lon="-81.73830033124271">
        <ele>267.5665934213</ele>
        <time>2026-03-29T13:38:48Z</time>
      </trkpt>
      <trkpt lat="41.40132862430708" lon="-81.73891724045859">
        <ele>267.3007538698</ele>
        <time>2026-03-29T13:39:26Z</time>
      </trkpt>
      <trkpt lat="41.40133440039776" lon="-81.73950750611462">
        <ele>267.2745565620</ele>
        <time>2026-03-29T13:40:22Z</time>
      </trkpt>
      <trkpt lat="41.40133942405532" lon="-81.74010604632007">
        <ele>266.4650794010</ele>
        <time>2026-03-29T13:41:20Z</time>
      </trkpt>
      <trkpt lat="41.40134415666042" lon="-81.74016262305706">
        <ele>266.6163322710</ele>
        <time>2026-03-29T13:41:25Z</time>
      </trkpt>
    </trkseg>
  </trk>
</gpx>