<?xml version='1.0' encoding='UTF-8'?>
<gpx xmlns="http://www.topografix.com/GPX/1/1" creator="https://gpx.studio" version="1.1">
  <metadata>
    <name>Dog Walk - 2026-06-04 #3</name>
  </metadata>
  <trk>
    <name>Dog Walk - 2026-06-04 #3</name>
    <type>dog walk</type>
    <trkseg>
      <trkpt lat="41.40133963062808" lon="-81.74023807732178">
        <ele>266.4267400606</ele>
        <time>2026-06-04T17:01:27Z</time>
      </trkpt>
      <trkpt lat="41.40134826026120" lon="-81.74083908614386">
        <ele>266.3138273919</ele>
        <time>2026-06-04T17:02:05Z</time>
      </trkpt>
      <trkpt lat="41.40134874010794" lon="-81.74142864419275">
        <ele>265.7009550328</ele>
        <time>2026-06-04T17:02:41Z</time>
      </trkpt>
      <trkpt lat="41.40135451926386" lon="-81.74203814072351">
        <ele>265.3925740227</ele>
        <time>2026-06-04T17:03:25Z</time>
      </trkpt>
      <trkpt lat="41.40135081837601" lon="-81.74241676603904">
        <ele>264.8640148289</ele>
        <time>2026-06-04T17:03:56Z</time>
      </trkpt>
      <trkpt lat="41.40176840231639" lon="-81.74264230414323">
        <ele>264.3690050181</ele>
        <time>2026-06-04T17:05:11Z</time>
      </trkpt>
      <trkpt lat="41.40219126769423" lon="-81.74285565476957">
        <ele>263.5341606225</ele>
        <time>2026-06-04T17:05:45Z</time>
      </trkpt>
      <trkpt lat="41.40221267244263" lon="-81.74286285928451">
        <ele>263.2184820016</ele>
        <time>2026-06-04T17:05:47Z</time>
      </trkpt>
      <trkpt lat="41.40221557899174" lon="-81.74228109253875">
        <ele>264.1676393585</ele>
        <time>2026-06-04T17:06:35Z</time>
      </trkpt>
      <trkpt lat="41.40221162965889" lon="-81.74166140591915">
        <ele>264.5738531402</ele>
        <time>2026-06-04T17:07:16Z</time>
      </trkpt>
      <trkpt lat="41.40220721035116" lon="-81.74106801056894">
        <ele>265.5962482804</ele>
        <time>2026-06-04T17:08:07Z</time>
      </trkpt>
      <trkpt lat="41.40221806861635" lon="-81.74047199665684">
        <ele>265.9895449468</ele>
        <time>2026-06-04T17:08:42Z</time>
      </trkpt>
      <trkpt lat="41.40221971163351" lon="-81.73986337860228">
        <ele>266.5028088344</ele>
        <time>2026-06-04T17:09:29Z</time>
      </trkpt>
      <trkpt lat="41.40222495023389" lon="-81.73927321850374">
        <ele>266.8448583753</ele>
        <time>2026-06-04T17:10:32Z</time>
      </trkpt>
      <trkpt lat="41.40222315135987" lon="-81.73867728567990">
        <ele>267.2772839411</ele>
        <time>2026-06-04T17:11:10Z</time>
      </trkpt>
      <trkpt lat="41.40221154928933" lon="-81.73826205553831">
        <ele>267.2709801476</ele>
        <time>2026-06-04T17:11:35Z</time>
      </trkpt>
      <trkpt lat="41.40176674111508" lon="-81.73827266191330">
        <ele>267.9930293126</ele>
        <time>2026-06-04T17:12:20Z</time>
      </trkpt>
      <trkpt lat="41.40134775873162" lon="-81.73825822727750">
        <ele>267.4698875532</ele>
        <time>2026-06-04T17:12:55Z</time>
      </trkpt>
      <trkpt lat="41.40133435178357" lon="-81.73886681170552">
        <ele>267.4473805669</ele>
        <time>2026-06-04T17:13:37Z</time>
      </trkpt>
      <trkpt lat="41.40134956928669" lon="-81.73945780108697">
        <ele>267.1716008021</ele>
        <time>2026-06-04T17:14:18Z</time>
      </trkpt>
      <trkpt lat="41.40133741691655" lon="-81.74004953001634">
        <ele>266.5076913854</ele>
        <time>2026-06-04T17:14:52Z</time>
      </trkpt>
      <trkpt lat="41.40134372146971" lon="-81.74020061365350">
        <ele>266.6086023840</ele>
        <time>2026-06-04T17:15:00Z</time>
      </trkpt>
    </trkseg>
  </trk>
</gpx>