<?xml version='1.0' encoding='UTF-8'?>
<gpx xmlns="http://www.topografix.com/GPX/1/1" creator="https://gpx.studio" version="1.1">
  <metadata>
    <name>Dog Walk - 2026-06-02 #2</name>
  </metadata>
  <trk>
    <name>Dog Walk - 2026-06-02 #2</name>
    <type>dog walk</type>
    <trkseg>
      <trkpt lat="41.40134374238949" lon="-81.74022933157099">
        <ele>266.5306042078</ele>
        <time>2026-06-02T15:39:54Z</time>
      </trkpt>
      <trkpt lat="41.40133664237812" lon="-81.74081978677643">
        <ele>266.2920931168</ele>
        <time>2026-06-02T15:40:37Z</time>
      </trkpt>
      <trkpt lat="41.40132577510228" lon="-81.74143870031453">
        <ele>265.6766589712</ele>
        <time>2026-06-02T15:41:14Z</time>
      </trkpt>
      <trkpt lat="41.40133350302058" lon="-81.74202134098772">
        <ele>265.4025737916</ele>
        <time>2026-06-02T15:42:14Z</time>
      </trkpt>
      <trkpt lat="41.40133959253452" lon="-81.74239783706358">
        <ele>264.7030443672</ele>
        <time>2026-06-02T15:42:34Z</time>
      </trkpt>
      <trkpt lat="41.40090921320740" lon="-81.74218821576613">
        <ele>265.3047301500</ele>
        <time>2026-06-02T15:43:23Z</time>
      </trkpt>
      <trkpt lat="41.40049666382605" lon="-81.74198037582919">
        <ele>265.2479482565</ele>
        <time>2026-06-02T15:44:11Z</time>
      </trkpt>
      <trkpt lat="41.40045510292646" lon="-81.74195427061143">
        <ele>265.0729284879</ele>
        <time>2026-06-02T15:44:15Z</time>
      </trkpt>
      <trkpt lat="41.40045442850695" lon="-81.74134290186356">
        <ele>265.9857989769</ele>
        <time>2026-06-02T15:45:08Z</time>
      </trkpt>
      <trkpt lat="41.40044278368021" lon="-81.74075687759711">
        <ele>266.4506607241</ele>
        <time>2026-06-02T15:45:43Z</time>
      </trkpt>
      <trkpt lat="41.40043480932826" lon="-81.74014858517182">
        <ele>266.6531198905</ele>
        <time>2026-06-02T15:46:25Z</time>
      </trkpt>
      <trkpt lat="41.40043472137950" lon="-81.73955390529301">
        <ele>266.8799384285</ele>
        <time>2026-06-02T15:47:04Z</time>
      </trkpt>
      <trkpt lat="41.40042955124649" lon="-81.73894605655913">
        <ele>266.9893005670</ele>
        <time>2026-06-02T15:47:41Z</time>
      </trkpt>
      <trkpt lat="41.40042465692834" lon="-81.73834890049432">
        <ele>267.3697804404</ele>
        <time>2026-06-02T15:48:20Z</time>
      </trkpt>
      <trkpt lat="41.40041715733557" lon="-81.73775178450940">
        <ele>267.7369693375</ele>
        <time>2026-06-02T15:48:59Z</time>
      </trkpt>
      <trkpt lat="41.40041099020083" lon="-81.73715472644434">
        <ele>268.2594314740</ele>
        <time>2026-06-02T15:49:38Z</time>
      </trkpt>
      <trkpt lat="41.40040451230237" lon="-81.73655777235109">
        <ele>268.0783605367</ele>
        <time>2026-06-02T15:50:32Z</time>
      </trkpt>
      <trkpt lat="41.40040315239622" lon="-81.73594883500895">
        <ele>268.1075154804</ele>
        <time>2026-06-02T15:51:16Z</time>
      </trkpt>
      <trkpt lat="41.40040195626900" lon="-81.73535184087717">
        <ele>267.8727796459</ele>
        <time>2026-06-02T15:51:54Z</time>
      </trkpt>
      <trkpt lat="41.40039970249602" lon="-81.73475242646953">
        <ele>267.4397272644</ele>
        <time>2026-06-02T15:52:47Z</time>
      </trkpt>
      <trkpt lat="41.40038478589686" lon="-81.73462808560649">
        <ele>267.4329099159</ele>
        <time>2026-06-02T15:52:56Z</time>
      </trkpt>
      <trkpt lat="41.40084061405489" lon="-81.73462880634774">
        <ele>267.4034939460</ele>
        <time>2026-06-02T15:53:35Z</time>
      </trkpt>
      <trkpt lat="41.40129236986481" lon="-81.73463723876283">
        <ele>267.0743337749</ele>
        <time>2026-06-02T15:54:13Z</time>
      </trkpt>
      <trkpt lat="41.40131509549946" lon="-81.73463977509556">
        <ele>267.4222367336</ele>
        <time>2026-06-02T15:54:15Z</time>
      </trkpt>
      <trkpt lat="41.40132785995217" lon="-81.73523345118831">
        <ele>267.7284196106</ele>
        <time>2026-06-02T15:55:07Z</time>
      </trkpt>
      <trkpt lat="41.40132793027793" lon="-81.73583216080362">
        <ele>268.2280621788</ele>
        <time>2026-06-02T15:55:41Z</time>
      </trkpt>
      <trkpt lat="41.40133158962622" lon="-81.73643109250128">
        <ele>268.1529797485</ele>
        <time>2026-06-02T15:56:16Z</time>
      </trkpt>
      <trkpt lat="41.40133120855566" lon="-81.73702566420829">
        <ele>267.8690873338</ele>
        <time>2026-06-02T15:56:59Z</time>
      </trkpt>
      <trkpt lat="41.40133164851463" lon="-81.73762857414604">
        <ele>267.9364265683</ele>
        <time>2026-06-02T15:57:53Z</time>
      </trkpt>
      <trkpt lat="41.40133094597250" lon="-81.73822895418589">
        <ele>267.8031437471</ele>
        <time>2026-06-02T15:58:38Z</time>
      </trkpt>
      <trkpt lat="41.40133633958459" lon="-81.73883291151759">
        <ele>267.3841433092</ele>
        <time>2026-06-02T15:59:13Z</time>
      </trkpt>
      <trkpt lat="41.40133376149937" lon="-81.73943868344463">
        <ele>267.0247386173</ele>
        <time>2026-06-02T15:59:53Z</time>
      </trkpt>
      <trkpt lat="41.40134756854621" lon="-81.74002659972935">
        <ele>266.7508186420</ele>
        <time>2026-06-02T16:00:24Z</time>
      </trkpt>
      <trkpt lat="41.40135020856017" lon="-81.74019908592688">
        <ele>266.7521562818</ele>
        <time>2026-06-02T16:00:34Z</time>
      </trkpt>
    </trkseg>
  </trk>
</gpx>