<?xml version='1.0' encoding='UTF-8'?>
<gpx xmlns="http://www.topografix.com/GPX/1/1" creator="https://gpx.studio" version="1.1">
  <metadata>
    <name>Dog Walk - 2026-08-14 #4</name>
  </metadata>
  <trk>
    <name>Dog Walk - 2026-08-14 #4</name>
    <type>dog walk</type>
    <trkseg>
      <trkpt lat="41.40133783220067" lon="-81.74023622259809">
        <ele>266.6776911772</ele>
        <time>2026-08-14T16:41:56Z</time>
      </trkpt>
      <trkpt lat="41.40133873526207" lon="-81.74083115508380">
        <ele>266.4552342915</ele>
        <time>2026-08-14T16:42:40Z</time>
      </trkpt>
      <trkpt lat="41.40134889680017" lon="-81.74143395350167">
        <ele>265.6954053820</ele>
        <time>2026-08-14T16:43:18Z</time>
      </trkpt>
      <trkpt lat="41.40135020237581" lon="-81.74203336110406">
        <ele>265.3827458631</ele>
        <time>2026-08-14T16:44:05Z</time>
      </trkpt>
      <trkpt lat="41.40135141335958" lon="-81.74241173296974">
        <ele>264.5679023133</ele>
        <time>2026-08-14T16:44:35Z</time>
      </trkpt>
      <trkpt lat="41.40177329803310" lon="-81.74261125768692">
        <ele>264.1658877156</ele>
        <time>2026-08-14T16:45:14Z</time>
      </trkpt>
      <trkpt lat="41.40219703031897" lon="-81.74281791509678">
        <ele>263.6166425977</ele>
        <time>2026-08-14T16:46:02Z</time>
      </trkpt>
      <trkpt lat="41.40262245489935" lon="-81.74301823664267">
        <ele>263.0979694921</ele>
        <time>2026-08-14T16:46:46Z</time>
      </trkpt>
      <trkpt lat="41.40304423978165" lon="-81.74321529915447">
        <ele>262.5998575578</ele>
        <time>2026-08-14T16:47:30Z</time>
      </trkpt>
      <trkpt lat="41.40311726029621" lon="-81.74324884000302">
        <ele>262.3797290888</ele>
        <time>2026-08-14T16:47:36Z</time>
      </trkpt>
      <trkpt lat="41.40311247822078" lon="-81.74264693697079">
        <ele>263.0287242773</ele>
        <time>2026-08-14T16:48:07Z</time>
      </trkpt>
      <trkpt lat="41.40311277966934" lon="-81.74205480847442">
        <ele>263.7390778250</ele>
        <time>2026-08-14T16:48:45Z</time>
      </trkpt>
      <trkpt lat="41.40311033637282" lon="-81.74145895011095">
        <ele>264.1441854206</ele>
        <time>2026-08-14T16:49:21Z</time>
      </trkpt>
      <trkpt lat="41.40311207560516" lon="-81.74085627726801">
        <ele>264.9797975133</ele>
        <time>2026-08-14T16:50:01Z</time>
      </trkpt>
      <trkpt lat="41.40309858322414" lon="-81.74025365511459">
        <ele>265.4214148267</ele>
        <time>2026-08-14T16:50:38Z</time>
      </trkpt>
      <trkpt lat="41.40309975760781" lon="-81.73965385083592">
        <ele>265.9664381665</ele>
        <time>2026-08-14T16:51:39Z</time>
      </trkpt>
      <trkpt lat="41.40310271170509" lon="-81.73905079814915">
        <ele>266.1346850587</ele>
        <time>2026-08-14T16:52:20Z</time>
      </trkpt>
      <trkpt lat="41.40310117789710" lon="-81.73878640276581">
        <ele>266.2450019681</ele>
        <time>2026-08-14T16:52:37Z</time>
      </trkpt>
      <trkpt lat="41.40265325937094" lon="-81.73878383845977">
        <ele>266.5468494333</ele>
        <time>2026-08-14T16:53:30Z</time>
      </trkpt>
      <trkpt lat="41.40223097631097" lon="-81.73878006075064">
        <ele>267.3346439154</ele>
        <time>2026-08-14T16:54:06Z</time>
      </trkpt>
      <trkpt lat="41.40222907459010" lon="-81.73818617399495">
        <ele>267.1416773318</ele>
        <time>2026-08-14T16:54:45Z</time>
      </trkpt>
      <trkpt lat="41.40223077891458" lon="-81.73758097710751">
        <ele>267.0886565736</ele>
        <time>2026-08-14T16:55:33Z</time>
      </trkpt>
      <trkpt lat="41.40222845566003" lon="-81.73698506085037">
        <ele>267.2480464998</ele>
        <time>2026-08-14T16:56:07Z</time>
      </trkpt>
      <trkpt lat="41.40222937608824" lon="-81.73637395146928">
        <ele>267.2527018555</ele>
        <time>2026-08-14T16:56:52Z</time>
      </trkpt>
      <trkpt lat="41.40222046421809" lon="-81.73578403431988">
        <ele>267.1940558072</ele>
        <time>2026-08-14T16:57:44Z</time>
      </trkpt>
      <trkpt lat="41.40222545551406" lon="-81.73518054533805">
        <ele>267.1063217689</ele>
        <time>2026-08-14T16:58:25Z</time>
      </trkpt>
      <trkpt lat="41.40221745908222" lon="-81.73464588074589">
        <ele>266.9052356713</ele>
        <time>2026-08-14T16:59:11Z</time>
      </trkpt>
      <trkpt lat="41.40177283239496" lon="-81.73464435817864">
        <ele>267.2291225500</ele>
        <time>2026-08-14T16:59:50Z</time>
      </trkpt>
      <trkpt lat="41.40132952847598" lon="-81.73463874156528">
        <ele>267.1720983437</ele>
        <time>2026-08-14T17:00:21Z</time>
      </trkpt>
      <trkpt lat="41.40131685159921" lon="-81.73464458144868">
        <ele>267.3233958507</ele>
        <time>2026-08-14T17:00:22Z</time>
      </trkpt>
      <trkpt lat="41.40132457572369" lon="-81.73523979352180">
        <ele>267.9426033733</ele>
        <time>2026-08-14T17:00:56Z</time>
      </trkpt>
      <trkpt lat="41.40131939132930" lon="-81.73583149504518">
        <ele>268.1783784815</ele>
        <time>2026-08-14T17:01:29Z</time>
      </trkpt>
      <trkpt lat="41.40132114217187" lon="-81.73643244399221">
        <ele>268.0403687478</ele>
        <time>2026-08-14T17:02:09Z</time>
      </trkpt>
      <trkpt lat="41.40132504266889" lon="-81.73703459481229">
        <ele>268.2719748307</ele>
        <time>2026-08-14T17:02:42Z</time>
      </trkpt>
      <trkpt lat="41.40133007366310" lon="-81.73762697119690">
        <ele>267.8371639799</ele>
        <time>2026-08-14T17:03:26Z</time>
      </trkpt>
      <trkpt lat="41.40133821060428" lon="-81.73823834103723">
        <ele>267.6422481802</ele>
        <time>2026-08-14T17:04:17Z</time>
      </trkpt>
      <trkpt lat="41.40134529177019" lon="-81.73883270298452">
        <ele>267.2490993749</ele>
        <time>2026-08-14T17:05:02Z</time>
      </trkpt>
      <trkpt lat="41.40134214614113" lon="-81.73943483835498">
        <ele>267.1667234449</ele>
        <time>2026-08-14T17:05:49Z</time>
      </trkpt>
      <trkpt lat="41.40134613602161" lon="-81.74002649268787">
        <ele>266.6146272921</ele>
        <time>2026-08-14T17:06:27Z</time>
      </trkpt>
      <trkpt lat="41.40134785637451" lon="-81.74016011252577">
        <ele>266.6074803694</ele>
        <time>2026-08-14T17:06:39Z</time>
      </trkpt>
    </trkseg>
  </trk>
</gpx>