<?xml version='1.0' encoding='UTF-8'?>
<gpx xmlns="http://www.topografix.com/GPX/1/1" creator="https://gpx.studio" version="1.1">
  <metadata>
    <name>Dog Walk - 2026-08-02 #3</name>
  </metadata>
  <trk>
    <name>Dog Walk - 2026-08-02 #3</name>
    <type>dog walk</type>
    <trkseg>
      <trkpt lat="41.40133393589651" lon="-81.74023198506576">
        <ele>266.5664318077</ele>
        <time>2026-08-02T17:16:53Z</time>
      </trkpt>
      <trkpt lat="41.40133946646410" lon="-81.74082283278571">
        <ele>266.1663351183</ele>
        <time>2026-08-02T17:17:22Z</time>
      </trkpt>
      <trkpt lat="41.40134081377492" lon="-81.74143654821593">
        <ele>265.7158303101</ele>
        <time>2026-08-02T17:18:08Z</time>
      </trkpt>
      <trkpt lat="41.40135478293264" lon="-81.74204164798276">
        <ele>265.3763471385</ele>
        <time>2026-08-02T17:19:01Z</time>
      </trkpt>
      <trkpt lat="41.40134604965301" lon="-81.74240904031025">
        <ele>264.6747650019</ele>
        <time>2026-08-02T17:19:35Z</time>
      </trkpt>
      <trkpt lat="41.40177195400277" lon="-81.74261917883292">
        <ele>264.1379841943</ele>
        <time>2026-08-02T17:20:13Z</time>
      </trkpt>
      <trkpt lat="41.40218601711673" lon="-81.74284112782333">
        <ele>263.5951097116</ele>
        <time>2026-08-02T17:20:57Z</time>
      </trkpt>
      <trkpt lat="41.40261126654097" lon="-81.74305755068183">
        <ele>262.6808607786</ele>
        <time>2026-08-02T17:21:57Z</time>
      </trkpt>
      <trkpt lat="41.40303397196025" lon="-81.74326812430246">
        <ele>262.3654995096</ele>
        <time>2026-08-02T17:22:39Z</time>
      </trkpt>
      <trkpt lat="41.40346526625247" lon="-81.74347499848814">
        <ele>261.9113621549</ele>
        <time>2026-08-02T17:23:21Z</time>
      </trkpt>
      <trkpt lat="41.40348410914956" lon="-81.74349834451327">
        <ele>261.7310571205</ele>
        <time>2026-08-02T17:23:24Z</time>
      </trkpt>
      <trkpt lat="41.40358990407537" lon="-81.74352428995546">
        <ele>261.6226394699</ele>
        <time>2026-08-02T17:23:34Z</time>
      </trkpt>
      <trkpt lat="41.40399147353099" lon="-81.74350353207987">
        <ele>260.6726176004</ele>
        <time>2026-08-02T17:24:10Z</time>
      </trkpt>
      <trkpt lat="41.40399121093252" lon="-81.74290877932444">
        <ele>261.6866988629</ele>
        <time>2026-08-02T17:24:50Z</time>
      </trkpt>
      <trkpt lat="41.40399611006916" lon="-81.74230923704795">
        <ele>261.8931153684</ele>
        <time>2026-08-02T17:25:27Z</time>
      </trkpt>
      <trkpt lat="41.40399482865741" lon="-81.74170989642487">
        <ele>262.4798734214</ele>
        <time>2026-08-02T17:26:00Z</time>
      </trkpt>
      <trkpt lat="41.40398631973576" lon="-81.74111922831904">
        <ele>263.0133762260</ele>
        <time>2026-08-02T17:26:45Z</time>
      </trkpt>
      <trkpt lat="41.40398221616701" lon="-81.74050767970942">
        <ele>263.5484580453</ele>
        <time>2026-08-02T17:27:38Z</time>
      </trkpt>
      <trkpt lat="41.40398788640857" lon="-81.73990997358230">
        <ele>264.0423892829</ele>
        <time>2026-08-02T17:28:42Z</time>
      </trkpt>
      <trkpt lat="41.40398878847053" lon="-81.73932436932638">
        <ele>264.9262332813</ele>
        <time>2026-08-02T17:29:16Z</time>
      </trkpt>
      <trkpt lat="41.40399139245189" lon="-81.73878513626487">
        <ele>265.3429357763</ele>
        <time>2026-08-02T17:29:54Z</time>
      </trkpt>
      <trkpt lat="41.40353634520514" lon="-81.73878046606494">
        <ele>265.6926657178</ele>
        <time>2026-08-02T17:30:34Z</time>
      </trkpt>
      <trkpt lat="41.40308375649963" lon="-81.73878849555504">
        <ele>266.2266850633</ele>
        <time>2026-08-02T17:31:20Z</time>
      </trkpt>
      <trkpt lat="41.40264362106118" lon="-81.73877246175927">
        <ele>266.6671457594</ele>
        <time>2026-08-02T17:31:49Z</time>
      </trkpt>
      <trkpt lat="41.40222734442054" lon="-81.73877770031913">
        <ele>267.1073413512</ele>
        <time>2026-08-02T17:32:31Z</time>
      </trkpt>
      <trkpt lat="41.40221286370857" lon="-81.73827251756369">
        <ele>267.0456505291</ele>
        <time>2026-08-02T17:33:30Z</time>
      </trkpt>
      <trkpt lat="41.40176049778037" lon="-81.73826791453229">
        <ele>268.0236759669</ele>
        <time>2026-08-02T17:34:16Z</time>
      </trkpt>
      <trkpt lat="41.40133642884982" lon="-81.73826113253389">
        <ele>267.3681342237</ele>
        <time>2026-08-02T17:35:06Z</time>
      </trkpt>
      <trkpt lat="41.40133941126576" lon="-81.73886346590119">
        <ele>267.4562616788</ele>
        <time>2026-08-02T17:35:44Z</time>
      </trkpt>
      <trkpt lat="41.40133297866157" lon="-81.73946351066903">
        <ele>267.3293023217</ele>
        <time>2026-08-02T17:36:30Z</time>
      </trkpt>
      <trkpt lat="41.40134734589789" lon="-81.74006599498094">
        <ele>266.3919006509</ele>
        <time>2026-08-02T17:37:25Z</time>
      </trkpt>
      <trkpt lat="41.40133542772253" lon="-81.74021051983435">
        <ele>266.5323412995</ele>
        <time>2026-08-02T17:37:34Z</time>
      </trkpt>
    </trkseg>
  </trk>
</gpx>