<?xml version='1.0' encoding='UTF-8'?>
<gpx xmlns="http://www.topografix.com/GPX/1/1" creator="https://gpx.studio" version="1.1">
  <metadata>
    <name>Dog Walk - 2026-04-15 #4</name>
  </metadata>
  <trk>
    <name>Dog Walk - 2026-04-15 #4</name>
    <type>dog walk</type>
    <trkseg>
      <trkpt lat="41.40132755576389" lon="-81.74024257494287">
        <ele>266.8046843387</ele>
        <time>2026-04-15T19:56:37Z</time>
      </trkpt>
      <trkpt lat="41.40132532221031" lon="-81.74084132014718">
        <ele>266.2085027296</ele>
        <time>2026-04-15T19:57:15Z</time>
      </trkpt>
      <trkpt lat="41.40133346850579" lon="-81.74143827132053">
        <ele>265.9929711299</ele>
        <time>2026-04-15T19:58:07Z</time>
      </trkpt>
      <trkpt lat="41.40132312972528" lon="-81.74202842215324">
        <ele>265.3527508119</ele>
        <time>2026-04-15T19:58:48Z</time>
      </trkpt>
      <trkpt lat="41.40132790029298" lon="-81.74238808452944">
        <ele>265.0374872114</ele>
        <time>2026-04-15T19:59:17Z</time>
      </trkpt>
      <trkpt lat="41.40089938929875" lon="-81.74219213919774">
        <ele>265.2411323678</ele>
        <time>2026-04-15T20:00:01Z</time>
      </trkpt>
      <trkpt lat="41.40048709838082" lon="-81.74199968778053">
        <ele>265.2670979309</ele>
        <time>2026-04-15T20:00:41Z</time>
      </trkpt>
      <trkpt lat="41.40004590589147" lon="-81.74180514998343">
        <ele>265.2506164644</ele>
        <time>2026-04-15T20:01:25Z</time>
      </trkpt>
      <trkpt lat="41.39962224424098" lon="-81.74162384600724">
        <ele>264.6768254827</ele>
        <time>2026-04-15T20:02:09Z</time>
      </trkpt>
      <trkpt lat="41.39953596734289" lon="-81.74157716696352">
        <ele>264.8624549545</ele>
        <time>2026-04-15T20:02:17Z</time>
      </trkpt>
      <trkpt lat="41.39953273508930" lon="-81.74097494620084">
        <ele>265.7449282292</ele>
        <time>2026-04-15T20:03:00Z</time>
      </trkpt>
      <trkpt lat="41.39953038753770" lon="-81.74036991834642">
        <ele>266.2649373804</ele>
        <time>2026-04-15T20:03:56Z</time>
      </trkpt>
      <trkpt lat="41.39952558065161" lon="-81.73977742927268">
        <ele>266.4806377200</ele>
        <time>2026-04-15T20:04:30Z</time>
      </trkpt>
      <trkpt lat="41.39953471278537" lon="-81.73917918854038">
        <ele>266.9752062115</ele>
        <time>2026-04-15T20:05:09Z</time>
      </trkpt>
      <trkpt lat="41.39953083787967" lon="-81.73858307438233">
        <ele>267.0493200687</ele>
        <time>2026-04-15T20:05:53Z</time>
      </trkpt>
      <trkpt lat="41.39952996077809" lon="-81.73797522999992">
        <ele>266.9043404681</ele>
        <time>2026-04-15T20:06:49Z</time>
      </trkpt>
      <trkpt lat="41.39952046659348" lon="-81.73737553401229">
        <ele>267.2003136766</ele>
        <time>2026-04-15T20:07:44Z</time>
      </trkpt>
      <trkpt lat="41.39953390001124" lon="-81.73677455252314">
        <ele>267.3372137173</ele>
        <time>2026-04-15T20:08:31Z</time>
      </trkpt>
      <trkpt lat="41.39952807236048" lon="-81.73617078497544">
        <ele>267.3777740368</ele>
        <time>2026-04-15T20:09:33Z</time>
      </trkpt>
      <trkpt lat="41.39952969301689" lon="-81.73557538518352">
        <ele>267.3416868243</ele>
        <time>2026-04-15T20:10:08Z</time>
      </trkpt>
      <trkpt lat="41.39952610114644" lon="-81.73497994262505">
        <ele>266.8229406404</ele>
        <time>2026-04-15T20:10:50Z</time>
      </trkpt>
      <trkpt lat="41.39952697122577" lon="-81.73462616415877">
        <ele>267.2964459468</ele>
        <time>2026-04-15T20:11:08Z</time>
      </trkpt>
      <trkpt lat="41.39997220639458" lon="-81.73462524992404">
        <ele>267.2822015182</ele>
        <time>2026-04-15T20:11:45Z</time>
      </trkpt>
      <trkpt lat="41.40042964715948" lon="-81.73463786867684">
        <ele>267.4150986199</ele>
        <time>2026-04-15T20:12:24Z</time>
      </trkpt>
      <trkpt lat="41.40087601423458" lon="-81.73463097980695">
        <ele>267.2349749022</ele>
        <time>2026-04-15T20:12:58Z</time>
      </trkpt>
      <trkpt lat="41.40132201124638" lon="-81.73464354662136">
        <ele>267.2120698464</ele>
        <time>2026-04-15T20:13:40Z</time>
      </trkpt>
      <trkpt lat="41.40132564365430" lon="-81.73524906258753">
        <ele>267.9938429815</ele>
        <time>2026-04-15T20:14:16Z</time>
      </trkpt>
      <trkpt lat="41.40131583319624" lon="-81.73583870726830">
        <ele>268.4369695056</ele>
        <time>2026-04-15T20:14:51Z</time>
      </trkpt>
      <trkpt lat="41.40132078901230" lon="-81.73643529436924">
        <ele>268.0700623206</ele>
        <time>2026-04-15T20:15:30Z</time>
      </trkpt>
      <trkpt lat="41.40132963694974" lon="-81.73704175689353">
        <ele>268.2467219194</ele>
        <time>2026-04-15T20:16:10Z</time>
      </trkpt>
      <trkpt lat="41.40132405027513" lon="-81.73763428136742">
        <ele>268.1073931782</ele>
        <time>2026-04-15T20:16:52Z</time>
      </trkpt>
      <trkpt lat="41.40133185010851" lon="-81.73823922806666">
        <ele>267.5253364878</ele>
        <time>2026-04-15T20:17:28Z</time>
      </trkpt>
      <trkpt lat="41.40132335048482" lon="-81.73883424427028">
        <ele>267.1742621577</ele>
        <time>2026-04-15T20:18:08Z</time>
      </trkpt>
      <trkpt lat="41.40132584429907" lon="-81.73943239762589">
        <ele>267.3582028629</ele>
        <time>2026-04-15T20:18:48Z</time>
      </trkpt>
      <trkpt lat="41.40133436122663" lon="-81.74002918484943">
        <ele>266.5984217458</ele>
        <time>2026-04-15T20:19:19Z</time>
      </trkpt>
      <trkpt lat="41.40132187004482" lon="-81.74022026324904">
        <ele>266.3925957092</ele>
        <time>2026-04-15T20:19:29Z</time>
      </trkpt>
    </trkseg>
  </trk>
</gpx>