<?xml version='1.0' encoding='UTF-8'?>
<gpx xmlns="http://www.topografix.com/GPX/1/1" creator="https://gpx.studio" version="1.1">
  <metadata>
    <name>Dog Walk - 2026-02-28 #5</name>
  </metadata>
  <trk>
    <name>Dog Walk - 2026-02-28 #5</name>
    <type>dog walk</type>
    <trkseg>
      <trkpt lat="41.40133173144524" lon="-81.74025640523075">
        <ele>266.5863007347</ele>
        <time>2026-02-28T19:44:44Z</time>
      </trkpt>
      <trkpt lat="41.40133005015969" lon="-81.74026960192697">
        <ele>266.5795367069</ele>
        <time>2026-02-28T19:44:50Z</time>
      </trkpt>
      <trkpt lat="41.40132684990110" lon="-81.74085851064783">
        <ele>266.0834339932</ele>
        <time>2026-02-28T19:45:23Z</time>
      </trkpt>
      <trkpt lat="41.40133167631254" lon="-81.74145123028053">
        <ele>265.7715190378</ele>
        <time>2026-02-28T19:46:03Z</time>
      </trkpt>
      <trkpt lat="41.40132255646760" lon="-81.74205748004970">
        <ele>265.4340205598</ele>
        <time>2026-02-28T19:46:48Z</time>
      </trkpt>
      <trkpt lat="41.40133405108669" lon="-81.74237448625419">
        <ele>264.9078871963</ele>
        <time>2026-02-28T19:47:06Z</time>
      </trkpt>
      <trkpt lat="41.40132765215921" lon="-81.74238209138950">
        <ele>264.7937765896</ele>
        <time>2026-02-28T19:47:07Z</time>
      </trkpt>
      <trkpt lat="41.40089676795996" lon="-81.74218347904231">
        <ele>265.3629016518</ele>
        <time>2026-02-28T19:47:51Z</time>
      </trkpt>
      <trkpt lat="41.40047683332573" lon="-81.74198730344290">
        <ele>265.0442453200</ele>
        <time>2026-02-28T19:48:33Z</time>
      </trkpt>
      <trkpt lat="41.40004615144056" lon="-81.74180678421369">
        <ele>265.3985308746</ele>
        <time>2026-02-28T19:49:15Z</time>
      </trkpt>
      <trkpt lat="41.39962357615411" lon="-81.74161636692905">
        <ele>264.7144703410</ele>
        <time>2026-02-28T19:49:44Z</time>
      </trkpt>
      <trkpt lat="41.39954686670713" lon="-81.74158155161214">
        <ele>264.8113219482</ele>
        <time>2026-02-28T19:49:51Z</time>
      </trkpt>
      <trkpt lat="41.39954002447686" lon="-81.74097778851456">
        <ele>265.9813304929</ele>
        <time>2026-02-28T19:50:31Z</time>
      </trkpt>
      <trkpt lat="41.39953756990057" lon="-81.74037238150554">
        <ele>266.1737112257</ele>
        <time>2026-02-28T19:51:08Z</time>
      </trkpt>
      <trkpt lat="41.39952974622501" lon="-81.73977167669571">
        <ele>266.6090915271</ele>
        <time>2026-02-28T19:51:57Z</time>
      </trkpt>
      <trkpt lat="41.39953986601005" lon="-81.73917443641810">
        <ele>266.7505810273</ele>
        <time>2026-02-28T19:52:41Z</time>
      </trkpt>
      <trkpt lat="41.39954017960667" lon="-81.73856595393475">
        <ele>266.7454645724</ele>
        <time>2026-02-28T19:53:21Z</time>
      </trkpt>
      <trkpt lat="41.39952633375995" lon="-81.73828933696770">
        <ele>267.0303826522</ele>
        <time>2026-02-28T19:53:45Z</time>
      </trkpt>
      <trkpt lat="41.39953939910954" lon="-81.73830345369248">
        <ele>266.8712360652</ele>
        <time>2026-02-28T19:53:47Z</time>
      </trkpt>
      <trkpt lat="41.39999302471806" lon="-81.73829418517407">
        <ele>267.1963490272</ele>
        <time>2026-02-28T19:54:50Z</time>
      </trkpt>
      <trkpt lat="41.40043990685233" lon="-81.73830146064175">
        <ele>267.1874491304</ele>
        <time>2026-02-28T19:55:40Z</time>
      </trkpt>
      <trkpt lat="41.40087846076853" lon="-81.73830365163734">
        <ele>267.6467409787</ele>
        <time>2026-02-28T19:56:08Z</time>
      </trkpt>
      <trkpt lat="41.40132168854648" lon="-81.73831627755388">
        <ele>267.1332980117</ele>
        <time>2026-02-28T19:56:38Z</time>
      </trkpt>
      <trkpt lat="41.40132030722700" lon="-81.73889934464457">
        <ele>267.3115344523</ele>
        <time>2026-02-28T19:57:20Z</time>
      </trkpt>
      <trkpt lat="41.40133957184320" lon="-81.73950440191298">
        <ele>266.9540326965</ele>
        <time>2026-02-28T19:58:02Z</time>
      </trkpt>
      <trkpt lat="41.40133349879737" lon="-81.74011220014893">
        <ele>266.6344146830</ele>
        <time>2026-02-28T19:58:52Z</time>
      </trkpt>
      <trkpt lat="41.40134202882378" lon="-81.74016309971259">
        <ele>266.5594531308</ele>
        <time>2026-02-28T19:58:57Z</time>
      </trkpt>
    </trkseg>
  </trk>
</gpx>