<?xml version='1.0' encoding='UTF-8'?>
<gpx xmlns="http://www.topografix.com/GPX/1/1" creator="https://gpx.studio" version="1.1">
  <metadata>
    <name>Dog Walk - 2026-02-25 #2</name>
  </metadata>
  <trk>
    <name>Dog Walk - 2026-02-25 #2</name>
    <type>dog walk</type>
    <trkseg>
      <trkpt lat="41.40133774720004" lon="-81.74022960165570">
        <ele>266.6898610870</ele>
        <time>2026-02-25T12:54:59Z</time>
      </trkpt>
      <trkpt lat="41.40133661607395" lon="-81.74082287984105">
        <ele>266.0960249140</ele>
        <time>2026-02-25T12:55:37Z</time>
      </trkpt>
      <trkpt lat="41.40134289592338" lon="-81.74144337880158">
        <ele>265.6091047662</ele>
        <time>2026-02-25T12:56:15Z</time>
      </trkpt>
      <trkpt lat="41.40134801239171" lon="-81.74204065898934">
        <ele>265.4057340316</ele>
        <time>2026-02-25T12:56:52Z</time>
      </trkpt>
      <trkpt lat="41.40134938319493" lon="-81.74241788697950">
        <ele>264.6646594843</ele>
        <time>2026-02-25T12:57:40Z</time>
      </trkpt>
      <trkpt lat="41.40177763854453" lon="-81.74263435043335">
        <ele>264.2483787309</ele>
        <time>2026-02-25T12:58:38Z</time>
      </trkpt>
      <trkpt lat="41.40218952466338" lon="-81.74283327743005">
        <ele>263.4546474619</ele>
        <time>2026-02-25T12:59:11Z</time>
      </trkpt>
      <trkpt lat="41.40261036695013" lon="-81.74304657076381">
        <ele>262.9110903157</ele>
        <time>2026-02-25T12:59:54Z</time>
      </trkpt>
      <trkpt lat="41.40301711480900" lon="-81.74326271843908">
        <ele>262.4857735025</ele>
        <time>2026-02-25T13:00:28Z</time>
      </trkpt>
      <trkpt lat="41.40345693212657" lon="-81.74347826113595">
        <ele>261.9795226962</ele>
        <time>2026-02-25T13:01:07Z</time>
      </trkpt>
      <trkpt lat="41.40348672050205" lon="-81.74349847791414">
        <ele>261.9365439111</ele>
        <time>2026-02-25T13:01:10Z</time>
      </trkpt>
      <trkpt lat="41.40359051782116" lon="-81.74352339420098">
        <ele>261.6905757886</ele>
        <time>2026-02-25T13:01:19Z</time>
      </trkpt>
      <trkpt lat="41.40399011475994" lon="-81.74351663199401">
        <ele>260.6280197542</ele>
        <time>2026-02-25T13:01:51Z</time>
      </trkpt>
      <trkpt lat="41.40399080957707" lon="-81.74291216884384">
        <ele>261.6427444049</ele>
        <time>2026-02-25T13:02:39Z</time>
      </trkpt>
      <trkpt lat="41.40399784125331" lon="-81.74231893268117">
        <ele>261.8720122522</ele>
        <time>2026-02-25T13:03:23Z</time>
      </trkpt>
      <trkpt lat="41.40398474898804" lon="-81.74171233432355">
        <ele>262.6199256020</ele>
        <time>2026-02-25T13:04:20Z</time>
      </trkpt>
      <trkpt lat="41.40399500887297" lon="-81.74111768576471">
        <ele>262.9861829806</ele>
        <time>2026-02-25T13:04:58Z</time>
      </trkpt>
      <trkpt lat="41.40399077842628" lon="-81.74051449878330">
        <ele>263.4267982656</ele>
        <time>2026-02-25T13:05:34Z</time>
      </trkpt>
      <trkpt lat="41.40398703465321" lon="-81.73989838142361">
        <ele>264.1814152254</ele>
        <time>2026-02-25T13:06:05Z</time>
      </trkpt>
      <trkpt lat="41.40397977599204" lon="-81.73931097087640">
        <ele>265.0509378133</ele>
        <time>2026-02-25T13:06:40Z</time>
      </trkpt>
      <trkpt lat="41.40398572843954" lon="-81.73878028448762">
        <ele>265.3250204497</ele>
        <time>2026-02-25T13:07:22Z</time>
      </trkpt>
      <trkpt lat="41.40353669425565" lon="-81.73877070572875">
        <ele>266.0831431697</ele>
        <time>2026-02-25T13:08:01Z</time>
      </trkpt>
      <trkpt lat="41.40309122456947" lon="-81.73877363235181">
        <ele>266.2098661149</ele>
        <time>2026-02-25T13:08:38Z</time>
      </trkpt>
      <trkpt lat="41.40263441447961" lon="-81.73877409613485">
        <ele>266.6458540542</ele>
        <time>2026-02-25T13:09:13Z</time>
      </trkpt>
      <trkpt lat="41.40223994702379" lon="-81.73878528573088">
        <ele>267.0637778213</ele>
        <time>2026-02-25T13:10:12Z</time>
      </trkpt>
      <trkpt lat="41.40221544359633" lon="-81.73827237211756">
        <ele>267.1582043377</ele>
        <time>2026-02-25T13:10:52Z</time>
      </trkpt>
      <trkpt lat="41.40176466140068" lon="-81.73828096570936">
        <ele>267.5496793172</ele>
        <time>2026-02-25T13:11:24Z</time>
      </trkpt>
      <trkpt lat="41.40132913134532" lon="-81.73826121465363">
        <ele>267.5763712143</ele>
        <time>2026-02-25T13:11:55Z</time>
      </trkpt>
      <trkpt lat="41.40133775891236" lon="-81.73886579546328">
        <ele>267.3529396197</ele>
        <time>2026-02-25T13:12:32Z</time>
      </trkpt>
      <trkpt lat="41.40133548750121" lon="-81.73946404551684">
        <ele>267.2072581668</ele>
        <time>2026-02-25T13:13:08Z</time>
      </trkpt>
      <trkpt lat="41.40134876609898" lon="-81.74007011523827">
        <ele>266.7182311839</ele>
        <time>2026-02-25T13:13:39Z</time>
      </trkpt>
      <trkpt lat="41.40133313429360" lon="-81.74021111164319">
        <ele>266.4950231156</ele>
        <time>2026-02-25T13:13:50Z</time>
      </trkpt>
    </trkseg>
  </trk>
</gpx>