<?xml version='1.0' encoding='UTF-8'?>
<gpx xmlns="http://www.topografix.com/GPX/1/1" creator="https://gpx.studio" version="1.1">
  <metadata>
    <name>Dog Walk - 2026-07-29 #1</name>
  </metadata>
  <trk>
    <name>Dog Walk - 2026-07-29 #1</name>
    <type>dog walk</type>
    <trkseg>
      <trkpt lat="41.40133057827924" lon="-81.74023440710991">
        <ele>266.7341006581</ele>
        <time>2026-07-29T08:27:25Z</time>
      </trkpt>
      <trkpt lat="41.40133214383848" lon="-81.74082718524093">
        <ele>266.3723001085</ele>
        <time>2026-07-29T08:28:04Z</time>
      </trkpt>
      <trkpt lat="41.40133171357408" lon="-81.74143716844208">
        <ele>265.6570914945</ele>
        <time>2026-07-29T08:28:38Z</time>
      </trkpt>
      <trkpt lat="41.40132565378971" lon="-81.74204009749383">
        <ele>265.3506312476</ele>
        <time>2026-07-29T08:29:17Z</time>
      </trkpt>
      <trkpt lat="41.40132325460420" lon="-81.74239304430947">
        <ele>264.8575317461</ele>
        <time>2026-07-29T08:29:37Z</time>
      </trkpt>
      <trkpt lat="41.40089896659585" lon="-81.74219085571930">
        <ele>265.1760443917</ele>
        <time>2026-07-29T08:30:37Z</time>
      </trkpt>
      <trkpt lat="41.40047865838316" lon="-81.74199131750397">
        <ele>265.2754846150</ele>
        <time>2026-07-29T08:31:14Z</time>
      </trkpt>
      <trkpt lat="41.40005731895955" lon="-81.74181477598957">
        <ele>265.5110723287</ele>
        <time>2026-07-29T08:31:47Z</time>
      </trkpt>
      <trkpt lat="41.39963870084257" lon="-81.74161898206765">
        <ele>264.7672213863</ele>
        <time>2026-07-29T08:32:27Z</time>
      </trkpt>
      <trkpt lat="41.39953674397506" lon="-81.74156573822009">
        <ele>264.9346505729</ele>
        <time>2026-07-29T08:32:35Z</time>
      </trkpt>
      <trkpt lat="41.39953171977972" lon="-81.74097217882915">
        <ele>265.8391747629</ele>
        <time>2026-07-29T08:33:28Z</time>
      </trkpt>
      <trkpt lat="41.39953547177448" lon="-81.74037501873762">
        <ele>266.2500291262</ele>
        <time>2026-07-29T08:34:19Z</time>
      </trkpt>
      <trkpt lat="41.39953664434135" lon="-81.73977642546339">
        <ele>266.4745931649</ele>
        <time>2026-07-29T08:35:20Z</time>
      </trkpt>
      <trkpt lat="41.39953065191909" lon="-81.73917564630709">
        <ele>266.9946837462</ele>
        <time>2026-07-29T08:36:03Z</time>
      </trkpt>
      <trkpt lat="41.39952703652786" lon="-81.73857833494773">
        <ele>266.8681839907</ele>
        <time>2026-07-29T08:36:37Z</time>
      </trkpt>
      <trkpt lat="41.39952961315804" lon="-81.73796981952937">
        <ele>266.9894070901</ele>
        <time>2026-07-29T08:37:12Z</time>
      </trkpt>
      <trkpt lat="41.39952766419542" lon="-81.73737699067021">
        <ele>267.1760616797</ele>
        <time>2026-07-29T08:38:00Z</time>
      </trkpt>
      <trkpt lat="41.39952978266521" lon="-81.73677547833383">
        <ele>267.5236060222</ele>
        <time>2026-07-29T08:38:42Z</time>
      </trkpt>
      <trkpt lat="41.39952467943886" lon="-81.73618346188509">
        <ele>267.4352306601</ele>
        <time>2026-07-29T08:39:20Z</time>
      </trkpt>
      <trkpt lat="41.39952513994606" lon="-81.73558547645587">
        <ele>267.4194197362</ele>
        <time>2026-07-29T08:40:08Z</time>
      </trkpt>
      <trkpt lat="41.39952253368401" lon="-81.73496973278087">
        <ele>267.2974828152</ele>
        <time>2026-07-29T08:41:11Z</time>
      </trkpt>
      <trkpt lat="41.39952321522422" lon="-81.73462126397177">
        <ele>267.1621472624</ele>
        <time>2026-07-29T08:41:33Z</time>
      </trkpt>
      <trkpt lat="41.39997980640339" lon="-81.73461850043826">
        <ele>267.1731657252</ele>
        <time>2026-07-29T08:42:15Z</time>
      </trkpt>
      <trkpt lat="41.40042364525974" lon="-81.73462367089076">
        <ele>267.3088395227</ele>
        <time>2026-07-29T08:42:47Z</time>
      </trkpt>
      <trkpt lat="41.40087500294278" lon="-81.73463341075666">
        <ele>267.2180312614</ele>
        <time>2026-07-29T08:43:39Z</time>
      </trkpt>
      <trkpt lat="41.40132382578967" lon="-81.73463936724258">
        <ele>267.1056865483</ele>
        <time>2026-07-29T08:44:23Z</time>
      </trkpt>
      <trkpt lat="41.40131328258104" lon="-81.73524263362341">
        <ele>267.8784870594</ele>
        <time>2026-07-29T08:45:13Z</time>
      </trkpt>
      <trkpt lat="41.40131262825818" lon="-81.73584288131811">
        <ele>268.2825653849</ele>
        <time>2026-07-29T08:45:54Z</time>
      </trkpt>
      <trkpt lat="41.40131540491217" lon="-81.73643236908617">
        <ele>268.4209252902</ele>
        <time>2026-07-29T08:46:42Z</time>
      </trkpt>
      <trkpt lat="41.40132893510385" lon="-81.73703603244383">
        <ele>268.1485949167</ele>
        <time>2026-07-29T08:47:18Z</time>
      </trkpt>
      <trkpt lat="41.40132846633043" lon="-81.73763683012201">
        <ele>267.9747049069</ele>
        <time>2026-07-29T08:48:13Z</time>
      </trkpt>
      <trkpt lat="41.40132764049126" lon="-81.73823824698130">
        <ele>267.6456773437</ele>
        <time>2026-07-29T08:48:55Z</time>
      </trkpt>
      <trkpt lat="41.40132955412178" lon="-81.73883389732651">
        <ele>267.6147288554</ele>
        <time>2026-07-29T08:50:02Z</time>
      </trkpt>
      <trkpt lat="41.40133076781859" lon="-81.73943868375174">
        <ele>267.0663815645</ele>
        <time>2026-07-29T08:50:45Z</time>
      </trkpt>
      <trkpt lat="41.40133291668383" lon="-81.74004026557408">
        <ele>266.6248236003</ele>
        <time>2026-07-29T08:51:25Z</time>
      </trkpt>
      <trkpt lat="41.40132579019257" lon="-81.74020733082341">
        <ele>266.6409662850</ele>
        <time>2026-07-29T08:51:36Z</time>
      </trkpt>
    </trkseg>
  </trk>
</gpx>