<?xml version='1.0' encoding='UTF-8'?>
<gpx xmlns="http://www.topografix.com/GPX/1/1" creator="https://gpx.studio" version="1.1">
  <metadata>
    <name>Dog Walk - 2026-05-18 #1</name>
  </metadata>
  <trk>
    <name>Dog Walk - 2026-05-18 #1</name>
    <type>dog walk</type>
    <trkseg>
      <trkpt lat="41.40134217793283" lon="-81.74023091783458">
        <ele>266.5613028255</ele>
        <time>2026-05-18T07:06:33Z</time>
      </trkpt>
      <trkpt lat="41.40133627704839" lon="-81.74082561774270">
        <ele>266.3163619416</ele>
        <time>2026-05-18T07:07:06Z</time>
      </trkpt>
      <trkpt lat="41.40133062403695" lon="-81.74142571190309">
        <ele>265.9551708855</ele>
        <time>2026-05-18T07:07:47Z</time>
      </trkpt>
      <trkpt lat="41.40133054574827" lon="-81.74202486172372">
        <ele>265.4014346613</ele>
        <time>2026-05-18T07:08:24Z</time>
      </trkpt>
      <trkpt lat="41.40133185434888" lon="-81.74237805575765">
        <ele>264.7551353847</ele>
        <time>2026-05-18T07:08:43Z</time>
      </trkpt>
      <trkpt lat="41.40090591344321" lon="-81.74217574433882">
        <ele>265.1600399311</ele>
        <time>2026-05-18T07:09:24Z</time>
      </trkpt>
      <trkpt lat="41.40048758821558" lon="-81.74197630046486">
        <ele>265.4946693162</ele>
        <time>2026-05-18T07:10:07Z</time>
      </trkpt>
      <trkpt lat="41.40045822713917" lon="-81.74195397654741">
        <ele>265.3683456638</ele>
        <time>2026-05-18T07:10:10Z</time>
      </trkpt>
      <trkpt lat="41.40045464915718" lon="-81.74135137532450">
        <ele>265.9833415648</ele>
        <time>2026-05-18T07:10:57Z</time>
      </trkpt>
      <trkpt lat="41.40044071326228" lon="-81.74074355789972">
        <ele>266.3602626255</ele>
        <time>2026-05-18T07:11:31Z</time>
      </trkpt>
      <trkpt lat="41.40043346603264" lon="-81.74014968103299">
        <ele>266.7897898427</ele>
        <time>2026-05-18T07:12:20Z</time>
      </trkpt>
      <trkpt lat="41.40042439944085" lon="-81.73955670705718">
        <ele>266.9416031862</ele>
        <time>2026-05-18T07:12:58Z</time>
      </trkpt>
      <trkpt lat="41.40042493730563" lon="-81.73894479192904">
        <ele>267.1579350003</ele>
        <time>2026-05-18T07:13:33Z</time>
      </trkpt>
      <trkpt lat="41.40041838478626" lon="-81.73835547473267">
        <ele>267.1723396312</ele>
        <time>2026-05-18T07:14:39Z</time>
      </trkpt>
      <trkpt lat="41.40042377770222" lon="-81.73774612159417">
        <ele>267.5075858390</ele>
        <time>2026-05-18T07:15:29Z</time>
      </trkpt>
      <trkpt lat="41.40041309436911" lon="-81.73715802135055">
        <ele>268.0138127529</ele>
        <time>2026-05-18T07:16:10Z</time>
      </trkpt>
      <trkpt lat="41.40040329025305" lon="-81.73655837858514">
        <ele>268.1082211403</ele>
        <time>2026-05-18T07:16:51Z</time>
      </trkpt>
      <trkpt lat="41.40041279482787" lon="-81.73594806575683">
        <ele>268.0653703612</ele>
        <time>2026-05-18T07:17:28Z</time>
      </trkpt>
      <trkpt lat="41.40040562492584" lon="-81.73536173901152">
        <ele>267.8316717291</ele>
        <time>2026-05-18T07:18:05Z</time>
      </trkpt>
      <trkpt lat="41.40039623570087" lon="-81.73475749496538">
        <ele>267.4729599208</ele>
        <time>2026-05-18T07:18:51Z</time>
      </trkpt>
      <trkpt lat="41.40039990212361" lon="-81.73460912229307">
        <ele>267.1088627304</ele>
        <time>2026-05-18T07:19:02Z</time>
      </trkpt>
      <trkpt lat="41.40084431642083" lon="-81.73464450349792">
        <ele>267.4035948339</ele>
        <time>2026-05-18T07:19:33Z</time>
      </trkpt>
      <trkpt lat="41.40129269121896" lon="-81.73463827136403">
        <ele>267.1078001000</ele>
        <time>2026-05-18T07:20:13Z</time>
      </trkpt>
      <trkpt lat="41.40132354999309" lon="-81.73463848100542">
        <ele>267.4633853168</ele>
        <time>2026-05-18T07:20:18Z</time>
      </trkpt>
      <trkpt lat="41.40132069003628" lon="-81.73523225819424">
        <ele>267.7543634457</ele>
        <time>2026-05-18T07:20:51Z</time>
      </trkpt>
      <trkpt lat="41.40132638508943" lon="-81.73583488750106">
        <ele>268.2649873571</ele>
        <time>2026-05-18T07:21:34Z</time>
      </trkpt>
      <trkpt lat="41.40132932668146" lon="-81.73644575114534">
        <ele>268.2728611328</ele>
        <time>2026-05-18T07:22:21Z</time>
      </trkpt>
      <trkpt lat="41.40133158766859" lon="-81.73702933543800">
        <ele>268.1424361020</ele>
        <time>2026-05-18T07:23:01Z</time>
      </trkpt>
      <trkpt lat="41.40133116461514" lon="-81.73762379026455">
        <ele>267.7995250847</ele>
        <time>2026-05-18T07:23:35Z</time>
      </trkpt>
      <trkpt lat="41.40134430468609" lon="-81.73823606907187">
        <ele>267.6473109550</ele>
        <time>2026-05-18T07:24:20Z</time>
      </trkpt>
      <trkpt lat="41.40134287062381" lon="-81.73882984372375">
        <ele>267.2707204591</ele>
        <time>2026-05-18T07:24:53Z</time>
      </trkpt>
      <trkpt lat="41.40133881838650" lon="-81.73942209179584">
        <ele>267.1574515122</ele>
        <time>2026-05-18T07:25:41Z</time>
      </trkpt>
      <trkpt lat="41.40134145903534" lon="-81.74002988878935">
        <ele>266.7412872779</ele>
        <time>2026-05-18T07:26:50Z</time>
      </trkpt>
      <trkpt lat="41.40134652659928" lon="-81.74020120150624">
        <ele>266.3290484700</ele>
        <time>2026-05-18T07:27:03Z</time>
      </trkpt>
    </trkseg>
  </trk>
</gpx>