<?xml version='1.0' encoding='UTF-8'?>
<gpx xmlns="http://www.topografix.com/GPX/1/1" creator="https://gpx.studio" version="1.1">
  <metadata>
    <name>Dog Walk - 2026-09-12 #4</name>
  </metadata>
  <trk>
    <name>Dog Walk - 2026-09-12 #4</name>
    <type>dog walk</type>
    <trkseg>
      <trkpt lat="41.40132421271338" lon="-81.74022904246388">
        <ele>266.4931163203</ele>
        <time>2026-09-12T17:17:03Z</time>
      </trkpt>
      <trkpt lat="41.40132957434344" lon="-81.74083119192269">
        <ele>266.3492408984</ele>
        <time>2026-09-12T17:17:42Z</time>
      </trkpt>
      <trkpt lat="41.40133310475910" lon="-81.74143725565580">
        <ele>265.7563932862</ele>
        <time>2026-09-12T17:18:23Z</time>
      </trkpt>
      <trkpt lat="41.40133965870336" lon="-81.74203990568131">
        <ele>265.2049733547</ele>
        <time>2026-09-12T17:18:57Z</time>
      </trkpt>
      <trkpt lat="41.40132741050133" lon="-81.74239198326453">
        <ele>264.7017038266</ele>
        <time>2026-09-12T17:19:30Z</time>
      </trkpt>
      <trkpt lat="41.40090810084413" lon="-81.74219713076640">
        <ele>265.1988637185</ele>
        <time>2026-09-12T17:20:09Z</time>
      </trkpt>
      <trkpt lat="41.40048196413608" lon="-81.74199805443332">
        <ele>265.0399614353</ele>
        <time>2026-09-12T17:20:52Z</time>
      </trkpt>
      <trkpt lat="41.40005555415951" lon="-81.74181299807418">
        <ele>265.2884770242</ele>
        <time>2026-09-12T17:21:32Z</time>
      </trkpt>
      <trkpt lat="41.39963201393687" lon="-81.74161729784277">
        <ele>264.7800606636</ele>
        <time>2026-09-12T17:22:20Z</time>
      </trkpt>
      <trkpt lat="41.39953448137805" lon="-81.74158133898321">
        <ele>264.8710396300</ele>
        <time>2026-09-12T17:22:29Z</time>
      </trkpt>
      <trkpt lat="41.39952705260726" lon="-81.74097274844695">
        <ele>265.8067244393</ele>
        <time>2026-09-12T17:23:00Z</time>
      </trkpt>
      <trkpt lat="41.39953433237281" lon="-81.74037998122421">
        <ele>266.2247772095</ele>
        <time>2026-09-12T17:23:39Z</time>
      </trkpt>
      <trkpt lat="41.39953554037363" lon="-81.73977060770451">
        <ele>266.4991082526</ele>
        <time>2026-09-12T17:24:13Z</time>
      </trkpt>
      <trkpt lat="41.39953365142453" lon="-81.73918398504951">
        <ele>266.7851946664</ele>
        <time>2026-09-12T17:24:50Z</time>
      </trkpt>
      <trkpt lat="41.39952114090811" lon="-81.73856919126348">
        <ele>267.1019447415</ele>
        <time>2026-09-12T17:25:34Z</time>
      </trkpt>
      <trkpt lat="41.39952818989454" lon="-81.73796547362828">
        <ele>267.1491803015</ele>
        <time>2026-09-12T17:26:22Z</time>
      </trkpt>
      <trkpt lat="41.39953120459946" lon="-81.73737795804607">
        <ele>267.2478829855</ele>
        <time>2026-09-12T17:27:04Z</time>
      </trkpt>
      <trkpt lat="41.39953723381424" lon="-81.73677174522167">
        <ele>267.2822784367</ele>
        <time>2026-09-12T17:27:42Z</time>
      </trkpt>
      <trkpt lat="41.39952670604410" lon="-81.73617016641104">
        <ele>267.4303396104</ele>
        <time>2026-09-12T17:28:24Z</time>
      </trkpt>
      <trkpt lat="41.39951968155424" lon="-81.73557438549005">
        <ele>267.4026542959</ele>
        <time>2026-09-12T17:29:02Z</time>
      </trkpt>
      <trkpt lat="41.39953613972324" lon="-81.73498639907606">
        <ele>267.1935491397</ele>
        <time>2026-09-12T17:29:41Z</time>
      </trkpt>
      <trkpt lat="41.39953244830517" lon="-81.73460649019886">
        <ele>267.0962328367</ele>
        <time>2026-09-12T17:30:22Z</time>
      </trkpt>
      <trkpt lat="41.39997055478765" lon="-81.73462915821453">
        <ele>267.0840481930</ele>
        <time>2026-09-12T17:31:08Z</time>
      </trkpt>
      <trkpt lat="41.40042004635401" lon="-81.73463115666759">
        <ele>267.4129561603</ele>
        <time>2026-09-12T17:31:44Z</time>
      </trkpt>
      <trkpt lat="41.40086734457145" lon="-81.73464201377534">
        <ele>267.5238872037</ele>
        <time>2026-09-12T17:32:24Z</time>
      </trkpt>
      <trkpt lat="41.40131730136473" lon="-81.73464001245789">
        <ele>267.1629325059</ele>
        <time>2026-09-12T17:32:59Z</time>
      </trkpt>
      <trkpt lat="41.40131917209831" lon="-81.73523277194545">
        <ele>267.9133594329</ele>
        <time>2026-09-12T17:33:38Z</time>
      </trkpt>
      <trkpt lat="41.40132457811148" lon="-81.73584063681481">
        <ele>268.2663868880</ele>
        <time>2026-09-12T17:34:17Z</time>
      </trkpt>
      <trkpt lat="41.40131946559202" lon="-81.73643550670226">
        <ele>268.3288597935</ele>
        <time>2026-09-12T17:35:15Z</time>
      </trkpt>
      <trkpt lat="41.40132450558819" lon="-81.73703349567633">
        <ele>267.9966888796</ele>
        <time>2026-09-12T17:35:54Z</time>
      </trkpt>
      <trkpt lat="41.40134186226543" lon="-81.73763813839837">
        <ele>268.0273669248</ele>
        <time>2026-09-12T17:36:33Z</time>
      </trkpt>
      <trkpt lat="41.40133423661511" lon="-81.73824141416820">
        <ele>267.5742446406</ele>
        <time>2026-09-12T17:37:18Z</time>
      </trkpt>
      <trkpt lat="41.40132891183949" lon="-81.73883227285033">
        <ele>267.4859996232</ele>
        <time>2026-09-12T17:37:53Z</time>
      </trkpt>
      <trkpt lat="41.40133849300093" lon="-81.73943125428178">
        <ele>267.2230687241</ele>
        <time>2026-09-12T17:38:48Z</time>
      </trkpt>
      <trkpt lat="41.40132803276327" lon="-81.74003622083769">
        <ele>266.6140586062</ele>
        <time>2026-09-12T17:39:25Z</time>
      </trkpt>
      <trkpt lat="41.40132176895686" lon="-81.74021005704485">
        <ele>266.6646106297</ele>
        <time>2026-09-12T17:39:36Z</time>
      </trkpt>
    </trkseg>
  </trk>
</gpx>