<?xml version='1.0' encoding='UTF-8'?>
<gpx xmlns="http://www.topografix.com/GPX/1/1" creator="https://gpx.studio" version="1.1">
  <metadata>
    <name>Dog Walk - 2026-02-28 #1</name>
  </metadata>
  <trk>
    <name>Dog Walk - 2026-02-28 #1</name>
    <type>dog walk</type>
    <trkseg>
      <trkpt lat="41.40134534131401" lon="-81.74022638358073">
        <ele>266.5566544222</ele>
        <time>2026-02-28T08:30:56Z</time>
      </trkpt>
      <trkpt lat="41.40133111743767" lon="-81.74082484715851">
        <ele>266.1119323709</ele>
        <time>2026-02-28T08:31:42Z</time>
      </trkpt>
      <trkpt lat="41.40133173563064" lon="-81.74142614225909">
        <ele>266.0836988858</ele>
        <time>2026-02-28T08:32:37Z</time>
      </trkpt>
      <trkpt lat="41.40133007756756" lon="-81.74202228721738">
        <ele>265.3576279391</ele>
        <time>2026-02-28T08:33:20Z</time>
      </trkpt>
      <trkpt lat="41.40133052013271" lon="-81.74238080199295">
        <ele>264.7152507161</ele>
        <time>2026-02-28T08:33:39Z</time>
      </trkpt>
      <trkpt lat="41.40090927382132" lon="-81.74218210355981">
        <ele>265.4497797945</ele>
        <time>2026-02-28T08:34:19Z</time>
      </trkpt>
      <trkpt lat="41.40048149351350" lon="-81.74196577595782">
        <ele>265.5044902733</ele>
        <time>2026-02-28T08:34:55Z</time>
      </trkpt>
      <trkpt lat="41.40045092084511" lon="-81.74194715306513">
        <ele>265.5177031469</ele>
        <time>2026-02-28T08:34:58Z</time>
      </trkpt>
      <trkpt lat="41.40044988421580" lon="-81.74134421833260">
        <ele>265.9357835118</ele>
        <time>2026-02-28T08:35:35Z</time>
      </trkpt>
      <trkpt lat="41.40044015591594" lon="-81.74075166196823">
        <ele>266.3489326046</ele>
        <time>2026-02-28T08:36:19Z</time>
      </trkpt>
      <trkpt lat="41.40043826330891" lon="-81.74015275200807">
        <ele>266.7188150907</ele>
        <time>2026-02-28T08:37:01Z</time>
      </trkpt>
      <trkpt lat="41.40043898142222" lon="-81.73954576330597">
        <ele>266.7021206815</ele>
        <time>2026-02-28T08:37:46Z</time>
      </trkpt>
      <trkpt lat="41.40042727475002" lon="-81.73895135379112">
        <ele>267.2061404506</ele>
        <time>2026-02-28T08:38:18Z</time>
      </trkpt>
      <trkpt lat="41.40042625697506" lon="-81.73835969732022">
        <ele>267.3340338276</ele>
        <time>2026-02-28T08:39:06Z</time>
      </trkpt>
      <trkpt lat="41.40041611478248" lon="-81.73775038066128">
        <ele>267.7631084218</ele>
        <time>2026-02-28T08:39:35Z</time>
      </trkpt>
      <trkpt lat="41.40041683937490" lon="-81.73715711342240">
        <ele>267.7196727658</ele>
        <time>2026-02-28T08:40:24Z</time>
      </trkpt>
      <trkpt lat="41.40040593640316" lon="-81.73655543550944">
        <ele>268.0626693218</ele>
        <time>2026-02-28T08:40:58Z</time>
      </trkpt>
      <trkpt lat="41.40040632155934" lon="-81.73596378884668">
        <ele>268.0691482093</ele>
        <time>2026-02-28T08:41:36Z</time>
      </trkpt>
      <trkpt lat="41.40040039451670" lon="-81.73534626576703">
        <ele>267.6527791141</ele>
        <time>2026-02-28T08:42:22Z</time>
      </trkpt>
      <trkpt lat="41.40039241500742" lon="-81.73476226068544">
        <ele>267.3932490038</ele>
        <time>2026-02-28T08:43:14Z</time>
      </trkpt>
      <trkpt lat="41.40039215458546" lon="-81.73462199168718">
        <ele>267.1049706864</ele>
        <time>2026-02-28T08:43:24Z</time>
      </trkpt>
      <trkpt lat="41.40084049524709" lon="-81.73463527570530">
        <ele>267.4157320292</ele>
        <time>2026-02-28T08:44:02Z</time>
      </trkpt>
      <trkpt lat="41.40128675503538" lon="-81.73463074223304">
        <ele>267.3018915848</ele>
        <time>2026-02-28T08:44:53Z</time>
      </trkpt>
      <trkpt lat="41.40131772201219" lon="-81.73463404632535">
        <ele>267.2624255956</ele>
        <time>2026-02-28T08:44:56Z</time>
      </trkpt>
      <trkpt lat="41.40132561629071" lon="-81.73523545469547">
        <ele>268.1326179968</ele>
        <time>2026-02-28T08:45:42Z</time>
      </trkpt>
      <trkpt lat="41.40132848570612" lon="-81.73583077897771">
        <ele>268.2177486990</ele>
        <time>2026-02-28T08:46:36Z</time>
      </trkpt>
      <trkpt lat="41.40132775487920" lon="-81.73642754882484">
        <ele>268.1862449982</ele>
        <time>2026-02-28T08:47:11Z</time>
      </trkpt>
      <trkpt lat="41.40133866896393" lon="-81.73703253966663">
        <ele>267.8697522696</ele>
        <time>2026-02-28T08:47:51Z</time>
      </trkpt>
      <trkpt lat="41.40132839826214" lon="-81.73763534925629">
        <ele>267.8844913566</ele>
        <time>2026-02-28T08:48:38Z</time>
      </trkpt>
      <trkpt lat="41.40133762042383" lon="-81.73822837486338">
        <ele>267.4577062475</ele>
        <time>2026-02-28T08:49:26Z</time>
      </trkpt>
      <trkpt lat="41.40133602905126" lon="-81.73882578869535">
        <ele>267.4982307881</ele>
        <time>2026-02-28T08:49:57Z</time>
      </trkpt>
      <trkpt lat="41.40133401602183" lon="-81.73942808580372">
        <ele>267.1679563067</ele>
        <time>2026-02-28T08:50:39Z</time>
      </trkpt>
      <trkpt lat="41.40135431822348" lon="-81.74002710305193">
        <ele>266.7394489851</ele>
        <time>2026-02-28T08:51:12Z</time>
      </trkpt>
      <trkpt lat="41.40134238168771" lon="-81.74019407138340">
        <ele>266.4269991158</ele>
        <time>2026-02-28T08:51:30Z</time>
      </trkpt>
    </trkseg>
  </trk>
</gpx>