<?xml version='1.0' encoding='UTF-8'?>
<gpx xmlns="http://www.topografix.com/GPX/1/1" creator="https://gpx.studio" version="1.1">
  <metadata>
    <name>Dog Walk - 2026-02-14 #4</name>
  </metadata>
  <trk>
    <name>Dog Walk - 2026-02-14 #4</name>
    <type>dog walk</type>
    <trkseg>
      <trkpt lat="41.40134282561142" lon="-81.74023337218897">
        <ele>266.3519398790</ele>
        <time>2026-02-14T20:23:37Z</time>
      </trkpt>
      <trkpt lat="41.40134461447127" lon="-81.74083014793526">
        <ele>266.0285897516</ele>
        <time>2026-02-14T20:24:20Z</time>
      </trkpt>
      <trkpt lat="41.40133023204434" lon="-81.74143427594748">
        <ele>265.8461085494</ele>
        <time>2026-02-14T20:24:55Z</time>
      </trkpt>
      <trkpt lat="41.40134809534518" lon="-81.74203801666964">
        <ele>265.1734853445</ele>
        <time>2026-02-14T20:25:30Z</time>
      </trkpt>
      <trkpt lat="41.40134864037837" lon="-81.74240991439515">
        <ele>264.6546327393</ele>
        <time>2026-02-14T20:26:07Z</time>
      </trkpt>
      <trkpt lat="41.40176777716589" lon="-81.74263909408759">
        <ele>264.1897348661</ele>
        <time>2026-02-14T20:26:45Z</time>
      </trkpt>
      <trkpt lat="41.40217923434904" lon="-81.74284884073907">
        <ele>263.4103663977</ele>
        <time>2026-02-14T20:27:22Z</time>
      </trkpt>
      <trkpt lat="41.40221936526449" lon="-81.74286314521559">
        <ele>263.6220138149</ele>
        <time>2026-02-14T20:27:32Z</time>
      </trkpt>
      <trkpt lat="41.40221590925216" lon="-81.74227058933153">
        <ele>264.1222830079</ele>
        <time>2026-02-14T20:28:26Z</time>
      </trkpt>
      <trkpt lat="41.40222028600908" lon="-81.74166394940941">
        <ele>264.7952070509</ele>
        <time>2026-02-14T20:29:08Z</time>
      </trkpt>
      <trkpt lat="41.40222403875008" lon="-81.74106811714542">
        <ele>265.6769987768</ele>
        <time>2026-02-14T20:29:48Z</time>
      </trkpt>
      <trkpt lat="41.40221822703742" lon="-81.74047338891573">
        <ele>266.0118769293</ele>
        <time>2026-02-14T20:30:32Z</time>
      </trkpt>
      <trkpt lat="41.40221303435385" lon="-81.73987087525666">
        <ele>266.6521713221</ele>
        <time>2026-02-14T20:31:13Z</time>
      </trkpt>
      <trkpt lat="41.40222680621171" lon="-81.73927185886060">
        <ele>266.8081210965</ele>
        <time>2026-02-14T20:31:54Z</time>
      </trkpt>
      <trkpt lat="41.40221422142208" lon="-81.73866699873629">
        <ele>267.2121528899</ele>
        <time>2026-02-14T20:32:35Z</time>
      </trkpt>
      <trkpt lat="41.40222560314448" lon="-81.73827631974598">
        <ele>266.9638150643</ele>
        <time>2026-02-14T20:33:00Z</time>
      </trkpt>
      <trkpt lat="41.40176790954700" lon="-81.73826049514371">
        <ele>267.8546112882</ele>
        <time>2026-02-14T20:33:41Z</time>
      </trkpt>
      <trkpt lat="41.40133460575322" lon="-81.73826542522595">
        <ele>267.6399826572</ele>
        <time>2026-02-14T20:34:35Z</time>
      </trkpt>
      <trkpt lat="41.40133637710440" lon="-81.73885736893990">
        <ele>267.2845333438</ele>
        <time>2026-02-14T20:35:11Z</time>
      </trkpt>
      <trkpt lat="41.40133912077846" lon="-81.73946443587292">
        <ele>267.2360474805</ele>
        <time>2026-02-14T20:36:05Z</time>
      </trkpt>
      <trkpt lat="41.40134211923618" lon="-81.74006309935503">
        <ele>266.6295004479</ele>
        <time>2026-02-14T20:36:41Z</time>
      </trkpt>
      <trkpt lat="41.40134428642004" lon="-81.74019590408831">
        <ele>266.4928785764</ele>
        <time>2026-02-14T20:36:50Z</time>
      </trkpt>
    </trkseg>
  </trk>
</gpx>