<?xml version='1.0' encoding='UTF-8'?>
<gpx xmlns="http://www.topografix.com/GPX/1/1" creator="https://gpx.studio" version="1.1">
  <metadata>
    <name>Dog Walk - 2026-09-12 #5</name>
  </metadata>
  <trk>
    <name>Dog Walk - 2026-09-12 #5</name>
    <type>dog walk</type>
    <trkseg>
      <trkpt lat="41.40133404952466" lon="-81.74024114017935">
        <ele>266.5240658538</ele>
        <time>2026-09-12T19:07:51Z</time>
      </trkpt>
      <trkpt lat="41.40134016306691" lon="-81.74084219942050">
        <ele>266.2184257532</ele>
        <time>2026-09-12T19:08:33Z</time>
      </trkpt>
      <trkpt lat="41.40134749894029" lon="-81.74143807834318">
        <ele>265.9088949068</ele>
        <time>2026-09-12T19:09:01Z</time>
      </trkpt>
      <trkpt lat="41.40134606098444" lon="-81.74203422447755">
        <ele>265.4457785512</ele>
        <time>2026-09-12T19:09:47Z</time>
      </trkpt>
      <trkpt lat="41.40134569768548" lon="-81.74241934998486">
        <ele>264.8403523479</ele>
        <time>2026-09-12T19:10:13Z</time>
      </trkpt>
      <trkpt lat="41.40176719165876" lon="-81.74261033762322">
        <ele>264.1708669903</ele>
        <time>2026-09-12T19:10:59Z</time>
      </trkpt>
      <trkpt lat="41.40218653861364" lon="-81.74281859745649">
        <ele>263.5161799844</ele>
        <time>2026-09-12T19:11:40Z</time>
      </trkpt>
      <trkpt lat="41.40262084532294" lon="-81.74301323202953">
        <ele>262.9068260258</ele>
        <time>2026-09-12T19:12:14Z</time>
      </trkpt>
      <trkpt lat="41.40304433677566" lon="-81.74322657005555">
        <ele>262.2967375343</ele>
        <time>2026-09-12T19:12:55Z</time>
      </trkpt>
      <trkpt lat="41.40311650497008" lon="-81.74325999063760">
        <ele>262.2411938639</ele>
        <time>2026-09-12T19:13:01Z</time>
      </trkpt>
      <trkpt lat="41.40310742330510" lon="-81.74265794297858">
        <ele>263.1188408114</ele>
        <time>2026-09-12T19:13:53Z</time>
      </trkpt>
      <trkpt lat="41.40310671107985" lon="-81.74204165482818">
        <ele>263.8480141558</ele>
        <time>2026-09-12T19:14:36Z</time>
      </trkpt>
      <trkpt lat="41.40311457069334" lon="-81.74144850500460">
        <ele>264.2260194824</ele>
        <time>2026-09-12T19:15:09Z</time>
      </trkpt>
      <trkpt lat="41.40310773201406" lon="-81.74085343433630">
        <ele>264.6639689490</ele>
        <time>2026-09-12T19:15:42Z</time>
      </trkpt>
      <trkpt lat="41.40310520284415" lon="-81.74025253499241">
        <ele>265.4533994882</ele>
        <time>2026-09-12T19:16:12Z</time>
      </trkpt>
      <trkpt lat="41.40310331850786" lon="-81.73966053572950">
        <ele>266.0551692883</ele>
        <time>2026-09-12T19:16:43Z</time>
      </trkpt>
      <trkpt lat="41.40310196176809" lon="-81.73906352421695">
        <ele>266.1687333414</ele>
        <time>2026-09-12T19:17:20Z</time>
      </trkpt>
      <trkpt lat="41.40310470422162" lon="-81.73878053283414">
        <ele>266.2643819524</ele>
        <time>2026-09-12T19:17:36Z</time>
      </trkpt>
      <trkpt lat="41.40264535563552" lon="-81.73878677090693">
        <ele>266.8347181240</ele>
        <time>2026-09-12T19:18:21Z</time>
      </trkpt>
      <trkpt lat="41.40223797879175" lon="-81.73878133469572">
        <ele>267.1459148704</ele>
        <time>2026-09-12T19:18:51Z</time>
      </trkpt>
      <trkpt lat="41.40222864489640" lon="-81.73818226982301">
        <ele>267.2324931825</ele>
        <time>2026-09-12T19:19:43Z</time>
      </trkpt>
      <trkpt lat="41.40223131782005" lon="-81.73758060781314">
        <ele>266.9481560879</ele>
        <time>2026-09-12T19:20:31Z</time>
      </trkpt>
      <trkpt lat="41.40222966043070" lon="-81.73697770630962">
        <ele>267.2856007221</ele>
        <time>2026-09-12T19:21:16Z</time>
      </trkpt>
      <trkpt lat="41.40222953967929" lon="-81.73638950397466">
        <ele>267.2305274092</ele>
        <time>2026-09-12T19:22:01Z</time>
      </trkpt>
      <trkpt lat="41.40223603420954" lon="-81.73578330828319">
        <ele>267.6293469321</ele>
        <time>2026-09-12T19:23:10Z</time>
      </trkpt>
      <trkpt lat="41.40223085439457" lon="-81.73517226505103">
        <ele>267.2692187198</ele>
        <time>2026-09-12T19:23:51Z</time>
      </trkpt>
      <trkpt lat="41.40221964862069" lon="-81.73465446247997">
        <ele>267.0638307237</ele>
        <time>2026-09-12T19:24:30Z</time>
      </trkpt>
      <trkpt lat="41.40177411811848" lon="-81.73464350547785">
        <ele>267.1471284949</ele>
        <time>2026-09-12T19:25:40Z</time>
      </trkpt>
      <trkpt lat="41.40132495958390" lon="-81.73463102492728">
        <ele>267.2422878780</ele>
        <time>2026-09-12T19:26:43Z</time>
      </trkpt>
      <trkpt lat="41.40132011304022" lon="-81.73464481762916">
        <ele>267.1806973297</ele>
        <time>2026-09-12T19:26:44Z</time>
      </trkpt>
      <trkpt lat="41.40131874422184" lon="-81.73523687130869">
        <ele>268.0575957407</ele>
        <time>2026-09-12T19:27:30Z</time>
      </trkpt>
      <trkpt lat="41.40131647940816" lon="-81.73582481552360">
        <ele>268.2368655040</ele>
        <time>2026-09-12T19:28:21Z</time>
      </trkpt>
      <trkpt lat="41.40132448064741" lon="-81.73643535684793">
        <ele>268.0859420417</ele>
        <time>2026-09-12T19:28:58Z</time>
      </trkpt>
      <trkpt lat="41.40133197040407" lon="-81.73703486839476">
        <ele>268.0751201098</ele>
        <time>2026-09-12T19:29:31Z</time>
      </trkpt>
      <trkpt lat="41.40133388780362" lon="-81.73764137383289">
        <ele>267.8227871441</ele>
        <time>2026-09-12T19:30:26Z</time>
      </trkpt>
      <trkpt lat="41.40133781284269" lon="-81.73823945403981">
        <ele>267.7353375444</ele>
        <time>2026-09-12T19:31:14Z</time>
      </trkpt>
      <trkpt lat="41.40133375657128" lon="-81.73883339658174">
        <ele>267.2814761710</ele>
        <time>2026-09-12T19:32:02Z</time>
      </trkpt>
      <trkpt lat="41.40133696458012" lon="-81.73943350888375">
        <ele>267.1813942774</ele>
        <time>2026-09-12T19:32:33Z</time>
      </trkpt>
      <trkpt lat="41.40134490234571" lon="-81.74003573279903">
        <ele>266.5530931018</ele>
        <time>2026-09-12T19:33:10Z</time>
      </trkpt>
      <trkpt lat="41.40135368335285" lon="-81.74015638263991">
        <ele>266.6326942798</ele>
        <time>2026-09-12T19:33:15Z</time>
      </trkpt>
    </trkseg>
  </trk>
</gpx>