<?xml version='1.0' encoding='UTF-8'?>
<gpx xmlns="http://www.topografix.com/GPX/1/1" creator="https://gpx.studio" version="1.1">
  <metadata>
    <name>Dog Walk - 2026-04-06 #2</name>
  </metadata>
  <trk>
    <name>Dog Walk - 2026-04-06 #2</name>
    <type>dog walk</type>
    <trkseg>
      <trkpt lat="41.40132826694595" lon="-81.74023365661458">
        <ele>266.5350192132</ele>
        <time>2026-04-06T10:47:47Z</time>
      </trkpt>
      <trkpt lat="41.40133447977069" lon="-81.74083260027970">
        <ele>266.1827770375</ele>
        <time>2026-04-06T10:48:27Z</time>
      </trkpt>
      <trkpt lat="41.40132870830627" lon="-81.74144290976004">
        <ele>265.9154688026</ele>
        <time>2026-04-06T10:49:04Z</time>
      </trkpt>
      <trkpt lat="41.40132968817561" lon="-81.74203417025841">
        <ele>265.2165359680</ele>
        <time>2026-04-06T10:49:43Z</time>
      </trkpt>
      <trkpt lat="41.40132502699341" lon="-81.74237290869935">
        <ele>264.8809872630</ele>
        <time>2026-04-06T10:50:05Z</time>
      </trkpt>
      <trkpt lat="41.40090918520551" lon="-81.74219670992179">
        <ele>265.1274378423</ele>
        <time>2026-04-06T10:50:46Z</time>
      </trkpt>
      <trkpt lat="41.40047321645791" lon="-81.74200163226620">
        <ele>265.0878943178</ele>
        <time>2026-04-06T10:51:27Z</time>
      </trkpt>
      <trkpt lat="41.40005813092242" lon="-81.74181262153198">
        <ele>265.4252113365</ele>
        <time>2026-04-06T10:52:11Z</time>
      </trkpt>
      <trkpt lat="41.39963280939871" lon="-81.74160897266653">
        <ele>264.8198731059</ele>
        <time>2026-04-06T10:52:47Z</time>
      </trkpt>
      <trkpt lat="41.39953253413367" lon="-81.74157552407678">
        <ele>264.7767876872</ele>
        <time>2026-04-06T10:52:57Z</time>
      </trkpt>
      <trkpt lat="41.39953596118835" lon="-81.74096388504185">
        <ele>265.7257034105</ele>
        <time>2026-04-06T10:53:37Z</time>
      </trkpt>
      <trkpt lat="41.39952990986855" lon="-81.74038070351683">
        <ele>265.8932774942</ele>
        <time>2026-04-06T10:54:31Z</time>
      </trkpt>
      <trkpt lat="41.39953300731855" lon="-81.73977499876445">
        <ele>266.5501942045</ele>
        <time>2026-04-06T10:55:08Z</time>
      </trkpt>
      <trkpt lat="41.39953369425882" lon="-81.73918210344827">
        <ele>266.9851415455</ele>
        <time>2026-04-06T10:55:41Z</time>
      </trkpt>
      <trkpt lat="41.39952832217212" lon="-81.73858638763353">
        <ele>267.0529722817</ele>
        <time>2026-04-06T10:56:20Z</time>
      </trkpt>
      <trkpt lat="41.39953042599179" lon="-81.73798585855579">
        <ele>267.0348759032</ele>
        <time>2026-04-06T10:56:51Z</time>
      </trkpt>
      <trkpt lat="41.39953587249020" lon="-81.73736842281389">
        <ele>267.3828195330</ele>
        <time>2026-04-06T10:57:48Z</time>
      </trkpt>
      <trkpt lat="41.39952519754785" lon="-81.73677989783096">
        <ele>267.4452513125</ele>
        <time>2026-04-06T10:58:22Z</time>
      </trkpt>
      <trkpt lat="41.39953500440458" lon="-81.73618077940446">
        <ele>267.3489864321</ele>
        <time>2026-04-06T10:59:09Z</time>
      </trkpt>
      <trkpt lat="41.39951970947453" lon="-81.73557883228369">
        <ele>267.4371708023</ele>
        <time>2026-04-06T10:59:43Z</time>
      </trkpt>
      <trkpt lat="41.39953183331086" lon="-81.73498531307114">
        <ele>267.0277917794</ele>
        <time>2026-04-06T11:00:22Z</time>
      </trkpt>
      <trkpt lat="41.39953552437414" lon="-81.73461088320271">
        <ele>267.2760954457</ele>
        <time>2026-04-06T11:00:49Z</time>
      </trkpt>
      <trkpt lat="41.39997652194536" lon="-81.73462359419729">
        <ele>267.3364359831</ele>
        <time>2026-04-06T11:01:26Z</time>
      </trkpt>
      <trkpt lat="41.40042669895823" lon="-81.73462928624993">
        <ele>267.4906438520</ele>
        <time>2026-04-06T11:02:05Z</time>
      </trkpt>
      <trkpt lat="41.40087249885659" lon="-81.73462916903107">
        <ele>267.5276670333</ele>
        <time>2026-04-06T11:02:39Z</time>
      </trkpt>
      <trkpt lat="41.40132130747838" lon="-81.73463616671344">
        <ele>267.5492665007</ele>
        <time>2026-04-06T11:03:15Z</time>
      </trkpt>
      <trkpt lat="41.40131771230586" lon="-81.73523028677451">
        <ele>267.9145680539</ele>
        <time>2026-04-06T11:03:58Z</time>
      </trkpt>
      <trkpt lat="41.40133222169917" lon="-81.73583639338732">
        <ele>268.0302191005</ele>
        <time>2026-04-06T11:04:31Z</time>
      </trkpt>
      <trkpt lat="41.40132337163199" lon="-81.73643634748092">
        <ele>268.1844290468</ele>
        <time>2026-04-06T11:05:13Z</time>
      </trkpt>
      <trkpt lat="41.40132908997778" lon="-81.73704896348177">
        <ele>268.1084025474</ele>
        <time>2026-04-06T11:05:55Z</time>
      </trkpt>
      <trkpt lat="41.40132728976194" lon="-81.73763795261071">
        <ele>267.8065934462</ele>
        <time>2026-04-06T11:06:38Z</time>
      </trkpt>
      <trkpt lat="41.40133463589451" lon="-81.73824158283475">
        <ele>267.7133520100</ele>
        <time>2026-04-06T11:07:19Z</time>
      </trkpt>
      <trkpt lat="41.40132841344533" lon="-81.73883319054916">
        <ele>267.3253958075</ele>
        <time>2026-04-06T11:08:02Z</time>
      </trkpt>
      <trkpt lat="41.40133468283877" lon="-81.73944165154936">
        <ele>267.0798195460</ele>
        <time>2026-04-06T11:08:42Z</time>
      </trkpt>
      <trkpt lat="41.40133326343013" lon="-81.74002996664738">
        <ele>266.5639739039</ele>
        <time>2026-04-06T11:09:28Z</time>
      </trkpt>
      <trkpt lat="41.40133064895500" lon="-81.74022020378288">
        <ele>266.4943924046</ele>
        <time>2026-04-06T11:09:40Z</time>
      </trkpt>
    </trkseg>
  </trk>
</gpx>