<?xml version='1.0' encoding='UTF-8'?>
<gpx xmlns="http://www.topografix.com/GPX/1/1" creator="https://gpx.studio" version="1.1">
  <metadata>
    <name>Dog Walk - 2026-09-05 #2</name>
  </metadata>
  <trk>
    <name>Dog Walk - 2026-09-05 #2</name>
    <type>dog walk</type>
    <trkseg>
      <trkpt lat="41.40132801074910" lon="-81.74023895341567">
        <ele>266.6358710852</ele>
        <time>2026-09-05T14:06:21Z</time>
      </trkpt>
      <trkpt lat="41.40132833908135" lon="-81.74083058325652">
        <ele>266.2745735205</ele>
        <time>2026-09-05T14:06:59Z</time>
      </trkpt>
      <trkpt lat="41.40132996120635" lon="-81.74143606743625">
        <ele>265.8085374768</ele>
        <time>2026-09-05T14:07:45Z</time>
      </trkpt>
      <trkpt lat="41.40133332083730" lon="-81.74203568205208">
        <ele>265.2824884185</ele>
        <time>2026-09-05T14:08:26Z</time>
      </trkpt>
      <trkpt lat="41.40132824111717" lon="-81.74238500393953">
        <ele>264.5653087877</ele>
        <time>2026-09-05T14:08:55Z</time>
      </trkpt>
      <trkpt lat="41.40089584573123" lon="-81.74220322117114">
        <ele>265.3517076986</ele>
        <time>2026-09-05T14:09:38Z</time>
      </trkpt>
      <trkpt lat="41.40048747744436" lon="-81.74199707651394">
        <ele>265.0447207575</ele>
        <time>2026-09-05T14:10:31Z</time>
      </trkpt>
      <trkpt lat="41.40004819523327" lon="-81.74180529294262">
        <ele>265.6192220181</ele>
        <time>2026-09-05T14:11:12Z</time>
      </trkpt>
      <trkpt lat="41.39962872947846" lon="-81.74161388637505">
        <ele>264.6597666810</ele>
        <time>2026-09-05T14:11:56Z</time>
      </trkpt>
      <trkpt lat="41.39953870145141" lon="-81.74156806929435">
        <ele>264.9814236343</ele>
        <time>2026-09-05T14:12:04Z</time>
      </trkpt>
      <trkpt lat="41.39953376557843" lon="-81.74097503534426">
        <ele>265.6744277737</ele>
        <time>2026-09-05T14:12:38Z</time>
      </trkpt>
      <trkpt lat="41.39953267609281" lon="-81.74036902248906">
        <ele>266.2803390279</ele>
        <time>2026-09-05T14:13:20Z</time>
      </trkpt>
      <trkpt lat="41.39953541404910" lon="-81.73978535959635">
        <ele>266.6788314827</ele>
        <time>2026-09-05T14:13:54Z</time>
      </trkpt>
      <trkpt lat="41.39952913374632" lon="-81.73918603381830">
        <ele>266.8622964554</ele>
        <time>2026-09-05T14:14:41Z</time>
      </trkpt>
      <trkpt lat="41.39953880118164" lon="-81.73857776518770">
        <ele>267.1127054442</ele>
        <time>2026-09-05T14:15:19Z</time>
      </trkpt>
      <trkpt lat="41.39953474680414" lon="-81.73797239369162">
        <ele>267.0908110629</ele>
        <time>2026-09-05T14:16:00Z</time>
      </trkpt>
      <trkpt lat="41.39951824770544" lon="-81.73737285954732">
        <ele>267.1890305783</ele>
        <time>2026-09-05T14:16:47Z</time>
      </trkpt>
      <trkpt lat="41.39953334641135" lon="-81.73677764515503">
        <ele>267.5084152643</ele>
        <time>2026-09-05T14:17:26Z</time>
      </trkpt>
      <trkpt lat="41.39953378748077" lon="-81.73618515672479">
        <ele>267.5534966572</ele>
        <time>2026-09-05T14:18:13Z</time>
      </trkpt>
      <trkpt lat="41.39952245415328" lon="-81.73557624047109">
        <ele>267.2597706726</ele>
        <time>2026-09-05T14:18:55Z</time>
      </trkpt>
      <trkpt lat="41.39952268804405" lon="-81.73497919525923">
        <ele>266.9392373361</ele>
        <time>2026-09-05T14:19:31Z</time>
      </trkpt>
      <trkpt lat="41.39952488870137" lon="-81.73461592798000">
        <ele>267.2466863784</ele>
        <time>2026-09-05T14:20:02Z</time>
      </trkpt>
      <trkpt lat="41.39997761304996" lon="-81.73463073899029">
        <ele>267.1951334670</ele>
        <time>2026-09-05T14:20:34Z</time>
      </trkpt>
      <trkpt lat="41.40042521088300" lon="-81.73462997274864">
        <ele>267.3983590177</ele>
        <time>2026-09-05T14:21:16Z</time>
      </trkpt>
      <trkpt lat="41.40088027858779" lon="-81.73463342796636">
        <ele>267.2086158706</ele>
        <time>2026-09-05T14:22:02Z</time>
      </trkpt>
      <trkpt lat="41.40131997647742" lon="-81.73464938126899">
        <ele>267.2033411112</ele>
        <time>2026-09-05T14:22:46Z</time>
      </trkpt>
      <trkpt lat="41.40132490977687" lon="-81.73525417597307">
        <ele>267.9046781167</ele>
        <time>2026-09-05T14:23:19Z</time>
      </trkpt>
      <trkpt lat="41.40132098834434" lon="-81.73583696004734">
        <ele>268.2176801284</ele>
        <time>2026-09-05T14:24:09Z</time>
      </trkpt>
      <trkpt lat="41.40132192565838" lon="-81.73642612263276">
        <ele>268.2250191001</ele>
        <time>2026-09-05T14:24:42Z</time>
      </trkpt>
      <trkpt lat="41.40133508400100" lon="-81.73703828214188">
        <ele>268.1214435819</ele>
        <time>2026-09-05T14:25:27Z</time>
      </trkpt>
      <trkpt lat="41.40131960342346" lon="-81.73764033322715">
        <ele>267.9641997107</ele>
        <time>2026-09-05T14:26:09Z</time>
      </trkpt>
      <trkpt lat="41.40132763661543" lon="-81.73823235929140">
        <ele>267.5719731334</ele>
        <time>2026-09-05T14:27:00Z</time>
      </trkpt>
      <trkpt lat="41.40132634832671" lon="-81.73884032403410">
        <ele>267.3948197718</ele>
        <time>2026-09-05T14:27:47Z</time>
      </trkpt>
      <trkpt lat="41.40133826129766" lon="-81.73942580564653">
        <ele>267.0927510038</ele>
        <time>2026-09-05T14:28:21Z</time>
      </trkpt>
      <trkpt lat="41.40133684913871" lon="-81.74003995819403">
        <ele>266.5224943193</ele>
        <time>2026-09-05T14:28:56Z</time>
      </trkpt>
      <trkpt lat="41.40133414323127" lon="-81.74022021350842">
        <ele>266.7690657201</ele>
        <time>2026-09-05T14:29:07Z</time>
      </trkpt>
    </trkseg>
  </trk>
</gpx>