<?xml version='1.0' encoding='UTF-8'?>
<gpx xmlns="http://www.topografix.com/GPX/1/1" creator="https://gpx.studio" version="1.1">
  <metadata>
    <name>Dog Walk - 2026-03-21 #5</name>
  </metadata>
  <trk>
    <name>Dog Walk - 2026-03-21 #5</name>
    <type>dog walk</type>
    <trkseg>
      <trkpt lat="41.40133103683913" lon="-81.74023614534669">
        <ele>266.7960187366</ele>
        <time>2026-03-21T19:05:35Z</time>
      </trkpt>
      <trkpt lat="41.40132886447272" lon="-81.74082114488145">
        <ele>266.2243742479</ele>
        <time>2026-03-21T19:06:14Z</time>
      </trkpt>
      <trkpt lat="41.40133162934395" lon="-81.74143788487673">
        <ele>265.6164559576</ele>
        <time>2026-03-21T19:06:55Z</time>
      </trkpt>
      <trkpt lat="41.40133323883093" lon="-81.74203081648216">
        <ele>265.4134814402</ele>
        <time>2026-03-21T19:07:35Z</time>
      </trkpt>
      <trkpt lat="41.40132605890816" lon="-81.74239385292915">
        <ele>264.6116255804</ele>
        <time>2026-03-21T19:07:59Z</time>
      </trkpt>
      <trkpt lat="41.40090508783662" lon="-81.74221073948384">
        <ele>264.8776829672</ele>
        <time>2026-03-21T19:08:31Z</time>
      </trkpt>
      <trkpt lat="41.40048028654603" lon="-81.74199683703462">
        <ele>265.2047206328</ele>
        <time>2026-03-21T19:09:08Z</time>
      </trkpt>
      <trkpt lat="41.40004125651421" lon="-81.74180747660614">
        <ele>265.5043172221</ele>
        <time>2026-03-21T19:09:49Z</time>
      </trkpt>
      <trkpt lat="41.39962602416069" lon="-81.74161578574294">
        <ele>264.7281195848</ele>
        <time>2026-03-21T19:10:36Z</time>
      </trkpt>
      <trkpt lat="41.39953126682541" lon="-81.74157311616511">
        <ele>264.9856913239</ele>
        <time>2026-03-21T19:10:43Z</time>
      </trkpt>
      <trkpt lat="41.39953346413925" lon="-81.74098169300481">
        <ele>265.6199362224</ele>
        <time>2026-03-21T19:11:38Z</time>
      </trkpt>
      <trkpt lat="41.39953727840824" lon="-81.74037849470146">
        <ele>265.9717319819</ele>
        <time>2026-03-21T19:12:16Z</time>
      </trkpt>
      <trkpt lat="41.39953551283894" lon="-81.73977369325007">
        <ele>266.4182007537</ele>
        <time>2026-03-21T19:12:49Z</time>
      </trkpt>
      <trkpt lat="41.39952289260486" lon="-81.73916887248637">
        <ele>266.6676870045</ele>
        <time>2026-03-21T19:13:19Z</time>
      </trkpt>
      <trkpt lat="41.39953023084656" lon="-81.73857632158072">
        <ele>267.0043824795</ele>
        <time>2026-03-21T19:13:54Z</time>
      </trkpt>
      <trkpt lat="41.39953191098490" lon="-81.73798196357697">
        <ele>267.1951745974</ele>
        <time>2026-03-21T19:14:53Z</time>
      </trkpt>
      <trkpt lat="41.39953290350447" lon="-81.73737633868903">
        <ele>267.1639254939</ele>
        <time>2026-03-21T19:15:25Z</time>
      </trkpt>
      <trkpt lat="41.39952389913842" lon="-81.73678310939333">
        <ele>267.4826114137</ele>
        <time>2026-03-21T19:16:11Z</time>
      </trkpt>
      <trkpt lat="41.39952902642555" lon="-81.73618434789385">
        <ele>267.5877703865</ele>
        <time>2026-03-21T19:16:46Z</time>
      </trkpt>
      <trkpt lat="41.39952351772327" lon="-81.73557689178674">
        <ele>267.1324801550</ele>
        <time>2026-03-21T19:17:31Z</time>
      </trkpt>
      <trkpt lat="41.39952428089307" lon="-81.73498376404676">
        <ele>266.9635081862</ele>
        <time>2026-03-21T19:18:21Z</time>
      </trkpt>
      <trkpt lat="41.39952136827623" lon="-81.73461642469785">
        <ele>267.1978046184</ele>
        <time>2026-03-21T19:18:49Z</time>
      </trkpt>
      <trkpt lat="41.39997556635191" lon="-81.73461482162958">
        <ele>267.0841756681</ele>
        <time>2026-03-21T19:19:31Z</time>
      </trkpt>
      <trkpt lat="41.40042043681262" lon="-81.73462518286604">
        <ele>267.2362271261</ele>
        <time>2026-03-21T19:20:23Z</time>
      </trkpt>
      <trkpt lat="41.40087621951838" lon="-81.73463202926054">
        <ele>267.2131878187</ele>
        <time>2026-03-21T19:21:03Z</time>
      </trkpt>
      <trkpt lat="41.40130801090967" lon="-81.73464945217992">
        <ele>267.4028696006</ele>
        <time>2026-03-21T19:21:41Z</time>
      </trkpt>
      <trkpt lat="41.40131568286884" lon="-81.73523880363217">
        <ele>268.0468372429</ele>
        <time>2026-03-21T19:22:35Z</time>
      </trkpt>
      <trkpt lat="41.40132936880543" lon="-81.73583137175974">
        <ele>268.2600286340</ele>
        <time>2026-03-21T19:23:07Z</time>
      </trkpt>
      <trkpt lat="41.40132487483658" lon="-81.73643588701431">
        <ele>268.2491668733</ele>
        <time>2026-03-21T19:24:16Z</time>
      </trkpt>
      <trkpt lat="41.40131833352555" lon="-81.73703586515997">
        <ele>268.1200479271</ele>
        <time>2026-03-21T19:24:56Z</time>
      </trkpt>
      <trkpt lat="41.40133007419647" lon="-81.73764079944868">
        <ele>268.1805027404</ele>
        <time>2026-03-21T19:25:36Z</time>
      </trkpt>
      <trkpt lat="41.40132504829129" lon="-81.73824077717889">
        <ele>267.6548748653</ele>
        <time>2026-03-21T19:26:19Z</time>
      </trkpt>
      <trkpt lat="41.40133277478965" lon="-81.73883168708961">
        <ele>267.1701068529</ele>
        <time>2026-03-21T19:27:01Z</time>
      </trkpt>
      <trkpt lat="41.40132306489053" lon="-81.73943162163734">
        <ele>267.1585291974</ele>
        <time>2026-03-21T19:27:48Z</time>
      </trkpt>
      <trkpt lat="41.40133327370850" lon="-81.74003775936615">
        <ele>266.8977767437</ele>
        <time>2026-03-21T19:28:35Z</time>
      </trkpt>
      <trkpt lat="41.40133343676340" lon="-81.74021463601831">
        <ele>266.7968430486</ele>
        <time>2026-03-21T19:28:50Z</time>
      </trkpt>
    </trkseg>
  </trk>
</gpx>