<?xml version='1.0' encoding='UTF-8'?>
<gpx xmlns="http://www.topografix.com/GPX/1/1" creator="https://gpx.studio" version="1.1">
  <metadata>
    <name>Dog Walk - 2026-04-21 #5</name>
  </metadata>
  <trk>
    <name>Dog Walk - 2026-04-21 #5</name>
    <type>dog walk</type>
    <trkseg>
      <trkpt lat="41.40133814529631" lon="-81.74023548331850">
        <ele>266.4497351054</ele>
        <time>2026-04-21T20:41:01Z</time>
      </trkpt>
      <trkpt lat="41.40134176460281" lon="-81.74083761611804">
        <ele>266.2342435723</ele>
        <time>2026-04-21T20:41:37Z</time>
      </trkpt>
      <trkpt lat="41.40134776117589" lon="-81.74142939737334">
        <ele>265.8667648973</ele>
        <time>2026-04-21T20:42:19Z</time>
      </trkpt>
      <trkpt lat="41.40134453596225" lon="-81.74203119825819">
        <ele>265.3959591197</ele>
        <time>2026-04-21T20:42:58Z</time>
      </trkpt>
      <trkpt lat="41.40134939858643" lon="-81.74240874494316">
        <ele>264.6085054399</ele>
        <time>2026-04-21T20:43:28Z</time>
      </trkpt>
      <trkpt lat="41.40176502125347" lon="-81.74263297247916">
        <ele>264.4069208973</ele>
        <time>2026-04-21T20:44:06Z</time>
      </trkpt>
      <trkpt lat="41.40219029178727" lon="-81.74283752401089">
        <ele>263.4149411071</ele>
        <time>2026-04-21T20:44:38Z</time>
      </trkpt>
      <trkpt lat="41.40261265964586" lon="-81.74305627270843">
        <ele>263.1852002823</ele>
        <time>2026-04-21T20:45:50Z</time>
      </trkpt>
      <trkpt lat="41.40302729664299" lon="-81.74326533810674">
        <ele>262.3918977354</ele>
        <time>2026-04-21T20:46:27Z</time>
      </trkpt>
      <trkpt lat="41.40345271977345" lon="-81.74347330624427">
        <ele>261.8668436839</ele>
        <time>2026-04-21T20:47:03Z</time>
      </trkpt>
      <trkpt lat="41.40348879495988" lon="-81.74350355042880">
        <ele>261.6521798368</ele>
        <time>2026-04-21T20:47:06Z</time>
      </trkpt>
      <trkpt lat="41.40359720485374" lon="-81.74351752682760">
        <ele>261.7187793927</ele>
        <time>2026-04-21T20:47:14Z</time>
      </trkpt>
      <trkpt lat="41.40399709397602" lon="-81.74350498774089">
        <ele>260.5760556184</ele>
        <time>2026-04-21T20:47:47Z</time>
      </trkpt>
      <trkpt lat="41.40399248152454" lon="-81.74291508979745">
        <ele>261.6822284323</ele>
        <time>2026-04-21T20:48:39Z</time>
      </trkpt>
      <trkpt lat="41.40399050819894" lon="-81.74230295791033">
        <ele>262.2532865813</ele>
        <time>2026-04-21T20:49:28Z</time>
      </trkpt>
      <trkpt lat="41.40399420246889" lon="-81.74170687116812">
        <ele>262.3116242721</ele>
        <time>2026-04-21T20:50:18Z</time>
      </trkpt>
      <trkpt lat="41.40399037002845" lon="-81.74110720371138">
        <ele>262.9329126847</ele>
        <time>2026-04-21T20:51:03Z</time>
      </trkpt>
      <trkpt lat="41.40398165799068" lon="-81.74050792944966">
        <ele>263.4860981113</ele>
        <time>2026-04-21T20:51:50Z</time>
      </trkpt>
      <trkpt lat="41.40398457186646" lon="-81.73991802404117">
        <ele>264.3392569754</ele>
        <time>2026-04-21T20:52:24Z</time>
      </trkpt>
      <trkpt lat="41.40398219098907" lon="-81.73930695640928">
        <ele>264.9608040353</ele>
        <time>2026-04-21T20:53:03Z</time>
      </trkpt>
      <trkpt lat="41.40397958228733" lon="-81.73877730977790">
        <ele>265.4092846502</ele>
        <time>2026-04-21T20:53:42Z</time>
      </trkpt>
      <trkpt lat="41.40352935763908" lon="-81.73878073052606">
        <ele>265.9902067116</ele>
        <time>2026-04-21T20:54:22Z</time>
      </trkpt>
      <trkpt lat="41.40308970247306" lon="-81.73876198145524">
        <ele>266.4112825080</ele>
        <time>2026-04-21T20:55:17Z</time>
      </trkpt>
      <trkpt lat="41.40263669489879" lon="-81.73877921376008">
        <ele>266.8291460899</ele>
        <time>2026-04-21T20:56:03Z</time>
      </trkpt>
      <trkpt lat="41.40222112047103" lon="-81.73876772671446">
        <ele>267.1248336266</ele>
        <time>2026-04-21T20:56:36Z</time>
      </trkpt>
      <trkpt lat="41.40221808695535" lon="-81.73828297244269">
        <ele>267.0803365171</ele>
        <time>2026-04-21T20:57:04Z</time>
      </trkpt>
      <trkpt lat="41.40176909629439" lon="-81.73826624482874">
        <ele>267.8165106492</ele>
        <time>2026-04-21T20:57:43Z</time>
      </trkpt>
      <trkpt lat="41.40132581356503" lon="-81.73826841668330">
        <ele>267.3700351643</ele>
        <time>2026-04-21T20:58:29Z</time>
      </trkpt>
      <trkpt lat="41.40133443127883" lon="-81.73885376146244">
        <ele>267.5113496979</ele>
        <time>2026-04-21T20:59:05Z</time>
      </trkpt>
      <trkpt lat="41.40133667566808" lon="-81.73946473397739">
        <ele>267.4685292675</ele>
        <time>2026-04-21T20:59:42Z</time>
      </trkpt>
      <trkpt lat="41.40133726096228" lon="-81.74007014955161">
        <ele>266.5430683756</ele>
        <time>2026-04-21T21:00:18Z</time>
      </trkpt>
      <trkpt lat="41.40133968078990" lon="-81.74020687185654">
        <ele>266.6410329134</ele>
        <time>2026-04-21T21:00:28Z</time>
      </trkpt>
    </trkseg>
  </trk>
</gpx>