<?xml version='1.0' encoding='UTF-8'?>
<gpx xmlns="http://www.topografix.com/GPX/1/1" creator="https://gpx.studio" version="1.1">
  <metadata>
    <name>Dog Walk - 2026-05-14 #4</name>
  </metadata>
  <trk>
    <name>Dog Walk - 2026-05-14 #4</name>
    <type>dog walk</type>
    <trkseg>
      <trkpt lat="41.40133641977179" lon="-81.74022945001403">
        <ele>266.6061044978</ele>
        <time>2026-05-14T15:49:56Z</time>
      </trkpt>
      <trkpt lat="41.40133882399419" lon="-81.74083649122673">
        <ele>266.1456854707</ele>
        <time>2026-05-14T15:50:51Z</time>
      </trkpt>
      <trkpt lat="41.40134142218779" lon="-81.74143333018050">
        <ele>265.7278284844</ele>
        <time>2026-05-14T15:51:31Z</time>
      </trkpt>
      <trkpt lat="41.40134828978900" lon="-81.74202520278774">
        <ele>265.3866334011</ele>
        <time>2026-05-14T15:52:19Z</time>
      </trkpt>
      <trkpt lat="41.40134148947391" lon="-81.74241163228791">
        <ele>264.8413958429</ele>
        <time>2026-05-14T15:52:45Z</time>
      </trkpt>
      <trkpt lat="41.40176834174013" lon="-81.74262716036088">
        <ele>264.2352233835</ele>
        <time>2026-05-14T15:53:23Z</time>
      </trkpt>
      <trkpt lat="41.40219102939145" lon="-81.74284991770058">
        <ele>263.5700373590</ele>
        <time>2026-05-14T15:54:12Z</time>
      </trkpt>
      <trkpt lat="41.40260804558253" lon="-81.74305269375607">
        <ele>263.0677938020</ele>
        <time>2026-05-14T15:54:58Z</time>
      </trkpt>
      <trkpt lat="41.40303102916054" lon="-81.74326805025576">
        <ele>262.4406019445</ele>
        <time>2026-05-14T15:55:33Z</time>
      </trkpt>
      <trkpt lat="41.40344293049335" lon="-81.74349175858219">
        <ele>261.6976321296</ele>
        <time>2026-05-14T15:56:29Z</time>
      </trkpt>
      <trkpt lat="41.40348369557135" lon="-81.74350223757614">
        <ele>261.8043831416</ele>
        <time>2026-05-14T15:56:32Z</time>
      </trkpt>
      <trkpt lat="41.40360184136151" lon="-81.74352131144060">
        <ele>261.6771561136</ele>
        <time>2026-05-14T15:56:44Z</time>
      </trkpt>
      <trkpt lat="41.40399990982309" lon="-81.74350443427598">
        <ele>260.8167608870</ele>
        <time>2026-05-14T15:57:14Z</time>
      </trkpt>
      <trkpt lat="41.40399098207770" lon="-81.74290009696143">
        <ele>261.5380209924</ele>
        <time>2026-05-14T15:58:14Z</time>
      </trkpt>
      <trkpt lat="41.40399025623150" lon="-81.74231432374313">
        <ele>262.0602354735</ele>
        <time>2026-05-14T15:58:54Z</time>
      </trkpt>
      <trkpt lat="41.40399936756008" lon="-81.74171433088398">
        <ele>262.5614942472</ele>
        <time>2026-05-14T15:59:49Z</time>
      </trkpt>
      <trkpt lat="41.40399194221676" lon="-81.74110565819774">
        <ele>263.0723577514</ele>
        <time>2026-05-14T16:00:28Z</time>
      </trkpt>
      <trkpt lat="41.40398481833104" lon="-81.74050526329594">
        <ele>263.5676940794</ele>
        <time>2026-05-14T16:01:05Z</time>
      </trkpt>
      <trkpt lat="41.40398480429606" lon="-81.73992650330538">
        <ele>264.2838777153</ele>
        <time>2026-05-14T16:01:41Z</time>
      </trkpt>
      <trkpt lat="41.40398690761386" lon="-81.73931535415359">
        <ele>264.9754904868</ele>
        <time>2026-05-14T16:02:11Z</time>
      </trkpt>
      <trkpt lat="41.40398383365933" lon="-81.73877300954105">
        <ele>265.4364084561</ele>
        <time>2026-05-14T16:02:49Z</time>
      </trkpt>
      <trkpt lat="41.40354409683908" lon="-81.73877925586204">
        <ele>265.9642429378</ele>
        <time>2026-05-14T16:03:35Z</time>
      </trkpt>
      <trkpt lat="41.40308811543806" lon="-81.73876420377901">
        <ele>266.0220610353</ele>
        <time>2026-05-14T16:04:14Z</time>
      </trkpt>
      <trkpt lat="41.40263670668055" lon="-81.73878455045467">
        <ele>266.7099585347</ele>
        <time>2026-05-14T16:05:12Z</time>
      </trkpt>
      <trkpt lat="41.40222667451476" lon="-81.73877567311334">
        <ele>267.1896539510</ele>
        <time>2026-05-14T16:05:47Z</time>
      </trkpt>
      <trkpt lat="41.40221046795178" lon="-81.73827911532500">
        <ele>267.1610916366</ele>
        <time>2026-05-14T16:06:15Z</time>
      </trkpt>
      <trkpt lat="41.40176984855995" lon="-81.73826729428717">
        <ele>267.8493732202</ele>
        <time>2026-05-14T16:06:49Z</time>
      </trkpt>
      <trkpt lat="41.40133469479753" lon="-81.73826838638543">
        <ele>267.4689598917</ele>
        <time>2026-05-14T16:07:46Z</time>
      </trkpt>
      <trkpt lat="41.40132702731906" lon="-81.73884806044802">
        <ele>267.2553758398</ele>
        <time>2026-05-14T16:08:40Z</time>
      </trkpt>
      <trkpt lat="41.40133225169612" lon="-81.73946989069871">
        <ele>267.4656531424</ele>
        <time>2026-05-14T16:09:21Z</time>
      </trkpt>
      <trkpt lat="41.40133546242911" lon="-81.74006609463996">
        <ele>266.5028412577</ele>
        <time>2026-05-14T16:10:03Z</time>
      </trkpt>
      <trkpt lat="41.40134021693432" lon="-81.74020491626248">
        <ele>266.6386401333</ele>
        <time>2026-05-14T16:10:13Z</time>
      </trkpt>
    </trkseg>
  </trk>
</gpx>