<?xml version='1.0' encoding='UTF-8'?>
<gpx xmlns="http://www.topografix.com/GPX/1/1" creator="https://gpx.studio" version="1.1">
  <metadata>
    <name>Dog Walk - 2026-03-03 #2</name>
  </metadata>
  <trk>
    <name>Dog Walk - 2026-03-03 #2</name>
    <type>dog walk</type>
    <trkseg>
      <trkpt lat="41.40132967679995" lon="-81.74024163094259">
        <ele>266.4507068544</ele>
        <time>2026-03-03T13:23:57Z</time>
      </trkpt>
      <trkpt lat="41.40133727456779" lon="-81.74083115924213">
        <ele>266.3832604740</ele>
        <time>2026-03-03T13:24:25Z</time>
      </trkpt>
      <trkpt lat="41.40133029208960" lon="-81.74142903879317">
        <ele>265.7665901627</ele>
        <time>2026-03-03T13:25:02Z</time>
      </trkpt>
      <trkpt lat="41.40132889346651" lon="-81.74203618843869">
        <ele>265.4207364475</ele>
        <time>2026-03-03T13:25:47Z</time>
      </trkpt>
      <trkpt lat="41.40131970495009" lon="-81.74238764421641">
        <ele>264.6389460778</ele>
        <time>2026-03-03T13:26:15Z</time>
      </trkpt>
      <trkpt lat="41.40090789561277" lon="-81.74219863055465">
        <ele>265.1776688615</ele>
        <time>2026-03-03T13:27:00Z</time>
      </trkpt>
      <trkpt lat="41.40048532639870" lon="-81.74200157486899">
        <ele>265.4407054905</ele>
        <time>2026-03-03T13:27:31Z</time>
      </trkpt>
      <trkpt lat="41.40005143643330" lon="-81.74180190711860">
        <ele>265.3721738465</ele>
        <time>2026-03-03T13:28:13Z</time>
      </trkpt>
      <trkpt lat="41.39963378882884" lon="-81.74160942747204">
        <ele>264.5636347595</ele>
        <time>2026-03-03T13:28:45Z</time>
      </trkpt>
      <trkpt lat="41.39953349846088" lon="-81.74157332122888">
        <ele>264.8537882020</ele>
        <time>2026-03-03T13:28:53Z</time>
      </trkpt>
      <trkpt lat="41.39953647169096" lon="-81.74097390520716">
        <ele>265.5947349380</ele>
        <time>2026-03-03T13:29:33Z</time>
      </trkpt>
      <trkpt lat="41.39953380116592" lon="-81.74037064550670">
        <ele>266.0746571048</ele>
        <time>2026-03-03T13:30:20Z</time>
      </trkpt>
      <trkpt lat="41.39952335157552" lon="-81.73977738403461">
        <ele>266.5341055875</ele>
        <time>2026-03-03T13:31:07Z</time>
      </trkpt>
      <trkpt lat="41.39953439614524" lon="-81.73916659732591">
        <ele>266.9304507220</ele>
        <time>2026-03-03T13:31:51Z</time>
      </trkpt>
      <trkpt lat="41.39953000839071" lon="-81.73857177572562">
        <ele>267.0188445804</ele>
        <time>2026-03-03T13:32:57Z</time>
      </trkpt>
      <trkpt lat="41.39952979940453" lon="-81.73797601646639">
        <ele>267.0404196716</ele>
        <time>2026-03-03T13:33:40Z</time>
      </trkpt>
      <trkpt lat="41.39953533484154" lon="-81.73737945363555">
        <ele>267.1904521228</ele>
        <time>2026-03-03T13:34:22Z</time>
      </trkpt>
      <trkpt lat="41.39952420516803" lon="-81.73677224458768">
        <ele>267.3026067793</ele>
        <time>2026-03-03T13:35:03Z</time>
      </trkpt>
      <trkpt lat="41.39952874186630" lon="-81.73617961246605">
        <ele>267.3248241256</ele>
        <time>2026-03-03T13:35:39Z</time>
      </trkpt>
      <trkpt lat="41.39952244295438" lon="-81.73558000063760">
        <ele>267.1959400811</ele>
        <time>2026-03-03T13:36:19Z</time>
      </trkpt>
      <trkpt lat="41.39953010998004" lon="-81.73498085695088">
        <ele>267.1707387102</ele>
        <time>2026-03-03T13:37:00Z</time>
      </trkpt>
      <trkpt lat="41.39952071360821" lon="-81.73462003935082">
        <ele>267.0863808023</ele>
        <time>2026-03-03T13:37:26Z</time>
      </trkpt>
      <trkpt lat="41.39997424901511" lon="-81.73461834548829">
        <ele>267.4588539279</ele>
        <time>2026-03-03T13:38:05Z</time>
      </trkpt>
      <trkpt lat="41.40043310464394" lon="-81.73462781975076">
        <ele>267.2450462746</ele>
        <time>2026-03-03T13:38:51Z</time>
      </trkpt>
      <trkpt lat="41.40086821623844" lon="-81.73463775774322">
        <ele>267.3771847084</ele>
        <time>2026-03-03T13:39:24Z</time>
      </trkpt>
      <trkpt lat="41.40132244206007" lon="-81.73463737015364">
        <ele>267.3093725690</ele>
        <time>2026-03-03T13:40:01Z</time>
      </trkpt>
      <trkpt lat="41.40132662938480" lon="-81.73523713815942">
        <ele>267.8739292792</ele>
        <time>2026-03-03T13:40:56Z</time>
      </trkpt>
      <trkpt lat="41.40132347941644" lon="-81.73584750139916">
        <ele>268.2798214711</ele>
        <time>2026-03-03T13:41:41Z</time>
      </trkpt>
      <trkpt lat="41.40131581321541" lon="-81.73643436254960">
        <ele>268.1023597614</ele>
        <time>2026-03-03T13:42:24Z</time>
      </trkpt>
      <trkpt lat="41.40131752761991" lon="-81.73705447626800">
        <ele>267.8979767541</ele>
        <time>2026-03-03T13:43:19Z</time>
      </trkpt>
      <trkpt lat="41.40133130763564" lon="-81.73763567261771">
        <ele>267.7617791860</ele>
        <time>2026-03-03T13:43:54Z</time>
      </trkpt>
      <trkpt lat="41.40133145568372" lon="-81.73824329734174">
        <ele>267.6350369941</ele>
        <time>2026-03-03T13:44:40Z</time>
      </trkpt>
      <trkpt lat="41.40133234871556" lon="-81.73882965852340">
        <ele>267.2668286550</ele>
        <time>2026-03-03T13:45:08Z</time>
      </trkpt>
      <trkpt lat="41.40132425322157" lon="-81.73944224208580">
        <ele>266.9711088903</ele>
        <time>2026-03-03T13:45:45Z</time>
      </trkpt>
      <trkpt lat="41.40133337981948" lon="-81.74003448761546">
        <ele>266.6723681227</ele>
        <time>2026-03-03T13:46:32Z</time>
      </trkpt>
      <trkpt lat="41.40133620699612" lon="-81.74022707622527">
        <ele>266.5105160825</ele>
        <time>2026-03-03T13:46:44Z</time>
      </trkpt>
    </trkseg>
  </trk>
</gpx>