<?xml version='1.0' encoding='UTF-8'?>
<gpx xmlns="http://www.topografix.com/GPX/1/1" creator="https://gpx.studio" version="1.1">
  <metadata>
    <name>Dog Walk - 2026-02-26</name>
  </metadata>
  <trk>
    <name>Dog Walk - 2026-02-26</name>
    <type>dog walk</type>
    <trkseg>
      <trkpt lat="41.40134537929170" lon="-81.74022682545213">
        <ele>266.4578196822</ele>
        <time>2026-02-26T17:01:07Z</time>
      </trkpt>
      <trkpt lat="41.40133383640093" lon="-81.74082513232658">
        <ele>266.0863159586</ele>
        <time>2026-02-26T17:01:34Z</time>
      </trkpt>
      <trkpt lat="41.40133233990062" lon="-81.74143341414549">
        <ele>265.5686598986</ele>
        <time>2026-02-26T17:02:25Z</time>
      </trkpt>
      <trkpt lat="41.40133367847790" lon="-81.74203249750595">
        <ele>265.3839906455</ele>
        <time>2026-02-26T17:03:01Z</time>
      </trkpt>
      <trkpt lat="41.40133085410162" lon="-81.74238533914779">
        <ele>264.7451102843</ele>
        <time>2026-02-26T17:03:23Z</time>
      </trkpt>
      <trkpt lat="41.40090383108876" lon="-81.74217116211172">
        <ele>265.3127988861</ele>
        <time>2026-02-26T17:04:11Z</time>
      </trkpt>
      <trkpt lat="41.40048286477913" lon="-81.74195895957428">
        <ele>265.3364844208</ele>
        <time>2026-02-26T17:05:04Z</time>
      </trkpt>
      <trkpt lat="41.40045025453043" lon="-81.74195919892792">
        <ele>265.3178071640</ele>
        <time>2026-02-26T17:05:07Z</time>
      </trkpt>
      <trkpt lat="41.40044241247451" lon="-81.74135539193009">
        <ele>265.7258599830</ele>
        <time>2026-02-26T17:06:00Z</time>
      </trkpt>
      <trkpt lat="41.40043831957058" lon="-81.74074883360394">
        <ele>266.4799713305</ele>
        <time>2026-02-26T17:06:59Z</time>
      </trkpt>
      <trkpt lat="41.40043751896528" lon="-81.74015124426082">
        <ele>266.6670904892</ele>
        <time>2026-02-26T17:07:44Z</time>
      </trkpt>
      <trkpt lat="41.40042543200511" lon="-81.73955906522563">
        <ele>267.0349703485</ele>
        <time>2026-02-26T17:08:32Z</time>
      </trkpt>
      <trkpt lat="41.40041849461615" lon="-81.73894748829569">
        <ele>267.1021546496</ele>
        <time>2026-02-26T17:09:07Z</time>
      </trkpt>
      <trkpt lat="41.40041657597418" lon="-81.73835184250264">
        <ele>267.2560012720</ele>
        <time>2026-02-26T17:09:53Z</time>
      </trkpt>
      <trkpt lat="41.40042050146053" lon="-81.73774838315566">
        <ele>267.7478318241</ele>
        <time>2026-02-26T17:10:37Z</time>
      </trkpt>
      <trkpt lat="41.40041147734204" lon="-81.73715644003690">
        <ele>267.8827914403</ele>
        <time>2026-02-26T17:11:10Z</time>
      </trkpt>
      <trkpt lat="41.40040655868162" lon="-81.73654843016200">
        <ele>267.7762154359</ele>
        <time>2026-02-26T17:11:42Z</time>
      </trkpt>
      <trkpt lat="41.40040334196779" lon="-81.73594823476577">
        <ele>267.9421813279</ele>
        <time>2026-02-26T17:13:04Z</time>
      </trkpt>
      <trkpt lat="41.40039582200959" lon="-81.73535665889975">
        <ele>267.8074584890</ele>
        <time>2026-02-26T17:14:01Z</time>
      </trkpt>
      <trkpt lat="41.40038747422710" lon="-81.73475731186564">
        <ele>267.4841656646</ele>
        <time>2026-02-26T17:14:35Z</time>
      </trkpt>
      <trkpt lat="41.40038736437275" lon="-81.73462425840350">
        <ele>267.2961060531</ele>
        <time>2026-02-26T17:14:45Z</time>
      </trkpt>
      <trkpt lat="41.40084389146420" lon="-81.73462322930477">
        <ele>267.3421279254</ele>
        <time>2026-02-26T17:15:21Z</time>
      </trkpt>
      <trkpt lat="41.40128186965180" lon="-81.73463409747346">
        <ele>267.2957164455</ele>
        <time>2026-02-26T17:15:50Z</time>
      </trkpt>
      <trkpt lat="41.40131510633370" lon="-81.73463142766198">
        <ele>267.3289998419</ele>
        <time>2026-02-26T17:15:54Z</time>
      </trkpt>
      <trkpt lat="41.40132628101499" lon="-81.73522712414163">
        <ele>268.0002006030</ele>
        <time>2026-02-26T17:16:30Z</time>
      </trkpt>
      <trkpt lat="41.40132448051933" lon="-81.73583497547719">
        <ele>268.1532197051</ele>
        <time>2026-02-26T17:17:09Z</time>
      </trkpt>
      <trkpt lat="41.40132607151963" lon="-81.73643629053332">
        <ele>268.2756970625</ele>
        <time>2026-02-26T17:17:46Z</time>
      </trkpt>
      <trkpt lat="41.40133183897977" lon="-81.73703663492589">
        <ele>268.0339687153</ele>
        <time>2026-02-26T17:18:37Z</time>
      </trkpt>
      <trkpt lat="41.40134022602206" lon="-81.73763885491651">
        <ele>267.9036048543</ele>
        <time>2026-02-26T17:19:22Z</time>
      </trkpt>
      <trkpt lat="41.40133150193539" lon="-81.73822652200170">
        <ele>267.6016084437</ele>
        <time>2026-02-26T17:20:09Z</time>
      </trkpt>
      <trkpt lat="41.40134210288449" lon="-81.73883980284262">
        <ele>267.2890713668</ele>
        <time>2026-02-26T17:20:52Z</time>
      </trkpt>
      <trkpt lat="41.40134299332151" lon="-81.73942645973305">
        <ele>267.3144011776</ele>
        <time>2026-02-26T17:22:13Z</time>
      </trkpt>
      <trkpt lat="41.40134566379426" lon="-81.74003712806173">
        <ele>266.5904670547</ele>
        <time>2026-02-26T17:23:03Z</time>
      </trkpt>
      <trkpt lat="41.40134122572693" lon="-81.74020401794665">
        <ele>266.4815367570</ele>
        <time>2026-02-26T17:23:15Z</time>
      </trkpt>
    </trkseg>
  </trk>
</gpx>