<?xml version='1.0' encoding='UTF-8'?>
<gpx xmlns="http://www.topografix.com/GPX/1/1" creator="https://gpx.studio" version="1.1">
  <metadata>
    <name>Dog Walk - 2026-07-26 #2</name>
  </metadata>
  <trk>
    <name>Dog Walk - 2026-07-26 #2</name>
    <type>dog walk</type>
    <trkseg>
      <trkpt lat="41.40134285689305" lon="-81.74023063234334">
        <ele>266.3495532571</ele>
        <time>2026-07-26T16:57:15Z</time>
      </trkpt>
      <trkpt lat="41.40134109426855" lon="-81.74084495912302">
        <ele>266.0595023174</ele>
        <time>2026-07-26T16:58:00Z</time>
      </trkpt>
      <trkpt lat="41.40134462862790" lon="-81.74143243133202">
        <ele>265.6885850661</ele>
        <time>2026-07-26T16:58:35Z</time>
      </trkpt>
      <trkpt lat="41.40134944821231" lon="-81.74202832216648">
        <ele>265.3789296896</ele>
        <time>2026-07-26T16:59:19Z</time>
      </trkpt>
      <trkpt lat="41.40134742490863" lon="-81.74243140778746">
        <ele>264.5603945523</ele>
        <time>2026-07-26T16:59:44Z</time>
      </trkpt>
      <trkpt lat="41.40177502860389" lon="-81.74262172037767">
        <ele>264.5123096763</ele>
        <time>2026-07-26T17:00:23Z</time>
      </trkpt>
      <trkpt lat="41.40219741031863" lon="-81.74282307578044">
        <ele>263.4430682176</ele>
        <time>2026-07-26T17:00:58Z</time>
      </trkpt>
      <trkpt lat="41.40261338469263" lon="-81.74301315538477">
        <ele>263.0465948831</ele>
        <time>2026-07-26T17:01:36Z</time>
      </trkpt>
      <trkpt lat="41.40304471588161" lon="-81.74322305028555">
        <ele>262.6821285053</ele>
        <time>2026-07-26T17:02:14Z</time>
      </trkpt>
      <trkpt lat="41.40312490202272" lon="-81.74326033907059">
        <ele>262.0965977852</ele>
        <time>2026-07-26T17:02:22Z</time>
      </trkpt>
      <trkpt lat="41.40310986970449" lon="-81.74265694435243">
        <ele>263.0652450750</ele>
        <time>2026-07-26T17:03:09Z</time>
      </trkpt>
      <trkpt lat="41.40310872664511" lon="-81.74205534110598">
        <ele>263.8710902677</ele>
        <time>2026-07-26T17:04:00Z</time>
      </trkpt>
      <trkpt lat="41.40310854404531" lon="-81.74143803771716">
        <ele>264.2970041183</ele>
        <time>2026-07-26T17:04:42Z</time>
      </trkpt>
      <trkpt lat="41.40310078051206" lon="-81.74086390278568">
        <ele>264.7669914684</ele>
        <time>2026-07-26T17:05:19Z</time>
      </trkpt>
      <trkpt lat="41.40311038851285" lon="-81.74025829534212">
        <ele>265.4486550192</ele>
        <time>2026-07-26T17:05:53Z</time>
      </trkpt>
      <trkpt lat="41.40310370589665" lon="-81.73964978970568">
        <ele>265.8830640145</ele>
        <time>2026-07-26T17:06:30Z</time>
      </trkpt>
      <trkpt lat="41.40309678506831" lon="-81.73905424043710">
        <ele>266.0036766430</ele>
        <time>2026-07-26T17:07:39Z</time>
      </trkpt>
      <trkpt lat="41.40310359938004" lon="-81.73878562975393">
        <ele>266.2991999022</ele>
        <time>2026-07-26T17:08:08Z</time>
      </trkpt>
      <trkpt lat="41.40264885439695" lon="-81.73878607986271">
        <ele>266.6911158133</ele>
        <time>2026-07-26T17:08:37Z</time>
      </trkpt>
      <trkpt lat="41.40223835514815" lon="-81.73877252337606">
        <ele>267.2146529481</ele>
        <time>2026-07-26T17:09:23Z</time>
      </trkpt>
      <trkpt lat="41.40223230226044" lon="-81.73818514148326">
        <ele>267.1316512326</ele>
        <time>2026-07-26T17:09:55Z</time>
      </trkpt>
      <trkpt lat="41.40223812218671" lon="-81.73759062182248">
        <ele>267.1236155291</ele>
        <time>2026-07-26T17:10:41Z</time>
      </trkpt>
      <trkpt lat="41.40223233994389" lon="-81.73698453484933">
        <ele>267.1960075704</ele>
        <time>2026-07-26T17:11:13Z</time>
      </trkpt>
      <trkpt lat="41.40222813724966" lon="-81.73638475676979">
        <ele>267.1514446151</ele>
        <time>2026-07-26T17:11:53Z</time>
      </trkpt>
      <trkpt lat="41.40223096007612" lon="-81.73578012397451">
        <ele>267.2510427470</ele>
        <time>2026-07-26T17:12:50Z</time>
      </trkpt>
      <trkpt lat="41.40221122163546" lon="-81.73518388207565">
        <ele>267.0297876028</ele>
        <time>2026-07-26T17:13:27Z</time>
      </trkpt>
      <trkpt lat="41.40222009745268" lon="-81.73465988099800">
        <ele>267.1261081941</ele>
        <time>2026-07-26T17:14:05Z</time>
      </trkpt>
      <trkpt lat="41.40176803684007" lon="-81.73464512209945">
        <ele>266.9907964134</ele>
        <time>2026-07-26T17:15:18Z</time>
      </trkpt>
      <trkpt lat="41.40132597797209" lon="-81.73464392466580">
        <ele>267.1883714772</ele>
        <time>2026-07-26T17:16:10Z</time>
      </trkpt>
      <trkpt lat="41.40130747626112" lon="-81.73463657232762">
        <ele>267.2273197521</ele>
        <time>2026-07-26T17:16:12Z</time>
      </trkpt>
      <trkpt lat="41.40131389774332" lon="-81.73523448218229">
        <ele>267.9418266188</ele>
        <time>2026-07-26T17:16:49Z</time>
      </trkpt>
      <trkpt lat="41.40132534586621" lon="-81.73582873128423">
        <ele>268.7052565681</ele>
        <time>2026-07-26T17:17:22Z</time>
      </trkpt>
      <trkpt lat="41.40132539937986" lon="-81.73643680460945">
        <ele>267.9661069907</ele>
        <time>2026-07-26T17:18:00Z</time>
      </trkpt>
      <trkpt lat="41.40132825347174" lon="-81.73703683298490">
        <ele>268.0453048497</ele>
        <time>2026-07-26T17:18:41Z</time>
      </trkpt>
      <trkpt lat="41.40133089897166" lon="-81.73763621900292">
        <ele>267.8883441191</ele>
        <time>2026-07-26T17:19:16Z</time>
      </trkpt>
      <trkpt lat="41.40133422603319" lon="-81.73823194939209">
        <ele>267.6978173891</ele>
        <time>2026-07-26T17:20:04Z</time>
      </trkpt>
      <trkpt lat="41.40134625234322" lon="-81.73883643809729">
        <ele>267.2809242251</ele>
        <time>2026-07-26T17:20:45Z</time>
      </trkpt>
      <trkpt lat="41.40134095653831" lon="-81.73942690134291">
        <ele>267.2092923647</ele>
        <time>2026-07-26T17:21:23Z</time>
      </trkpt>
      <trkpt lat="41.40134700047506" lon="-81.74003873207928">
        <ele>266.5925277034</ele>
        <time>2026-07-26T17:22:14Z</time>
      </trkpt>
      <trkpt lat="41.40134416088689" lon="-81.74016400624417">
        <ele>266.4292313530</ele>
        <time>2026-07-26T17:22:23Z</time>
      </trkpt>
    </trkseg>
  </trk>
</gpx>