<?xml version='1.0' encoding='UTF-8'?>
<gpx xmlns="http://www.topografix.com/GPX/1/1" creator="https://gpx.studio" version="1.1">
  <metadata>
    <name>Dog Walk - 2026-06-17 #3</name>
  </metadata>
  <trk>
    <name>Dog Walk - 2026-06-17 #3</name>
    <type>dog walk</type>
    <trkseg>
      <trkpt lat="41.40133710136287" lon="-81.74023433868662">
        <ele>266.6655295882</ele>
        <time>2026-06-17T16:17:39Z</time>
      </trkpt>
      <trkpt lat="41.40133830645377" lon="-81.74084147265644">
        <ele>266.3055822116</ele>
        <time>2026-06-17T16:18:28Z</time>
      </trkpt>
      <trkpt lat="41.40134811545710" lon="-81.74142895335319">
        <ele>265.8609350513</ele>
        <time>2026-06-17T16:19:15Z</time>
      </trkpt>
      <trkpt lat="41.40134363088205" lon="-81.74203492639285">
        <ele>265.3762906925</ele>
        <time>2026-06-17T16:19:53Z</time>
      </trkpt>
      <trkpt lat="41.40135357858621" lon="-81.74243243248830">
        <ele>264.5640426602</ele>
        <time>2026-06-17T16:20:20Z</time>
      </trkpt>
      <trkpt lat="41.40177199413782" lon="-81.74262526275612">
        <ele>264.3374189700</ele>
        <time>2026-06-17T16:21:05Z</time>
      </trkpt>
      <trkpt lat="41.40219350276762" lon="-81.74281190367029">
        <ele>263.7362111285</ele>
        <time>2026-06-17T16:21:38Z</time>
      </trkpt>
      <trkpt lat="41.40262208915203" lon="-81.74300478682039">
        <ele>263.2263074006</ele>
        <time>2026-06-17T16:22:21Z</time>
      </trkpt>
      <trkpt lat="41.40305535985549" lon="-81.74321813995645">
        <ele>262.2732087932</ele>
        <time>2026-06-17T16:22:54Z</time>
      </trkpt>
      <trkpt lat="41.40311795906592" lon="-81.74324805634225">
        <ele>262.4729506840</ele>
        <time>2026-06-17T16:23:00Z</time>
      </trkpt>
      <trkpt lat="41.40311736237570" lon="-81.74264411098017">
        <ele>263.1338480287</ele>
        <time>2026-06-17T16:23:52Z</time>
      </trkpt>
      <trkpt lat="41.40311030213466" lon="-81.74205761825597">
        <ele>263.7824668455</ele>
        <time>2026-06-17T16:24:25Z</time>
      </trkpt>
      <trkpt lat="41.40311029598016" lon="-81.74145589748925">
        <ele>264.2024848128</ele>
        <time>2026-06-17T16:25:20Z</time>
      </trkpt>
      <trkpt lat="41.40310174378438" lon="-81.74085854321505">
        <ele>264.9491071183</ele>
        <time>2026-06-17T16:25:59Z</time>
      </trkpt>
      <trkpt lat="41.40310135357258" lon="-81.74025478395301">
        <ele>265.5025980287</ele>
        <time>2026-06-17T16:26:38Z</time>
      </trkpt>
      <trkpt lat="41.40310332105420" lon="-81.73964584137251">
        <ele>265.7205296855</ele>
        <time>2026-06-17T16:27:20Z</time>
      </trkpt>
      <trkpt lat="41.40310556200930" lon="-81.73905612479739">
        <ele>266.1013550903</ele>
        <time>2026-06-17T16:27:54Z</time>
      </trkpt>
      <trkpt lat="41.40310447913009" lon="-81.73878439615164">
        <ele>266.2224129918</ele>
        <time>2026-06-17T16:28:11Z</time>
      </trkpt>
      <trkpt lat="41.40265710409813" lon="-81.73878405362291">
        <ele>266.5874381314</ele>
        <time>2026-06-17T16:28:48Z</time>
      </trkpt>
      <trkpt lat="41.40223391598107" lon="-81.73878830320041">
        <ele>267.0909978907</ele>
        <time>2026-06-17T16:29:25Z</time>
      </trkpt>
      <trkpt lat="41.40223698703223" lon="-81.73818173264635">
        <ele>267.3260678344</ele>
        <time>2026-06-17T16:30:04Z</time>
      </trkpt>
      <trkpt lat="41.40223659041067" lon="-81.73757547242236">
        <ele>266.9872374813</ele>
        <time>2026-06-17T16:30:42Z</time>
      </trkpt>
      <trkpt lat="41.40222891291175" lon="-81.73698982339927">
        <ele>267.2934306019</ele>
        <time>2026-06-17T16:31:17Z</time>
      </trkpt>
      <trkpt lat="41.40222518049587" lon="-81.73638120798945">
        <ele>267.2473995332</ele>
        <time>2026-06-17T16:31:54Z</time>
      </trkpt>
      <trkpt lat="41.40223235262079" lon="-81.73577505822432">
        <ele>267.1695505277</ele>
        <time>2026-06-17T16:32:30Z</time>
      </trkpt>
      <trkpt lat="41.40222874221691" lon="-81.73517858960473">
        <ele>267.0855381642</ele>
        <time>2026-06-17T16:33:12Z</time>
      </trkpt>
      <trkpt lat="41.40222408836912" lon="-81.73465728375652">
        <ele>267.0833752373</ele>
        <time>2026-06-17T16:33:51Z</time>
      </trkpt>
      <trkpt lat="41.40177252786338" lon="-81.73464269866281">
        <ele>267.3430602547</ele>
        <time>2026-06-17T16:34:29Z</time>
      </trkpt>
      <trkpt lat="41.40132095435589" lon="-81.73464391211346">
        <ele>267.5705613473</ele>
        <time>2026-06-17T16:35:07Z</time>
      </trkpt>
      <trkpt lat="41.40132082790371" lon="-81.73464235083067">
        <ele>267.2947192616</ele>
        <time>2026-06-17T16:35:08Z</time>
      </trkpt>
      <trkpt lat="41.40132094922184" lon="-81.73523351978513">
        <ele>267.8380809879</ele>
        <time>2026-06-17T16:36:02Z</time>
      </trkpt>
      <trkpt lat="41.40132167771019" lon="-81.73583379085282">
        <ele>267.9811724205</ele>
        <time>2026-06-17T16:36:48Z</time>
      </trkpt>
      <trkpt lat="41.40132996205588" lon="-81.73643538030800">
        <ele>268.1922165551</ele>
        <time>2026-06-17T16:37:43Z</time>
      </trkpt>
      <trkpt lat="41.40132914661907" lon="-81.73703385502377">
        <ele>268.1830091575</ele>
        <time>2026-06-17T16:38:31Z</time>
      </trkpt>
      <trkpt lat="41.40133661661383" lon="-81.73763554163061">
        <ele>267.8562027044</ele>
        <time>2026-06-17T16:39:06Z</time>
      </trkpt>
      <trkpt lat="41.40134048196875" lon="-81.73823374756628">
        <ele>267.4627814298</ele>
        <time>2026-06-17T16:39:53Z</time>
      </trkpt>
      <trkpt lat="41.40134114643599" lon="-81.73882093452811">
        <ele>267.2724803113</ele>
        <time>2026-06-17T16:40:43Z</time>
      </trkpt>
      <trkpt lat="41.40134245664741" lon="-81.73943031352448">
        <ele>267.0873787992</ele>
        <time>2026-06-17T16:41:21Z</time>
      </trkpt>
      <trkpt lat="41.40134604175235" lon="-81.74004396719614">
        <ele>266.7619640901</ele>
        <time>2026-06-17T16:42:03Z</time>
      </trkpt>
      <trkpt lat="41.40134435516675" lon="-81.74014671597793">
        <ele>266.4073216508</ele>
        <time>2026-06-17T16:42:11Z</time>
      </trkpt>
    </trkseg>
  </trk>
</gpx>