<?xml version='1.0' encoding='UTF-8'?>
<gpx xmlns="http://www.topografix.com/GPX/1/1" creator="https://gpx.studio" version="1.1">
  <metadata>
    <name>Dog Walk - 2026-09-14 #2</name>
  </metadata>
  <trk>
    <name>Dog Walk - 2026-09-14 #2</name>
    <type>dog walk</type>
    <trkseg>
      <trkpt lat="41.40134108184260" lon="-81.74023798411321">
        <ele>266.4774912762</ele>
        <time>2026-09-14T14:02:51Z</time>
      </trkpt>
      <trkpt lat="41.40133293070021" lon="-81.74083611664081">
        <ele>266.3755914071</ele>
        <time>2026-09-14T14:03:29Z</time>
      </trkpt>
      <trkpt lat="41.40133679175005" lon="-81.74143381782947">
        <ele>265.6954283136</ele>
        <time>2026-09-14T14:04:20Z</time>
      </trkpt>
      <trkpt lat="41.40132857432839" lon="-81.74202456288747">
        <ele>265.2470205834</ele>
        <time>2026-09-14T14:05:11Z</time>
      </trkpt>
      <trkpt lat="41.40132432665261" lon="-81.74238647331752">
        <ele>264.8999168241</ele>
        <time>2026-09-14T14:05:36Z</time>
      </trkpt>
      <trkpt lat="41.40091271939064" lon="-81.74218370307109">
        <ele>265.2270692646</ele>
        <time>2026-09-14T14:06:27Z</time>
      </trkpt>
      <trkpt lat="41.40047714087343" lon="-81.74199503496519">
        <ele>265.2742889859</ele>
        <time>2026-09-14T14:07:13Z</time>
      </trkpt>
      <trkpt lat="41.40004210188522" lon="-81.74180824350941">
        <ele>265.4409552026</ele>
        <time>2026-09-14T14:08:07Z</time>
      </trkpt>
      <trkpt lat="41.39962172200967" lon="-81.74161166161397">
        <ele>264.5647795679</ele>
        <time>2026-09-14T14:08:45Z</time>
      </trkpt>
      <trkpt lat="41.39953293367041" lon="-81.74158089877487">
        <ele>264.9344132368</ele>
        <time>2026-09-14T14:08:53Z</time>
      </trkpt>
      <trkpt lat="41.39952904048191" lon="-81.74097769876578">
        <ele>265.8002340310</ele>
        <time>2026-09-14T14:09:39Z</time>
      </trkpt>
      <trkpt lat="41.39953510861427" lon="-81.74036965887183">
        <ele>266.1822970882</ele>
        <time>2026-09-14T14:10:14Z</time>
      </trkpt>
      <trkpt lat="41.39953636112182" lon="-81.73977664228168">
        <ele>266.7789563389</ele>
        <time>2026-09-14T14:10:47Z</time>
      </trkpt>
      <trkpt lat="41.39953365749958" lon="-81.73917902853951">
        <ele>267.0427306652</ele>
        <time>2026-09-14T14:11:20Z</time>
      </trkpt>
      <trkpt lat="41.39953123650264" lon="-81.73858533460698">
        <ele>266.9068180834</ele>
        <time>2026-09-14T14:11:55Z</time>
      </trkpt>
      <trkpt lat="41.39952565916801" lon="-81.73797157642481">
        <ele>267.0511645916</ele>
        <time>2026-09-14T14:12:29Z</time>
      </trkpt>
      <trkpt lat="41.39952814441342" lon="-81.73737389127906">
        <ele>267.3983567677</ele>
        <time>2026-09-14T14:13:15Z</time>
      </trkpt>
      <trkpt lat="41.39953842751196" lon="-81.73678351768109">
        <ele>267.4928590674</ele>
        <time>2026-09-14T14:14:04Z</time>
      </trkpt>
      <trkpt lat="41.39953472622751" lon="-81.73617165746344">
        <ele>267.3640164219</ele>
        <time>2026-09-14T14:14:40Z</time>
      </trkpt>
      <trkpt lat="41.39952474186086" lon="-81.73558523558522">
        <ele>267.2433488079</ele>
        <time>2026-09-14T14:15:15Z</time>
      </trkpt>
      <trkpt lat="41.39952474758869" lon="-81.73498370837525">
        <ele>267.0802652416</ele>
        <time>2026-09-14T14:16:19Z</time>
      </trkpt>
      <trkpt lat="41.39951724883931" lon="-81.73461652866422">
        <ele>267.0673545909</ele>
        <time>2026-09-14T14:16:51Z</time>
      </trkpt>
      <trkpt lat="41.39997572488055" lon="-81.73461621072690">
        <ele>267.2562015317</ele>
        <time>2026-09-14T14:17:28Z</time>
      </trkpt>
      <trkpt lat="41.40042032560964" lon="-81.73463298075791">
        <ele>267.2536240716</ele>
        <time>2026-09-14T14:18:03Z</time>
      </trkpt>
      <trkpt lat="41.40087580868342" lon="-81.73463104765645">
        <ele>267.1527712141</ele>
        <time>2026-09-14T14:18:35Z</time>
      </trkpt>
      <trkpt lat="41.40131783137220" lon="-81.73464398750126">
        <ele>267.3651051758</ele>
        <time>2026-09-14T14:19:08Z</time>
      </trkpt>
      <trkpt lat="41.40131626729418" lon="-81.73524354204019">
        <ele>268.0054065948</ele>
        <time>2026-09-14T14:19:39Z</time>
      </trkpt>
      <trkpt lat="41.40132159193632" lon="-81.73584131878437">
        <ele>268.3716095751</ele>
        <time>2026-09-14T14:20:28Z</time>
      </trkpt>
      <trkpt lat="41.40132529816188" lon="-81.73645125354170">
        <ele>268.2978037061</ele>
        <time>2026-09-14T14:21:13Z</time>
      </trkpt>
      <trkpt lat="41.40132245670785" lon="-81.73703545079159">
        <ele>267.9123810307</ele>
        <time>2026-09-14T14:21:51Z</time>
      </trkpt>
      <trkpt lat="41.40133036256383" lon="-81.73763757059281">
        <ele>268.0412760269</ele>
        <time>2026-09-14T14:22:51Z</time>
      </trkpt>
      <trkpt lat="41.40132822812913" lon="-81.73823392301728">
        <ele>267.8526994839</ele>
        <time>2026-09-14T14:23:53Z</time>
      </trkpt>
      <trkpt lat="41.40133417951439" lon="-81.73883876232769">
        <ele>267.2607373953</ele>
        <time>2026-09-14T14:24:43Z</time>
      </trkpt>
      <trkpt lat="41.40133406593213" lon="-81.73943618993222">
        <ele>267.3539515396</ele>
        <time>2026-09-14T14:25:17Z</time>
      </trkpt>
      <trkpt lat="41.40132627016826" lon="-81.74003818781368">
        <ele>266.6905518579</ele>
        <time>2026-09-14T14:25:55Z</time>
      </trkpt>
      <trkpt lat="41.40134346137224" lon="-81.74021621985771">
        <ele>266.4288869540</ele>
        <time>2026-09-14T14:26:05Z</time>
      </trkpt>
    </trkseg>
  </trk>
</gpx>