<?xml version='1.0' encoding='UTF-8'?>
<gpx xmlns="http://www.topografix.com/GPX/1/1" creator="https://gpx.studio" version="1.1">
  <metadata>
    <name>Dog Walk - 2026-08-27 #1</name>
  </metadata>
  <trk>
    <name>Dog Walk - 2026-08-27 #1</name>
    <type>dog walk</type>
    <trkseg>
      <trkpt lat="41.40133976294732" lon="-81.74021890113345">
        <ele>266.5144591515</ele>
        <time>2026-08-27T09:04:01Z</time>
      </trkpt>
      <trkpt lat="41.40134264002670" lon="-81.74083802769984">
        <ele>266.1118998854</ele>
        <time>2026-08-27T09:04:43Z</time>
      </trkpt>
      <trkpt lat="41.40133941359331" lon="-81.74143714745580">
        <ele>265.6016628506</ele>
        <time>2026-08-27T09:05:20Z</time>
      </trkpt>
      <trkpt lat="41.40133088964575" lon="-81.74203359685613">
        <ele>265.2640021807</ele>
        <time>2026-08-27T09:05:54Z</time>
      </trkpt>
      <trkpt lat="41.40132711626578" lon="-81.74238002209745">
        <ele>264.7236162548</ele>
        <time>2026-08-27T09:06:19Z</time>
      </trkpt>
      <trkpt lat="41.40089573732409" lon="-81.74217450114895">
        <ele>265.1708290425</ele>
        <time>2026-08-27T09:06:51Z</time>
      </trkpt>
      <trkpt lat="41.40048828039025" lon="-81.74197545885150">
        <ele>265.1557193944</ele>
        <time>2026-08-27T09:07:28Z</time>
      </trkpt>
      <trkpt lat="41.40045283542283" lon="-81.74195478410796">
        <ele>265.3781776285</ele>
        <time>2026-08-27T09:07:31Z</time>
      </trkpt>
      <trkpt lat="41.40045128207816" lon="-81.74134985464742">
        <ele>265.9925202254</ele>
        <time>2026-08-27T09:08:05Z</time>
      </trkpt>
      <trkpt lat="41.40044528465933" lon="-81.74075484727507">
        <ele>266.4112057606</ele>
        <time>2026-08-27T09:08:35Z</time>
      </trkpt>
      <trkpt lat="41.40044320206486" lon="-81.74014987596637">
        <ele>266.6786290843</ele>
        <time>2026-08-27T09:09:24Z</time>
      </trkpt>
      <trkpt lat="41.40043132475000" lon="-81.73955337304788">
        <ele>266.8751134279</ele>
        <time>2026-08-27T09:10:09Z</time>
      </trkpt>
      <trkpt lat="41.40042552371523" lon="-81.73895661085872">
        <ele>266.9258866060</ele>
        <time>2026-08-27T09:10:43Z</time>
      </trkpt>
      <trkpt lat="41.40042182230218" lon="-81.73835690715204">
        <ele>267.1592992403</ele>
        <time>2026-08-27T09:11:17Z</time>
      </trkpt>
      <trkpt lat="41.40042268216909" lon="-81.73774923476353">
        <ele>267.6699023267</ele>
        <time>2026-08-27T09:12:00Z</time>
      </trkpt>
      <trkpt lat="41.40041714222580" lon="-81.73714492104662">
        <ele>267.9835223942</ele>
        <time>2026-08-27T09:12:40Z</time>
      </trkpt>
      <trkpt lat="41.40040823092629" lon="-81.73655786215900">
        <ele>268.1502187135</ele>
        <time>2026-08-27T09:13:11Z</time>
      </trkpt>
      <trkpt lat="41.40040396113798" lon="-81.73596066948167">
        <ele>268.1128607217</ele>
        <time>2026-08-27T09:14:10Z</time>
      </trkpt>
      <trkpt lat="41.40039962685010" lon="-81.73536596726281">
        <ele>267.7822334844</ele>
        <time>2026-08-27T09:14:46Z</time>
      </trkpt>
      <trkpt lat="41.40039872174977" lon="-81.73475968495109">
        <ele>267.3544081628</ele>
        <time>2026-08-27T09:15:28Z</time>
      </trkpt>
      <trkpt lat="41.40040063582429" lon="-81.73462739565274">
        <ele>267.2434887425</ele>
        <time>2026-08-27T09:15:36Z</time>
      </trkpt>
      <trkpt lat="41.40084801162838" lon="-81.73464443599164">
        <ele>267.1613805687</ele>
        <time>2026-08-27T09:16:23Z</time>
      </trkpt>
      <trkpt lat="41.40129169747557" lon="-81.73462740673972">
        <ele>267.4587119584</ele>
        <time>2026-08-27T09:16:56Z</time>
      </trkpt>
      <trkpt lat="41.40131814486801" lon="-81.73462685018089">
        <ele>267.1755827483</ele>
        <time>2026-08-27T09:16:59Z</time>
      </trkpt>
      <trkpt lat="41.40133009383712" lon="-81.73523383621836">
        <ele>267.9436318409</ele>
        <time>2026-08-27T09:17:38Z</time>
      </trkpt>
      <trkpt lat="41.40131889580839" lon="-81.73583370208208">
        <ele>268.4773693308</ele>
        <time>2026-08-27T09:18:17Z</time>
      </trkpt>
      <trkpt lat="41.40133386251536" lon="-81.73642414059501">
        <ele>268.3384791594</ele>
        <time>2026-08-27T09:18:55Z</time>
      </trkpt>
      <trkpt lat="41.40133325352129" lon="-81.73703580541260">
        <ele>268.1799876305</ele>
        <time>2026-08-27T09:19:33Z</time>
      </trkpt>
      <trkpt lat="41.40133902388322" lon="-81.73762561391895">
        <ele>267.7944869540</ele>
        <time>2026-08-27T09:20:12Z</time>
      </trkpt>
      <trkpt lat="41.40133742937952" lon="-81.73823837595911">
        <ele>267.5892314565</ele>
        <time>2026-08-27T09:20:51Z</time>
      </trkpt>
      <trkpt lat="41.40133624547222" lon="-81.73883381370203">
        <ele>267.3441129564</ele>
        <time>2026-08-27T09:21:32Z</time>
      </trkpt>
      <trkpt lat="41.40134774866251" lon="-81.73942462264468">
        <ele>267.1559582630</ele>
        <time>2026-08-27T09:22:13Z</time>
      </trkpt>
      <trkpt lat="41.40134318918327" lon="-81.74003052686756">
        <ele>266.6099496141</ele>
        <time>2026-08-27T09:23:10Z</time>
      </trkpt>
      <trkpt lat="41.40133992758727" lon="-81.74019761322114">
        <ele>266.5933049065</ele>
        <time>2026-08-27T09:23:40Z</time>
      </trkpt>
    </trkseg>
  </trk>
</gpx>