<?xml version='1.0' encoding='UTF-8'?>
<gpx xmlns="http://www.topografix.com/GPX/1/1" creator="https://gpx.studio" version="1.1">
  <metadata>
    <name>Dog Walk - 2026-03-24 #2</name>
  </metadata>
  <trk>
    <name>Dog Walk - 2026-03-24 #2</name>
    <type>dog walk</type>
    <trkseg>
      <trkpt lat="41.40134125895001" lon="-81.74023058657798">
        <ele>266.5621237318</ele>
        <time>2026-03-24T12:09:34Z</time>
      </trkpt>
      <trkpt lat="41.40134453359551" lon="-81.74083400867792">
        <ele>266.1310201725</ele>
        <time>2026-03-24T12:10:21Z</time>
      </trkpt>
      <trkpt lat="41.40134679420452" lon="-81.74144108311536">
        <ele>265.9046549975</ele>
        <time>2026-03-24T12:10:56Z</time>
      </trkpt>
      <trkpt lat="41.40135335343257" lon="-81.74203491855127">
        <ele>265.3457767884</ele>
        <time>2026-03-24T12:11:42Z</time>
      </trkpt>
      <trkpt lat="41.40134220151216" lon="-81.74241914651013">
        <ele>264.7044488515</ele>
        <time>2026-03-24T12:12:00Z</time>
      </trkpt>
      <trkpt lat="41.40177082673632" lon="-81.74260677515957">
        <ele>264.4572262904</ele>
        <time>2026-03-24T12:12:37Z</time>
      </trkpt>
      <trkpt lat="41.40219722199803" lon="-81.74281746288446">
        <ele>263.6100665996</ele>
        <time>2026-03-24T12:13:15Z</time>
      </trkpt>
      <trkpt lat="41.40261668961490" lon="-81.74301175334676">
        <ele>262.9757591400</ele>
        <time>2026-03-24T12:13:56Z</time>
      </trkpt>
      <trkpt lat="41.40304442893024" lon="-81.74321555575347">
        <ele>262.5748341469</ele>
        <time>2026-03-24T12:14:35Z</time>
      </trkpt>
      <trkpt lat="41.40312123588370" lon="-81.74325117415601">
        <ele>262.0587739414</ele>
        <time>2026-03-24T12:14:42Z</time>
      </trkpt>
      <trkpt lat="41.40311158493039" lon="-81.74264956647940">
        <ele>263.3018838098</ele>
        <time>2026-03-24T12:15:34Z</time>
      </trkpt>
      <trkpt lat="41.40311005290882" lon="-81.74205541429525">
        <ele>263.5990297840</ele>
        <time>2026-03-24T12:16:13Z</time>
      </trkpt>
      <trkpt lat="41.40311346295777" lon="-81.74145315668513">
        <ele>264.2461418219</ele>
        <time>2026-03-24T12:16:49Z</time>
      </trkpt>
      <trkpt lat="41.40309249872605" lon="-81.74085795231522">
        <ele>264.7130165827</ele>
        <time>2026-03-24T12:17:44Z</time>
      </trkpt>
      <trkpt lat="41.40311587263864" lon="-81.74025502803863">
        <ele>265.3466536493</ele>
        <time>2026-03-24T12:18:23Z</time>
      </trkpt>
      <trkpt lat="41.40310902336443" lon="-81.73965411842553">
        <ele>265.6337073539</ele>
        <time>2026-03-24T12:19:05Z</time>
      </trkpt>
      <trkpt lat="41.40309482416023" lon="-81.73905161594328">
        <ele>266.3871145069</ele>
        <time>2026-03-24T12:19:43Z</time>
      </trkpt>
      <trkpt lat="41.40309744391871" lon="-81.73878977671406">
        <ele>266.3484766861</ele>
        <time>2026-03-24T12:20:00Z</time>
      </trkpt>
      <trkpt lat="41.40264352741805" lon="-81.73879394429744">
        <ele>266.8582258489</ele>
        <time>2026-03-24T12:20:34Z</time>
      </trkpt>
      <trkpt lat="41.40223021343724" lon="-81.73878131383285">
        <ele>266.8834139028</ele>
        <time>2026-03-24T12:21:08Z</time>
      </trkpt>
      <trkpt lat="41.40223136850054" lon="-81.73817383720167">
        <ele>267.2944969709</ele>
        <time>2026-03-24T12:21:46Z</time>
      </trkpt>
      <trkpt lat="41.40223806494975" lon="-81.73757773804537">
        <ele>267.0260453677</ele>
        <time>2026-03-24T12:22:26Z</time>
      </trkpt>
      <trkpt lat="41.40222710572976" lon="-81.73698269080506">
        <ele>267.3802157999</ele>
        <time>2026-03-24T12:23:03Z</time>
      </trkpt>
      <trkpt lat="41.40222303716695" lon="-81.73638121484473">
        <ele>267.1229920284</ele>
        <time>2026-03-24T12:23:47Z</time>
      </trkpt>
      <trkpt lat="41.40222719081340" lon="-81.73578107001238">
        <ele>267.4877921349</ele>
        <time>2026-03-24T12:24:41Z</time>
      </trkpt>
      <trkpt lat="41.40221400381370" lon="-81.73518210633301">
        <ele>267.0802842872</ele>
        <time>2026-03-24T12:25:19Z</time>
      </trkpt>
      <trkpt lat="41.40222204676475" lon="-81.73465932594037">
        <ele>267.1761045306</ele>
        <time>2026-03-24T12:25:52Z</time>
      </trkpt>
      <trkpt lat="41.40176758967097" lon="-81.73464451915987">
        <ele>267.2918508564</ele>
        <time>2026-03-24T12:26:47Z</time>
      </trkpt>
      <trkpt lat="41.40132627516709" lon="-81.73463722807389">
        <ele>267.4250347035</ele>
        <time>2026-03-24T12:27:25Z</time>
      </trkpt>
      <trkpt lat="41.40131153332224" lon="-81.73463639271637">
        <ele>267.1984945886</ele>
        <time>2026-03-24T12:27:26Z</time>
      </trkpt>
      <trkpt lat="41.40132073801578" lon="-81.73523812131947">
        <ele>267.9773473044</ele>
        <time>2026-03-24T12:28:02Z</time>
      </trkpt>
      <trkpt lat="41.40131938590766" lon="-81.73582973954920">
        <ele>268.2883936858</ele>
        <time>2026-03-24T12:28:43Z</time>
      </trkpt>
      <trkpt lat="41.40132653596753" lon="-81.73643652925921">
        <ele>268.1972896761</ele>
        <time>2026-03-24T12:29:19Z</time>
      </trkpt>
      <trkpt lat="41.40132877771200" lon="-81.73703766261573">
        <ele>268.0092661958</ele>
        <time>2026-03-24T12:29:57Z</time>
      </trkpt>
      <trkpt lat="41.40133113040600" lon="-81.73762875493422">
        <ele>268.0454116837</ele>
        <time>2026-03-24T12:30:36Z</time>
      </trkpt>
      <trkpt lat="41.40133984013912" lon="-81.73824015801584">
        <ele>267.6508493276</ele>
        <time>2026-03-24T12:31:11Z</time>
      </trkpt>
      <trkpt lat="41.40133385481094" lon="-81.73883067461622">
        <ele>267.0751519391</ele>
        <time>2026-03-24T12:31:44Z</time>
      </trkpt>
      <trkpt lat="41.40134497063443" lon="-81.73943598542429">
        <ele>267.1187004137</ele>
        <time>2026-03-24T12:32:35Z</time>
      </trkpt>
      <trkpt lat="41.40134878746446" lon="-81.74003670395639">
        <ele>266.8303586146</ele>
        <time>2026-03-24T12:33:08Z</time>
      </trkpt>
      <trkpt lat="41.40134557781430" lon="-81.74016268617652">
        <ele>266.5975642660</ele>
        <time>2026-03-24T12:33:18Z</time>
      </trkpt>
    </trkseg>
  </trk>
</gpx>