<?xml version='1.0' encoding='UTF-8'?>
<gpx xmlns="http://www.topografix.com/GPX/1/1" creator="https://gpx.studio" version="1.1">
  <metadata>
    <name>Dog Walk - 2026-08-30 #5</name>
  </metadata>
  <trk>
    <name>Dog Walk - 2026-08-30 #5</name>
    <type>dog walk</type>
    <trkseg>
      <trkpt lat="41.40133356602465" lon="-81.74022982766128">
        <ele>266.6731035538</ele>
        <time>2026-08-30T19:53:41Z</time>
      </trkpt>
      <trkpt lat="41.40134091609676" lon="-81.74083685892124">
        <ele>266.0884518546</ele>
        <time>2026-08-30T19:54:17Z</time>
      </trkpt>
      <trkpt lat="41.40133086370096" lon="-81.74142871230963">
        <ele>265.9002447871</ele>
        <time>2026-08-30T19:54:53Z</time>
      </trkpt>
      <trkpt lat="41.40132702502906" lon="-81.74203361913320">
        <ele>265.3305387553</ele>
        <time>2026-08-30T19:55:34Z</time>
      </trkpt>
      <trkpt lat="41.40132571861452" lon="-81.74239502836284">
        <ele>264.6004897151</ele>
        <time>2026-08-30T19:55:58Z</time>
      </trkpt>
      <trkpt lat="41.40090626914484" lon="-81.74220221882197">
        <ele>265.1510820837</ele>
        <time>2026-08-30T19:56:31Z</time>
      </trkpt>
      <trkpt lat="41.40047276996417" lon="-81.74200409303080">
        <ele>265.0158160444</ele>
        <time>2026-08-30T19:57:16Z</time>
      </trkpt>
      <trkpt lat="41.40004862412745" lon="-81.74181125044987">
        <ele>265.3939888404</ele>
        <time>2026-08-30T19:58:04Z</time>
      </trkpt>
      <trkpt lat="41.39962161943410" lon="-81.74160936992818">
        <ele>264.7144973868</ele>
        <time>2026-08-30T19:58:50Z</time>
      </trkpt>
      <trkpt lat="41.39953020950482" lon="-81.74157572433106">
        <ele>264.6601960519</ele>
        <time>2026-08-30T19:58:58Z</time>
      </trkpt>
      <trkpt lat="41.39953892678132" lon="-81.74097308054202">
        <ele>265.5877331501</ele>
        <time>2026-08-30T19:59:33Z</time>
      </trkpt>
      <trkpt lat="41.39954096433773" lon="-81.74037340266874">
        <ele>266.1853385682</ele>
        <time>2026-08-30T20:00:16Z</time>
      </trkpt>
      <trkpt lat="41.39953576714894" lon="-81.73977234538587">
        <ele>266.4811674467</ele>
        <time>2026-08-30T20:00:47Z</time>
      </trkpt>
      <trkpt lat="41.39952997924325" lon="-81.73917770645870">
        <ele>266.8725849460</ele>
        <time>2026-08-30T20:01:29Z</time>
      </trkpt>
      <trkpt lat="41.39952987171953" lon="-81.73856789382317">
        <ele>266.7733790221</ele>
        <time>2026-08-30T20:02:17Z</time>
      </trkpt>
      <trkpt lat="41.39953218668388" lon="-81.73797812967510">
        <ele>267.1871997357</ele>
        <time>2026-08-30T20:03:04Z</time>
      </trkpt>
      <trkpt lat="41.39952918239981" lon="-81.73738331768079">
        <ele>267.1660101795</ele>
        <time>2026-08-30T20:03:44Z</time>
      </trkpt>
      <trkpt lat="41.39952818292210" lon="-81.73676996618745">
        <ele>267.4833501629</ele>
        <time>2026-08-30T20:04:16Z</time>
      </trkpt>
      <trkpt lat="41.39952299325225" lon="-81.73618075138181">
        <ele>267.5211932416</ele>
        <time>2026-08-30T20:05:05Z</time>
      </trkpt>
      <trkpt lat="41.39952326902915" lon="-81.73558675161208">
        <ele>267.1526903590</ele>
        <time>2026-08-30T20:06:07Z</time>
      </trkpt>
      <trkpt lat="41.39952572526795" lon="-81.73497733553411">
        <ele>267.2242322150</ele>
        <time>2026-08-30T20:06:45Z</time>
      </trkpt>
      <trkpt lat="41.39952137658271" lon="-81.73461748866885">
        <ele>266.8419108782</ele>
        <time>2026-08-30T20:07:13Z</time>
      </trkpt>
      <trkpt lat="41.39997906559054" lon="-81.73462510088730">
        <ele>266.9966794203</ele>
        <time>2026-08-30T20:07:53Z</time>
      </trkpt>
      <trkpt lat="41.40043002844376" lon="-81.73462937913631">
        <ele>267.3308291066</ele>
        <time>2026-08-30T20:08:42Z</time>
      </trkpt>
      <trkpt lat="41.40087633498970" lon="-81.73463422569397">
        <ele>267.4258443283</ele>
        <time>2026-08-30T20:09:52Z</time>
      </trkpt>
      <trkpt lat="41.40131405228130" lon="-81.73464965502174">
        <ele>267.3746907694</ele>
        <time>2026-08-30T20:10:25Z</time>
      </trkpt>
      <trkpt lat="41.40132130778670" lon="-81.73524022440856">
        <ele>267.7572357204</ele>
        <time>2026-08-30T20:11:12Z</time>
      </trkpt>
      <trkpt lat="41.40132580634798" lon="-81.73584555070308">
        <ele>268.1272954244</ele>
        <time>2026-08-30T20:11:51Z</time>
      </trkpt>
      <trkpt lat="41.40132885782936" lon="-81.73643115442403">
        <ele>268.1183054271</ele>
        <time>2026-08-30T20:12:29Z</time>
      </trkpt>
      <trkpt lat="41.40132641361595" lon="-81.73704344372040">
        <ele>268.0893969514</ele>
        <time>2026-08-30T20:13:12Z</time>
      </trkpt>
      <trkpt lat="41.40132605405950" lon="-81.73763981017933">
        <ele>268.0051806232</ele>
        <time>2026-08-30T20:13:54Z</time>
      </trkpt>
      <trkpt lat="41.40132147792846" lon="-81.73824743417318">
        <ele>267.4919447720</ele>
        <time>2026-08-30T20:14:35Z</time>
      </trkpt>
      <trkpt lat="41.40133070191525" lon="-81.73883932257897">
        <ele>267.3803159456</ele>
        <time>2026-08-30T20:15:14Z</time>
      </trkpt>
      <trkpt lat="41.40133338281858" lon="-81.73943356600610">
        <ele>267.2911768705</ele>
        <time>2026-08-30T20:15:52Z</time>
      </trkpt>
      <trkpt lat="41.40133398615024" lon="-81.74003138309845">
        <ele>266.6929362171</ele>
        <time>2026-08-30T20:16:30Z</time>
      </trkpt>
      <trkpt lat="41.40133256079427" lon="-81.74022285637693">
        <ele>266.4132080162</ele>
        <time>2026-08-30T20:16:42Z</time>
      </trkpt>
    </trkseg>
  </trk>
</gpx>