<?xml version='1.0' encoding='UTF-8'?>
<gpx xmlns="http://www.topografix.com/GPX/1/1" creator="https://gpx.studio" version="1.1">
  <metadata>
    <name>Dog Walk - 2026-05-08 #2</name>
  </metadata>
  <trk>
    <name>Dog Walk - 2026-05-08 #2</name>
    <type>dog walk</type>
    <trkseg>
      <trkpt lat="41.40134057940365" lon="-81.74023669698687">
        <ele>266.4043075224</ele>
        <time>2026-05-08T12:45:31Z</time>
      </trkpt>
      <trkpt lat="41.40134314063707" lon="-81.74084173331399">
        <ele>266.3898004765</ele>
        <time>2026-05-08T12:46:06Z</time>
      </trkpt>
      <trkpt lat="41.40134278809029" lon="-81.74142882334507">
        <ele>265.8104348814</ele>
        <time>2026-05-08T12:46:40Z</time>
      </trkpt>
      <trkpt lat="41.40134876916954" lon="-81.74202037778237">
        <ele>265.1456034326</ele>
        <time>2026-05-08T12:47:15Z</time>
      </trkpt>
      <trkpt lat="41.40134859328421" lon="-81.74241413960999">
        <ele>264.5344381656</ele>
        <time>2026-05-08T12:47:48Z</time>
      </trkpt>
      <trkpt lat="41.40176537968671" lon="-81.74262700462286">
        <ele>264.0047079925</ele>
        <time>2026-05-08T12:48:37Z</time>
      </trkpt>
      <trkpt lat="41.40219008556301" lon="-81.74285691187926">
        <ele>263.2822638837</ele>
        <time>2026-05-08T12:49:11Z</time>
      </trkpt>
      <trkpt lat="41.40221372147266" lon="-81.74285928636888">
        <ele>263.3953077365</ele>
        <time>2026-05-08T12:49:14Z</time>
      </trkpt>
      <trkpt lat="41.40222271839031" lon="-81.74226711431251">
        <ele>264.3371616508</ele>
        <time>2026-05-08T12:50:03Z</time>
      </trkpt>
      <trkpt lat="41.40221872053927" lon="-81.74166743151797">
        <ele>264.5727018335</ele>
        <time>2026-05-08T12:50:51Z</time>
      </trkpt>
      <trkpt lat="41.40221560762948" lon="-81.74106915848903">
        <ele>265.5813503651</ele>
        <time>2026-05-08T12:51:34Z</time>
      </trkpt>
      <trkpt lat="41.40221889827059" lon="-81.74047549374694">
        <ele>265.9006043601</ele>
        <time>2026-05-08T12:52:01Z</time>
      </trkpt>
      <trkpt lat="41.40221652352520" lon="-81.73988044446699">
        <ele>266.6721886511</ele>
        <time>2026-05-08T12:52:35Z</time>
      </trkpt>
      <trkpt lat="41.40221844865069" lon="-81.73926933231733">
        <ele>267.0019130816</ele>
        <time>2026-05-08T12:53:08Z</time>
      </trkpt>
      <trkpt lat="41.40221172790665" lon="-81.73867261783992">
        <ele>267.2896352514</ele>
        <time>2026-05-08T12:53:57Z</time>
      </trkpt>
      <trkpt lat="41.40221506481483" lon="-81.73827197430195">
        <ele>267.0391716539</ele>
        <time>2026-05-08T12:54:27Z</time>
      </trkpt>
      <trkpt lat="41.40177399735695" lon="-81.73826644414281">
        <ele>267.7996360819</ele>
        <time>2026-05-08T12:55:11Z</time>
      </trkpt>
      <trkpt lat="41.40133709767827" lon="-81.73825123923648">
        <ele>267.5991570585</ele>
        <time>2026-05-08T12:55:48Z</time>
      </trkpt>
      <trkpt lat="41.40133120241104" lon="-81.73884932211622">
        <ele>267.2010799419</ele>
        <time>2026-05-08T12:56:27Z</time>
      </trkpt>
      <trkpt lat="41.40134639839658" lon="-81.73946359644850">
        <ele>266.9643901393</ele>
        <time>2026-05-08T12:57:20Z</time>
      </trkpt>
      <trkpt lat="41.40133242643934" lon="-81.74006593151863">
        <ele>266.5044122766</ele>
        <time>2026-05-08T12:57:58Z</time>
      </trkpt>
      <trkpt lat="41.40133800039366" lon="-81.74018309536034">
        <ele>266.5592046387</ele>
        <time>2026-05-08T12:58:07Z</time>
      </trkpt>
    </trkseg>
  </trk>
</gpx>