<?xml version='1.0' encoding='UTF-8'?>
<gpx xmlns="http://www.topografix.com/GPX/1/1" creator="https://gpx.studio" version="1.1">
  <metadata>
    <name>Dog Walk - 2026-07-04</name>
  </metadata>
  <trk>
    <name>Dog Walk - 2026-07-04</name>
    <type>dog walk</type>
    <trkseg>
      <trkpt lat="41.40132672506232" lon="-81.74024458455590">
        <ele>266.4950731889</ele>
        <time>2026-07-04T16:17:28Z</time>
      </trkpt>
      <trkpt lat="41.40133723857640" lon="-81.74083860370489">
        <ele>266.3112881626</ele>
        <time>2026-07-04T16:18:09Z</time>
      </trkpt>
      <trkpt lat="41.40133965020661" lon="-81.74143421040537">
        <ele>265.7799459400</ele>
        <time>2026-07-04T16:18:58Z</time>
      </trkpt>
      <trkpt lat="41.40133628286063" lon="-81.74203038523373">
        <ele>265.2135395490</ele>
        <time>2026-07-04T16:19:33Z</time>
      </trkpt>
      <trkpt lat="41.40132744359786" lon="-81.74238548485106">
        <ele>265.0105588855</ele>
        <time>2026-07-04T16:20:01Z</time>
      </trkpt>
      <trkpt lat="41.40090197320905" lon="-81.74220715047720">
        <ele>265.4142719325</ele>
        <time>2026-07-04T16:20:44Z</time>
      </trkpt>
      <trkpt lat="41.40047925375956" lon="-81.74200442899544">
        <ele>265.1728259970</ele>
        <time>2026-07-04T16:21:26Z</time>
      </trkpt>
      <trkpt lat="41.40005957146935" lon="-81.74181613703597">
        <ele>265.2525095819</ele>
        <time>2026-07-04T16:22:10Z</time>
      </trkpt>
      <trkpt lat="41.39962192964519" lon="-81.74161214123914">
        <ele>264.8178752166</ele>
        <time>2026-07-04T16:22:50Z</time>
      </trkpt>
      <trkpt lat="41.39953612185400" lon="-81.74157081686081">
        <ele>265.0435332488</ele>
        <time>2026-07-04T16:22:55Z</time>
      </trkpt>
      <trkpt lat="41.39953056876813" lon="-81.74098091129952">
        <ele>265.7280997976</ele>
        <time>2026-07-04T16:23:38Z</time>
      </trkpt>
      <trkpt lat="41.39952838621880" lon="-81.74038373247173">
        <ele>266.2080842033</ele>
        <time>2026-07-04T16:24:21Z</time>
      </trkpt>
      <trkpt lat="41.39952863388249" lon="-81.73977153599367">
        <ele>266.5169483337</ele>
        <time>2026-07-04T16:25:10Z</time>
      </trkpt>
      <trkpt lat="41.39952729077930" lon="-81.73917975347895">
        <ele>266.7590299703</ele>
        <time>2026-07-04T16:25:44Z</time>
      </trkpt>
      <trkpt lat="41.39953692794511" lon="-81.73857228731293">
        <ele>266.8439733281</ele>
        <time>2026-07-04T16:26:30Z</time>
      </trkpt>
      <trkpt lat="41.39953086171830" lon="-81.73798378263812">
        <ele>267.0817467137</ele>
        <time>2026-07-04T16:27:04Z</time>
      </trkpt>
      <trkpt lat="41.39952888517439" lon="-81.73738762887514">
        <ele>267.0159678562</ele>
        <time>2026-07-04T16:27:49Z</time>
      </trkpt>
      <trkpt lat="41.39951249940091" lon="-81.73678495069917">
        <ele>267.4529994935</ele>
        <time>2026-07-04T16:28:24Z</time>
      </trkpt>
      <trkpt lat="41.39953373692000" lon="-81.73618299823436">
        <ele>267.4654486878</ele>
        <time>2026-07-04T16:28:58Z</time>
      </trkpt>
      <trkpt lat="41.39951553173896" lon="-81.73556872534336">
        <ele>267.2527827521</ele>
        <time>2026-07-04T16:29:32Z</time>
      </trkpt>
      <trkpt lat="41.39952897877072" lon="-81.73498623669070">
        <ele>267.0222726510</ele>
        <time>2026-07-04T16:30:14Z</time>
      </trkpt>
      <trkpt lat="41.39952557724533" lon="-81.73460926447713">
        <ele>267.1580431251</ele>
        <time>2026-07-04T16:30:37Z</time>
      </trkpt>
      <trkpt lat="41.39997834247025" lon="-81.73461855985568">
        <ele>267.1283922896</ele>
        <time>2026-07-04T16:31:15Z</time>
      </trkpt>
      <trkpt lat="41.40042296667438" lon="-81.73462355955104">
        <ele>267.4738385639</ele>
        <time>2026-07-04T16:31:58Z</time>
      </trkpt>
      <trkpt lat="41.40086976302970" lon="-81.73464220706646">
        <ele>267.3359361092</ele>
        <time>2026-07-04T16:32:43Z</time>
      </trkpt>
      <trkpt lat="41.40131988085818" lon="-81.73463841014147">
        <ele>267.4200982680</ele>
        <time>2026-07-04T16:33:33Z</time>
      </trkpt>
      <trkpt lat="41.40132540078577" lon="-81.73522785174144">
        <ele>267.9506480609</ele>
        <time>2026-07-04T16:34:21Z</time>
      </trkpt>
      <trkpt lat="41.40132112017594" lon="-81.73583383168710">
        <ele>268.3624240185</ele>
        <time>2026-07-04T16:35:02Z</time>
      </trkpt>
      <trkpt lat="41.40133390179836" lon="-81.73643401346952">
        <ele>268.1771399004</ele>
        <time>2026-07-04T16:35:38Z</time>
      </trkpt>
      <trkpt lat="41.40132086028131" lon="-81.73703868958148">
        <ele>267.9901638056</ele>
        <time>2026-07-04T16:36:19Z</time>
      </trkpt>
      <trkpt lat="41.40132490524816" lon="-81.73763667295839">
        <ele>267.9285922546</ele>
        <time>2026-07-04T16:37:08Z</time>
      </trkpt>
      <trkpt lat="41.40132772396599" lon="-81.73824317878670">
        <ele>267.7514780360</ele>
        <time>2026-07-04T16:38:15Z</time>
      </trkpt>
      <trkpt lat="41.40133010344945" lon="-81.73883043589882">
        <ele>267.2249533799</ele>
        <time>2026-07-04T16:39:01Z</time>
      </trkpt>
      <trkpt lat="41.40133008062372" lon="-81.73943704338015">
        <ele>267.1647308305</ele>
        <time>2026-07-04T16:39:43Z</time>
      </trkpt>
      <trkpt lat="41.40132803306197" lon="-81.74003775990667">
        <ele>266.6604875115</ele>
        <time>2026-07-04T16:40:39Z</time>
      </trkpt>
      <trkpt lat="41.40133359220084" lon="-81.74023167068377">
        <ele>266.6696836913</ele>
        <time>2026-07-04T16:40:50Z</time>
      </trkpt>
    </trkseg>
  </trk>
</gpx>