<?xml version='1.0' encoding='UTF-8'?>
<gpx xmlns="http://www.topografix.com/GPX/1/1" creator="https://gpx.studio" version="1.1">
  <metadata>
    <name>Dog Walk - 2026-06-08 #3</name>
  </metadata>
  <trk>
    <name>Dog Walk - 2026-06-08 #3</name>
    <type>dog walk</type>
    <trkseg>
      <trkpt lat="41.40133298285571" lon="-81.74023678578854">
        <ele>266.4479477465</ele>
        <time>2026-06-08T14:38:39Z</time>
      </trkpt>
      <trkpt lat="41.40133686638435" lon="-81.74083023806432">
        <ele>266.2993464900</ele>
        <time>2026-06-08T14:39:30Z</time>
      </trkpt>
      <trkpt lat="41.40132752558952" lon="-81.74142981573260">
        <ele>265.7929896401</ele>
        <time>2026-06-08T14:40:12Z</time>
      </trkpt>
      <trkpt lat="41.40132568447096" lon="-81.74203511003171">
        <ele>265.3375540621</ele>
        <time>2026-06-08T14:41:12Z</time>
      </trkpt>
      <trkpt lat="41.40133516760504" lon="-81.74238481164589">
        <ele>264.7427687861</ele>
        <time>2026-06-08T14:41:37Z</time>
      </trkpt>
      <trkpt lat="41.40090296227529" lon="-81.74219236307046">
        <ele>265.0946911830</ele>
        <time>2026-06-08T14:42:22Z</time>
      </trkpt>
      <trkpt lat="41.40047832348644" lon="-81.74199830557454">
        <ele>265.1350006738</ele>
        <time>2026-06-08T14:43:06Z</time>
      </trkpt>
      <trkpt lat="41.40005319515412" lon="-81.74180413215409">
        <ele>265.7263679754</ele>
        <time>2026-06-08T14:43:42Z</time>
      </trkpt>
      <trkpt lat="41.39962493791662" lon="-81.74161146400084">
        <ele>264.7554747603</ele>
        <time>2026-06-08T14:44:21Z</time>
      </trkpt>
      <trkpt lat="41.39953322934583" lon="-81.74157258818839">
        <ele>264.8134485108</ele>
        <time>2026-06-08T14:44:32Z</time>
      </trkpt>
      <trkpt lat="41.39952593313063" lon="-81.74098362509194">
        <ele>265.7322035617</ele>
        <time>2026-06-08T14:45:13Z</time>
      </trkpt>
      <trkpt lat="41.39953289605064" lon="-81.74037136194195">
        <ele>266.1340405219</ele>
        <time>2026-06-08T14:46:01Z</time>
      </trkpt>
      <trkpt lat="41.39953178988276" lon="-81.73978224191872">
        <ele>266.6415928453</ele>
        <time>2026-06-08T14:46:43Z</time>
      </trkpt>
      <trkpt lat="41.39952855339193" lon="-81.73916678136420">
        <ele>267.0347926591</ele>
        <time>2026-06-08T14:47:28Z</time>
      </trkpt>
      <trkpt lat="41.39952981201832" lon="-81.73857700894798">
        <ele>266.9820413041</ele>
        <time>2026-06-08T14:48:06Z</time>
      </trkpt>
      <trkpt lat="41.39952935226272" lon="-81.73797669232668">
        <ele>267.0617910241</ele>
        <time>2026-06-08T14:48:43Z</time>
      </trkpt>
      <trkpt lat="41.39952264057914" lon="-81.73737306810514">
        <ele>267.0892691592</ele>
        <time>2026-06-08T14:49:26Z</time>
      </trkpt>
      <trkpt lat="41.39953288906012" lon="-81.73678933643220">
        <ele>267.3882677824</ele>
        <time>2026-06-08T14:50:05Z</time>
      </trkpt>
      <trkpt lat="41.39953068056973" lon="-81.73617593309380">
        <ele>267.2276909231</ele>
        <time>2026-06-08T14:50:59Z</time>
      </trkpt>
      <trkpt lat="41.39952428297015" lon="-81.73557798399078">
        <ele>267.3376772793</ele>
        <time>2026-06-08T14:51:45Z</time>
      </trkpt>
      <trkpt lat="41.39953239499400" lon="-81.73498824345653">
        <ele>267.0506602143</ele>
        <time>2026-06-08T14:52:21Z</time>
      </trkpt>
      <trkpt lat="41.39952850016943" lon="-81.73462275932442">
        <ele>267.2586979419</ele>
        <time>2026-06-08T14:52:47Z</time>
      </trkpt>
      <trkpt lat="41.39997185361138" lon="-81.73462696544372">
        <ele>267.0151734248</ele>
        <time>2026-06-08T14:53:16Z</time>
      </trkpt>
      <trkpt lat="41.40043505367920" lon="-81.73462559698299">
        <ele>267.3800234630</ele>
        <time>2026-06-08T14:54:04Z</time>
      </trkpt>
      <trkpt lat="41.40086839278145" lon="-81.73463586032611">
        <ele>267.3035775202</ele>
        <time>2026-06-08T14:54:54Z</time>
      </trkpt>
      <trkpt lat="41.40131485860859" lon="-81.73465344634522">
        <ele>267.1829738870</ele>
        <time>2026-06-08T14:55:38Z</time>
      </trkpt>
      <trkpt lat="41.40131414210278" lon="-81.73524235306209">
        <ele>267.7406817308</ele>
        <time>2026-06-08T14:56:13Z</time>
      </trkpt>
      <trkpt lat="41.40132046835131" lon="-81.73583830770777">
        <ele>268.2657654387</ele>
        <time>2026-06-08T14:56:55Z</time>
      </trkpt>
      <trkpt lat="41.40132335066030" lon="-81.73644974508368">
        <ele>267.9769863257</ele>
        <time>2026-06-08T14:57:27Z</time>
      </trkpt>
      <trkpt lat="41.40132585271083" lon="-81.73704449327046">
        <ele>268.0192409401</ele>
        <time>2026-06-08T14:58:03Z</time>
      </trkpt>
      <trkpt lat="41.40132801696378" lon="-81.73763383643642">
        <ele>267.6695714534</ele>
        <time>2026-06-08T14:58:39Z</time>
      </trkpt>
      <trkpt lat="41.40132930972845" lon="-81.73823781900312">
        <ele>267.5150273915</ele>
        <time>2026-06-08T14:59:35Z</time>
      </trkpt>
      <trkpt lat="41.40133357361025" lon="-81.73883400614247">
        <ele>267.4342946471</ele>
        <time>2026-06-08T15:00:13Z</time>
      </trkpt>
      <trkpt lat="41.40133818067262" lon="-81.73943906396411">
        <ele>267.1055170824</ele>
        <time>2026-06-08T15:00:53Z</time>
      </trkpt>
      <trkpt lat="41.40132715970201" lon="-81.74003953812614">
        <ele>266.7646231805</ele>
        <time>2026-06-08T15:01:27Z</time>
      </trkpt>
      <trkpt lat="41.40132811137101" lon="-81.74021613198022">
        <ele>266.3633874550</ele>
        <time>2026-06-08T15:01:38Z</time>
      </trkpt>
    </trkseg>
  </trk>
</gpx>