<?xml version='1.0' encoding='UTF-8'?>
<gpx xmlns="http://www.topografix.com/GPX/1/1" creator="https://gpx.studio" version="1.1">
  <metadata>
    <name>Dog Walk - 2026-08-24 #1</name>
  </metadata>
  <trk>
    <name>Dog Walk - 2026-08-24 #1</name>
    <type>dog walk</type>
    <trkseg>
      <trkpt lat="41.40134933475580" lon="-81.74022818554236">
        <ele>266.4579708837</ele>
        <time>2026-08-24T11:18:14Z</time>
      </trkpt>
      <trkpt lat="41.40134926054977" lon="-81.74083837597924">
        <ele>266.2054588872</ele>
        <time>2026-08-24T11:18:48Z</time>
      </trkpt>
      <trkpt lat="41.40135021418854" lon="-81.74143762849170">
        <ele>265.7319645841</ele>
        <time>2026-08-24T11:19:27Z</time>
      </trkpt>
      <trkpt lat="41.40134408059397" lon="-81.74202439882922">
        <ele>265.2456269794</ele>
        <time>2026-08-24T11:20:13Z</time>
      </trkpt>
      <trkpt lat="41.40135034112648" lon="-81.74241451233954">
        <ele>264.8585811046</ele>
        <time>2026-08-24T11:20:48Z</time>
      </trkpt>
      <trkpt lat="41.40176884638767" lon="-81.74264460511282">
        <ele>264.4543326988</ele>
        <time>2026-08-24T11:21:19Z</time>
      </trkpt>
      <trkpt lat="41.40218916039354" lon="-81.74285843150597">
        <ele>263.3394961096</ele>
        <time>2026-08-24T11:21:58Z</time>
      </trkpt>
      <trkpt lat="41.40221518940372" lon="-81.74286378909446">
        <ele>263.4045619945</ele>
        <time>2026-08-24T11:22:00Z</time>
      </trkpt>
      <trkpt lat="41.40221156606132" lon="-81.74227748054322">
        <ele>264.2580823055</ele>
        <time>2026-08-24T11:22:50Z</time>
      </trkpt>
      <trkpt lat="41.40221435312976" lon="-81.74166115269757">
        <ele>264.4475290770</ele>
        <time>2026-08-24T11:23:34Z</time>
      </trkpt>
      <trkpt lat="41.40221196041080" lon="-81.74107029565108">
        <ele>265.4976965265</ele>
        <time>2026-08-24T11:24:15Z</time>
      </trkpt>
      <trkpt lat="41.40222552408832" lon="-81.74046545699146">
        <ele>265.9988818872</ele>
        <time>2026-08-24T11:24:45Z</time>
      </trkpt>
      <trkpt lat="41.40221704397012" lon="-81.73987431203838">
        <ele>266.7660852633</ele>
        <time>2026-08-24T11:25:22Z</time>
      </trkpt>
      <trkpt lat="41.40222728286657" lon="-81.73926994119520">
        <ele>266.8728390577</ele>
        <time>2026-08-24T11:26:05Z</time>
      </trkpt>
      <trkpt lat="41.40222005495544" lon="-81.73867456902610">
        <ele>267.2119111506</ele>
        <time>2026-08-24T11:26:42Z</time>
      </trkpt>
      <trkpt lat="41.40222320796624" lon="-81.73826825883775">
        <ele>267.1368031055</ele>
        <time>2026-08-24T11:27:31Z</time>
      </trkpt>
      <trkpt lat="41.40176580906689" lon="-81.73826470343576">
        <ele>267.7529655107</ele>
        <time>2026-08-24T11:28:16Z</time>
      </trkpt>
      <trkpt lat="41.40133631773887" lon="-81.73826948652145">
        <ele>267.6368244620</ele>
        <time>2026-08-24T11:28:50Z</time>
      </trkpt>
      <trkpt lat="41.40134681256497" lon="-81.73885660281715">
        <ele>267.2998861893</ele>
        <time>2026-08-24T11:29:32Z</time>
      </trkpt>
      <trkpt lat="41.40134050448719" lon="-81.73946900400925">
        <ele>267.1649236036</ele>
        <time>2026-08-24T11:30:13Z</time>
      </trkpt>
      <trkpt lat="41.40134323937967" lon="-81.74006204158634">
        <ele>266.8008141657</ele>
        <time>2026-08-24T11:30:56Z</time>
      </trkpt>
      <trkpt lat="41.40134242246474" lon="-81.74018330422378">
        <ele>266.3710525543</ele>
        <time>2026-08-24T11:31:03Z</time>
      </trkpt>
    </trkseg>
  </trk>
</gpx>