<?xml version='1.0' encoding='UTF-8'?>
<gpx xmlns="http://www.topografix.com/GPX/1/1" creator="https://gpx.studio" version="1.1">
  <metadata>
    <name>Dog Walk - 2026-04-13 #3</name>
  </metadata>
  <trk>
    <name>Dog Walk - 2026-04-13 #3</name>
    <type>dog walk</type>
    <trkseg>
      <trkpt lat="41.40132566182034" lon="-81.74023370886171">
        <ele>266.7141475562</ele>
        <time>2026-04-13T14:49:33Z</time>
      </trkpt>
      <trkpt lat="41.40133892643307" lon="-81.74083133658678">
        <ele>266.3612190743</ele>
        <time>2026-04-13T14:50:16Z</time>
      </trkpt>
      <trkpt lat="41.40132690642560" lon="-81.74143518265271">
        <ele>265.6805207037</ele>
        <time>2026-04-13T14:50:57Z</time>
      </trkpt>
      <trkpt lat="41.40132591181506" lon="-81.74203943193152">
        <ele>265.1218185012</ele>
        <time>2026-04-13T14:51:51Z</time>
      </trkpt>
      <trkpt lat="41.40133298967451" lon="-81.74239416542667">
        <ele>264.9125896437</ele>
        <time>2026-04-13T14:52:15Z</time>
      </trkpt>
      <trkpt lat="41.40090640193551" lon="-81.74220151965770">
        <ele>265.1385080878</ele>
        <time>2026-04-13T14:52:50Z</time>
      </trkpt>
      <trkpt lat="41.40047910588179" lon="-81.74199658961201">
        <ele>265.1205435166</ele>
        <time>2026-04-13T14:53:33Z</time>
      </trkpt>
      <trkpt lat="41.40005992552818" lon="-81.74180651616714">
        <ele>265.4289223877</ele>
        <time>2026-04-13T14:54:13Z</time>
      </trkpt>
      <trkpt lat="41.39961955235955" lon="-81.74161799376691">
        <ele>264.6697176242</ele>
        <time>2026-04-13T14:54:59Z</time>
      </trkpt>
      <trkpt lat="41.39953543464397" lon="-81.74157672718407">
        <ele>264.6079241733</ele>
        <time>2026-04-13T14:55:07Z</time>
      </trkpt>
      <trkpt lat="41.39953345457977" lon="-81.74096908385334">
        <ele>265.6768230092</ele>
        <time>2026-04-13T14:55:57Z</time>
      </trkpt>
      <trkpt lat="41.39952741202424" lon="-81.74037191852500">
        <ele>266.2421550286</ele>
        <time>2026-04-13T14:56:29Z</time>
      </trkpt>
      <trkpt lat="41.39953620860867" lon="-81.73978268917541">
        <ele>266.4893198406</ele>
        <time>2026-04-13T14:57:19Z</time>
      </trkpt>
      <trkpt lat="41.39952524822615" lon="-81.73917974490675">
        <ele>266.9043369498</ele>
        <time>2026-04-13T14:57:54Z</time>
      </trkpt>
      <trkpt lat="41.39953399394830" lon="-81.73858365359557">
        <ele>266.6500644666</ele>
        <time>2026-04-13T14:58:22Z</time>
      </trkpt>
      <trkpt lat="41.39952928827152" lon="-81.73798319160036">
        <ele>267.2048944708</ele>
        <time>2026-04-13T14:59:16Z</time>
      </trkpt>
      <trkpt lat="41.39952817790152" lon="-81.73738162852663">
        <ele>267.4207407655</ele>
        <time>2026-04-13T14:59:51Z</time>
      </trkpt>
      <trkpt lat="41.39953459090293" lon="-81.73677608340682">
        <ele>267.3274242810</ele>
        <time>2026-04-13T15:00:23Z</time>
      </trkpt>
      <trkpt lat="41.39952540110302" lon="-81.73617660322000">
        <ele>267.4535296094</ele>
        <time>2026-04-13T15:01:00Z</time>
      </trkpt>
      <trkpt lat="41.39953425205562" lon="-81.73557333345906">
        <ele>267.4099289125</ele>
        <time>2026-04-13T15:01:38Z</time>
      </trkpt>
      <trkpt lat="41.39952543407063" lon="-81.73497778771791">
        <ele>267.1904382843</ele>
        <time>2026-04-13T15:02:09Z</time>
      </trkpt>
      <trkpt lat="41.39953436222160" lon="-81.73461048453819">
        <ele>267.0863250577</ele>
        <time>2026-04-13T15:02:33Z</time>
      </trkpt>
      <trkpt lat="41.39997944272179" lon="-81.73462327647779">
        <ele>267.1533585778</ele>
        <time>2026-04-13T15:03:03Z</time>
      </trkpt>
      <trkpt lat="41.40042630747819" lon="-81.73463763255322">
        <ele>267.3346783824</ele>
        <time>2026-04-13T15:03:44Z</time>
      </trkpt>
      <trkpt lat="41.40087307080700" lon="-81.73462735795601">
        <ele>267.2896400293</ele>
        <time>2026-04-13T15:04:18Z</time>
      </trkpt>
      <trkpt lat="41.40131902703045" lon="-81.73463977663705">
        <ele>267.2932907880</ele>
        <time>2026-04-13T15:05:25Z</time>
      </trkpt>
      <trkpt lat="41.40131912005552" lon="-81.73525353408100">
        <ele>267.8593699379</ele>
        <time>2026-04-13T15:06:02Z</time>
      </trkpt>
      <trkpt lat="41.40132129130432" lon="-81.73583487372154">
        <ele>268.2568035518</ele>
        <time>2026-04-13T15:06:34Z</time>
      </trkpt>
      <trkpt lat="41.40132064488703" lon="-81.73643550416800">
        <ele>268.5435483896</ele>
        <time>2026-04-13T15:07:14Z</time>
      </trkpt>
      <trkpt lat="41.40132746741183" lon="-81.73704781849419">
        <ele>267.9279361593</ele>
        <time>2026-04-13T15:07:59Z</time>
      </trkpt>
      <trkpt lat="41.40132030465890" lon="-81.73763015682837">
        <ele>268.0970966790</ele>
        <time>2026-04-13T15:08:55Z</time>
      </trkpt>
      <trkpt lat="41.40132461377718" lon="-81.73824574436594">
        <ele>267.5339063403</ele>
        <time>2026-04-13T15:09:43Z</time>
      </trkpt>
      <trkpt lat="41.40133245180259" lon="-81.73884023980330">
        <ele>267.5397355767</ele>
        <time>2026-04-13T15:10:29Z</time>
      </trkpt>
      <trkpt lat="41.40132488054247" lon="-81.73943936479111">
        <ele>266.9689974567</ele>
        <time>2026-04-13T15:11:10Z</time>
      </trkpt>
      <trkpt lat="41.40133297263677" lon="-81.74002933300856">
        <ele>266.5341338771</ele>
        <time>2026-04-13T15:11:43Z</time>
      </trkpt>
      <trkpt lat="41.40133835021414" lon="-81.74021601846674">
        <ele>266.5151559697</ele>
        <time>2026-04-13T15:11:58Z</time>
      </trkpt>
    </trkseg>
  </trk>
</gpx>