<?xml version='1.0' encoding='UTF-8'?>
<gpx xmlns="http://www.topografix.com/GPX/1/1" creator="https://gpx.studio" version="1.1">
  <metadata>
    <name>Dog Walk - 2026-08-08 #4</name>
  </metadata>
  <trk>
    <name>Dog Walk - 2026-08-08 #4</name>
    <type>dog walk</type>
    <trkseg>
      <trkpt lat="41.40133450800948" lon="-81.74023523807826">
        <ele>266.8444635748</ele>
        <time>2026-08-08T15:47:14Z</time>
      </trkpt>
      <trkpt lat="41.40133542443950" lon="-81.74083426964189">
        <ele>266.3603445053</ele>
        <time>2026-08-08T15:47:58Z</time>
      </trkpt>
      <trkpt lat="41.40133449193118" lon="-81.74142920530292">
        <ele>265.6430875613</ele>
        <time>2026-08-08T15:48:44Z</time>
      </trkpt>
      <trkpt lat="41.40133183034983" lon="-81.74202958414915">
        <ele>265.2220271566</ele>
        <time>2026-08-08T15:49:22Z</time>
      </trkpt>
      <trkpt lat="41.40132100278056" lon="-81.74239142412003">
        <ele>264.3188947737</ele>
        <time>2026-08-08T15:49:49Z</time>
      </trkpt>
      <trkpt lat="41.40090084565895" lon="-81.74219911959278">
        <ele>265.1606136725</ele>
        <time>2026-08-08T15:50:30Z</time>
      </trkpt>
      <trkpt lat="41.40048167571836" lon="-81.74201369375849">
        <ele>265.0781546907</ele>
        <time>2026-08-08T15:51:17Z</time>
      </trkpt>
      <trkpt lat="41.40005104120821" lon="-81.74180618621041">
        <ele>265.4308154689</ele>
        <time>2026-08-08T15:51:58Z</time>
      </trkpt>
      <trkpt lat="41.39962856843410" lon="-81.74161206962468">
        <ele>264.7118633669</ele>
        <time>2026-08-08T15:52:44Z</time>
      </trkpt>
      <trkpt lat="41.39953771957337" lon="-81.74157209014803">
        <ele>264.6935808566</ele>
        <time>2026-08-08T15:52:53Z</time>
      </trkpt>
      <trkpt lat="41.39953201720336" lon="-81.74097258692990">
        <ele>265.7491315466</ele>
        <time>2026-08-08T15:53:26Z</time>
      </trkpt>
      <trkpt lat="41.39953859923075" lon="-81.74037768904086">
        <ele>266.1402678843</ele>
        <time>2026-08-08T15:54:08Z</time>
      </trkpt>
      <trkpt lat="41.39953476565865" lon="-81.73977753225536">
        <ele>266.5738141828</ele>
        <time>2026-08-08T15:55:03Z</time>
      </trkpt>
      <trkpt lat="41.39952927852854" lon="-81.73917703809923">
        <ele>266.6513156837</ele>
        <time>2026-08-08T15:55:40Z</time>
      </trkpt>
      <trkpt lat="41.39952593470835" lon="-81.73857656620463">
        <ele>266.9363126723</ele>
        <time>2026-08-08T15:56:22Z</time>
      </trkpt>
      <trkpt lat="41.39953600070058" lon="-81.73798078598890">
        <ele>267.1027215299</ele>
        <time>2026-08-08T15:56:55Z</time>
      </trkpt>
      <trkpt lat="41.39952658119962" lon="-81.73737289344318">
        <ele>267.3400823378</ele>
        <time>2026-08-08T15:57:29Z</time>
      </trkpt>
      <trkpt lat="41.39953361600043" lon="-81.73677557209953">
        <ele>267.5825401642</ele>
        <time>2026-08-08T15:58:02Z</time>
      </trkpt>
      <trkpt lat="41.39952646462348" lon="-81.73618537903104">
        <ele>267.5220008488</ele>
        <time>2026-08-08T15:58:37Z</time>
      </trkpt>
      <trkpt lat="41.39952949731594" lon="-81.73557572595597">
        <ele>267.3298306199</ele>
        <time>2026-08-08T15:59:22Z</time>
      </trkpt>
      <trkpt lat="41.39953284897023" lon="-81.73498372604735">
        <ele>267.3449497221</ele>
        <time>2026-08-08T16:00:07Z</time>
      </trkpt>
      <trkpt lat="41.39952809098492" lon="-81.73461200111615">
        <ele>267.1424470399</ele>
        <time>2026-08-08T16:00:29Z</time>
      </trkpt>
      <trkpt lat="41.39997077298877" lon="-81.73461638523736">
        <ele>266.9129377710</ele>
        <time>2026-08-08T16:01:10Z</time>
      </trkpt>
      <trkpt lat="41.40042728968270" lon="-81.73462167940392">
        <ele>267.3056080648</ele>
        <time>2026-08-08T16:02:02Z</time>
      </trkpt>
      <trkpt lat="41.40087588659274" lon="-81.73463055793349">
        <ele>267.2810329140</ele>
        <time>2026-08-08T16:02:49Z</time>
      </trkpt>
      <trkpt lat="41.40132780687466" lon="-81.73463906325334">
        <ele>267.2741854186</ele>
        <time>2026-08-08T16:03:27Z</time>
      </trkpt>
      <trkpt lat="41.40132663953807" lon="-81.73523898983738">
        <ele>267.8842923027</ele>
        <time>2026-08-08T16:04:02Z</time>
      </trkpt>
      <trkpt lat="41.40131300621285" lon="-81.73583823586543">
        <ele>268.3796197379</ele>
        <time>2026-08-08T16:04:41Z</time>
      </trkpt>
      <trkpt lat="41.40132739342445" lon="-81.73643879222533">
        <ele>268.1147140152</ele>
        <time>2026-08-08T16:05:45Z</time>
      </trkpt>
      <trkpt lat="41.40133065992163" lon="-81.73703725226638">
        <ele>268.0648489095</ele>
        <time>2026-08-08T16:06:27Z</time>
      </trkpt>
      <trkpt lat="41.40132484060329" lon="-81.73763612571956">
        <ele>267.7739030735</ele>
        <time>2026-08-08T16:07:04Z</time>
      </trkpt>
      <trkpt lat="41.40132109231969" lon="-81.73823910228349">
        <ele>267.8085268427</ele>
        <time>2026-08-08T16:07:47Z</time>
      </trkpt>
      <trkpt lat="41.40133026233555" lon="-81.73883496243255">
        <ele>267.3565278744</ele>
        <time>2026-08-08T16:08:21Z</time>
      </trkpt>
      <trkpt lat="41.40133073828019" lon="-81.73943413984910">
        <ele>267.2971933981</ele>
        <time>2026-08-08T16:08:57Z</time>
      </trkpt>
      <trkpt lat="41.40133213156878" lon="-81.74004645276382">
        <ele>266.6716858397</ele>
        <time>2026-08-08T16:09:52Z</time>
      </trkpt>
      <trkpt lat="41.40133457585230" lon="-81.74022049085751">
        <ele>266.3858862637</ele>
        <time>2026-08-08T16:10:03Z</time>
      </trkpt>
    </trkseg>
  </trk>
</gpx>