<?xml version='1.0' encoding='UTF-8'?>
<gpx xmlns="http://www.topografix.com/GPX/1/1" creator="https://gpx.studio" version="1.1">
  <metadata>
    <name>Dog Walk - 2026-07-23 #3</name>
  </metadata>
  <trk>
    <name>Dog Walk - 2026-07-23 #3</name>
    <type>dog walk</type>
    <trkseg>
      <trkpt lat="41.40133120319670" lon="-81.74023613982287">
        <ele>266.6902975236</ele>
        <time>2026-07-23T20:11:52Z</time>
      </trkpt>
      <trkpt lat="41.40132719229685" lon="-81.74083885620028">
        <ele>266.2686382451</ele>
        <time>2026-07-23T20:12:41Z</time>
      </trkpt>
      <trkpt lat="41.40133468287897" lon="-81.74143205725439">
        <ele>265.7478758590</ele>
        <time>2026-07-23T20:13:21Z</time>
      </trkpt>
      <trkpt lat="41.40132977806549" lon="-81.74203427587321">
        <ele>265.3772022287</ele>
        <time>2026-07-23T20:14:02Z</time>
      </trkpt>
      <trkpt lat="41.40133022538284" lon="-81.74239407326003">
        <ele>264.7245129150</ele>
        <time>2026-07-23T20:14:32Z</time>
      </trkpt>
      <trkpt lat="41.40090377314520" lon="-81.74220240906094">
        <ele>265.1570557297</ele>
        <time>2026-07-23T20:15:13Z</time>
      </trkpt>
      <trkpt lat="41.40048786544143" lon="-81.74201371229120">
        <ele>264.8828097914</ele>
        <time>2026-07-23T20:16:00Z</time>
      </trkpt>
      <trkpt lat="41.40004420448027" lon="-81.74181041642957">
        <ele>265.2935826673</ele>
        <time>2026-07-23T20:16:34Z</time>
      </trkpt>
      <trkpt lat="41.39962694383511" lon="-81.74162785272770">
        <ele>264.7432989224</ele>
        <time>2026-07-23T20:17:02Z</time>
      </trkpt>
      <trkpt lat="41.39953832573664" lon="-81.74157286646984">
        <ele>264.7543121335</ele>
        <time>2026-07-23T20:17:10Z</time>
      </trkpt>
      <trkpt lat="41.39953688429230" lon="-81.74097446091757">
        <ele>265.7240926674</ele>
        <time>2026-07-23T20:17:48Z</time>
      </trkpt>
      <trkpt lat="41.39953400198807" lon="-81.74037476540133">
        <ele>266.0628015484</ele>
        <time>2026-07-23T20:18:29Z</time>
      </trkpt>
      <trkpt lat="41.39953589748474" lon="-81.73977091671034">
        <ele>266.4492616296</ele>
        <time>2026-07-23T20:19:08Z</time>
      </trkpt>
      <trkpt lat="41.39953176444025" lon="-81.73918200198271">
        <ele>266.9507849732</ele>
        <time>2026-07-23T20:19:47Z</time>
      </trkpt>
      <trkpt lat="41.39953167470063" lon="-81.73858037058876">
        <ele>267.0458774481</ele>
        <time>2026-07-23T20:20:27Z</time>
      </trkpt>
      <trkpt lat="41.39952955898172" lon="-81.73797401963027">
        <ele>267.1386511928</ele>
        <time>2026-07-23T20:21:14Z</time>
      </trkpt>
      <trkpt lat="41.39952907326989" lon="-81.73738299617499">
        <ele>267.3477784193</ele>
        <time>2026-07-23T20:21:59Z</time>
      </trkpt>
      <trkpt lat="41.39952889264935" lon="-81.73678231242035">
        <ele>267.2416476352</ele>
        <time>2026-07-23T20:22:57Z</time>
      </trkpt>
      <trkpt lat="41.39952405486962" lon="-81.73616851253033">
        <ele>267.6292399089</ele>
        <time>2026-07-23T20:23:34Z</time>
      </trkpt>
      <trkpt lat="41.39952455959433" lon="-81.73557773557690">
        <ele>267.3650443131</ele>
        <time>2026-07-23T20:24:17Z</time>
      </trkpt>
      <trkpt lat="41.39953333957533" lon="-81.73497345717634">
        <ele>267.1023345860</ele>
        <time>2026-07-23T20:25:16Z</time>
      </trkpt>
      <trkpt lat="41.39952685823219" lon="-81.73461137458267">
        <ele>267.1626910322</ele>
        <time>2026-07-23T20:25:37Z</time>
      </trkpt>
      <trkpt lat="41.39997536174302" lon="-81.73462231089269">
        <ele>267.3591186968</ele>
        <time>2026-07-23T20:26:26Z</time>
      </trkpt>
      <trkpt lat="41.40042618147649" lon="-81.73463132214835">
        <ele>267.6056767895</ele>
        <time>2026-07-23T20:27:03Z</time>
      </trkpt>
      <trkpt lat="41.40088312864386" lon="-81.73463662226447">
        <ele>267.1060171287</ele>
        <time>2026-07-23T20:27:44Z</time>
      </trkpt>
      <trkpt lat="41.40132179635903" lon="-81.73464459113477">
        <ele>267.3747521398</ele>
        <time>2026-07-23T20:28:31Z</time>
      </trkpt>
      <trkpt lat="41.40131689710848" lon="-81.73524307170446">
        <ele>267.9666895844</ele>
        <time>2026-07-23T20:29:24Z</time>
      </trkpt>
      <trkpt lat="41.40132268952669" lon="-81.73583719359823">
        <ele>268.3753480758</ele>
        <time>2026-07-23T20:30:03Z</time>
      </trkpt>
      <trkpt lat="41.40132374401795" lon="-81.73643895263180">
        <ele>268.1546032697</ele>
        <time>2026-07-23T20:31:01Z</time>
      </trkpt>
      <trkpt lat="41.40132463646723" lon="-81.73702775099423">
        <ele>267.9667136849</ele>
        <time>2026-07-23T20:31:36Z</time>
      </trkpt>
      <trkpt lat="41.40133187649799" lon="-81.73764237498816">
        <ele>268.1130179802</ele>
        <time>2026-07-23T20:32:14Z</time>
      </trkpt>
      <trkpt lat="41.40132500961017" lon="-81.73823774029518">
        <ele>267.4240291620</ele>
        <time>2026-07-23T20:32:47Z</time>
      </trkpt>
      <trkpt lat="41.40132702333261" lon="-81.73883762842112">
        <ele>267.4248665714</ele>
        <time>2026-07-23T20:33:40Z</time>
      </trkpt>
      <trkpt lat="41.40133116608787" lon="-81.73944596949272">
        <ele>267.1749413709</ele>
        <time>2026-07-23T20:34:24Z</time>
      </trkpt>
      <trkpt lat="41.40132945292416" lon="-81.74004034764540">
        <ele>266.7393339222</ele>
        <time>2026-07-23T20:35:10Z</time>
      </trkpt>
      <trkpt lat="41.40132736802626" lon="-81.74020833142389">
        <ele>266.6786753303</ele>
        <time>2026-07-23T20:35:21Z</time>
      </trkpt>
    </trkseg>
  </trk>
</gpx>