<?xml version='1.0' encoding='UTF-8'?>
<gpx xmlns="http://www.topografix.com/GPX/1/1" creator="https://gpx.studio" version="1.1">
  <metadata>
    <name>Dog Walk - 2026-08-22 #1</name>
  </metadata>
  <trk>
    <name>Dog Walk - 2026-08-22 #1</name>
    <type>dog walk</type>
    <trkseg>
      <trkpt lat="41.40133473499041" lon="-81.74023378069954">
        <ele>266.4965774446</ele>
        <time>2026-08-22T08:54:44Z</time>
      </trkpt>
      <trkpt lat="41.40134035995055" lon="-81.74084991031012">
        <ele>266.1276082486</ele>
        <time>2026-08-22T08:55:12Z</time>
      </trkpt>
      <trkpt lat="41.40135388210386" lon="-81.74143499455532">
        <ele>265.9182390010</ele>
        <time>2026-08-22T08:55:44Z</time>
      </trkpt>
      <trkpt lat="41.40135298444259" lon="-81.74204125225202">
        <ele>265.3839157104</ele>
        <time>2026-08-22T08:56:24Z</time>
      </trkpt>
      <trkpt lat="41.40134276840659" lon="-81.74242397727843">
        <ele>264.6545330923</ele>
        <time>2026-08-22T08:56:59Z</time>
      </trkpt>
      <trkpt lat="41.40177279197304" lon="-81.74261437303028">
        <ele>264.3524529022</ele>
        <time>2026-08-22T08:57:51Z</time>
      </trkpt>
      <trkpt lat="41.40219946649657" lon="-81.74281794113888">
        <ele>263.6337881994</ele>
        <time>2026-08-22T08:58:52Z</time>
      </trkpt>
      <trkpt lat="41.40262341035813" lon="-81.74302758059633">
        <ele>262.9960596447</ele>
        <time>2026-08-22T08:59:24Z</time>
      </trkpt>
      <trkpt lat="41.40304096810261" lon="-81.74321845547496">
        <ele>262.4069173214</ele>
        <time>2026-08-22T09:00:04Z</time>
      </trkpt>
      <trkpt lat="41.40312140814579" lon="-81.74324681620830">
        <ele>262.4333644753</ele>
        <time>2026-08-22T09:00:13Z</time>
      </trkpt>
      <trkpt lat="41.40312009252564" lon="-81.74264238562485">
        <ele>263.3396713736</ele>
        <time>2026-08-22T09:01:08Z</time>
      </trkpt>
      <trkpt lat="41.40311059608516" lon="-81.74206255466858">
        <ele>263.6487772840</ele>
        <time>2026-08-22T09:01:43Z</time>
      </trkpt>
      <trkpt lat="41.40310819552020" lon="-81.74145728210976">
        <ele>263.9033934022</ele>
        <time>2026-08-22T09:02:30Z</time>
      </trkpt>
      <trkpt lat="41.40311154691923" lon="-81.74084767921862">
        <ele>264.7684248359</ele>
        <time>2026-08-22T09:03:06Z</time>
      </trkpt>
      <trkpt lat="41.40310427363151" lon="-81.74025933681254">
        <ele>265.4175544048</ele>
        <time>2026-08-22T09:03:45Z</time>
      </trkpt>
      <trkpt lat="41.40309436987869" lon="-81.73965946198942">
        <ele>265.9800287561</ele>
        <time>2026-08-22T09:04:22Z</time>
      </trkpt>
      <trkpt lat="41.40309279845752" lon="-81.73905468381257">
        <ele>266.1563044403</ele>
        <time>2026-08-22T09:05:35Z</time>
      </trkpt>
      <trkpt lat="41.40309724058665" lon="-81.73878465166808">
        <ele>265.9876163776</ele>
        <time>2026-08-22T09:05:56Z</time>
      </trkpt>
      <trkpt lat="41.40264948159876" lon="-81.73878242395813">
        <ele>266.7137814767</ele>
        <time>2026-08-22T09:06:36Z</time>
      </trkpt>
      <trkpt lat="41.40223054452183" lon="-81.73877779237644">
        <ele>267.1454858975</ele>
        <time>2026-08-22T09:07:17Z</time>
      </trkpt>
      <trkpt lat="41.40224062528326" lon="-81.73818506154774">
        <ele>267.1398830608</ele>
        <time>2026-08-22T09:08:01Z</time>
      </trkpt>
      <trkpt lat="41.40223057544236" lon="-81.73757567340476">
        <ele>267.2635065860</ele>
        <time>2026-08-22T09:08:40Z</time>
      </trkpt>
      <trkpt lat="41.40222767455374" lon="-81.73697958507012">
        <ele>267.2035208766</ele>
        <time>2026-08-22T09:09:18Z</time>
      </trkpt>
      <trkpt lat="41.40223303918498" lon="-81.73637929016611">
        <ele>267.3625856476</ele>
        <time>2026-08-22T09:10:13Z</time>
      </trkpt>
      <trkpt lat="41.40222723989670" lon="-81.73578384502608">
        <ele>267.1286478792</ele>
        <time>2026-08-22T09:10:49Z</time>
      </trkpt>
      <trkpt lat="41.40222279203373" lon="-81.73517262076788">
        <ele>267.0781057532</ele>
        <time>2026-08-22T09:11:33Z</time>
      </trkpt>
      <trkpt lat="41.40222268852474" lon="-81.73465455432904">
        <ele>266.9882494040</ele>
        <time>2026-08-22T09:12:06Z</time>
      </trkpt>
      <trkpt lat="41.40177359885466" lon="-81.73464581290713">
        <ele>267.3064179301</ele>
        <time>2026-08-22T09:12:51Z</time>
      </trkpt>
      <trkpt lat="41.40131921897920" lon="-81.73463165606150">
        <ele>267.3392215333</ele>
        <time>2026-08-22T09:13:38Z</time>
      </trkpt>
      <trkpt lat="41.40131310231164" lon="-81.73464806237293">
        <ele>267.1786405424</ele>
        <time>2026-08-22T09:13:39Z</time>
      </trkpt>
      <trkpt lat="41.40131856652112" lon="-81.73523991361562">
        <ele>268.1259498486</ele>
        <time>2026-08-22T09:14:17Z</time>
      </trkpt>
      <trkpt lat="41.40131669732585" lon="-81.73583523405996">
        <ele>268.0543152758</ele>
        <time>2026-08-22T09:14:45Z</time>
      </trkpt>
      <trkpt lat="41.40132615048113" lon="-81.73643421542128">
        <ele>268.1413205419</ele>
        <time>2026-08-22T09:15:18Z</time>
      </trkpt>
      <trkpt lat="41.40133524266281" lon="-81.73703980280692">
        <ele>267.9503746138</ele>
        <time>2026-08-22T09:16:05Z</time>
      </trkpt>
      <trkpt lat="41.40133812973087" lon="-81.73763755504147">
        <ele>267.9916458392</ele>
        <time>2026-08-22T09:16:48Z</time>
      </trkpt>
      <trkpt lat="41.40133574333102" lon="-81.73823209820584">
        <ele>267.5898605092</ele>
        <time>2026-08-22T09:17:26Z</time>
      </trkpt>
      <trkpt lat="41.40134711231826" lon="-81.73883335054265">
        <ele>267.3324167029</ele>
        <time>2026-08-22T09:18:02Z</time>
      </trkpt>
      <trkpt lat="41.40134219594108" lon="-81.73943971860230">
        <ele>267.1696764420</ele>
        <time>2026-08-22T09:19:06Z</time>
      </trkpt>
      <trkpt lat="41.40134489550123" lon="-81.74002401379192">
        <ele>266.6109641765</ele>
        <time>2026-08-22T09:19:41Z</time>
      </trkpt>
      <trkpt lat="41.40134167002405" lon="-81.74016195756786">
        <ele>266.4747423292</ele>
        <time>2026-08-22T09:19:53Z</time>
      </trkpt>
    </trkseg>
  </trk>
</gpx>