<?xml version='1.0' encoding='UTF-8'?>
<gpx xmlns="http://www.topografix.com/GPX/1/1" creator="https://gpx.studio" version="1.1">
  <metadata>
    <name>Dog Walk - 2026-07-08 #1</name>
  </metadata>
  <trk>
    <name>Dog Walk - 2026-07-08 #1</name>
    <type>dog walk</type>
    <trkseg>
      <trkpt lat="41.40133225738722" lon="-81.74026534256167">
        <ele>266.3922260315</ele>
        <time>2026-07-08T07:08:48Z</time>
      </trkpt>
      <trkpt lat="41.40133207277480" lon="-81.74026178037029">
        <ele>266.6751097748</ele>
        <time>2026-07-08T07:08:49Z</time>
      </trkpt>
      <trkpt lat="41.40132653461853" lon="-81.74085586321711">
        <ele>266.2154306609</ele>
        <time>2026-07-08T07:09:27Z</time>
      </trkpt>
      <trkpt lat="41.40132910842149" lon="-81.74145457004386">
        <ele>265.9491944642</ele>
        <time>2026-07-08T07:10:04Z</time>
      </trkpt>
      <trkpt lat="41.40132458521509" lon="-81.74205988209685">
        <ele>265.4208803638</ele>
        <time>2026-07-08T07:10:44Z</time>
      </trkpt>
      <trkpt lat="41.40132285953677" lon="-81.74237804346444">
        <ele>264.8433704997</ele>
        <time>2026-07-08T07:11:01Z</time>
      </trkpt>
      <trkpt lat="41.40133602708842" lon="-81.74237538486541">
        <ele>264.9174903903</ele>
        <time>2026-07-08T07:11:02Z</time>
      </trkpt>
      <trkpt lat="41.40089397056317" lon="-81.74218716021132">
        <ele>265.0796140857</ele>
        <time>2026-07-08T07:11:57Z</time>
      </trkpt>
      <trkpt lat="41.40047088042045" lon="-81.74200241010051">
        <ele>265.0319665613</ele>
        <time>2026-07-08T07:12:36Z</time>
      </trkpt>
      <trkpt lat="41.40003680308092" lon="-81.74179890781099">
        <ele>265.2759465127</ele>
        <time>2026-07-08T07:13:26Z</time>
      </trkpt>
      <trkpt lat="41.39962175304424" lon="-81.74160578004437">
        <ele>264.6062016337</ele>
        <time>2026-07-08T07:14:00Z</time>
      </trkpt>
      <trkpt lat="41.39954138261036" lon="-81.74157623155669">
        <ele>264.9141550574</ele>
        <time>2026-07-08T07:14:09Z</time>
      </trkpt>
      <trkpt lat="41.39955124774871" lon="-81.74096918197299">
        <ele>265.6986824535</ele>
        <time>2026-07-08T07:14:50Z</time>
      </trkpt>
      <trkpt lat="41.39953738606033" lon="-81.74036797447351">
        <ele>265.9804288820</ele>
        <time>2026-07-08T07:15:32Z</time>
      </trkpt>
      <trkpt lat="41.39953788092154" lon="-81.73977514461311">
        <ele>266.5915330608</ele>
        <time>2026-07-08T07:16:15Z</time>
      </trkpt>
      <trkpt lat="41.39954444151282" lon="-81.73917336309152">
        <ele>267.1090044557</ele>
        <time>2026-07-08T07:17:11Z</time>
      </trkpt>
      <trkpt lat="41.39953657629598" lon="-81.73856996412950">
        <ele>266.7835285681</ele>
        <time>2026-07-08T07:17:48Z</time>
      </trkpt>
      <trkpt lat="41.39953378709870" lon="-81.73829406690899">
        <ele>266.8902570467</ele>
        <time>2026-07-08T07:18:03Z</time>
      </trkpt>
      <trkpt lat="41.39953901594752" lon="-81.73829357297225">
        <ele>266.7845161978</ele>
        <time>2026-07-08T07:18:04Z</time>
      </trkpt>
      <trkpt lat="41.39998806212362" lon="-81.73830047199087">
        <ele>267.0442022046</ele>
        <time>2026-07-08T07:18:41Z</time>
      </trkpt>
      <trkpt lat="41.40042303281213" lon="-81.73829166911081">
        <ele>267.0448772493</ele>
        <time>2026-07-08T07:19:16Z</time>
      </trkpt>
      <trkpt lat="41.40088537800557" lon="-81.73831215610087">
        <ele>267.7194744548</ele>
        <time>2026-07-08T07:19:56Z</time>
      </trkpt>
      <trkpt lat="41.40133537610577" lon="-81.73829321390824">
        <ele>267.4598556697</ele>
        <time>2026-07-08T07:20:32Z</time>
      </trkpt>
      <trkpt lat="41.40132612358478" lon="-81.73889710035532">
        <ele>267.2769455807</ele>
        <time>2026-07-08T07:21:11Z</time>
      </trkpt>
      <trkpt lat="41.40133449419670" lon="-81.73950037609137">
        <ele>267.1657542094</ele>
        <time>2026-07-08T07:21:51Z</time>
      </trkpt>
      <trkpt lat="41.40133935680982" lon="-81.74010554714641">
        <ele>266.4121578820</ele>
        <time>2026-07-08T07:22:36Z</time>
      </trkpt>
      <trkpt lat="41.40134339297047" lon="-81.74015443948359">
        <ele>266.5872201885</ele>
        <time>2026-07-08T07:22:39Z</time>
      </trkpt>
    </trkseg>
  </trk>
</gpx>