<?xml version='1.0' encoding='UTF-8'?>
<gpx xmlns="http://www.topografix.com/GPX/1/1" creator="https://gpx.studio" version="1.1">
  <metadata>
    <name>Dog Walk - 2026-08-08 #1</name>
  </metadata>
  <trk>
    <name>Dog Walk - 2026-08-08 #1</name>
    <type>dog walk</type>
    <trkseg>
      <trkpt lat="41.40134201337084" lon="-81.74023509455368">
        <ele>266.6128114394</ele>
        <time>2026-08-08T07:20:09Z</time>
      </trkpt>
      <trkpt lat="41.40134286128250" lon="-81.74083454010065">
        <ele>266.2087059317</ele>
        <time>2026-08-08T07:20:41Z</time>
      </trkpt>
      <trkpt lat="41.40134321748641" lon="-81.74144585117908">
        <ele>265.5178066516</ele>
        <time>2026-08-08T07:21:23Z</time>
      </trkpt>
      <trkpt lat="41.40134717135471" lon="-81.74203373901531">
        <ele>265.2286462887</ele>
        <time>2026-08-08T07:22:13Z</time>
      </trkpt>
      <trkpt lat="41.40134813666463" lon="-81.74241381299039">
        <ele>264.5583848044</ele>
        <time>2026-08-08T07:22:42Z</time>
      </trkpt>
      <trkpt lat="41.40177416046637" lon="-81.74261982799399">
        <ele>264.3083216714</ele>
        <time>2026-08-08T07:23:27Z</time>
      </trkpt>
      <trkpt lat="41.40219068820545" lon="-81.74281370152359">
        <ele>263.3568411167</ele>
        <time>2026-08-08T07:24:14Z</time>
      </trkpt>
      <trkpt lat="41.40262633583431" lon="-81.74301065589809">
        <ele>263.2143863948</ele>
        <time>2026-08-08T07:24:57Z</time>
      </trkpt>
      <trkpt lat="41.40303911696400" lon="-81.74321456414015">
        <ele>262.5452878228</ele>
        <time>2026-08-08T07:25:48Z</time>
      </trkpt>
      <trkpt lat="41.40311570698717" lon="-81.74325246860397">
        <ele>262.4866936622</ele>
        <time>2026-08-08T07:26:05Z</time>
      </trkpt>
      <trkpt lat="41.40311939406018" lon="-81.74266182697508">
        <ele>262.9730231460</ele>
        <time>2026-08-08T07:26:38Z</time>
      </trkpt>
      <trkpt lat="41.40311672013334" lon="-81.74205629937552">
        <ele>263.7478750928</ele>
        <time>2026-08-08T07:27:25Z</time>
      </trkpt>
      <trkpt lat="41.40311512265419" lon="-81.74145646075196">
        <ele>264.1606411867</ele>
        <time>2026-08-08T07:28:05Z</time>
      </trkpt>
      <trkpt lat="41.40310305291425" lon="-81.74085483241252">
        <ele>264.7992540595</ele>
        <time>2026-08-08T07:28:42Z</time>
      </trkpt>
      <trkpt lat="41.40311078100347" lon="-81.74025950217150">
        <ele>265.3589724545</ele>
        <time>2026-08-08T07:29:15Z</time>
      </trkpt>
      <trkpt lat="41.40309499817801" lon="-81.73965197672854">
        <ele>265.7804193409</ele>
        <time>2026-08-08T07:29:55Z</time>
      </trkpt>
      <trkpt lat="41.40309563853233" lon="-81.73904805412667">
        <ele>266.2575438368</ele>
        <time>2026-08-08T07:30:27Z</time>
      </trkpt>
      <trkpt lat="41.40310258659285" lon="-81.73878837027574">
        <ele>266.2862261716</ele>
        <time>2026-08-08T07:30:41Z</time>
      </trkpt>
      <trkpt lat="41.40265564819475" lon="-81.73877953263222">
        <ele>266.6633184557</ele>
        <time>2026-08-08T07:31:15Z</time>
      </trkpt>
      <trkpt lat="41.40223317457786" lon="-81.73877698956733">
        <ele>267.0788487928</ele>
        <time>2026-08-08T07:31:59Z</time>
      </trkpt>
      <trkpt lat="41.40223045201738" lon="-81.73817227345010">
        <ele>267.0723027256</ele>
        <time>2026-08-08T07:32:34Z</time>
      </trkpt>
      <trkpt lat="41.40224585752515" lon="-81.73757936718991">
        <ele>266.8244093808</ele>
        <time>2026-08-08T07:33:09Z</time>
      </trkpt>
      <trkpt lat="41.40222812114487" lon="-81.73697901431238">
        <ele>267.2113323211</ele>
        <time>2026-08-08T07:33:50Z</time>
      </trkpt>
      <trkpt lat="41.40223519359142" lon="-81.73638323710320">
        <ele>267.2386908532</ele>
        <time>2026-08-08T07:34:38Z</time>
      </trkpt>
      <trkpt lat="41.40222459380765" lon="-81.73577732734483">
        <ele>267.3849255414</ele>
        <time>2026-08-08T07:35:12Z</time>
      </trkpt>
      <trkpt lat="41.40221947160788" lon="-81.73518327288274">
        <ele>267.3690763391</ele>
        <time>2026-08-08T07:36:24Z</time>
      </trkpt>
      <trkpt lat="41.40222475960083" lon="-81.73464954015427">
        <ele>267.1243195100</ele>
        <time>2026-08-08T07:36:57Z</time>
      </trkpt>
      <trkpt lat="41.40177562297164" lon="-81.73464747260667">
        <ele>267.0843018071</ele>
        <time>2026-08-08T07:37:39Z</time>
      </trkpt>
      <trkpt lat="41.40132722971985" lon="-81.73463222910404">
        <ele>266.9702914938</ele>
        <time>2026-08-08T07:38:20Z</time>
      </trkpt>
      <trkpt lat="41.40131393499087" lon="-81.73463401660544">
        <ele>267.4683098963</ele>
        <time>2026-08-08T07:38:21Z</time>
      </trkpt>
      <trkpt lat="41.40131830968927" lon="-81.73522599054469">
        <ele>267.8222500099</ele>
        <time>2026-08-08T07:39:04Z</time>
      </trkpt>
      <trkpt lat="41.40133024438872" lon="-81.73583761489374">
        <ele>268.4651774683</ele>
        <time>2026-08-08T07:39:40Z</time>
      </trkpt>
      <trkpt lat="41.40132867754443" lon="-81.73643911990581">
        <ele>268.1186373695</ele>
        <time>2026-08-08T07:40:11Z</time>
      </trkpt>
      <trkpt lat="41.40133042449908" lon="-81.73703269831742">
        <ele>268.2050874344</ele>
        <time>2026-08-08T07:40:47Z</time>
      </trkpt>
      <trkpt lat="41.40132954527326" lon="-81.73762368732231">
        <ele>267.9863478530</ele>
        <time>2026-08-08T07:41:29Z</time>
      </trkpt>
      <trkpt lat="41.40133975338178" lon="-81.73823572155068">
        <ele>267.5225686947</ele>
        <time>2026-08-08T07:42:21Z</time>
      </trkpt>
      <trkpt lat="41.40133625097157" lon="-81.73883781033916">
        <ele>267.2592715073</ele>
        <time>2026-08-08T07:42:58Z</time>
      </trkpt>
      <trkpt lat="41.40133756118864" lon="-81.73943910364615">
        <ele>267.1046957190</ele>
        <time>2026-08-08T07:43:37Z</time>
      </trkpt>
      <trkpt lat="41.40134773524333" lon="-81.74003233153422">
        <ele>266.7270840254</ele>
        <time>2026-08-08T07:44:16Z</time>
      </trkpt>
      <trkpt lat="41.40134829349902" lon="-81.74015716766819">
        <ele>266.5856687050</ele>
        <time>2026-08-08T07:44:25Z</time>
      </trkpt>
    </trkseg>
  </trk>
</gpx>