<?xml version='1.0' encoding='UTF-8'?>
<gpx xmlns="http://www.topografix.com/GPX/1/1" creator="https://gpx.studio" version="1.1">
  <metadata>
    <name>Dog Walk - 2026-03-27 #1</name>
  </metadata>
  <trk>
    <name>Dog Walk - 2026-03-27 #1</name>
    <type>dog walk</type>
    <trkseg>
      <trkpt lat="41.40133387619455" lon="-81.74026323941395">
        <ele>266.4677100737</ele>
        <time>2026-03-27T10:50:21Z</time>
      </trkpt>
      <trkpt lat="41.40133751411352" lon="-81.74024625440838">
        <ele>266.5296864655</ele>
        <time>2026-03-27T10:50:22Z</time>
      </trkpt>
      <trkpt lat="41.40133818134296" lon="-81.74084844305439">
        <ele>266.1714975188</ele>
        <time>2026-03-27T10:50:59Z</time>
      </trkpt>
      <trkpt lat="41.40133209204002" lon="-81.74145657152650">
        <ele>265.6825146074</ele>
        <time>2026-03-27T10:51:42Z</time>
      </trkpt>
      <trkpt lat="41.40131759645685" lon="-81.74206299900544">
        <ele>265.1232945590</ele>
        <time>2026-03-27T10:52:29Z</time>
      </trkpt>
      <trkpt lat="41.40132408959612" lon="-81.74237128456929">
        <ele>264.7331956112</ele>
        <time>2026-03-27T10:52:53Z</time>
      </trkpt>
      <trkpt lat="41.40132743900588" lon="-81.74237923309953">
        <ele>264.6179207245</ele>
        <time>2026-03-27T10:52:54Z</time>
      </trkpt>
      <trkpt lat="41.40089908971063" lon="-81.74217948155135">
        <ele>265.1310810509</ele>
        <time>2026-03-27T10:53:39Z</time>
      </trkpt>
      <trkpt lat="41.40046016076551" lon="-81.74198779671231">
        <ele>265.1997132955</ele>
        <time>2026-03-27T10:54:24Z</time>
      </trkpt>
      <trkpt lat="41.40004936391610" lon="-81.74180769724717">
        <ele>265.3417023168</ele>
        <time>2026-03-27T10:54:59Z</time>
      </trkpt>
      <trkpt lat="41.39961707023490" lon="-81.74161027373424">
        <ele>264.9770333518</ele>
        <time>2026-03-27T10:55:33Z</time>
      </trkpt>
      <trkpt lat="41.39954438070961" lon="-81.74157948965518">
        <ele>264.7017468679</ele>
        <time>2026-03-27T10:55:39Z</time>
      </trkpt>
      <trkpt lat="41.39954531950263" lon="-81.74098471306210">
        <ele>265.5058310973</ele>
        <time>2026-03-27T10:56:22Z</time>
      </trkpt>
      <trkpt lat="41.39954326532017" lon="-81.74038121114505">
        <ele>265.9697842495</ele>
        <time>2026-03-27T10:57:12Z</time>
      </trkpt>
      <trkpt lat="41.39953492252430" lon="-81.73977461748741">
        <ele>266.4700156486</ele>
        <time>2026-03-27T10:57:56Z</time>
      </trkpt>
      <trkpt lat="41.39953112907634" lon="-81.73916882480286">
        <ele>266.8309076914</ele>
        <time>2026-03-27T10:58:38Z</time>
      </trkpt>
      <trkpt lat="41.39953443626476" lon="-81.73858516880748">
        <ele>266.9144137309</ele>
        <time>2026-03-27T10:59:31Z</time>
      </trkpt>
      <trkpt lat="41.39953153960911" lon="-81.73829243808942">
        <ele>267.0272512639</ele>
        <time>2026-03-27T10:59:47Z</time>
      </trkpt>
      <trkpt lat="41.39953378998162" lon="-81.73828511714871">
        <ele>267.1419048050</ele>
        <time>2026-03-27T10:59:48Z</time>
      </trkpt>
      <trkpt lat="41.39998804490289" lon="-81.73830977045434">
        <ele>266.9888029140</ele>
        <time>2026-03-27T11:00:47Z</time>
      </trkpt>
      <trkpt lat="41.40043947383749" lon="-81.73829985367713">
        <ele>267.1840892856</ele>
        <time>2026-03-27T11:01:35Z</time>
      </trkpt>
      <trkpt lat="41.40087984482876" lon="-81.73830505060164">
        <ele>267.4293654960</ele>
        <time>2026-03-27T11:02:14Z</time>
      </trkpt>
      <trkpt lat="41.40132087047662" lon="-81.73828822904196">
        <ele>267.4947063909</ele>
        <time>2026-03-27T11:02:56Z</time>
      </trkpt>
      <trkpt lat="41.40133946528051" lon="-81.73890793051055">
        <ele>267.5861772924</ele>
        <time>2026-03-27T11:03:34Z</time>
      </trkpt>
      <trkpt lat="41.40132829704330" lon="-81.73950837836352">
        <ele>267.1762375215</ele>
        <time>2026-03-27T11:04:08Z</time>
      </trkpt>
      <trkpt lat="41.40133830189603" lon="-81.74010093746531">
        <ele>266.3532878220</ele>
        <time>2026-03-27T11:04:56Z</time>
      </trkpt>
      <trkpt lat="41.40133430425652" lon="-81.74014886745704">
        <ele>266.5110174428</ele>
        <time>2026-03-27T11:05:17Z</time>
      </trkpt>
    </trkseg>
  </trk>
</gpx>