<?xml version='1.0' encoding='UTF-8'?>
<gpx xmlns="http://www.topografix.com/GPX/1/1" creator="https://gpx.studio" version="1.1">
  <metadata>
    <name>Dog Walk - 2026-09-01 #2</name>
  </metadata>
  <trk>
    <name>Dog Walk - 2026-09-01 #2</name>
    <type>dog walk</type>
    <trkseg>
      <trkpt lat="41.40134166701515" lon="-81.74023096756133">
        <ele>266.5274913544</ele>
        <time>2026-09-01T15:41:50Z</time>
      </trkpt>
      <trkpt lat="41.40133931983112" lon="-81.74083752279732">
        <ele>266.2654041349</ele>
        <time>2026-09-01T15:42:25Z</time>
      </trkpt>
      <trkpt lat="41.40134264740273" lon="-81.74144583483221">
        <ele>265.6368551499</ele>
        <time>2026-09-01T15:43:01Z</time>
      </trkpt>
      <trkpt lat="41.40134482061658" lon="-81.74203129307091">
        <ele>265.2553699138</ele>
        <time>2026-09-01T15:43:46Z</time>
      </trkpt>
      <trkpt lat="41.40135068993728" lon="-81.74240875496194">
        <ele>264.5272932395</ele>
        <time>2026-09-01T15:44:10Z</time>
      </trkpt>
      <trkpt lat="41.40176663913448" lon="-81.74264683564931">
        <ele>264.5393534382</ele>
        <time>2026-09-01T15:44:51Z</time>
      </trkpt>
      <trkpt lat="41.40218817172094" lon="-81.74283965643377">
        <ele>263.2219830571</ele>
        <time>2026-09-01T15:45:38Z</time>
      </trkpt>
      <trkpt lat="41.40220864133455" lon="-81.74287216502785">
        <ele>263.2321487146</ele>
        <time>2026-09-01T15:45:40Z</time>
      </trkpt>
      <trkpt lat="41.40221631850869" lon="-81.74225997622598">
        <ele>264.0289591876</ele>
        <time>2026-09-01T15:46:14Z</time>
      </trkpt>
      <trkpt lat="41.40221764959770" lon="-81.74165461439833">
        <ele>264.5167418102</ele>
        <time>2026-09-01T15:46:59Z</time>
      </trkpt>
      <trkpt lat="41.40221676695732" lon="-81.74106470788956">
        <ele>265.6010483223</ele>
        <time>2026-09-01T15:47:39Z</time>
      </trkpt>
      <trkpt lat="41.40222208073651" lon="-81.74046637690702">
        <ele>265.8345930694</ele>
        <time>2026-09-01T15:48:23Z</time>
      </trkpt>
      <trkpt lat="41.40221935355736" lon="-81.73986325626417">
        <ele>266.6512620163</ele>
        <time>2026-09-01T15:49:03Z</time>
      </trkpt>
      <trkpt lat="41.40222668354964" lon="-81.73926294182834">
        <ele>267.1193606853</ele>
        <time>2026-09-01T15:49:38Z</time>
      </trkpt>
      <trkpt lat="41.40222099401799" lon="-81.73866380460861">
        <ele>267.0216623678</ele>
        <time>2026-09-01T15:50:20Z</time>
      </trkpt>
      <trkpt lat="41.40221561092790" lon="-81.73826415082769">
        <ele>266.9208414918</ele>
        <time>2026-09-01T15:50:47Z</time>
      </trkpt>
      <trkpt lat="41.40176525167873" lon="-81.73826383195255">
        <ele>267.7898055687</ele>
        <time>2026-09-01T15:51:23Z</time>
      </trkpt>
      <trkpt lat="41.40132957145836" lon="-81.73825749635358">
        <ele>267.8440645947</ele>
        <time>2026-09-01T15:52:16Z</time>
      </trkpt>
      <trkpt lat="41.40133855055090" lon="-81.73886829579190">
        <ele>267.3374172211</ele>
        <time>2026-09-01T15:53:12Z</time>
      </trkpt>
      <trkpt lat="41.40134327261912" lon="-81.73946139310678">
        <ele>267.2842381557</ele>
        <time>2026-09-01T15:53:52Z</time>
      </trkpt>
      <trkpt lat="41.40133421959170" lon="-81.74005850837035">
        <ele>266.7889823926</ele>
        <time>2026-09-01T15:54:28Z</time>
      </trkpt>
      <trkpt lat="41.40133700958951" lon="-81.74018067209036">
        <ele>266.7817417823</ele>
        <time>2026-09-01T15:54:34Z</time>
      </trkpt>
    </trkseg>
  </trk>
</gpx>