<?xml version='1.0' encoding='UTF-8'?>
<gpx xmlns="http://www.topografix.com/GPX/1/1" creator="https://gpx.studio" version="1.1">
  <metadata>
    <name>Dog Walk - 2026-02-23 #2</name>
  </metadata>
  <trk>
    <name>Dog Walk - 2026-02-23 #2</name>
    <type>dog walk</type>
    <trkseg>
      <trkpt lat="41.40133056814932" lon="-81.74023552361831">
        <ele>266.4674485438</ele>
        <time>2026-02-23T13:04:50Z</time>
      </trkpt>
      <trkpt lat="41.40132906086977" lon="-81.74083461242185">
        <ele>266.1399471594</ele>
        <time>2026-02-23T13:05:37Z</time>
      </trkpt>
      <trkpt lat="41.40131978459454" lon="-81.74143017437640">
        <ele>265.9150670240</ele>
        <time>2026-02-23T13:06:14Z</time>
      </trkpt>
      <trkpt lat="41.40133037736349" lon="-81.74203819953030">
        <ele>265.3452413997</ele>
        <time>2026-02-23T13:06:49Z</time>
      </trkpt>
      <trkpt lat="41.40133649217225" lon="-81.74238383370044">
        <ele>264.7687423079</ele>
        <time>2026-02-23T13:07:31Z</time>
      </trkpt>
      <trkpt lat="41.40089959562606" lon="-81.74220212127395">
        <ele>264.7293633210</ele>
        <time>2026-02-23T13:08:03Z</time>
      </trkpt>
      <trkpt lat="41.40048765935919" lon="-81.74200721839752">
        <ele>265.2501713599</ele>
        <time>2026-02-23T13:08:45Z</time>
      </trkpt>
      <trkpt lat="41.40005378141634" lon="-81.74180959896857">
        <ele>265.5012943515</ele>
        <time>2026-02-23T13:09:22Z</time>
      </trkpt>
      <trkpt lat="41.39962564747139" lon="-81.74160332586023">
        <ele>264.7684276732</ele>
        <time>2026-02-23T13:10:03Z</time>
      </trkpt>
      <trkpt lat="41.39953292455338" lon="-81.74156267475504">
        <ele>264.7338357459</ele>
        <time>2026-02-23T13:10:11Z</time>
      </trkpt>
      <trkpt lat="41.39953918602840" lon="-81.74097601583529">
        <ele>265.8802042261</ele>
        <time>2026-02-23T13:11:02Z</time>
      </trkpt>
      <trkpt lat="41.39953371020709" lon="-81.74037447118273">
        <ele>266.1061160750</ele>
        <time>2026-02-23T13:11:51Z</time>
      </trkpt>
      <trkpt lat="41.39952946476949" lon="-81.73978574096319">
        <ele>266.7050079771</ele>
        <time>2026-02-23T13:12:32Z</time>
      </trkpt>
      <trkpt lat="41.39953725826565" lon="-81.73918049706941">
        <ele>266.9185271948</ele>
        <time>2026-02-23T13:13:23Z</time>
      </trkpt>
      <trkpt lat="41.39952932351056" lon="-81.73857929058869">
        <ele>267.0168161582</ele>
        <time>2026-02-23T13:14:04Z</time>
      </trkpt>
      <trkpt lat="41.39952850567077" lon="-81.73797420564867">
        <ele>267.1979724823</ele>
        <time>2026-02-23T13:14:50Z</time>
      </trkpt>
      <trkpt lat="41.39952594610310" lon="-81.73737503503904">
        <ele>267.2359898955</ele>
        <time>2026-02-23T13:15:46Z</time>
      </trkpt>
      <trkpt lat="41.39952987889355" lon="-81.73677636698082">
        <ele>267.5221351034</ele>
        <time>2026-02-23T13:16:29Z</time>
      </trkpt>
      <trkpt lat="41.39952966399932" lon="-81.73617552228315">
        <ele>267.5650173812</ele>
        <time>2026-02-23T13:17:07Z</time>
      </trkpt>
      <trkpt lat="41.39952220899066" lon="-81.73557615374992">
        <ele>267.2953624539</ele>
        <time>2026-02-23T13:17:50Z</time>
      </trkpt>
      <trkpt lat="41.39953181679325" lon="-81.73497699818802">
        <ele>267.1192445463</ele>
        <time>2026-02-23T13:18:27Z</time>
      </trkpt>
      <trkpt lat="41.39952446567681" lon="-81.73463185202026">
        <ele>267.1009449343</ele>
        <time>2026-02-23T13:18:49Z</time>
      </trkpt>
      <trkpt lat="41.39997217833636" lon="-81.73461476438554">
        <ele>267.3057442154</ele>
        <time>2026-02-23T13:19:30Z</time>
      </trkpt>
      <trkpt lat="41.40042591780389" lon="-81.73463133128546">
        <ele>267.3882309598</ele>
        <time>2026-02-23T13:20:07Z</time>
      </trkpt>
      <trkpt lat="41.40087874300059" lon="-81.73462634022059">
        <ele>267.5745368404</ele>
        <time>2026-02-23T13:20:45Z</time>
      </trkpt>
      <trkpt lat="41.40131735424345" lon="-81.73465172176886">
        <ele>267.2040240150</ele>
        <time>2026-02-23T13:21:24Z</time>
      </trkpt>
      <trkpt lat="41.40132493076836" lon="-81.73523989245510">
        <ele>267.7609609957</ele>
        <time>2026-02-23T13:21:59Z</time>
      </trkpt>
      <trkpt lat="41.40133025553560" lon="-81.73583802837346">
        <ele>268.4047233308</ele>
        <time>2026-02-23T13:22:39Z</time>
      </trkpt>
      <trkpt lat="41.40132546371959" lon="-81.73642938491648">
        <ele>268.2086618810</ele>
        <time>2026-02-23T13:23:21Z</time>
      </trkpt>
      <trkpt lat="41.40131921192097" lon="-81.73703721584778">
        <ele>267.9072564270</ele>
        <time>2026-02-23T13:23:56Z</time>
      </trkpt>
      <trkpt lat="41.40132651747100" lon="-81.73763703188278">
        <ele>267.8367532668</ele>
        <time>2026-02-23T13:24:31Z</time>
      </trkpt>
      <trkpt lat="41.40132952284091" lon="-81.73824392161437">
        <ele>267.8367380733</ele>
        <time>2026-02-23T13:25:04Z</time>
      </trkpt>
      <trkpt lat="41.40132522448707" lon="-81.73882495898599">
        <ele>267.3919025209</ele>
        <time>2026-02-23T13:25:41Z</time>
      </trkpt>
      <trkpt lat="41.40133134720959" lon="-81.73943855162202">
        <ele>267.2279016116</ele>
        <time>2026-02-23T13:26:15Z</time>
      </trkpt>
      <trkpt lat="41.40133741556527" lon="-81.74003809532978">
        <ele>266.5114645785</ele>
        <time>2026-02-23T13:27:03Z</time>
      </trkpt>
      <trkpt lat="41.40132418441530" lon="-81.74022693535494">
        <ele>266.5224886033</ele>
        <time>2026-02-23T13:27:15Z</time>
      </trkpt>
    </trkseg>
  </trk>
</gpx>