<?xml version='1.0' encoding='UTF-8'?>
<gpx xmlns="http://www.topografix.com/GPX/1/1" creator="https://gpx.studio" version="1.1">
  <metadata>
    <name>Dog Walk - 2026-04-07 #3</name>
  </metadata>
  <trk>
    <name>Dog Walk - 2026-04-07 #3</name>
    <type>dog walk</type>
    <trkseg>
      <trkpt lat="41.40134165668828" lon="-81.74022616664698">
        <ele>266.6124950908</ele>
        <time>2026-04-07T18:37:34Z</time>
      </trkpt>
      <trkpt lat="41.40133398301098" lon="-81.74083633982313">
        <ele>266.4278385702</ele>
        <time>2026-04-07T18:38:06Z</time>
      </trkpt>
      <trkpt lat="41.40134393515305" lon="-81.74143291999688">
        <ele>265.8788438433</ele>
        <time>2026-04-07T18:38:40Z</time>
      </trkpt>
      <trkpt lat="41.40133062660357" lon="-81.74203179963484">
        <ele>265.1847259492</ele>
        <time>2026-04-07T18:39:23Z</time>
      </trkpt>
      <trkpt lat="41.40133177764270" lon="-81.74239039816899">
        <ele>264.6969081024</ele>
        <time>2026-04-07T18:39:43Z</time>
      </trkpt>
      <trkpt lat="41.40091077029986" lon="-81.74217991725834">
        <ele>265.0902736439</ele>
        <time>2026-04-07T18:40:20Z</time>
      </trkpt>
      <trkpt lat="41.40048639321655" lon="-81.74197227494146">
        <ele>265.4375954369</ele>
        <time>2026-04-07T18:41:02Z</time>
      </trkpt>
      <trkpt lat="41.40044469204065" lon="-81.74194882019917">
        <ele>265.3182316435</ele>
        <time>2026-04-07T18:41:06Z</time>
      </trkpt>
      <trkpt lat="41.40045167138138" lon="-81.74134872562827">
        <ele>265.8840995548</ele>
        <time>2026-04-07T18:41:48Z</time>
      </trkpt>
      <trkpt lat="41.40043618665993" lon="-81.74075170313061">
        <ele>266.4973567442</ele>
        <time>2026-04-07T18:42:29Z</time>
      </trkpt>
      <trkpt lat="41.40043042494258" lon="-81.74014712479415">
        <ele>266.8264961084</ele>
        <time>2026-04-07T18:43:01Z</time>
      </trkpt>
      <trkpt lat="41.40043406537933" lon="-81.73954918611574">
        <ele>266.9338102072</ele>
        <time>2026-04-07T18:43:40Z</time>
      </trkpt>
      <trkpt lat="41.40043202312069" lon="-81.73894925052454">
        <ele>267.2708759482</ele>
        <time>2026-04-07T18:44:21Z</time>
      </trkpt>
      <trkpt lat="41.40041220116681" lon="-81.73835196796909">
        <ele>267.2786839207</ele>
        <time>2026-04-07T18:45:03Z</time>
      </trkpt>
      <trkpt lat="41.40042029894546" lon="-81.73775553010185">
        <ele>267.7132643715</ele>
        <time>2026-04-07T18:45:39Z</time>
      </trkpt>
      <trkpt lat="41.40041332986629" lon="-81.73714935911507">
        <ele>267.9866286220</ele>
        <time>2026-04-07T18:46:18Z</time>
      </trkpt>
      <trkpt lat="41.40040357189488" lon="-81.73656116280111">
        <ele>267.9287476298</ele>
        <time>2026-04-07T18:47:03Z</time>
      </trkpt>
      <trkpt lat="41.40040761039778" lon="-81.73595524453376">
        <ele>267.9799418425</ele>
        <time>2026-04-07T18:48:17Z</time>
      </trkpt>
      <trkpt lat="41.40040624677937" lon="-81.73536000731949">
        <ele>267.6212992033</ele>
        <time>2026-04-07T18:48:49Z</time>
      </trkpt>
      <trkpt lat="41.40038831399480" lon="-81.73476007476069">
        <ele>267.4679477563</ele>
        <time>2026-04-07T18:49:29Z</time>
      </trkpt>
      <trkpt lat="41.40039870522135" lon="-81.73463671981759">
        <ele>267.1580090558</ele>
        <time>2026-04-07T18:49:52Z</time>
      </trkpt>
      <trkpt lat="41.40084173499570" lon="-81.73462857730132">
        <ele>267.2699481234</ele>
        <time>2026-04-07T18:50:23Z</time>
      </trkpt>
      <trkpt lat="41.40129910319946" lon="-81.73463344023655">
        <ele>267.6301756746</ele>
        <time>2026-04-07T18:51:02Z</time>
      </trkpt>
      <trkpt lat="41.40132196641859" lon="-81.73463250325965">
        <ele>267.1832078765</ele>
        <time>2026-04-07T18:51:04Z</time>
      </trkpt>
      <trkpt lat="41.40131670319807" lon="-81.73523177762293">
        <ele>267.7509802815</ele>
        <time>2026-04-07T18:51:45Z</time>
      </trkpt>
      <trkpt lat="41.40132953459960" lon="-81.73584017611607">
        <ele>268.1928884325</ele>
        <time>2026-04-07T18:52:33Z</time>
      </trkpt>
      <trkpt lat="41.40133665006665" lon="-81.73643388041097">
        <ele>268.1667454221</ele>
        <time>2026-04-07T18:53:26Z</time>
      </trkpt>
      <trkpt lat="41.40133368530628" lon="-81.73702410434471">
        <ele>267.9324758363</ele>
        <time>2026-04-07T18:54:10Z</time>
      </trkpt>
      <trkpt lat="41.40133498506615" lon="-81.73763115833040">
        <ele>268.0439323906</ele>
        <time>2026-04-07T18:54:57Z</time>
      </trkpt>
      <trkpt lat="41.40133606783404" lon="-81.73822434911925">
        <ele>267.6544392540</ele>
        <time>2026-04-07T18:55:41Z</time>
      </trkpt>
      <trkpt lat="41.40134169996455" lon="-81.73883659799098">
        <ele>267.1758292478</ele>
        <time>2026-04-07T18:56:19Z</time>
      </trkpt>
      <trkpt lat="41.40134382368048" lon="-81.73942807150270">
        <ele>267.1156425899</ele>
        <time>2026-04-07T18:56:57Z</time>
      </trkpt>
      <trkpt lat="41.40135154798659" lon="-81.74003994525091">
        <ele>266.7209515514</ele>
        <time>2026-04-07T18:57:43Z</time>
      </trkpt>
      <trkpt lat="41.40133534866738" lon="-81.74020006236390">
        <ele>266.5406676150</ele>
        <time>2026-04-07T18:57:52Z</time>
      </trkpt>
    </trkseg>
  </trk>
</gpx>