<?xml version='1.0' encoding='UTF-8'?>
<gpx xmlns="http://www.topografix.com/GPX/1/1" creator="https://gpx.studio" version="1.1">
  <metadata>
    <name>Dog Walk - 2026-06-11 #4</name>
  </metadata>
  <trk>
    <name>Dog Walk - 2026-06-11 #4</name>
    <type>dog walk</type>
    <trkseg>
      <trkpt lat="41.40134117229591" lon="-81.74023596783584">
        <ele>266.5056436972</ele>
        <time>2026-06-11T18:21:42Z</time>
      </trkpt>
      <trkpt lat="41.40134430597976" lon="-81.74082466043151">
        <ele>266.3634258787</ele>
        <time>2026-06-11T18:22:15Z</time>
      </trkpt>
      <trkpt lat="41.40133509168570" lon="-81.74143077388018">
        <ele>265.7383830938</ele>
        <time>2026-06-11T18:23:03Z</time>
      </trkpt>
      <trkpt lat="41.40134038869925" lon="-81.74203640693179">
        <ele>265.2213054292</ele>
        <time>2026-06-11T18:23:44Z</time>
      </trkpt>
      <trkpt lat="41.40134141006556" lon="-81.74243174726800">
        <ele>264.6752506004</ele>
        <time>2026-06-11T18:24:02Z</time>
      </trkpt>
      <trkpt lat="41.40176956856306" lon="-81.74261261313798">
        <ele>264.3621052262</ele>
        <time>2026-06-11T18:24:46Z</time>
      </trkpt>
      <trkpt lat="41.40219999233901" lon="-81.74281392824811">
        <ele>263.6979368446</ele>
        <time>2026-06-11T18:25:29Z</time>
      </trkpt>
      <trkpt lat="41.40262403395258" lon="-81.74302549523897">
        <ele>262.8849090204</ele>
        <time>2026-06-11T18:26:16Z</time>
      </trkpt>
      <trkpt lat="41.40304438598318" lon="-81.74322523152595">
        <ele>262.6115344738</ele>
        <time>2026-06-11T18:27:03Z</time>
      </trkpt>
      <trkpt lat="41.40311940834132" lon="-81.74324953662426">
        <ele>262.2926434396</ele>
        <time>2026-06-11T18:27:22Z</time>
      </trkpt>
      <trkpt lat="41.40311569494467" lon="-81.74266220459106">
        <ele>263.3675003440</ele>
        <time>2026-06-11T18:28:11Z</time>
      </trkpt>
      <trkpt lat="41.40311995547177" lon="-81.74205716895297">
        <ele>263.4917443896</ele>
        <time>2026-06-11T18:28:50Z</time>
      </trkpt>
      <trkpt lat="41.40310700614820" lon="-81.74145737875115">
        <ele>264.3531212286</ele>
        <time>2026-06-11T18:29:22Z</time>
      </trkpt>
      <trkpt lat="41.40310507782039" lon="-81.74086058588931">
        <ele>264.9319607536</ele>
        <time>2026-06-11T18:29:55Z</time>
      </trkpt>
      <trkpt lat="41.40310529983550" lon="-81.74024235192530">
        <ele>265.4149518461</ele>
        <time>2026-06-11T18:30:45Z</time>
      </trkpt>
      <trkpt lat="41.40309841417697" lon="-81.73966817138492">
        <ele>265.8494679790</ele>
        <time>2026-06-11T18:31:13Z</time>
      </trkpt>
      <trkpt lat="41.40309680540486" lon="-81.73904425941137">
        <ele>265.9969172495</ele>
        <time>2026-06-11T18:31:52Z</time>
      </trkpt>
      <trkpt lat="41.40309471947204" lon="-81.73878319495481">
        <ele>266.0574247893</ele>
        <time>2026-06-11T18:32:08Z</time>
      </trkpt>
      <trkpt lat="41.40264906013786" lon="-81.73878631391079">
        <ele>266.6632368709</ele>
        <time>2026-06-11T18:32:44Z</time>
      </trkpt>
      <trkpt lat="41.40223659349093" lon="-81.73877613876292">
        <ele>267.2496474300</ele>
        <time>2026-06-11T18:33:21Z</time>
      </trkpt>
      <trkpt lat="41.40223542415948" lon="-81.73818122487259">
        <ele>267.0819986414</ele>
        <time>2026-06-11T18:34:06Z</time>
      </trkpt>
      <trkpt lat="41.40223621480871" lon="-81.73757310124313">
        <ele>267.0368050889</ele>
        <time>2026-06-11T18:34:45Z</time>
      </trkpt>
      <trkpt lat="41.40222986355651" lon="-81.73697422834077">
        <ele>267.2435794089</ele>
        <time>2026-06-11T18:35:26Z</time>
      </trkpt>
      <trkpt lat="41.40223335598794" lon="-81.73638485927182">
        <ele>267.1857366858</ele>
        <time>2026-06-11T18:36:02Z</time>
      </trkpt>
      <trkpt lat="41.40222437464768" lon="-81.73577242457594">
        <ele>267.3771485963</ele>
        <time>2026-06-11T18:36:53Z</time>
      </trkpt>
      <trkpt lat="41.40223060276775" lon="-81.73518557511869">
        <ele>267.2014533691</ele>
        <time>2026-06-11T18:37:34Z</time>
      </trkpt>
      <trkpt lat="41.40223168909210" lon="-81.73464401622491">
        <ele>266.9530931481</ele>
        <time>2026-06-11T18:38:09Z</time>
      </trkpt>
      <trkpt lat="41.40177041498848" lon="-81.73464043773456">
        <ele>267.0238697247</ele>
        <time>2026-06-11T18:38:50Z</time>
      </trkpt>
      <trkpt lat="41.40132338681642" lon="-81.73463994558875">
        <ele>267.3158666949</ele>
        <time>2026-06-11T18:39:29Z</time>
      </trkpt>
      <trkpt lat="41.40131553483996" lon="-81.73463504687444">
        <ele>267.2386703201</ele>
        <time>2026-06-11T18:39:30Z</time>
      </trkpt>
      <trkpt lat="41.40131361884136" lon="-81.73523405750488">
        <ele>267.8429593215</ele>
        <time>2026-06-11T18:40:11Z</time>
      </trkpt>
      <trkpt lat="41.40132129899194" lon="-81.73584537994869">
        <ele>268.1633123439</ele>
        <time>2026-06-11T18:40:58Z</time>
      </trkpt>
      <trkpt lat="41.40133009382392" lon="-81.73644270975828">
        <ele>268.2848524300</ele>
        <time>2026-06-11T18:41:37Z</time>
      </trkpt>
      <trkpt lat="41.40132470775714" lon="-81.73704733984529">
        <ele>268.2314914596</ele>
        <time>2026-06-11T18:42:15Z</time>
      </trkpt>
      <trkpt lat="41.40133564341056" lon="-81.73763347566369">
        <ele>268.1357278407</ele>
        <time>2026-06-11T18:42:49Z</time>
      </trkpt>
      <trkpt lat="41.40133458039743" lon="-81.73823521827300">
        <ele>267.6704104874</ele>
        <time>2026-06-11T18:43:42Z</time>
      </trkpt>
      <trkpt lat="41.40132942442315" lon="-81.73883252293973">
        <ele>267.5751798188</ele>
        <time>2026-06-11T18:44:29Z</time>
      </trkpt>
      <trkpt lat="41.40134645209999" lon="-81.73943327556113">
        <ele>267.2853453432</ele>
        <time>2026-06-11T18:45:01Z</time>
      </trkpt>
      <trkpt lat="41.40135445413670" lon="-81.74002782990534">
        <ele>266.6266350944</ele>
        <time>2026-06-11T18:45:32Z</time>
      </trkpt>
      <trkpt lat="41.40134428788183" lon="-81.74015567550411">
        <ele>266.6414624709</ele>
        <time>2026-06-11T18:45:40Z</time>
      </trkpt>
    </trkseg>
  </trk>
</gpx>