<?xml version='1.0' encoding='UTF-8'?>
<gpx xmlns="http://www.topografix.com/GPX/1/1" creator="https://gpx.studio" version="1.1">
  <metadata>
    <name>Dog Walk - 2026-06-06 #3</name>
  </metadata>
  <trk>
    <name>Dog Walk - 2026-06-06 #3</name>
    <type>dog walk</type>
    <trkseg>
      <trkpt lat="41.40133848268419" lon="-81.74022168721754">
        <ele>266.5917617321</ele>
        <time>2026-06-06T12:40:00Z</time>
      </trkpt>
      <trkpt lat="41.40133432245029" lon="-81.74083142915157">
        <ele>266.4007789083</ele>
        <time>2026-06-06T12:40:33Z</time>
      </trkpt>
      <trkpt lat="41.40133951048418" lon="-81.74143371479042">
        <ele>265.8211953381</ele>
        <time>2026-06-06T12:41:09Z</time>
      </trkpt>
      <trkpt lat="41.40133689362330" lon="-81.74202642593961">
        <ele>265.2999749371</ele>
        <time>2026-06-06T12:41:46Z</time>
      </trkpt>
      <trkpt lat="41.40132104318727" lon="-81.74238893560620">
        <ele>264.8488996289</ele>
        <time>2026-06-06T12:42:12Z</time>
      </trkpt>
      <trkpt lat="41.40091330322137" lon="-81.74216869486396">
        <ele>265.3122733987</ele>
        <time>2026-06-06T12:42:48Z</time>
      </trkpt>
      <trkpt lat="41.40049033733172" lon="-81.74196385970716">
        <ele>265.1393726624</ele>
        <time>2026-06-06T12:43:33Z</time>
      </trkpt>
      <trkpt lat="41.40046381516096" lon="-81.74194718118478">
        <ele>265.1621600515</ele>
        <time>2026-06-06T12:43:35Z</time>
      </trkpt>
      <trkpt lat="41.40044662641706" lon="-81.74135589751943">
        <ele>266.0485322806</ele>
        <time>2026-06-06T12:44:16Z</time>
      </trkpt>
      <trkpt lat="41.40043534414996" lon="-81.74075222974678">
        <ele>266.1358925436</ele>
        <time>2026-06-06T12:44:55Z</time>
      </trkpt>
      <trkpt lat="41.40043927611600" lon="-81.74013863875373">
        <ele>266.4709688636</ele>
        <time>2026-06-06T12:45:41Z</time>
      </trkpt>
      <trkpt lat="41.40043434112919" lon="-81.73955688274735">
        <ele>266.8755332612</ele>
        <time>2026-06-06T12:46:13Z</time>
      </trkpt>
      <trkpt lat="41.40042554341881" lon="-81.73896087266603">
        <ele>267.0927389770</ele>
        <time>2026-06-06T12:46:56Z</time>
      </trkpt>
      <trkpt lat="41.40042793358437" lon="-81.73834463646993">
        <ele>267.3779393658</ele>
        <time>2026-06-06T12:47:37Z</time>
      </trkpt>
      <trkpt lat="41.40042018121504" lon="-81.73773704806359">
        <ele>267.8518969973</ele>
        <time>2026-06-06T12:48:18Z</time>
      </trkpt>
      <trkpt lat="41.40041372662206" lon="-81.73715355718825">
        <ele>267.7336743970</ele>
        <time>2026-06-06T12:48:49Z</time>
      </trkpt>
      <trkpt lat="41.40041213706066" lon="-81.73656239152592">
        <ele>268.0620901176</ele>
        <time>2026-06-06T12:49:25Z</time>
      </trkpt>
      <trkpt lat="41.40039972118168" lon="-81.73595929250953">
        <ele>267.8688658251</ele>
        <time>2026-06-06T12:50:04Z</time>
      </trkpt>
      <trkpt lat="41.40040012747875" lon="-81.73535880604298">
        <ele>267.9727999375</ele>
        <time>2026-06-06T12:50:35Z</time>
      </trkpt>
      <trkpt lat="41.40039292410735" lon="-81.73475077169772">
        <ele>267.3474817298</ele>
        <time>2026-06-06T12:51:15Z</time>
      </trkpt>
      <trkpt lat="41.40038973904733" lon="-81.73462961631341">
        <ele>267.3154184452</ele>
        <time>2026-06-06T12:51:27Z</time>
      </trkpt>
      <trkpt lat="41.40083789276368" lon="-81.73462569544354">
        <ele>267.1809558151</ele>
        <time>2026-06-06T12:52:30Z</time>
      </trkpt>
      <trkpt lat="41.40128851916160" lon="-81.73463461666309">
        <ele>267.2686633995</ele>
        <time>2026-06-06T12:53:08Z</time>
      </trkpt>
      <trkpt lat="41.40132273237347" lon="-81.73463659528356">
        <ele>267.2904465862</ele>
        <time>2026-06-06T12:53:11Z</time>
      </trkpt>
      <trkpt lat="41.40132796846571" lon="-81.73523713625137">
        <ele>267.8380359796</ele>
        <time>2026-06-06T12:53:56Z</time>
      </trkpt>
      <trkpt lat="41.40132999742165" lon="-81.73583364581793">
        <ele>268.1434574693</ele>
        <time>2026-06-06T12:54:29Z</time>
      </trkpt>
      <trkpt lat="41.40132893513859" lon="-81.73643739461752">
        <ele>268.2266321304</ele>
        <time>2026-06-06T12:55:16Z</time>
      </trkpt>
      <trkpt lat="41.40133655320079" lon="-81.73702548678912">
        <ele>268.0580105199</ele>
        <time>2026-06-06T12:55:50Z</time>
      </trkpt>
      <trkpt lat="41.40133387017096" lon="-81.73762578138519">
        <ele>267.8372508665</ele>
        <time>2026-06-06T12:56:29Z</time>
      </trkpt>
      <trkpt lat="41.40134030665173" lon="-81.73822326154360">
        <ele>267.4558301444</ele>
        <time>2026-06-06T12:57:17Z</time>
      </trkpt>
      <trkpt lat="41.40133732384476" lon="-81.73882022959418">
        <ele>267.3489190698</ele>
        <time>2026-06-06T12:58:11Z</time>
      </trkpt>
      <trkpt lat="41.40135110195838" lon="-81.73942630889340">
        <ele>267.2212019244</ele>
        <time>2026-06-06T12:58:48Z</time>
      </trkpt>
      <trkpt lat="41.40134465480383" lon="-81.74003226903817">
        <ele>266.8181580598</ele>
        <time>2026-06-06T12:59:24Z</time>
      </trkpt>
      <trkpt lat="41.40134395278908" lon="-81.74019425102075">
        <ele>266.4739775407</ele>
        <time>2026-06-06T12:59:36Z</time>
      </trkpt>
    </trkseg>
  </trk>
</gpx>