<?xml version='1.0' encoding='UTF-8'?>
<gpx xmlns="http://www.topografix.com/GPX/1/1" creator="https://gpx.studio" version="1.1">
  <metadata>
    <name>Dog Walk - 2026-08-21 #2</name>
  </metadata>
  <trk>
    <name>Dog Walk - 2026-08-21 #2</name>
    <type>dog walk</type>
    <trkseg>
      <trkpt lat="41.40134124470145" lon="-81.74023783163248">
        <ele>266.5057941116</ele>
        <time>2026-08-21T19:29:42Z</time>
      </trkpt>
      <trkpt lat="41.40133191026469" lon="-81.74083050406691">
        <ele>266.2050278305</ele>
        <time>2026-08-21T19:30:55Z</time>
      </trkpt>
      <trkpt lat="41.40134978266028" lon="-81.74143139468534">
        <ele>265.7818214224</ele>
        <time>2026-08-21T19:31:36Z</time>
      </trkpt>
      <trkpt lat="41.40135329768041" lon="-81.74204146618760">
        <ele>265.3679791339</ele>
        <time>2026-08-21T19:32:22Z</time>
      </trkpt>
      <trkpt lat="41.40134782571474" lon="-81.74241765928653">
        <ele>264.6772793660</ele>
        <time>2026-08-21T19:32:46Z</time>
      </trkpt>
      <trkpt lat="41.40177291572991" lon="-81.74263265130021">
        <ele>264.4756195564</ele>
        <time>2026-08-21T19:33:27Z</time>
      </trkpt>
      <trkpt lat="41.40218688431459" lon="-81.74283637988302">
        <ele>263.5476570959</ele>
        <time>2026-08-21T19:34:15Z</time>
      </trkpt>
      <trkpt lat="41.40221541890127" lon="-81.74286057932660">
        <ele>263.4033892269</ele>
        <time>2026-08-21T19:34:29Z</time>
      </trkpt>
      <trkpt lat="41.40221845314537" lon="-81.74226997388406">
        <ele>264.1846798272</ele>
        <time>2026-08-21T19:35:04Z</time>
      </trkpt>
      <trkpt lat="41.40221308516593" lon="-81.74166834449386">
        <ele>264.7009298148</ele>
        <time>2026-08-21T19:35:40Z</time>
      </trkpt>
      <trkpt lat="41.40221835282675" lon="-81.74106967385629">
        <ele>265.4025126748</ele>
        <time>2026-08-21T19:36:38Z</time>
      </trkpt>
      <trkpt lat="41.40221424657820" lon="-81.74047231782578">
        <ele>266.1035031075</ele>
        <time>2026-08-21T19:37:28Z</time>
      </trkpt>
      <trkpt lat="41.40221427296979" lon="-81.73987292295391">
        <ele>266.7367763970</ele>
        <time>2026-08-21T19:38:04Z</time>
      </trkpt>
      <trkpt lat="41.40222404148712" lon="-81.73927227355598">
        <ele>266.8497696424</ele>
        <time>2026-08-21T19:38:40Z</time>
      </trkpt>
      <trkpt lat="41.40221475643035" lon="-81.73867332903527">
        <ele>267.0872835554</ele>
        <time>2026-08-21T19:39:35Z</time>
      </trkpt>
      <trkpt lat="41.40220792438772" lon="-81.73826998371274">
        <ele>267.0878853317</ele>
        <time>2026-08-21T19:40:07Z</time>
      </trkpt>
      <trkpt lat="41.40176543621454" lon="-81.73826270117493">
        <ele>267.7616000329</ele>
        <time>2026-08-21T19:40:40Z</time>
      </trkpt>
      <trkpt lat="41.40134089556776" lon="-81.73826051329218">
        <ele>267.3687569211</ele>
        <time>2026-08-21T19:41:22Z</time>
      </trkpt>
      <trkpt lat="41.40133578168637" lon="-81.73885961515988">
        <ele>267.3719128510</ele>
        <time>2026-08-21T19:41:55Z</time>
      </trkpt>
      <trkpt lat="41.40134002291239" lon="-81.73946225131955">
        <ele>267.1137691610</ele>
        <time>2026-08-21T19:42:37Z</time>
      </trkpt>
      <trkpt lat="41.40133789422415" lon="-81.74005481812210">
        <ele>266.7559180596</ele>
        <time>2026-08-21T19:43:10Z</time>
      </trkpt>
      <trkpt lat="41.40133564904473" lon="-81.74019694328062">
        <ele>266.4155302921</ele>
        <time>2026-08-21T19:43:21Z</time>
      </trkpt>
    </trkseg>
  </trk>
</gpx>