<?xml version='1.0' encoding='UTF-8'?>
<gpx xmlns="http://www.topografix.com/GPX/1/1" creator="https://gpx.studio" version="1.1">
  <metadata>
    <name>Dog Walk - 2026-07-09 #3</name>
  </metadata>
  <trk>
    <name>Dog Walk - 2026-07-09 #3</name>
    <type>dog walk</type>
    <trkseg>
      <trkpt lat="41.40133476433117" lon="-81.74023148245236">
        <ele>266.4315157843</ele>
        <time>2026-07-09T13:25:38Z</time>
      </trkpt>
      <trkpt lat="41.40133661778457" lon="-81.74082278728989">
        <ele>266.3063506247</ele>
        <time>2026-07-09T13:26:08Z</time>
      </trkpt>
      <trkpt lat="41.40133777427614" lon="-81.74142310853915">
        <ele>265.7622462961</ele>
        <time>2026-07-09T13:26:44Z</time>
      </trkpt>
      <trkpt lat="41.40135185217522" lon="-81.74202484610421">
        <ele>265.2106627860</ele>
        <time>2026-07-09T13:27:22Z</time>
      </trkpt>
      <trkpt lat="41.40134185208050" lon="-81.74242422909695">
        <ele>264.5356417054</ele>
        <time>2026-07-09T13:27:43Z</time>
      </trkpt>
      <trkpt lat="41.40177359280374" lon="-81.74263696562562">
        <ele>264.1888969626</ele>
        <time>2026-07-09T13:28:44Z</time>
      </trkpt>
      <trkpt lat="41.40218677356589" lon="-81.74284086961977">
        <ele>263.5430317553</ele>
        <time>2026-07-09T13:29:25Z</time>
      </trkpt>
      <trkpt lat="41.40260548812453" lon="-81.74305210364793">
        <ele>262.9559549342</ele>
        <time>2026-07-09T13:30:18Z</time>
      </trkpt>
      <trkpt lat="41.40303544414518" lon="-81.74326144602351">
        <ele>262.3090987845</ele>
        <time>2026-07-09T13:30:58Z</time>
      </trkpt>
      <trkpt lat="41.40344954046495" lon="-81.74348216724813">
        <ele>261.8501359664</ele>
        <time>2026-07-09T13:31:36Z</time>
      </trkpt>
      <trkpt lat="41.40348525975596" lon="-81.74349736249077">
        <ele>261.6335709102</ele>
        <time>2026-07-09T13:31:40Z</time>
      </trkpt>
      <trkpt lat="41.40359961760969" lon="-81.74351861258066">
        <ele>261.6478168025</ele>
        <time>2026-07-09T13:31:52Z</time>
      </trkpt>
      <trkpt lat="41.40398939429012" lon="-81.74350102294341">
        <ele>260.8387941034</ele>
        <time>2026-07-09T13:32:26Z</time>
      </trkpt>
      <trkpt lat="41.40399194908047" lon="-81.74290299891442">
        <ele>261.5061797553</ele>
        <time>2026-07-09T13:33:14Z</time>
      </trkpt>
      <trkpt lat="41.40400161737436" lon="-81.74230280345546">
        <ele>262.1502057873</ele>
        <time>2026-07-09T13:33:54Z</time>
      </trkpt>
      <trkpt lat="41.40398349230324" lon="-81.74171435094253">
        <ele>262.4768949089</ele>
        <time>2026-07-09T13:34:28Z</time>
      </trkpt>
      <trkpt lat="41.40398053586076" lon="-81.74111113502609">
        <ele>262.8510491315</ele>
        <time>2026-07-09T13:35:11Z</time>
      </trkpt>
      <trkpt lat="41.40399034630113" lon="-81.74049968453838">
        <ele>263.6748963276</ele>
        <time>2026-07-09T13:36:10Z</time>
      </trkpt>
      <trkpt lat="41.40399384744092" lon="-81.73991763974905">
        <ele>264.1665604316</ele>
        <time>2026-07-09T13:36:46Z</time>
      </trkpt>
      <trkpt lat="41.40398498010633" lon="-81.73931859037037">
        <ele>264.9583442705</ele>
        <time>2026-07-09T13:37:20Z</time>
      </trkpt>
      <trkpt lat="41.40397813778203" lon="-81.73876437435139">
        <ele>265.4676579410</ele>
        <time>2026-07-09T13:38:01Z</time>
      </trkpt>
      <trkpt lat="41.40353326090296" lon="-81.73877397910208">
        <ele>265.9274736268</ele>
        <time>2026-07-09T13:38:49Z</time>
      </trkpt>
      <trkpt lat="41.40309259439027" lon="-81.73877322335223">
        <ele>266.1813966694</ele>
        <time>2026-07-09T13:39:27Z</time>
      </trkpt>
      <trkpt lat="41.40264419576049" lon="-81.73877383572709">
        <ele>266.8057884777</ele>
        <time>2026-07-09T13:40:06Z</time>
      </trkpt>
      <trkpt lat="41.40221853841190" lon="-81.73878305289199">
        <ele>267.1703556103</ele>
        <time>2026-07-09T13:40:59Z</time>
      </trkpt>
      <trkpt lat="41.40221686429093" lon="-81.73827600970840">
        <ele>267.0315165812</ele>
        <time>2026-07-09T13:41:28Z</time>
      </trkpt>
      <trkpt lat="41.40176569798404" lon="-81.73826134165505">
        <ele>267.9108519370</ele>
        <time>2026-07-09T13:42:06Z</time>
      </trkpt>
      <trkpt lat="41.40132726278127" lon="-81.73826543205791">
        <ele>267.4515338228</ele>
        <time>2026-07-09T13:42:44Z</time>
      </trkpt>
      <trkpt lat="41.40133844732726" lon="-81.73886980778610">
        <ele>267.3278122988</ele>
        <time>2026-07-09T13:43:18Z</time>
      </trkpt>
      <trkpt lat="41.40133506776233" lon="-81.73946390052757">
        <ele>266.9647889749</ele>
        <time>2026-07-09T13:44:20Z</time>
      </trkpt>
      <trkpt lat="41.40133989187628" lon="-81.74006506506622">
        <ele>266.7560050204</ele>
        <time>2026-07-09T13:45:02Z</time>
      </trkpt>
      <trkpt lat="41.40134525374603" lon="-81.74020192056470">
        <ele>266.5481820308</ele>
        <time>2026-07-09T13:45:10Z</time>
      </trkpt>
    </trkseg>
  </trk>
</gpx>