<?xml version='1.0' encoding='UTF-8'?>
<gpx xmlns="http://www.topografix.com/GPX/1/1" creator="https://gpx.studio" version="1.1">
  <metadata>
    <name>Dog Walk - 2026-05-15 #2</name>
  </metadata>
  <trk>
    <name>Dog Walk - 2026-05-15 #2</name>
    <type>dog walk</type>
    <trkseg>
      <trkpt lat="41.40134289378016" lon="-81.74023102535864">
        <ele>266.6576585191</ele>
        <time>2026-05-15T18:42:27Z</time>
      </trkpt>
      <trkpt lat="41.40132780525328" lon="-81.74082989201521">
        <ele>266.1217110478</ele>
        <time>2026-05-15T18:43:00Z</time>
      </trkpt>
      <trkpt lat="41.40133924289632" lon="-81.74142982303390">
        <ele>265.7966634494</ele>
        <time>2026-05-15T18:43:31Z</time>
      </trkpt>
      <trkpt lat="41.40135001497421" lon="-81.74201631431475">
        <ele>265.2264745396</ele>
        <time>2026-05-15T18:44:03Z</time>
      </trkpt>
      <trkpt lat="41.40135006204297" lon="-81.74241752612855">
        <ele>264.8721056405</ele>
        <time>2026-05-15T18:44:29Z</time>
      </trkpt>
      <trkpt lat="41.40177428192671" lon="-81.74262390963617">
        <ele>264.2882850769</ele>
        <time>2026-05-15T18:45:30Z</time>
      </trkpt>
      <trkpt lat="41.40218131992297" lon="-81.74283340483902">
        <ele>263.4223004548</ele>
        <time>2026-05-15T18:46:09Z</time>
      </trkpt>
      <trkpt lat="41.40261229381809" lon="-81.74306518728052">
        <ele>263.0467737428</ele>
        <time>2026-05-15T18:46:48Z</time>
      </trkpt>
      <trkpt lat="41.40303335508931" lon="-81.74326417843317">
        <ele>262.3974060697</ele>
        <time>2026-05-15T18:47:26Z</time>
      </trkpt>
      <trkpt lat="41.40344635495465" lon="-81.74347939811659">
        <ele>261.8766719783</ele>
        <time>2026-05-15T18:48:02Z</time>
      </trkpt>
      <trkpt lat="41.40349461929080" lon="-81.74350181295293">
        <ele>261.9170866319</ele>
        <time>2026-05-15T18:48:07Z</time>
      </trkpt>
      <trkpt lat="41.40359428091329" lon="-81.74352215850315">
        <ele>261.8281434572</ele>
        <time>2026-05-15T18:48:15Z</time>
      </trkpt>
      <trkpt lat="41.40400062680338" lon="-81.74351555576079">
        <ele>260.6051890533</ele>
        <time>2026-05-15T18:48:44Z</time>
      </trkpt>
      <trkpt lat="41.40399607624444" lon="-81.74290430599967">
        <ele>261.5887122984</ele>
        <time>2026-05-15T18:49:21Z</time>
      </trkpt>
      <trkpt lat="41.40398901269785" lon="-81.74231305237545">
        <ele>262.2089093021</ele>
        <time>2026-05-15T18:49:53Z</time>
      </trkpt>
      <trkpt lat="41.40399258715308" lon="-81.74170816798487">
        <ele>262.4942888344</ele>
        <time>2026-05-15T18:50:38Z</time>
      </trkpt>
      <trkpt lat="41.40398286646619" lon="-81.74111239862242">
        <ele>263.1014263374</ele>
        <time>2026-05-15T18:51:09Z</time>
      </trkpt>
      <trkpt lat="41.40398784556779" lon="-81.74050094838526">
        <ele>263.3746409033</ele>
        <time>2026-05-15T18:51:55Z</time>
      </trkpt>
      <trkpt lat="41.40399096284719" lon="-81.73991024390294">
        <ele>264.4599281893</ele>
        <time>2026-05-15T18:52:31Z</time>
      </trkpt>
      <trkpt lat="41.40397839859099" lon="-81.73931124026166">
        <ele>265.0538985531</ele>
        <time>2026-05-15T18:53:14Z</time>
      </trkpt>
      <trkpt lat="41.40399112227697" lon="-81.73877611288269">
        <ele>265.1597625821</ele>
        <time>2026-05-15T18:54:01Z</time>
      </trkpt>
      <trkpt lat="41.40353766683291" lon="-81.73876794151558">
        <ele>265.9345698730</ele>
        <time>2026-05-15T18:54:37Z</time>
      </trkpt>
      <trkpt lat="41.40308431944968" lon="-81.73876532455522">
        <ele>266.2440517176</ele>
        <time>2026-05-15T18:55:10Z</time>
      </trkpt>
      <trkpt lat="41.40263645562960" lon="-81.73877529849568">
        <ele>266.5859860200</ele>
        <time>2026-05-15T18:56:08Z</time>
      </trkpt>
      <trkpt lat="41.40223112537825" lon="-81.73877596790682">
        <ele>266.9692460804</ele>
        <time>2026-05-15T18:56:48Z</time>
      </trkpt>
      <trkpt lat="41.40221620803754" lon="-81.73828746114314">
        <ele>267.1315382973</ele>
        <time>2026-05-15T18:57:20Z</time>
      </trkpt>
      <trkpt lat="41.40177050939066" lon="-81.73827686923616">
        <ele>267.7513434681</ele>
        <time>2026-05-15T18:57:55Z</time>
      </trkpt>
      <trkpt lat="41.40133088582218" lon="-81.73825624793102">
        <ele>267.5303275123</ele>
        <time>2026-05-15T18:58:28Z</time>
      </trkpt>
      <trkpt lat="41.40132204576186" lon="-81.73886800534572">
        <ele>267.2164373365</ele>
        <time>2026-05-15T18:59:10Z</time>
      </trkpt>
      <trkpt lat="41.40133418692098" lon="-81.73947023531282">
        <ele>267.1159665574</ele>
        <time>2026-05-15T18:59:52Z</time>
      </trkpt>
      <trkpt lat="41.40134585532732" lon="-81.74006543598603">
        <ele>266.7139126923</ele>
        <time>2026-05-15T19:00:35Z</time>
      </trkpt>
      <trkpt lat="41.40134049504043" lon="-81.74021216525099">
        <ele>266.2428520279</ele>
        <time>2026-05-15T19:00:44Z</time>
      </trkpt>
    </trkseg>
  </trk>
</gpx>