<?xml version='1.0' encoding='UTF-8'?>
<gpx xmlns="http://www.topografix.com/GPX/1/1" creator="https://gpx.studio" version="1.1">
  <metadata>
    <name>Dog Walk - 2026-04-15 #1</name>
  </metadata>
  <trk>
    <name>Dog Walk - 2026-04-15 #1</name>
    <type>dog walk</type>
    <trkseg>
      <trkpt lat="41.40133596201908" lon="-81.74022741082021">
        <ele>266.6161886705</ele>
        <time>2026-04-15T07:41:31Z</time>
      </trkpt>
      <trkpt lat="41.40134446877506" lon="-81.74082678829589">
        <ele>266.0658519476</ele>
        <time>2026-04-15T07:42:14Z</time>
      </trkpt>
      <trkpt lat="41.40134414889783" lon="-81.74143586317673">
        <ele>265.8641928782</ele>
        <time>2026-04-15T07:42:54Z</time>
      </trkpt>
      <trkpt lat="41.40133698063661" lon="-81.74204365666782">
        <ele>265.2808296972</ele>
        <time>2026-04-15T07:43:32Z</time>
      </trkpt>
      <trkpt lat="41.40135086067194" lon="-81.74242723955979">
        <ele>264.7992039227</ele>
        <time>2026-04-15T07:43:56Z</time>
      </trkpt>
      <trkpt lat="41.40178049632001" lon="-81.74262115452426">
        <ele>264.4240775332</ele>
        <time>2026-04-15T07:44:29Z</time>
      </trkpt>
      <trkpt lat="41.40220242693638" lon="-81.74281161178175">
        <ele>263.3258988988</ele>
        <time>2026-04-15T07:45:09Z</time>
      </trkpt>
      <trkpt lat="41.40261964422841" lon="-81.74301121902140">
        <ele>263.1372435738</ele>
        <time>2026-04-15T07:45:53Z</time>
      </trkpt>
      <trkpt lat="41.40304224478670" lon="-81.74321643459254">
        <ele>262.2348060944</ele>
        <time>2026-04-15T07:46:31Z</time>
      </trkpt>
      <trkpt lat="41.40311971153199" lon="-81.74325614749208">
        <ele>262.6696728743</ele>
        <time>2026-04-15T07:46:39Z</time>
      </trkpt>
      <trkpt lat="41.40311127815093" lon="-81.74265337827367">
        <ele>262.8844602892</ele>
        <time>2026-04-15T07:47:14Z</time>
      </trkpt>
      <trkpt lat="41.40311359509865" lon="-81.74204568511750">
        <ele>263.4726176305</ele>
        <time>2026-04-15T07:48:18Z</time>
      </trkpt>
      <trkpt lat="41.40310906502948" lon="-81.74146422092950">
        <ele>264.1856926085</ele>
        <time>2026-04-15T07:48:58Z</time>
      </trkpt>
      <trkpt lat="41.40310761162121" lon="-81.74086365690829">
        <ele>264.7508236629</ele>
        <time>2026-04-15T07:50:02Z</time>
      </trkpt>
      <trkpt lat="41.40309817506125" lon="-81.74025368401583">
        <ele>265.4538204120</ele>
        <time>2026-04-15T07:50:45Z</time>
      </trkpt>
      <trkpt lat="41.40310699188421" lon="-81.73965071617604">
        <ele>265.6991246892</ele>
        <time>2026-04-15T07:51:21Z</time>
      </trkpt>
      <trkpt lat="41.40310463152058" lon="-81.73905279777892">
        <ele>266.0540111069</ele>
        <time>2026-04-15T07:52:12Z</time>
      </trkpt>
      <trkpt lat="41.40309129490563" lon="-81.73877476809740">
        <ele>266.3261634662</ele>
        <time>2026-04-15T07:52:29Z</time>
      </trkpt>
      <trkpt lat="41.40265235017966" lon="-81.73877831961241">
        <ele>266.5860892661</ele>
        <time>2026-04-15T07:53:09Z</time>
      </trkpt>
      <trkpt lat="41.40223719999027" lon="-81.73877943221790">
        <ele>267.2962046726</ele>
        <time>2026-04-15T07:53:37Z</time>
      </trkpt>
      <trkpt lat="41.40222850228194" lon="-81.73818245906008">
        <ele>267.2723544137</ele>
        <time>2026-04-15T07:54:21Z</time>
      </trkpt>
      <trkpt lat="41.40223065610916" lon="-81.73758738508516">
        <ele>267.1277353661</ele>
        <time>2026-04-15T07:55:09Z</time>
      </trkpt>
      <trkpt lat="41.40223452288857" lon="-81.73698425890079">
        <ele>267.2102627177</ele>
        <time>2026-04-15T07:55:42Z</time>
      </trkpt>
      <trkpt lat="41.40222800562595" lon="-81.73637783482016">
        <ele>267.1183101999</ele>
        <time>2026-04-15T07:56:28Z</time>
      </trkpt>
      <trkpt lat="41.40222261767422" lon="-81.73577981119054">
        <ele>267.2998360231</ele>
        <time>2026-04-15T07:57:13Z</time>
      </trkpt>
      <trkpt lat="41.40222573718941" lon="-81.73518124638859">
        <ele>267.1664465651</ele>
        <time>2026-04-15T07:58:00Z</time>
      </trkpt>
      <trkpt lat="41.40222800464610" lon="-81.73464692013482">
        <ele>267.1473682963</ele>
        <time>2026-04-15T07:58:30Z</time>
      </trkpt>
      <trkpt lat="41.40177456192578" lon="-81.73463431313205">
        <ele>267.2078053786</ele>
        <time>2026-04-15T07:59:20Z</time>
      </trkpt>
      <trkpt lat="41.40132741582539" lon="-81.73463290457909">
        <ele>267.1931785901</ele>
        <time>2026-04-15T08:00:06Z</time>
      </trkpt>
      <trkpt lat="41.40131385262905" lon="-81.73464310265135">
        <ele>267.2972478487</ele>
        <time>2026-04-15T08:00:08Z</time>
      </trkpt>
      <trkpt lat="41.40132356004573" lon="-81.73523407447975">
        <ele>267.9096671481</ele>
        <time>2026-04-15T08:00:45Z</time>
      </trkpt>
      <trkpt lat="41.40131994599068" lon="-81.73584308301376">
        <ele>268.2689558279</ele>
        <time>2026-04-15T08:01:25Z</time>
      </trkpt>
      <trkpt lat="41.40131923323107" lon="-81.73644199258140">
        <ele>268.0400772042</ele>
        <time>2026-04-15T08:02:07Z</time>
      </trkpt>
      <trkpt lat="41.40133072976060" lon="-81.73704225006942">
        <ele>267.9742030193</ele>
        <time>2026-04-15T08:02:46Z</time>
      </trkpt>
      <trkpt lat="41.40132908829527" lon="-81.73762840050715">
        <ele>267.8646236504</ele>
        <time>2026-04-15T08:03:16Z</time>
      </trkpt>
      <trkpt lat="41.40133759345103" lon="-81.73823582007797">
        <ele>267.3714641957</ele>
        <time>2026-04-15T08:04:00Z</time>
      </trkpt>
      <trkpt lat="41.40133124621082" lon="-81.73882657155029">
        <ele>267.3327132250</ele>
        <time>2026-04-15T08:04:42Z</time>
      </trkpt>
      <trkpt lat="41.40134175150922" lon="-81.73942824714443">
        <ele>267.4643045751</ele>
        <time>2026-04-15T08:05:25Z</time>
      </trkpt>
      <trkpt lat="41.40135222777921" lon="-81.74003727209787">
        <ele>266.6241245693</ele>
        <time>2026-04-15T08:06:05Z</time>
      </trkpt>
      <trkpt lat="41.40134640607280" lon="-81.74016243855563">
        <ele>266.5597482440</ele>
        <time>2026-04-15T08:06:14Z</time>
      </trkpt>
    </trkseg>
  </trk>
</gpx>