<?xml version='1.0' encoding='UTF-8'?>
<gpx xmlns="http://www.topografix.com/GPX/1/1" creator="https://gpx.studio" version="1.1">
  <metadata>
    <name>Dog Walk - 2026-07-31 #1</name>
  </metadata>
  <trk>
    <name>Dog Walk - 2026-07-31 #1</name>
    <type>dog walk</type>
    <trkseg>
      <trkpt lat="41.40134019063625" lon="-81.74022584847798">
        <ele>266.6561050558</ele>
        <time>2026-07-31T07:21:22Z</time>
      </trkpt>
      <trkpt lat="41.40133587543615" lon="-81.74082728504514">
        <ele>266.2324180091</ele>
        <time>2026-07-31T07:21:55Z</time>
      </trkpt>
      <trkpt lat="41.40133589701584" lon="-81.74143845877965">
        <ele>265.9583639282</ele>
        <time>2026-07-31T07:22:34Z</time>
      </trkpt>
      <trkpt lat="41.40132677189583" lon="-81.74203315194966">
        <ele>265.3092804725</ele>
        <time>2026-07-31T07:23:07Z</time>
      </trkpt>
      <trkpt lat="41.40133734945647" lon="-81.74238633267697">
        <ele>264.8070745420</ele>
        <time>2026-07-31T07:23:40Z</time>
      </trkpt>
      <trkpt lat="41.40090820972667" lon="-81.74217974957143">
        <ele>265.1145502677</ele>
        <time>2026-07-31T07:24:10Z</time>
      </trkpt>
      <trkpt lat="41.40048288081464" lon="-81.74196962140343">
        <ele>265.1824205870</ele>
        <time>2026-07-31T07:25:00Z</time>
      </trkpt>
      <trkpt lat="41.40045419179830" lon="-81.74194279522401">
        <ele>265.2129932066</ele>
        <time>2026-07-31T07:25:03Z</time>
      </trkpt>
      <trkpt lat="41.40043735436706" lon="-81.74134985587641">
        <ele>266.2971413877</ele>
        <time>2026-07-31T07:25:39Z</time>
      </trkpt>
      <trkpt lat="41.40043828668105" lon="-81.74075012148484">
        <ele>266.2619834540</ele>
        <time>2026-07-31T07:26:23Z</time>
      </trkpt>
      <trkpt lat="41.40044638208076" lon="-81.74014263320139">
        <ele>266.6670419707</ele>
        <time>2026-07-31T07:27:01Z</time>
      </trkpt>
      <trkpt lat="41.40043483777195" lon="-81.73955053315277">
        <ele>266.7900903227</ele>
        <time>2026-07-31T07:27:34Z</time>
      </trkpt>
      <trkpt lat="41.40042132535804" lon="-81.73894548750432">
        <ele>267.0845181000</ele>
        <time>2026-07-31T07:28:13Z</time>
      </trkpt>
      <trkpt lat="41.40042335690848" lon="-81.73835124921936">
        <ele>267.2655329829</ele>
        <time>2026-07-31T07:28:45Z</time>
      </trkpt>
      <trkpt lat="41.40041279747118" lon="-81.73775059114739">
        <ele>267.7992723078</ele>
        <time>2026-07-31T07:29:21Z</time>
      </trkpt>
      <trkpt lat="41.40041134014590" lon="-81.73715180195508">
        <ele>268.1220890644</ele>
        <time>2026-07-31T07:29:58Z</time>
      </trkpt>
      <trkpt lat="41.40041277087614" lon="-81.73654871892303">
        <ele>267.9300834743</ele>
        <time>2026-07-31T07:30:36Z</time>
      </trkpt>
      <trkpt lat="41.40041439803331" lon="-81.73596949181641">
        <ele>267.9295537844</ele>
        <time>2026-07-31T07:31:28Z</time>
      </trkpt>
      <trkpt lat="41.40040134025557" lon="-81.73535381285568">
        <ele>267.7729310501</ele>
        <time>2026-07-31T07:32:06Z</time>
      </trkpt>
      <trkpt lat="41.40039234203403" lon="-81.73475666475845">
        <ele>267.6177272639</ele>
        <time>2026-07-31T07:32:59Z</time>
      </trkpt>
      <trkpt lat="41.40039020871080" lon="-81.73463571014761">
        <ele>267.3846136571</ele>
        <time>2026-07-31T07:33:07Z</time>
      </trkpt>
      <trkpt lat="41.40084243542989" lon="-81.73463303088137">
        <ele>267.5477392724</ele>
        <time>2026-07-31T07:34:21Z</time>
      </trkpt>
      <trkpt lat="41.40129594969834" lon="-81.73463057229239">
        <ele>267.2862464938</ele>
        <time>2026-07-31T07:35:02Z</time>
      </trkpt>
      <trkpt lat="41.40132516548324" lon="-81.73464105818161">
        <ele>267.2594620559</ele>
        <time>2026-07-31T07:35:06Z</time>
      </trkpt>
      <trkpt lat="41.40131563151842" lon="-81.73522666270614">
        <ele>267.8450300887</ele>
        <time>2026-07-31T07:35:48Z</time>
      </trkpt>
      <trkpt lat="41.40132291207968" lon="-81.73583101031501">
        <ele>268.2351864613</ele>
        <time>2026-07-31T07:36:28Z</time>
      </trkpt>
      <trkpt lat="41.40133277706846" lon="-81.73644017015026">
        <ele>267.9056561108</ele>
        <time>2026-07-31T07:37:08Z</time>
      </trkpt>
      <trkpt lat="41.40133330154271" lon="-81.73702591254437">
        <ele>267.6910536593</ele>
        <time>2026-07-31T07:37:40Z</time>
      </trkpt>
      <trkpt lat="41.40132959734169" lon="-81.73763032440159">
        <ele>267.9782267551</ele>
        <time>2026-07-31T07:38:13Z</time>
      </trkpt>
      <trkpt lat="41.40133726611963" lon="-81.73822634726690">
        <ele>267.5011306559</ele>
        <time>2026-07-31T07:38:51Z</time>
      </trkpt>
      <trkpt lat="41.40134353567279" lon="-81.73882753280331">
        <ele>267.3441573075</ele>
        <time>2026-07-31T07:39:28Z</time>
      </trkpt>
      <trkpt lat="41.40133640668166" lon="-81.73943345698325">
        <ele>266.9898981683</ele>
        <time>2026-07-31T07:40:03Z</time>
      </trkpt>
      <trkpt lat="41.40134138703942" lon="-81.74003151911469">
        <ele>266.5527151567</ele>
        <time>2026-07-31T07:40:48Z</time>
      </trkpt>
      <trkpt lat="41.40134581744282" lon="-81.74019824870264">
        <ele>266.6113105416</ele>
        <time>2026-07-31T07:40:58Z</time>
      </trkpt>
    </trkseg>
  </trk>
</gpx>