<?xml version='1.0' encoding='UTF-8'?>
<gpx xmlns="http://www.topografix.com/GPX/1/1" creator="https://gpx.studio" version="1.1">
  <metadata>
    <name>Dog Walk - 2026-03-07 #1</name>
  </metadata>
  <trk>
    <name>Dog Walk - 2026-03-07 #1</name>
    <type>dog walk</type>
    <trkseg>
      <trkpt lat="41.40133922391330" lon="-81.74023947225737">
        <ele>266.6284204980</ele>
        <time>2026-03-07T07:11:06Z</time>
      </trkpt>
      <trkpt lat="41.40133552197322" lon="-81.74084226483882">
        <ele>266.2466536145</ele>
        <time>2026-03-07T07:11:50Z</time>
      </trkpt>
      <trkpt lat="41.40134217646016" lon="-81.74143534507157">
        <ele>265.7742404902</ele>
        <time>2026-03-07T07:12:31Z</time>
      </trkpt>
      <trkpt lat="41.40135280515811" lon="-81.74204364972294">
        <ele>265.4031982571</ele>
        <time>2026-03-07T07:13:15Z</time>
      </trkpt>
      <trkpt lat="41.40134767866593" lon="-81.74241473374961">
        <ele>264.7763516595</ele>
        <time>2026-03-07T07:13:37Z</time>
      </trkpt>
      <trkpt lat="41.40177210325395" lon="-81.74261790174013">
        <ele>264.1935355528</ele>
        <time>2026-03-07T07:14:23Z</time>
      </trkpt>
      <trkpt lat="41.40219073465632" lon="-81.74281959641090">
        <ele>263.7482722973</ele>
        <time>2026-03-07T07:15:00Z</time>
      </trkpt>
      <trkpt lat="41.40261942587986" lon="-81.74300534912283">
        <ele>263.2416170175</ele>
        <time>2026-03-07T07:15:43Z</time>
      </trkpt>
      <trkpt lat="41.40304185885365" lon="-81.74322217783076">
        <ele>262.4545500539</ele>
        <time>2026-03-07T07:16:26Z</time>
      </trkpt>
      <trkpt lat="41.40312615958775" lon="-81.74325671772803">
        <ele>262.3752725110</ele>
        <time>2026-03-07T07:16:35Z</time>
      </trkpt>
      <trkpt lat="41.40311608640628" lon="-81.74265123026359">
        <ele>263.1118536781</ele>
        <time>2026-03-07T07:17:06Z</time>
      </trkpt>
      <trkpt lat="41.40311595113822" lon="-81.74204864431678">
        <ele>263.8097421211</ele>
        <time>2026-03-07T07:17:40Z</time>
      </trkpt>
      <trkpt lat="41.40310522164219" lon="-81.74145429008571">
        <ele>264.3165939843</ele>
        <time>2026-03-07T07:18:18Z</time>
      </trkpt>
      <trkpt lat="41.40310856856519" lon="-81.74086115258118">
        <ele>264.7931557880</ele>
        <time>2026-03-07T07:19:05Z</time>
      </trkpt>
      <trkpt lat="41.40310530168130" lon="-81.74026200295521">
        <ele>265.6277268282</ele>
        <time>2026-03-07T07:19:37Z</time>
      </trkpt>
      <trkpt lat="41.40310114472126" lon="-81.73964865797841">
        <ele>265.8011718017</ele>
        <time>2026-03-07T07:20:29Z</time>
      </trkpt>
      <trkpt lat="41.40309014441787" lon="-81.73905261195621">
        <ele>266.1012369859</ele>
        <time>2026-03-07T07:21:03Z</time>
      </trkpt>
      <trkpt lat="41.40309511711969" lon="-81.73878488746551">
        <ele>266.2208332107</ele>
        <time>2026-03-07T07:21:23Z</time>
      </trkpt>
      <trkpt lat="41.40265222121914" lon="-81.73878658184046">
        <ele>266.6407581019</ele>
        <time>2026-03-07T07:22:00Z</time>
      </trkpt>
      <trkpt lat="41.40223771146993" lon="-81.73877370212318">
        <ele>267.0032118190</ele>
        <time>2026-03-07T07:22:51Z</time>
      </trkpt>
      <trkpt lat="41.40223512747225" lon="-81.73817851946069">
        <ele>267.2274684004</ele>
        <time>2026-03-07T07:23:35Z</time>
      </trkpt>
      <trkpt lat="41.40222644154061" lon="-81.73757819851555">
        <ele>267.1343452624</ele>
        <time>2026-03-07T07:24:14Z</time>
      </trkpt>
      <trkpt lat="41.40222514969132" lon="-81.73698056179761">
        <ele>267.3372782541</ele>
        <time>2026-03-07T07:24:58Z</time>
      </trkpt>
      <trkpt lat="41.40222860151947" lon="-81.73638737076722">
        <ele>267.2083598299</ele>
        <time>2026-03-07T07:25:41Z</time>
      </trkpt>
      <trkpt lat="41.40222024749252" lon="-81.73579407097110">
        <ele>267.1501963955</ele>
        <time>2026-03-07T07:26:17Z</time>
      </trkpt>
      <trkpt lat="41.40221611475894" lon="-81.73518713152085">
        <ele>267.3267632202</ele>
        <time>2026-03-07T07:26:56Z</time>
      </trkpt>
      <trkpt lat="41.40222299783110" lon="-81.73464620712996">
        <ele>266.8278870215</ele>
        <time>2026-03-07T07:27:31Z</time>
      </trkpt>
      <trkpt lat="41.40177358111394" lon="-81.73464770813274">
        <ele>267.2590701177</ele>
        <time>2026-03-07T07:28:17Z</time>
      </trkpt>
      <trkpt lat="41.40132452793225" lon="-81.73463247657510">
        <ele>267.2110556712</ele>
        <time>2026-03-07T07:28:54Z</time>
      </trkpt>
      <trkpt lat="41.40131544024084" lon="-81.73464135404492">
        <ele>267.1557353251</ele>
        <time>2026-03-07T07:28:55Z</time>
      </trkpt>
      <trkpt lat="41.40131698435057" lon="-81.73524019768070">
        <ele>267.9207167114</ele>
        <time>2026-03-07T07:29:32Z</time>
      </trkpt>
      <trkpt lat="41.40132623112092" lon="-81.73583711793954">
        <ele>268.1541848977</ele>
        <time>2026-03-07T07:30:10Z</time>
      </trkpt>
      <trkpt lat="41.40132787924512" lon="-81.73643417320271">
        <ele>268.1403353150</ele>
        <time>2026-03-07T07:30:59Z</time>
      </trkpt>
      <trkpt lat="41.40132633421505" lon="-81.73703740181044">
        <ele>268.1016427262</ele>
        <time>2026-03-07T07:31:45Z</time>
      </trkpt>
      <trkpt lat="41.40133253975677" lon="-81.73762390816087">
        <ele>267.5717296821</ele>
        <time>2026-03-07T07:32:24Z</time>
      </trkpt>
      <trkpt lat="41.40134072167381" lon="-81.73821916638433">
        <ele>267.6522529962</ele>
        <time>2026-03-07T07:33:00Z</time>
      </trkpt>
      <trkpt lat="41.40133689735603" lon="-81.73883601167834">
        <ele>267.0515982597</ele>
        <time>2026-03-07T07:33:54Z</time>
      </trkpt>
      <trkpt lat="41.40133185939987" lon="-81.73943394007311">
        <ele>267.2042755586</ele>
        <time>2026-03-07T07:34:40Z</time>
      </trkpt>
      <trkpt lat="41.40134963256539" lon="-81.74003205845639">
        <ele>266.7168547519</ele>
        <time>2026-03-07T07:35:18Z</time>
      </trkpt>
      <trkpt lat="41.40134917385595" lon="-81.74016532325733">
        <ele>266.5484231831</ele>
        <time>2026-03-07T07:35:28Z</time>
      </trkpt>
    </trkseg>
  </trk>
</gpx>