<?xml version='1.0' encoding='UTF-8'?>
<gpx xmlns="http://www.topografix.com/GPX/1/1" creator="https://gpx.studio" version="1.1">
  <metadata>
    <name>Dog Walk - 2026-05-16 #4</name>
  </metadata>
  <trk>
    <name>Dog Walk - 2026-05-16 #4</name>
    <type>dog walk</type>
    <trkseg>
      <trkpt lat="41.40132778491147" lon="-81.74024393335058">
        <ele>266.5228818163</ele>
        <time>2026-05-16T16:19:39Z</time>
      </trkpt>
      <trkpt lat="41.40133464849232" lon="-81.74083754672368">
        <ele>266.3417088214</ele>
        <time>2026-05-16T16:20:10Z</time>
      </trkpt>
      <trkpt lat="41.40133739308403" lon="-81.74143522467833">
        <ele>265.6590696527</ele>
        <time>2026-05-16T16:20:56Z</time>
      </trkpt>
      <trkpt lat="41.40133438988444" lon="-81.74202883720695">
        <ele>265.1287595076</ele>
        <time>2026-05-16T16:21:38Z</time>
      </trkpt>
      <trkpt lat="41.40132620692899" lon="-81.74239327032940">
        <ele>264.7351685962</ele>
        <time>2026-05-16T16:22:02Z</time>
      </trkpt>
      <trkpt lat="41.40090663394529" lon="-81.74220535720805">
        <ele>265.1028948227</ele>
        <time>2026-05-16T16:22:41Z</time>
      </trkpt>
      <trkpt lat="41.40047498426221" lon="-81.74199492027574">
        <ele>265.2722216382</ele>
        <time>2026-05-16T16:23:45Z</time>
      </trkpt>
      <trkpt lat="41.40005314310039" lon="-81.74181077198180">
        <ele>265.4984116672</ele>
        <time>2026-05-16T16:24:30Z</time>
      </trkpt>
      <trkpt lat="41.39962714899195" lon="-81.74162844635414">
        <ele>264.8160529765</ele>
        <time>2026-05-16T16:25:09Z</time>
      </trkpt>
      <trkpt lat="41.39953691028798" lon="-81.74156531830234">
        <ele>264.9441387513</ele>
        <time>2026-05-16T16:25:16Z</time>
      </trkpt>
      <trkpt lat="41.39952662037592" lon="-81.74097923288178">
        <ele>265.6518410203</ele>
        <time>2026-05-16T16:26:04Z</time>
      </trkpt>
      <trkpt lat="41.39953369911679" lon="-81.74037087725901">
        <ele>266.2792840093</ele>
        <time>2026-05-16T16:26:38Z</time>
      </trkpt>
      <trkpt lat="41.39952987444743" lon="-81.73977538960425">
        <ele>266.3903800701</ele>
        <time>2026-05-16T16:27:17Z</time>
      </trkpt>
      <trkpt lat="41.39953703496967" lon="-81.73917153717694">
        <ele>266.8770619834</ele>
        <time>2026-05-16T16:27:56Z</time>
      </trkpt>
      <trkpt lat="41.39953685930627" lon="-81.73857798822367">
        <ele>266.7951766865</ele>
        <time>2026-05-16T16:28:47Z</time>
      </trkpt>
      <trkpt lat="41.39952642567670" lon="-81.73798336836091">
        <ele>267.2123266948</ele>
        <time>2026-05-16T16:29:35Z</time>
      </trkpt>
      <trkpt lat="41.39952358111643" lon="-81.73738251890667">
        <ele>267.2204550718</ele>
        <time>2026-05-16T16:30:09Z</time>
      </trkpt>
      <trkpt lat="41.39953182284347" lon="-81.73676977823041">
        <ele>267.2660925716</ele>
        <time>2026-05-16T16:30:52Z</time>
      </trkpt>
      <trkpt lat="41.39952793051483" lon="-81.73618161468131">
        <ele>267.4612972575</ele>
        <time>2026-05-16T16:31:33Z</time>
      </trkpt>
      <trkpt lat="41.39953090057328" lon="-81.73558439045142">
        <ele>267.3529571219</ele>
        <time>2026-05-16T16:32:07Z</time>
      </trkpt>
      <trkpt lat="41.39952102695896" lon="-81.73498512896883">
        <ele>267.2732260956</ele>
        <time>2026-05-16T16:32:45Z</time>
      </trkpt>
      <trkpt lat="41.39953677916566" lon="-81.73461972572203">
        <ele>267.2119124617</ele>
        <time>2026-05-16T16:33:04Z</time>
      </trkpt>
      <trkpt lat="41.39998261179589" lon="-81.73462937049230">
        <ele>267.0332389620</ele>
        <time>2026-05-16T16:33:51Z</time>
      </trkpt>
      <trkpt lat="41.40042385049289" lon="-81.73462822386395">
        <ele>267.4648256223</ele>
        <time>2026-05-16T16:34:32Z</time>
      </trkpt>
      <trkpt lat="41.40086548919064" lon="-81.73463654906405">
        <ele>267.2601351758</ele>
        <time>2026-05-16T16:35:16Z</time>
      </trkpt>
      <trkpt lat="41.40132347344895" lon="-81.73463567985758">
        <ele>267.4431818733</ele>
        <time>2026-05-16T16:35:54Z</time>
      </trkpt>
      <trkpt lat="41.40132684869155" lon="-81.73524312234863">
        <ele>268.0732214702</ele>
        <time>2026-05-16T16:36:35Z</time>
      </trkpt>
      <trkpt lat="41.40132232671687" lon="-81.73583150105620">
        <ele>268.6532185352</ele>
        <time>2026-05-16T16:37:08Z</time>
      </trkpt>
      <trkpt lat="41.40132645246498" lon="-81.73643626221855">
        <ele>268.1261028047</ele>
        <time>2026-05-16T16:37:50Z</time>
      </trkpt>
      <trkpt lat="41.40133199299054" lon="-81.73704324485932">
        <ele>267.9708917712</ele>
        <time>2026-05-16T16:38:46Z</time>
      </trkpt>
      <trkpt lat="41.40133360585604" lon="-81.73763275433230">
        <ele>268.0022401937</ele>
        <time>2026-05-16T16:39:28Z</time>
      </trkpt>
      <trkpt lat="41.40132176440984" lon="-81.73823790844983">
        <ele>267.3852635342</ele>
        <time>2026-05-16T16:40:07Z</time>
      </trkpt>
      <trkpt lat="41.40133047467590" lon="-81.73882841919537">
        <ele>267.2424000117</ele>
        <time>2026-05-16T16:41:02Z</time>
      </trkpt>
      <trkpt lat="41.40132969925699" lon="-81.73944765767483">
        <ele>267.0160914081</ele>
        <time>2026-05-16T16:41:44Z</time>
      </trkpt>
      <trkpt lat="41.40133068016787" lon="-81.74003245496816">
        <ele>266.7511426828</ele>
        <time>2026-05-16T16:42:17Z</time>
      </trkpt>
      <trkpt lat="41.40133246203711" lon="-81.74021578208674">
        <ele>266.6530909414</ele>
        <time>2026-05-16T16:42:30Z</time>
      </trkpt>
    </trkseg>
  </trk>
</gpx>