<?xml version='1.0' encoding='UTF-8'?>
<gpx xmlns="http://www.topografix.com/GPX/1/1" creator="https://gpx.studio" version="1.1">
  <metadata>
    <name>Dog Walk - 2026-05-04 #2</name>
  </metadata>
  <trk>
    <name>Dog Walk - 2026-05-04 #2</name>
    <type>dog walk</type>
    <trkseg>
      <trkpt lat="41.40133324116972" lon="-81.74025067581493">
        <ele>266.3030932086</ele>
        <time>2026-05-04T14:14:45Z</time>
      </trkpt>
      <trkpt lat="41.40133411798062" lon="-81.74025627448357">
        <ele>266.6632227813</ele>
        <time>2026-05-04T14:14:46Z</time>
      </trkpt>
      <trkpt lat="41.40133361192142" lon="-81.74085634346713">
        <ele>266.1482803094</ele>
        <time>2026-05-04T14:15:33Z</time>
      </trkpt>
      <trkpt lat="41.40132543440153" lon="-81.74144548692713">
        <ele>265.7312898958</ele>
        <time>2026-05-04T14:16:11Z</time>
      </trkpt>
      <trkpt lat="41.40132535291054" lon="-81.74206063687399">
        <ele>265.2869430563</ele>
        <time>2026-05-04T14:16:50Z</time>
      </trkpt>
      <trkpt lat="41.40133449199467" lon="-81.74237482147248">
        <ele>264.8235112927</ele>
        <time>2026-05-04T14:17:34Z</time>
      </trkpt>
      <trkpt lat="41.40131906498865" lon="-81.74238604130801">
        <ele>264.8552378146</ele>
        <time>2026-05-04T14:17:35Z</time>
      </trkpt>
      <trkpt lat="41.40090286439972" lon="-81.74218813323490">
        <ele>265.3732231987</ele>
        <time>2026-05-04T14:18:13Z</time>
      </trkpt>
      <trkpt lat="41.40046891972660" lon="-81.74198882860185">
        <ele>265.1818039847</ele>
        <time>2026-05-04T14:18:51Z</time>
      </trkpt>
      <trkpt lat="41.40004371943233" lon="-81.74178813641794">
        <ele>265.5137640757</ele>
        <time>2026-05-04T14:19:38Z</time>
      </trkpt>
      <trkpt lat="41.39962638701824" lon="-81.74160179349280">
        <ele>264.5256225424</ele>
        <time>2026-05-04T14:20:22Z</time>
      </trkpt>
      <trkpt lat="41.39954463805093" lon="-81.74157473373391">
        <ele>264.9137226860</ele>
        <time>2026-05-04T14:20:28Z</time>
      </trkpt>
      <trkpt lat="41.39954677496497" lon="-81.74097071756503">
        <ele>265.4274711307</ele>
        <time>2026-05-04T14:21:05Z</time>
      </trkpt>
      <trkpt lat="41.39954675188113" lon="-81.74037266937250">
        <ele>265.9161401321</ele>
        <time>2026-05-04T14:21:45Z</time>
      </trkpt>
      <trkpt lat="41.39954098865702" lon="-81.73977177725000">
        <ele>266.7040018304</ele>
        <time>2026-05-04T14:22:15Z</time>
      </trkpt>
      <trkpt lat="41.39953658997402" lon="-81.73918097843709">
        <ele>266.6956867140</ele>
        <time>2026-05-04T14:22:58Z</time>
      </trkpt>
      <trkpt lat="41.39953965336083" lon="-81.73857820827978">
        <ele>266.6629921764</ele>
        <time>2026-05-04T14:23:40Z</time>
      </trkpt>
      <trkpt lat="41.39953698796968" lon="-81.73828441863417">
        <ele>266.9135969866</ele>
        <time>2026-05-04T14:24:16Z</time>
      </trkpt>
      <trkpt lat="41.39953211976887" lon="-81.73828575352915">
        <ele>267.2201166606</ele>
        <time>2026-05-04T14:24:17Z</time>
      </trkpt>
      <trkpt lat="41.39997566386153" lon="-81.73829967979937">
        <ele>267.1649512027</ele>
        <time>2026-05-04T14:25:02Z</time>
      </trkpt>
      <trkpt lat="41.40043953079821" lon="-81.73829935984382">
        <ele>267.3182216448</ele>
        <time>2026-05-04T14:25:35Z</time>
      </trkpt>
      <trkpt lat="41.40088561775211" lon="-81.73828871234433">
        <ele>267.4453329242</ele>
        <time>2026-05-04T14:26:21Z</time>
      </trkpt>
      <trkpt lat="41.40133003244093" lon="-81.73831174469842">
        <ele>267.5814667606</ele>
        <time>2026-05-04T14:27:14Z</time>
      </trkpt>
      <trkpt lat="41.40132673518737" lon="-81.73890808461856">
        <ele>267.2808131300</ele>
        <time>2026-05-04T14:27:47Z</time>
      </trkpt>
      <trkpt lat="41.40133297181404" lon="-81.73950400936020">
        <ele>267.2499481335</ele>
        <time>2026-05-04T14:28:29Z</time>
      </trkpt>
      <trkpt lat="41.40133986032403" lon="-81.74010397862949">
        <ele>266.6424299217</ele>
        <time>2026-05-04T14:29:12Z</time>
      </trkpt>
      <trkpt lat="41.40133810299710" lon="-81.74014880710341">
        <ele>266.5624205469</ele>
        <time>2026-05-04T14:29:14Z</time>
      </trkpt>
    </trkseg>
  </trk>
</gpx>