<?xml version='1.0' encoding='UTF-8'?>
<gpx xmlns="http://www.topografix.com/GPX/1/1" creator="https://gpx.studio" version="1.1">
  <metadata>
    <name>Dog Walk - 2026-08-19 #1</name>
  </metadata>
  <trk>
    <name>Dog Walk - 2026-08-19 #1</name>
    <type>dog walk</type>
    <trkseg>
      <trkpt lat="41.40134033728062" lon="-81.74024196346434">
        <ele>266.3479980250</ele>
        <time>2026-08-19T07:30:20Z</time>
      </trkpt>
      <trkpt lat="41.40132933727183" lon="-81.74083740796836">
        <ele>266.1468547742</ele>
        <time>2026-08-19T07:31:13Z</time>
      </trkpt>
      <trkpt lat="41.40132564048885" lon="-81.74143258660976">
        <ele>265.8991314447</ele>
        <time>2026-08-19T07:31:49Z</time>
      </trkpt>
      <trkpt lat="41.40132369097452" lon="-81.74204407899708">
        <ele>265.3871490841</ele>
        <time>2026-08-19T07:32:36Z</time>
      </trkpt>
      <trkpt lat="41.40132814708548" lon="-81.74239560689547">
        <ele>264.9945072036</ele>
        <time>2026-08-19T07:33:04Z</time>
      </trkpt>
      <trkpt lat="41.40089869376568" lon="-81.74219230138492">
        <ele>264.9635865897</ele>
        <time>2026-08-19T07:33:45Z</time>
      </trkpt>
      <trkpt lat="41.40047894117574" lon="-81.74200893102140">
        <ele>265.3025164443</ele>
        <time>2026-08-19T07:34:19Z</time>
      </trkpt>
      <trkpt lat="41.40004988828311" lon="-81.74180324167848">
        <ele>265.1743790476</ele>
        <time>2026-08-19T07:35:09Z</time>
      </trkpt>
      <trkpt lat="41.39962679729049" lon="-81.74160894469239">
        <ele>264.6468297718</ele>
        <time>2026-08-19T07:36:00Z</time>
      </trkpt>
      <trkpt lat="41.39953400691438" lon="-81.74157220507892">
        <ele>264.9841765130</ele>
        <time>2026-08-19T07:36:09Z</time>
      </trkpt>
      <trkpt lat="41.39953773203364" lon="-81.74097731948980">
        <ele>265.5497033469</ele>
        <time>2026-08-19T07:36:47Z</time>
      </trkpt>
      <trkpt lat="41.39953369944271" lon="-81.74038049101109">
        <ele>266.1951725551</ele>
        <time>2026-08-19T07:37:33Z</time>
      </trkpt>
      <trkpt lat="41.39952764342622" lon="-81.73976780851149">
        <ele>266.7845542979</ele>
        <time>2026-08-19T07:38:31Z</time>
      </trkpt>
      <trkpt lat="41.39952807932850" lon="-81.73917134410468">
        <ele>266.6788130064</ele>
        <time>2026-08-19T07:39:02Z</time>
      </trkpt>
      <trkpt lat="41.39952746219323" lon="-81.73857934278674">
        <ele>266.9377357905</ele>
        <time>2026-08-19T07:39:41Z</time>
      </trkpt>
      <trkpt lat="41.39953403586792" lon="-81.73796904009633">
        <ele>267.2702913906</ele>
        <time>2026-08-19T07:40:25Z</time>
      </trkpt>
      <trkpt lat="41.39952815714990" lon="-81.73738535645592">
        <ele>267.4220409168</ele>
        <time>2026-08-19T07:41:06Z</time>
      </trkpt>
      <trkpt lat="41.39952905822089" lon="-81.73678240945563">
        <ele>267.5546327561</ele>
        <time>2026-08-19T07:41:35Z</time>
      </trkpt>
      <trkpt lat="41.39953088459490" lon="-81.73617555243433">
        <ele>267.4336579248</ele>
        <time>2026-08-19T07:42:15Z</time>
      </trkpt>
      <trkpt lat="41.39951723094354" lon="-81.73557771311637">
        <ele>267.2667261765</ele>
        <time>2026-08-19T07:42:49Z</time>
      </trkpt>
      <trkpt lat="41.39953001837561" lon="-81.73498367131766">
        <ele>267.0969304749</ele>
        <time>2026-08-19T07:43:29Z</time>
      </trkpt>
      <trkpt lat="41.39953097909779" lon="-81.73461743652000">
        <ele>267.0069848676</ele>
        <time>2026-08-19T07:43:50Z</time>
      </trkpt>
      <trkpt lat="41.39998000002874" lon="-81.73462505950415">
        <ele>267.1095173714</ele>
        <time>2026-08-19T07:44:28Z</time>
      </trkpt>
      <trkpt lat="41.40042012064062" lon="-81.73463242558454">
        <ele>267.2425753731</ele>
        <time>2026-08-19T07:45:06Z</time>
      </trkpt>
      <trkpt lat="41.40087611869443" lon="-81.73463707985145">
        <ele>267.2685969059</ele>
        <time>2026-08-19T07:46:00Z</time>
      </trkpt>
      <trkpt lat="41.40132082641320" lon="-81.73464345298473">
        <ele>267.3452962488</ele>
        <time>2026-08-19T07:46:48Z</time>
      </trkpt>
      <trkpt lat="41.40132279251782" lon="-81.73523983928290">
        <ele>267.7400909847</ele>
        <time>2026-08-19T07:47:24Z</time>
      </trkpt>
      <trkpt lat="41.40132491829389" lon="-81.73584263978486">
        <ele>268.2265574609</ele>
        <time>2026-08-19T07:48:07Z</time>
      </trkpt>
      <trkpt lat="41.40132200477928" lon="-81.73643701025448">
        <ele>268.3068364550</ele>
        <time>2026-08-19T07:48:47Z</time>
      </trkpt>
      <trkpt lat="41.40131781028597" lon="-81.73703805505477">
        <ele>268.1347579055</ele>
        <time>2026-08-19T07:49:27Z</time>
      </trkpt>
      <trkpt lat="41.40132516245519" lon="-81.73764493715026">
        <ele>267.8399073234</ele>
        <time>2026-08-19T07:50:16Z</time>
      </trkpt>
      <trkpt lat="41.40132414443428" lon="-81.73824343766576">
        <ele>267.7085327665</ele>
        <time>2026-08-19T07:50:55Z</time>
      </trkpt>
      <trkpt lat="41.40133554550897" lon="-81.73883785200377">
        <ele>267.4174044740</ele>
        <time>2026-08-19T07:51:31Z</time>
      </trkpt>
      <trkpt lat="41.40132655007857" lon="-81.73943347510500">
        <ele>267.1920067909</ele>
        <time>2026-08-19T07:52:13Z</time>
      </trkpt>
      <trkpt lat="41.40134068175013" lon="-81.74002725134758">
        <ele>266.7254953033</ele>
        <time>2026-08-19T07:52:50Z</time>
      </trkpt>
      <trkpt lat="41.40132767890326" lon="-81.74021632590764">
        <ele>266.5556598395</ele>
        <time>2026-08-19T07:53:04Z</time>
      </trkpt>
    </trkseg>
  </trk>
</gpx>