<?xml version='1.0' encoding='UTF-8'?>
<gpx xmlns="http://www.topografix.com/GPX/1/1" creator="https://gpx.studio" version="1.1">
  <metadata>
    <name>Dog Walk - 2026-03-30 #1</name>
  </metadata>
  <trk>
    <name>Dog Walk - 2026-03-30 #1</name>
    <type>dog walk</type>
    <trkseg>
      <trkpt lat="41.40134159952036" lon="-81.74023797880623">
        <ele>266.5068036090</ele>
        <time>2026-03-30T11:54:18Z</time>
      </trkpt>
      <trkpt lat="41.40133696636102" lon="-81.74083809825510">
        <ele>266.2218919797</ele>
        <time>2026-03-30T11:54:55Z</time>
      </trkpt>
      <trkpt lat="41.40134541869086" lon="-81.74144105855662">
        <ele>265.5857426644</ele>
        <time>2026-03-30T11:55:34Z</time>
      </trkpt>
      <trkpt lat="41.40134681500740" lon="-81.74203144192998">
        <ele>265.2827552083</ele>
        <time>2026-03-30T11:56:12Z</time>
      </trkpt>
      <trkpt lat="41.40135243563584" lon="-81.74241570023919">
        <ele>264.6638966553</ele>
        <time>2026-03-30T11:56:34Z</time>
      </trkpt>
      <trkpt lat="41.40176885930570" lon="-81.74263684569135">
        <ele>264.1794642739</ele>
        <time>2026-03-30T11:57:18Z</time>
      </trkpt>
      <trkpt lat="41.40219151965769" lon="-81.74285737492708">
        <ele>263.7375857476</ele>
        <time>2026-03-30T11:58:00Z</time>
      </trkpt>
      <trkpt lat="41.40220893479353" lon="-81.74286655348349">
        <ele>263.4461954812</ele>
        <time>2026-03-30T11:58:18Z</time>
      </trkpt>
      <trkpt lat="41.40221983950725" lon="-81.74227595691630">
        <ele>263.9507576286</ele>
        <time>2026-03-30T11:59:02Z</time>
      </trkpt>
      <trkpt lat="41.40223401203485" lon="-81.74166382713598">
        <ele>264.5478152773</ele>
        <time>2026-03-30T11:59:39Z</time>
      </trkpt>
      <trkpt lat="41.40222327445603" lon="-81.74106481245215">
        <ele>265.4981875012</ele>
        <time>2026-03-30T12:00:14Z</time>
      </trkpt>
      <trkpt lat="41.40222029140104" lon="-81.74045795000156">
        <ele>265.9665101068</ele>
        <time>2026-03-30T12:00:54Z</time>
      </trkpt>
      <trkpt lat="41.40222296504749" lon="-81.73987128577524">
        <ele>266.4968329253</ele>
        <time>2026-03-30T12:01:31Z</time>
      </trkpt>
      <trkpt lat="41.40222501088674" lon="-81.73926962146092">
        <ele>266.8446025591</ele>
        <time>2026-03-30T12:02:08Z</time>
      </trkpt>
      <trkpt lat="41.40221769787780" lon="-81.73867107732997">
        <ele>267.1386462533</ele>
        <time>2026-03-30T12:02:39Z</time>
      </trkpt>
      <trkpt lat="41.40222491529352" lon="-81.73827189388420">
        <ele>267.0638607646</ele>
        <time>2026-03-30T12:03:04Z</time>
      </trkpt>
      <trkpt lat="41.40176256371646" lon="-81.73826128635237">
        <ele>267.8084106065</ele>
        <time>2026-03-30T12:03:39Z</time>
      </trkpt>
      <trkpt lat="41.40133935028413" lon="-81.73826628172104">
        <ele>267.3746805452</ele>
        <time>2026-03-30T12:04:14Z</time>
      </trkpt>
      <trkpt lat="41.40134160791352" lon="-81.73887226106756">
        <ele>267.4236775636</ele>
        <time>2026-03-30T12:04:48Z</time>
      </trkpt>
      <trkpt lat="41.40134256085538" lon="-81.73946167027997">
        <ele>267.1212238506</ele>
        <time>2026-03-30T12:05:28Z</time>
      </trkpt>
      <trkpt lat="41.40133570015043" lon="-81.74006461778559">
        <ele>266.5695934276</ele>
        <time>2026-03-30T12:06:16Z</time>
      </trkpt>
      <trkpt lat="41.40133894770725" lon="-81.74019461864197">
        <ele>266.5044629995</ele>
        <time>2026-03-30T12:06:25Z</time>
      </trkpt>
    </trkseg>
  </trk>
</gpx>