<?xml version='1.0' encoding='UTF-8'?>
<gpx xmlns="http://www.topografix.com/GPX/1/1" creator="https://gpx.studio" version="1.1">
  <metadata>
    <name>Dog Walk - 2026-07-30 #2</name>
  </metadata>
  <trk>
    <name>Dog Walk - 2026-07-30 #2</name>
    <type>dog walk</type>
    <trkseg>
      <trkpt lat="41.40133774253049" lon="-81.74022103331617">
        <ele>266.6228634370</ele>
        <time>2026-07-30T18:40:20Z</time>
      </trkpt>
      <trkpt lat="41.40135041641427" lon="-81.74083211120687">
        <ele>266.4000899227</ele>
        <time>2026-07-30T18:41:20Z</time>
      </trkpt>
      <trkpt lat="41.40134141709635" lon="-81.74142723164923">
        <ele>265.7942599121</ele>
        <time>2026-07-30T18:41:59Z</time>
      </trkpt>
      <trkpt lat="41.40134297862253" lon="-81.74204127080473">
        <ele>265.3043435260</ele>
        <time>2026-07-30T18:42:37Z</time>
      </trkpt>
      <trkpt lat="41.40135475486938" lon="-81.74242137970910">
        <ele>264.7023229902</ele>
        <time>2026-07-30T18:43:22Z</time>
      </trkpt>
      <trkpt lat="41.40177952942738" lon="-81.74262828099002">
        <ele>264.1644777307</ele>
        <time>2026-07-30T18:43:56Z</time>
      </trkpt>
      <trkpt lat="41.40218752959432" lon="-81.74284393341564">
        <ele>263.1363023176</ele>
        <time>2026-07-30T18:44:41Z</time>
      </trkpt>
      <trkpt lat="41.40260653478887" lon="-81.74304856181170">
        <ele>262.7738177808</ele>
        <time>2026-07-30T18:45:19Z</time>
      </trkpt>
      <trkpt lat="41.40302916810811" lon="-81.74325579614697">
        <ele>262.2583500585</ele>
        <time>2026-07-30T18:45:58Z</time>
      </trkpt>
      <trkpt lat="41.40344161694662" lon="-81.74348037433948">
        <ele>262.1084868452</ele>
        <time>2026-07-30T18:46:30Z</time>
      </trkpt>
      <trkpt lat="41.40349638850153" lon="-81.74350138302280">
        <ele>261.9859265045</ele>
        <time>2026-07-30T18:46:36Z</time>
      </trkpt>
      <trkpt lat="41.40360203524871" lon="-81.74351901243219">
        <ele>261.6767106694</ele>
        <time>2026-07-30T18:46:46Z</time>
      </trkpt>
      <trkpt lat="41.40400107902658" lon="-81.74350670021262">
        <ele>260.9206296604</ele>
        <time>2026-07-30T18:47:34Z</time>
      </trkpt>
      <trkpt lat="41.40400141386721" lon="-81.74291588637655">
        <ele>261.6914935192</ele>
        <time>2026-07-30T18:48:23Z</time>
      </trkpt>
      <trkpt lat="41.40398799087441" lon="-81.74231142854418">
        <ele>262.0742982168</ele>
        <time>2026-07-30T18:48:59Z</time>
      </trkpt>
      <trkpt lat="41.40399586372579" lon="-81.74170613865995">
        <ele>262.4320583719</ele>
        <time>2026-07-30T18:49:50Z</time>
      </trkpt>
      <trkpt lat="41.40398368766286" lon="-81.74110819132498">
        <ele>262.7904952797</ele>
        <time>2026-07-30T18:50:33Z</time>
      </trkpt>
      <trkpt lat="41.40399347866445" lon="-81.74050537436412">
        <ele>263.5728336678</ele>
        <time>2026-07-30T18:51:09Z</time>
      </trkpt>
      <trkpt lat="41.40398702638355" lon="-81.73991349198928">
        <ele>264.1765052199</ele>
        <time>2026-07-30T18:51:47Z</time>
      </trkpt>
      <trkpt lat="41.40398939086472" lon="-81.73931637687619">
        <ele>265.0628332624</ele>
        <time>2026-07-30T18:52:28Z</time>
      </trkpt>
      <trkpt lat="41.40399629767241" lon="-81.73878409618565">
        <ele>265.2821606877</ele>
        <time>2026-07-30T18:53:10Z</time>
      </trkpt>
      <trkpt lat="41.40354167339589" lon="-81.73878380567770">
        <ele>265.8106383196</ele>
        <time>2026-07-30T18:53:47Z</time>
      </trkpt>
      <trkpt lat="41.40308662280655" lon="-81.73877745857020">
        <ele>266.3100478884</ele>
        <time>2026-07-30T18:54:30Z</time>
      </trkpt>
      <trkpt lat="41.40263319083689" lon="-81.73878214851250">
        <ele>266.7277852132</ele>
        <time>2026-07-30T18:55:15Z</time>
      </trkpt>
      <trkpt lat="41.40222524333134" lon="-81.73877083521602">
        <ele>267.3816835610</ele>
        <time>2026-07-30T18:55:49Z</time>
      </trkpt>
      <trkpt lat="41.40221409798948" lon="-81.73828168318443">
        <ele>267.2980096945</ele>
        <time>2026-07-30T18:56:16Z</time>
      </trkpt>
      <trkpt lat="41.40176741614710" lon="-81.73826551994102">
        <ele>267.6566380216</ele>
        <time>2026-07-30T18:57:24Z</time>
      </trkpt>
      <trkpt lat="41.40132206478533" lon="-81.73826508737309">
        <ele>267.3596697658</ele>
        <time>2026-07-30T18:58:08Z</time>
      </trkpt>
      <trkpt lat="41.40133665196571" lon="-81.73886612682560">
        <ele>267.3113864545</ele>
        <time>2026-07-30T18:58:47Z</time>
      </trkpt>
      <trkpt lat="41.40133877267368" lon="-81.73945968516014">
        <ele>267.2944766515</ele>
        <time>2026-07-30T18:59:19Z</time>
      </trkpt>
      <trkpt lat="41.40133813394128" lon="-81.74006335154132">
        <ele>266.6336120657</ele>
        <time>2026-07-30T19:00:10Z</time>
      </trkpt>
      <trkpt lat="41.40134168733662" lon="-81.74021612589294">
        <ele>266.5249540516</ele>
        <time>2026-07-30T19:00:20Z</time>
      </trkpt>
    </trkseg>
  </trk>
</gpx>