<?xml version='1.0' encoding='UTF-8'?>
<gpx xmlns="http://www.topografix.com/GPX/1/1" creator="https://gpx.studio" version="1.1">
  <metadata>
    <name>Dog Walk - 2026-05-11 #3</name>
  </metadata>
  <trk>
    <name>Dog Walk - 2026-05-11 #3</name>
    <type>dog walk</type>
    <trkseg>
      <trkpt lat="41.40133666872978" lon="-81.74025785518290">
        <ele>266.6057892294</ele>
        <time>2026-05-11T17:18:42Z</time>
      </trkpt>
      <trkpt lat="41.40133938621589" lon="-81.74024567889533">
        <ele>266.3340167744</ele>
        <time>2026-05-11T17:18:43Z</time>
      </trkpt>
      <trkpt lat="41.40132681615955" lon="-81.74085745675968">
        <ele>266.2614376478</ele>
        <time>2026-05-11T17:19:37Z</time>
      </trkpt>
      <trkpt lat="41.40132879711258" lon="-81.74145067135916">
        <ele>265.8421738294</ele>
        <time>2026-05-11T17:20:24Z</time>
      </trkpt>
      <trkpt lat="41.40132567131366" lon="-81.74205639961849">
        <ele>265.4070442016</ele>
        <time>2026-05-11T17:21:19Z</time>
      </trkpt>
      <trkpt lat="41.40132358010268" lon="-81.74237030487771">
        <ele>264.8276962681</ele>
        <time>2026-05-11T17:21:47Z</time>
      </trkpt>
      <trkpt lat="41.40132472998020" lon="-81.74238381700815">
        <ele>264.8028652080</ele>
        <time>2026-05-11T17:21:48Z</time>
      </trkpt>
      <trkpt lat="41.40089370384409" lon="-81.74219395578744">
        <ele>265.1577160475</ele>
        <time>2026-05-11T17:22:26Z</time>
      </trkpt>
      <trkpt lat="41.40047723176131" lon="-81.74199820159954">
        <ele>265.1613417197</ele>
        <time>2026-05-11T17:23:20Z</time>
      </trkpt>
      <trkpt lat="41.40005359392242" lon="-81.74180883246613">
        <ele>265.3775343815</ele>
        <time>2026-05-11T17:23:54Z</time>
      </trkpt>
      <trkpt lat="41.39962310961259" lon="-81.74160643711464">
        <ele>264.6395288944</ele>
        <time>2026-05-11T17:24:33Z</time>
      </trkpt>
      <trkpt lat="41.39955056111105" lon="-81.74156903601144">
        <ele>264.7845113905</ele>
        <time>2026-05-11T17:24:53Z</time>
      </trkpt>
      <trkpt lat="41.39954380875557" lon="-81.74097689755915">
        <ele>265.5085749786</ele>
        <time>2026-05-11T17:25:29Z</time>
      </trkpt>
      <trkpt lat="41.39954207352898" lon="-81.74036855509813">
        <ele>266.0620687935</ele>
        <time>2026-05-11T17:26:06Z</time>
      </trkpt>
      <trkpt lat="41.39954073932552" lon="-81.73977976757411">
        <ele>266.8095635312</ele>
        <time>2026-05-11T17:26:55Z</time>
      </trkpt>
      <trkpt lat="41.39953724306118" lon="-81.73917169249216">
        <ele>266.9070910789</ele>
        <time>2026-05-11T17:27:34Z</time>
      </trkpt>
      <trkpt lat="41.39954329324873" lon="-81.73857128187598">
        <ele>267.2090342665</ele>
        <time>2026-05-11T17:28:15Z</time>
      </trkpt>
      <trkpt lat="41.39953675537304" lon="-81.73829627827180">
        <ele>267.0869865397</ele>
        <time>2026-05-11T17:28:31Z</time>
      </trkpt>
      <trkpt lat="41.39954375650768" lon="-81.73829190236542">
        <ele>267.1138360567</ele>
        <time>2026-05-11T17:28:46Z</time>
      </trkpt>
      <trkpt lat="41.39998925640552" lon="-81.73830291454888">
        <ele>267.1311794990</ele>
        <time>2026-05-11T17:29:38Z</time>
      </trkpt>
      <trkpt lat="41.40042994505190" lon="-81.73829977437110">
        <ele>267.0982482630</ele>
        <time>2026-05-11T17:30:30Z</time>
      </trkpt>
      <trkpt lat="41.40088449908740" lon="-81.73831129242132">
        <ele>267.5022619300</ele>
        <time>2026-05-11T17:31:00Z</time>
      </trkpt>
      <trkpt lat="41.40133052876041" lon="-81.73830875544930">
        <ele>267.2433818614</ele>
        <time>2026-05-11T17:31:36Z</time>
      </trkpt>
      <trkpt lat="41.40132843704138" lon="-81.73889434148676">
        <ele>267.4979236991</ele>
        <time>2026-05-11T17:32:16Z</time>
      </trkpt>
      <trkpt lat="41.40133776346999" lon="-81.73951324273429">
        <ele>267.3499537035</ele>
        <time>2026-05-11T17:32:51Z</time>
      </trkpt>
      <trkpt lat="41.40134835538830" lon="-81.74011392321584">
        <ele>266.5189308919</ele>
        <time>2026-05-11T17:33:46Z</time>
      </trkpt>
      <trkpt lat="41.40134530161907" lon="-81.74015857676045">
        <ele>266.5565494169</ele>
        <time>2026-05-11T17:33:49Z</time>
      </trkpt>
    </trkseg>
  </trk>
</gpx>