<?xml version='1.0' encoding='UTF-8'?>
<gpx xmlns="http://www.topografix.com/GPX/1/1" creator="https://gpx.studio" version="1.1">
  <metadata>
    <name>Dog Walk - 2026-06-14 #1</name>
  </metadata>
  <trk>
    <name>Dog Walk - 2026-06-14 #1</name>
    <type>dog walk</type>
    <trkseg>
      <trkpt lat="41.40133882405892" lon="-81.74023489612766">
        <ele>266.4462046248</ele>
        <time>2026-06-14T08:09:51Z</time>
      </trkpt>
      <trkpt lat="41.40134757889572" lon="-81.74083073080817">
        <ele>266.0242463728</ele>
        <time>2026-06-14T08:10:31Z</time>
      </trkpt>
      <trkpt lat="41.40135152494753" lon="-81.74142238111054">
        <ele>265.7852061580</ele>
        <time>2026-06-14T08:11:12Z</time>
      </trkpt>
      <trkpt lat="41.40134824665827" lon="-81.74203259732541">
        <ele>265.2895575961</ele>
        <time>2026-06-14T08:11:48Z</time>
      </trkpt>
      <trkpt lat="41.40134900361052" lon="-81.74241549889743">
        <ele>264.6158785394</ele>
        <time>2026-06-14T08:12:10Z</time>
      </trkpt>
      <trkpt lat="41.40177356790782" lon="-81.74263544038855">
        <ele>264.2133368708</ele>
        <time>2026-06-14T08:12:54Z</time>
      </trkpt>
      <trkpt lat="41.40218517653121" lon="-81.74284262626087">
        <ele>263.5353054071</ele>
        <time>2026-06-14T08:13:28Z</time>
      </trkpt>
      <trkpt lat="41.40260180351371" lon="-81.74305170334799">
        <ele>262.8512353483</ele>
        <time>2026-06-14T08:14:07Z</time>
      </trkpt>
      <trkpt lat="41.40303025809622" lon="-81.74326791142371">
        <ele>262.4771234190</ele>
        <time>2026-06-14T08:14:51Z</time>
      </trkpt>
      <trkpt lat="41.40345468704216" lon="-81.74347105365079">
        <ele>261.8300625122</ele>
        <time>2026-06-14T08:15:31Z</time>
      </trkpt>
      <trkpt lat="41.40349403087009" lon="-81.74349739899769">
        <ele>261.9988463241</ele>
        <time>2026-06-14T08:15:35Z</time>
      </trkpt>
      <trkpt lat="41.40359252553416" lon="-81.74351793799279">
        <ele>261.6685594077</ele>
        <time>2026-06-14T08:15:43Z</time>
      </trkpt>
      <trkpt lat="41.40398945637327" lon="-81.74350518334714">
        <ele>260.7650471640</ele>
        <time>2026-06-14T08:16:17Z</time>
      </trkpt>
      <trkpt lat="41.40399200125979" lon="-81.74291042754928">
        <ele>261.6172652442</ele>
        <time>2026-06-14T08:16:57Z</time>
      </trkpt>
      <trkpt lat="41.40398856178114" lon="-81.74231386212716">
        <ele>262.2734447699</ele>
        <time>2026-06-14T08:17:40Z</time>
      </trkpt>
      <trkpt lat="41.40398956281948" lon="-81.74170931511107">
        <ele>262.5220669807</ele>
        <time>2026-06-14T08:18:21Z</time>
      </trkpt>
      <trkpt lat="41.40399407986995" lon="-81.74110656000875">
        <ele>262.8912593049</ele>
        <time>2026-06-14T08:19:02Z</time>
      </trkpt>
      <trkpt lat="41.40399747110093" lon="-81.74051052300642">
        <ele>263.6431239609</ele>
        <time>2026-06-14T08:19:39Z</time>
      </trkpt>
      <trkpt lat="41.40398985507901" lon="-81.73991866851114">
        <ele>264.2936042153</ele>
        <time>2026-06-14T08:20:21Z</time>
      </trkpt>
      <trkpt lat="41.40398602709480" lon="-81.73930047114713">
        <ele>265.0510248244</ele>
        <time>2026-06-14T08:21:09Z</time>
      </trkpt>
      <trkpt lat="41.40398455339694" lon="-81.73878004729288">
        <ele>265.5013427605</ele>
        <time>2026-06-14T08:21:41Z</time>
      </trkpt>
      <trkpt lat="41.40353222936582" lon="-81.73877587283572">
        <ele>265.7794613329</ele>
        <time>2026-06-14T08:22:20Z</time>
      </trkpt>
      <trkpt lat="41.40308798852396" lon="-81.73878226158826">
        <ele>266.2490146040</ele>
        <time>2026-06-14T08:23:20Z</time>
      </trkpt>
      <trkpt lat="41.40263382282428" lon="-81.73877757238446">
        <ele>266.4976365445</ele>
        <time>2026-06-14T08:24:08Z</time>
      </trkpt>
      <trkpt lat="41.40223802070576" lon="-81.73878142117431">
        <ele>267.2161564224</ele>
        <time>2026-06-14T08:24:39Z</time>
      </trkpt>
      <trkpt lat="41.40221425495222" lon="-81.73828211732636">
        <ele>267.0150144581</ele>
        <time>2026-06-14T08:25:19Z</time>
      </trkpt>
      <trkpt lat="41.40176787150946" lon="-81.73826850429977">
        <ele>267.4845981532</ele>
        <time>2026-06-14T08:26:21Z</time>
      </trkpt>
      <trkpt lat="41.40133701400595" lon="-81.73825595810222">
        <ele>267.6092446730</ele>
        <time>2026-06-14T08:27:05Z</time>
      </trkpt>
      <trkpt lat="41.40132910776855" lon="-81.73885744399362">
        <ele>267.4336471471</ele>
        <time>2026-06-14T08:27:44Z</time>
      </trkpt>
      <trkpt lat="41.40133629838792" lon="-81.73946843736904">
        <ele>267.3475840467</ele>
        <time>2026-06-14T08:28:39Z</time>
      </trkpt>
      <trkpt lat="41.40133531947018" lon="-81.74005653636367">
        <ele>266.5348868868</ele>
        <time>2026-06-14T08:29:17Z</time>
      </trkpt>
      <trkpt lat="41.40133588044880" lon="-81.74020164657969">
        <ele>266.4910394542</ele>
        <time>2026-06-14T08:29:25Z</time>
      </trkpt>
    </trkseg>
  </trk>
</gpx>