<?xml version='1.0' encoding='UTF-8'?>
<gpx xmlns="http://www.topografix.com/GPX/1/1" creator="https://gpx.studio" version="1.1">
  <metadata>
    <name>Dog Walk - 2026-03-20 #5</name>
  </metadata>
  <trk>
    <name>Dog Walk - 2026-03-20 #5</name>
    <type>dog walk</type>
    <trkseg>
      <trkpt lat="41.40133559396924" lon="-81.74023985523199">
        <ele>266.6273869437</ele>
        <time>2026-03-20T19:37:26Z</time>
      </trkpt>
      <trkpt lat="41.40133801163146" lon="-81.74082539344305">
        <ele>266.1950785612</ele>
        <time>2026-03-20T19:38:05Z</time>
      </trkpt>
      <trkpt lat="41.40133350465734" lon="-81.74143633316217">
        <ele>265.7781633140</ele>
        <time>2026-03-20T19:38:46Z</time>
      </trkpt>
      <trkpt lat="41.40132576463021" lon="-81.74202474193758">
        <ele>265.3396695846</ele>
        <time>2026-03-20T19:39:23Z</time>
      </trkpt>
      <trkpt lat="41.40132524428192" lon="-81.74239044902704">
        <ele>264.6840180588</ele>
        <time>2026-03-20T19:40:11Z</time>
      </trkpt>
      <trkpt lat="41.40091183935963" lon="-81.74220104234075">
        <ele>265.1185868246</ele>
        <time>2026-03-20T19:40:48Z</time>
      </trkpt>
      <trkpt lat="41.40047882087768" lon="-81.74201011765474">
        <ele>265.1112387742</ele>
        <time>2026-03-20T19:41:40Z</time>
      </trkpt>
      <trkpt lat="41.40005337804848" lon="-81.74181356827486">
        <ele>265.1926368520</ele>
        <time>2026-03-20T19:42:20Z</time>
      </trkpt>
      <trkpt lat="41.39962166232114" lon="-81.74160904935047">
        <ele>264.7517017691</ele>
        <time>2026-03-20T19:43:04Z</time>
      </trkpt>
      <trkpt lat="41.39953942998823" lon="-81.74156710567684">
        <ele>265.1324407545</ele>
        <time>2026-03-20T19:43:11Z</time>
      </trkpt>
      <trkpt lat="41.39953586970329" lon="-81.74097430223189">
        <ele>265.6716409325</ele>
        <time>2026-03-20T19:43:44Z</time>
      </trkpt>
      <trkpt lat="41.39953435084337" lon="-81.74037441358762">
        <ele>266.0419104539</ele>
        <time>2026-03-20T19:44:33Z</time>
      </trkpt>
      <trkpt lat="41.39953217295237" lon="-81.73977379079606">
        <ele>266.6708995700</ele>
        <time>2026-03-20T19:45:18Z</time>
      </trkpt>
      <trkpt lat="41.39952930854297" lon="-81.73917734654577">
        <ele>266.7467380383</ele>
        <time>2026-03-20T19:45:59Z</time>
      </trkpt>
      <trkpt lat="41.39952955329864" lon="-81.73857824200533">
        <ele>267.0267175616</ele>
        <time>2026-03-20T19:46:38Z</time>
      </trkpt>
      <trkpt lat="41.39953012623501" lon="-81.73798338234887">
        <ele>267.0223781640</ele>
        <time>2026-03-20T19:47:21Z</time>
      </trkpt>
      <trkpt lat="41.39952984516943" lon="-81.73737707576971">
        <ele>267.4842327956</ele>
        <time>2026-03-20T19:48:01Z</time>
      </trkpt>
      <trkpt lat="41.39952351393713" lon="-81.73677743158572">
        <ele>267.3718549569</ele>
        <time>2026-03-20T19:48:39Z</time>
      </trkpt>
      <trkpt lat="41.39953299705541" lon="-81.73617679611264">
        <ele>267.4597827661</ele>
        <time>2026-03-20T19:49:21Z</time>
      </trkpt>
      <trkpt lat="41.39952658077924" lon="-81.73558141224414">
        <ele>267.4133781737</ele>
        <time>2026-03-20T19:49:58Z</time>
      </trkpt>
      <trkpt lat="41.39952010185169" lon="-81.73497460253385">
        <ele>266.8748978103</ele>
        <time>2026-03-20T19:50:38Z</time>
      </trkpt>
      <trkpt lat="41.39952622864513" lon="-81.73462142638479">
        <ele>267.2148058453</ele>
        <time>2026-03-20T19:50:59Z</time>
      </trkpt>
      <trkpt lat="41.39997673831287" lon="-81.73462535240034">
        <ele>267.1583221770</ele>
        <time>2026-03-20T19:51:41Z</time>
      </trkpt>
      <trkpt lat="41.40042307523744" lon="-81.73461565238793">
        <ele>267.4193533189</ele>
        <time>2026-03-20T19:52:27Z</time>
      </trkpt>
      <trkpt lat="41.40087685706334" lon="-81.73463304827744">
        <ele>267.3789700529</ele>
        <time>2026-03-20T19:52:59Z</time>
      </trkpt>
      <trkpt lat="41.40131811945351" lon="-81.73464045447375">
        <ele>267.1444084018</ele>
        <time>2026-03-20T19:53:33Z</time>
      </trkpt>
      <trkpt lat="41.40131427233073" lon="-81.73523374595308">
        <ele>267.9381296518</ele>
        <time>2026-03-20T19:54:18Z</time>
      </trkpt>
      <trkpt lat="41.40131947262631" lon="-81.73583175347386">
        <ele>268.1811273756</ele>
        <time>2026-03-20T19:54:55Z</time>
      </trkpt>
      <trkpt lat="41.40132884411045" lon="-81.73643987962153">
        <ele>268.1491613197</ele>
        <time>2026-03-20T19:55:35Z</time>
      </trkpt>
      <trkpt lat="41.40132610848239" lon="-81.73703312067660">
        <ele>267.9895221786</ele>
        <time>2026-03-20T19:56:28Z</time>
      </trkpt>
      <trkpt lat="41.40132541664494" lon="-81.73763394223300">
        <ele>267.9265081189</ele>
        <time>2026-03-20T19:57:07Z</time>
      </trkpt>
      <trkpt lat="41.40132293747806" lon="-81.73822659806915">
        <ele>267.7204754511</ele>
        <time>2026-03-20T19:57:47Z</time>
      </trkpt>
      <trkpt lat="41.40133722974577" lon="-81.73883051152563">
        <ele>267.2448437027</ele>
        <time>2026-03-20T19:58:49Z</time>
      </trkpt>
      <trkpt lat="41.40132888909980" lon="-81.73943520219986">
        <ele>267.0306892193</ele>
        <time>2026-03-20T19:59:30Z</time>
      </trkpt>
      <trkpt lat="41.40133448220700" lon="-81.74003143919157">
        <ele>266.6001178859</ele>
        <time>2026-03-20T20:00:07Z</time>
      </trkpt>
      <trkpt lat="41.40132518338749" lon="-81.74023083523207">
        <ele>266.5533485320</ele>
        <time>2026-03-20T20:00:19Z</time>
      </trkpt>
    </trkseg>
  </trk>
</gpx>