<?xml version='1.0' encoding='UTF-8'?>
<gpx xmlns="http://www.topografix.com/GPX/1/1" creator="https://gpx.studio" version="1.1">
  <metadata>
    <name>Dog Walk - 2026-07-25 #3</name>
  </metadata>
  <trk>
    <name>Dog Walk - 2026-07-25 #3</name>
    <type>dog walk</type>
    <trkseg>
      <trkpt lat="41.40133506591830" lon="-81.74025511999858">
        <ele>266.3314650000</ele>
        <time>2026-07-25T16:29:44Z</time>
      </trkpt>
      <trkpt lat="41.40132602233241" lon="-81.74025319729608">
        <ele>266.5488220675</ele>
        <time>2026-07-25T16:29:45Z</time>
      </trkpt>
      <trkpt lat="41.40132948182616" lon="-81.74086127387550">
        <ele>266.3471768868</ele>
        <time>2026-07-25T16:30:20Z</time>
      </trkpt>
      <trkpt lat="41.40132624423777" lon="-81.74145529107226">
        <ele>265.7568852274</ele>
        <time>2026-07-25T16:30:57Z</time>
      </trkpt>
      <trkpt lat="41.40131993462005" lon="-81.74205363995921">
        <ele>265.5328243873</ele>
        <time>2026-07-25T16:31:35Z</time>
      </trkpt>
      <trkpt lat="41.40132163298425" lon="-81.74237664961584">
        <ele>264.7846024499</ele>
        <time>2026-07-25T16:31:59Z</time>
      </trkpt>
      <trkpt lat="41.40132585504166" lon="-81.74237303419271">
        <ele>264.6437434919</ele>
        <time>2026-07-25T16:32:00Z</time>
      </trkpt>
      <trkpt lat="41.40090430485414" lon="-81.74219432859898">
        <ele>265.2870217768</ele>
        <time>2026-07-25T16:32:42Z</time>
      </trkpt>
      <trkpt lat="41.40047309962260" lon="-81.74199986591125">
        <ele>265.1658004070</ele>
        <time>2026-07-25T16:33:19Z</time>
      </trkpt>
      <trkpt lat="41.40005253594458" lon="-81.74180201632132">
        <ele>265.6841638192</ele>
        <time>2026-07-25T16:33:52Z</time>
      </trkpt>
      <trkpt lat="41.39961592811737" lon="-81.74160015494010">
        <ele>264.5054413448</ele>
        <time>2026-07-25T16:34:33Z</time>
      </trkpt>
      <trkpt lat="41.39953954564614" lon="-81.74156587381863">
        <ele>264.8629906176</ele>
        <time>2026-07-25T16:34:42Z</time>
      </trkpt>
      <trkpt lat="41.39954788042186" lon="-81.74096775816625">
        <ele>265.6097223407</ele>
        <time>2026-07-25T16:35:22Z</time>
      </trkpt>
      <trkpt lat="41.39953863503930" lon="-81.74037328278993">
        <ele>266.0762081605</ele>
        <time>2026-07-25T16:36:10Z</time>
      </trkpt>
      <trkpt lat="41.39953869408504" lon="-81.73977658042048">
        <ele>266.7202581949</ele>
        <time>2026-07-25T16:36:59Z</time>
      </trkpt>
      <trkpt lat="41.39954015329525" lon="-81.73917277683309">
        <ele>267.0280968448</ele>
        <time>2026-07-25T16:37:31Z</time>
      </trkpt>
      <trkpt lat="41.39953629942801" lon="-81.73857505935722">
        <ele>266.9932170224</ele>
        <time>2026-07-25T16:38:16Z</time>
      </trkpt>
      <trkpt lat="41.39953778393559" lon="-81.73829514086647">
        <ele>266.8144883728</ele>
        <time>2026-07-25T16:38:50Z</time>
      </trkpt>
      <trkpt lat="41.39954039130384" lon="-81.73829354025635">
        <ele>267.1082549120</ele>
        <time>2026-07-25T16:38:51Z</time>
      </trkpt>
      <trkpt lat="41.39998485787145" lon="-81.73829506061470">
        <ele>267.0623747633</ele>
        <time>2026-07-25T16:39:29Z</time>
      </trkpt>
      <trkpt lat="41.40042682383957" lon="-81.73829833281783">
        <ele>267.2751211381</ele>
        <time>2026-07-25T16:40:04Z</time>
      </trkpt>
      <trkpt lat="41.40088262893349" lon="-81.73830291823334">
        <ele>267.3219796006</ele>
        <time>2026-07-25T16:40:55Z</time>
      </trkpt>
      <trkpt lat="41.40132266041949" lon="-81.73830073455174">
        <ele>267.5976679931</ele>
        <time>2026-07-25T16:41:29Z</time>
      </trkpt>
      <trkpt lat="41.40133635605751" lon="-81.73890794514375">
        <ele>267.5386902073</ele>
        <time>2026-07-25T16:42:13Z</time>
      </trkpt>
      <trkpt lat="41.40133894681087" lon="-81.73949779830694">
        <ele>267.0461800496</ele>
        <time>2026-07-25T16:42:53Z</time>
      </trkpt>
      <trkpt lat="41.40134106144566" lon="-81.74010850774239">
        <ele>266.5382053497</ele>
        <time>2026-07-25T16:43:31Z</time>
      </trkpt>
      <trkpt lat="41.40134355248183" lon="-81.74015553365028">
        <ele>266.5735788121</ele>
        <time>2026-07-25T16:43:34Z</time>
      </trkpt>
    </trkseg>
  </trk>
</gpx>