<?xml version='1.0' encoding='UTF-8'?>
<gpx xmlns="http://www.topografix.com/GPX/1/1" creator="https://gpx.studio" version="1.1">
  <metadata>
    <name>Dog Walk - 2026-02-28 #4</name>
  </metadata>
  <trk>
    <name>Dog Walk - 2026-02-28 #4</name>
    <type>dog walk</type>
    <trkseg>
      <trkpt lat="41.40134156950337" lon="-81.74022573390508">
        <ele>266.7207691737</ele>
        <time>2026-02-28T15:53:17Z</time>
      </trkpt>
      <trkpt lat="41.40134445258712" lon="-81.74084199597399">
        <ele>266.1963307724</ele>
        <time>2026-02-28T15:53:57Z</time>
      </trkpt>
      <trkpt lat="41.40134865048856" lon="-81.74143708119949">
        <ele>265.5376946709</ele>
        <time>2026-02-28T15:54:31Z</time>
      </trkpt>
      <trkpt lat="41.40134740086179" lon="-81.74204195277666">
        <ele>265.4639056440</ele>
        <time>2026-02-28T15:55:11Z</time>
      </trkpt>
      <trkpt lat="41.40134882587286" lon="-81.74241096530746">
        <ele>264.5451097211</ele>
        <time>2026-02-28T15:55:40Z</time>
      </trkpt>
      <trkpt lat="41.40176682837340" lon="-81.74262054776231">
        <ele>264.0705723330</ele>
        <time>2026-02-28T15:56:09Z</time>
      </trkpt>
      <trkpt lat="41.40219265036973" lon="-81.74281870748827">
        <ele>263.4232233169</ele>
        <time>2026-02-28T15:56:56Z</time>
      </trkpt>
      <trkpt lat="41.40262345346045" lon="-81.74302565588353">
        <ele>263.0940039480</ele>
        <time>2026-02-28T15:57:33Z</time>
      </trkpt>
      <trkpt lat="41.40304014339536" lon="-81.74321236969057">
        <ele>262.5927670536</ele>
        <time>2026-02-28T15:58:09Z</time>
      </trkpt>
      <trkpt lat="41.40311670371191" lon="-81.74325209737964">
        <ele>262.3425593566</ele>
        <time>2026-02-28T15:58:16Z</time>
      </trkpt>
      <trkpt lat="41.40311974098407" lon="-81.74265914605328">
        <ele>263.1979168558</ele>
        <time>2026-02-28T15:58:56Z</time>
      </trkpt>
      <trkpt lat="41.40311692279683" lon="-81.74206190706795">
        <ele>263.6182230507</ele>
        <time>2026-02-28T15:59:32Z</time>
      </trkpt>
      <trkpt lat="41.40309611016031" lon="-81.74145814821782">
        <ele>263.9911515482</ele>
        <time>2026-02-28T16:00:10Z</time>
      </trkpt>
      <trkpt lat="41.40310737224494" lon="-81.74086101765108">
        <ele>264.8017595002</ele>
        <time>2026-02-28T16:00:56Z</time>
      </trkpt>
      <trkpt lat="41.40311194083948" lon="-81.74024911332683">
        <ele>265.6305651333</ele>
        <time>2026-02-28T16:01:42Z</time>
      </trkpt>
      <trkpt lat="41.40310624404724" lon="-81.73966421076098">
        <ele>266.0868228311</ele>
        <time>2026-02-28T16:02:15Z</time>
      </trkpt>
      <trkpt lat="41.40310313184500" lon="-81.73905592328622">
        <ele>266.0631220813</ele>
        <time>2026-02-28T16:02:52Z</time>
      </trkpt>
      <trkpt lat="41.40309560117543" lon="-81.73879289936544">
        <ele>266.1427977431</ele>
        <time>2026-02-28T16:03:14Z</time>
      </trkpt>
      <trkpt lat="41.40265719730263" lon="-81.73877980476557">
        <ele>266.8252779818</ele>
        <time>2026-02-28T16:03:54Z</time>
      </trkpt>
      <trkpt lat="41.40222822235098" lon="-81.73877980993623">
        <ele>267.0249995323</ele>
        <time>2026-02-28T16:04:29Z</time>
      </trkpt>
      <trkpt lat="41.40223242052841" lon="-81.73818479422732">
        <ele>267.2725925520</ele>
        <time>2026-02-28T16:05:07Z</time>
      </trkpt>
      <trkpt lat="41.40223154030315" lon="-81.73758121256206">
        <ele>266.9943288091</ele>
        <time>2026-02-28T16:05:44Z</time>
      </trkpt>
      <trkpt lat="41.40223123528532" lon="-81.73698319807683">
        <ele>267.2730198218</ele>
        <time>2026-02-28T16:06:27Z</time>
      </trkpt>
      <trkpt lat="41.40222680964749" lon="-81.73638446145695">
        <ele>267.2553374328</ele>
        <time>2026-02-28T16:07:08Z</time>
      </trkpt>
      <trkpt lat="41.40222803739253" lon="-81.73578472060892">
        <ele>267.4844058902</ele>
        <time>2026-02-28T16:07:49Z</time>
      </trkpt>
      <trkpt lat="41.40221919131918" lon="-81.73517704916372">
        <ele>267.2175022058</ele>
        <time>2026-02-28T16:08:26Z</time>
      </trkpt>
      <trkpt lat="41.40221974090171" lon="-81.73464687021219">
        <ele>266.8425168600</ele>
        <time>2026-02-28T16:09:00Z</time>
      </trkpt>
      <trkpt lat="41.40176858531967" lon="-81.73463147933533">
        <ele>267.3368043156</ele>
        <time>2026-02-28T16:09:48Z</time>
      </trkpt>
      <trkpt lat="41.40132494403876" lon="-81.73463575899169">
        <ele>267.3152468173</ele>
        <time>2026-02-28T16:10:28Z</time>
      </trkpt>
      <trkpt lat="41.40131082469916" lon="-81.73462966261002">
        <ele>267.2702775153</ele>
        <time>2026-02-28T16:10:29Z</time>
      </trkpt>
      <trkpt lat="41.40131097718309" lon="-81.73522995866041">
        <ele>267.9232930508</ele>
        <time>2026-02-28T16:11:05Z</time>
      </trkpt>
      <trkpt lat="41.40132442552719" lon="-81.73583130585052">
        <ele>267.9969283589</ele>
        <time>2026-02-28T16:11:47Z</time>
      </trkpt>
      <trkpt lat="41.40132688032973" lon="-81.73643439514976">
        <ele>268.1933308131</ele>
        <time>2026-02-28T16:12:25Z</time>
      </trkpt>
      <trkpt lat="41.40131764840017" lon="-81.73704048328344">
        <ele>268.0691291105</ele>
        <time>2026-02-28T16:13:06Z</time>
      </trkpt>
      <trkpt lat="41.40133926033963" lon="-81.73762221646338">
        <ele>267.9446834312</ele>
        <time>2026-02-28T16:13:41Z</time>
      </trkpt>
      <trkpt lat="41.40133470035033" lon="-81.73823114949629">
        <ele>267.6115198301</ele>
        <time>2026-02-28T16:14:24Z</time>
      </trkpt>
      <trkpt lat="41.40132964092452" lon="-81.73883240845610">
        <ele>267.3286573686</ele>
        <time>2026-02-28T16:15:07Z</time>
      </trkpt>
      <trkpt lat="41.40133932932905" lon="-81.73943882218265">
        <ele>267.4029863624</ele>
        <time>2026-02-28T16:15:53Z</time>
      </trkpt>
      <trkpt lat="41.40134426862893" lon="-81.74004588203245">
        <ele>266.6285005045</ele>
        <time>2026-02-28T16:16:48Z</time>
      </trkpt>
      <trkpt lat="41.40134472757135" lon="-81.74016648936458">
        <ele>266.4371651284</ele>
        <time>2026-02-28T16:16:55Z</time>
      </trkpt>
    </trkseg>
  </trk>
</gpx>