<?xml version='1.0' encoding='UTF-8'?>
<gpx xmlns="http://www.topografix.com/GPX/1/1" creator="https://gpx.studio" version="1.1">
  <metadata>
    <name>Dog Walk - 2026-06-02 #1</name>
  </metadata>
  <trk>
    <name>Dog Walk - 2026-06-02 #1</name>
    <type>dog walk</type>
    <trkseg>
      <trkpt lat="41.40133539682290" lon="-81.74023802989075">
        <ele>266.6500559302</ele>
        <time>2026-06-02T08:47:33Z</time>
      </trkpt>
      <trkpt lat="41.40134366121536" lon="-81.74083484151883">
        <ele>266.2318205910</ele>
        <time>2026-06-02T08:48:09Z</time>
      </trkpt>
      <trkpt lat="41.40134162869468" lon="-81.74143842816753">
        <ele>265.8068978772</ele>
        <time>2026-06-02T08:48:59Z</time>
      </trkpt>
      <trkpt lat="41.40134963352151" lon="-81.74203914178707">
        <ele>265.3352691600</ele>
        <time>2026-06-02T08:49:39Z</time>
      </trkpt>
      <trkpt lat="41.40134457114459" lon="-81.74242061022902">
        <ele>264.7987301733</ele>
        <time>2026-06-02T08:50:01Z</time>
      </trkpt>
      <trkpt lat="41.40177446267781" lon="-81.74263109951383">
        <ele>264.2336535863</ele>
        <time>2026-06-02T08:50:55Z</time>
      </trkpt>
      <trkpt lat="41.40219693605422" lon="-81.74281453350820">
        <ele>263.5993922352</ele>
        <time>2026-06-02T08:51:48Z</time>
      </trkpt>
      <trkpt lat="41.40261838522505" lon="-81.74302211152629">
        <ele>263.1110199717</ele>
        <time>2026-06-02T08:52:35Z</time>
      </trkpt>
      <trkpt lat="41.40303954423813" lon="-81.74321257017054">
        <ele>262.3072746608</ele>
        <time>2026-06-02T08:53:28Z</time>
      </trkpt>
      <trkpt lat="41.40311290464000" lon="-81.74325733724835">
        <ele>262.2854548167</ele>
        <time>2026-06-02T08:53:34Z</time>
      </trkpt>
      <trkpt lat="41.40311535102910" lon="-81.74265817815795">
        <ele>263.0920420860</ele>
        <time>2026-06-02T08:54:06Z</time>
      </trkpt>
      <trkpt lat="41.40310593316834" lon="-81.74206313870276">
        <ele>263.6789682846</ele>
        <time>2026-06-02T08:54:38Z</time>
      </trkpt>
      <trkpt lat="41.40310390830089" lon="-81.74145597723714">
        <ele>264.2606412342</ele>
        <time>2026-06-02T08:55:39Z</time>
      </trkpt>
      <trkpt lat="41.40311129096371" lon="-81.74085018113996">
        <ele>264.8471596485</ele>
        <time>2026-06-02T08:56:20Z</time>
      </trkpt>
      <trkpt lat="41.40310799613988" lon="-81.74025122707761">
        <ele>265.7071601385</ele>
        <time>2026-06-02T08:57:07Z</time>
      </trkpt>
      <trkpt lat="41.40311739698365" lon="-81.73966329022028">
        <ele>265.8834429757</ele>
        <time>2026-06-02T08:58:06Z</time>
      </trkpt>
      <trkpt lat="41.40309811537032" lon="-81.73905770592214">
        <ele>266.0846747484</ele>
        <time>2026-06-02T08:58:35Z</time>
      </trkpt>
      <trkpt lat="41.40309691283807" lon="-81.73878928483076">
        <ele>266.4003607964</ele>
        <time>2026-06-02T08:58:53Z</time>
      </trkpt>
      <trkpt lat="41.40265924826601" lon="-81.73877861076598">
        <ele>266.5812627833</ele>
        <time>2026-06-02T08:59:36Z</time>
      </trkpt>
      <trkpt lat="41.40223202728247" lon="-81.73877956194686">
        <ele>267.2212375132</ele>
        <time>2026-06-02T09:00:09Z</time>
      </trkpt>
      <trkpt lat="41.40223240585923" lon="-81.73817725233738">
        <ele>266.9853172756</ele>
        <time>2026-06-02T09:00:52Z</time>
      </trkpt>
      <trkpt lat="41.40222716895267" lon="-81.73758582157846">
        <ele>267.0605215632</ele>
        <time>2026-06-02T09:01:34Z</time>
      </trkpt>
      <trkpt lat="41.40222796184207" lon="-81.73697887045763">
        <ele>267.3605993664</ele>
        <time>2026-06-02T09:02:08Z</time>
      </trkpt>
      <trkpt lat="41.40222199592094" lon="-81.73638572582560">
        <ele>267.1279382459</ele>
        <time>2026-06-02T09:02:47Z</time>
      </trkpt>
      <trkpt lat="41.40222225925885" lon="-81.73578400119759">
        <ele>267.2062671517</ele>
        <time>2026-06-02T09:03:34Z</time>
      </trkpt>
      <trkpt lat="41.40223039508842" lon="-81.73518245983981">
        <ele>267.2850313160</ele>
        <time>2026-06-02T09:04:10Z</time>
      </trkpt>
      <trkpt lat="41.40222600278941" lon="-81.73464367997605">
        <ele>267.0663290594</ele>
        <time>2026-06-02T09:04:47Z</time>
      </trkpt>
      <trkpt lat="41.40177044504826" lon="-81.73464424675819">
        <ele>267.3399872223</ele>
        <time>2026-06-02T09:05:33Z</time>
      </trkpt>
      <trkpt lat="41.40132071337158" lon="-81.73463631445451">
        <ele>267.2867634769</ele>
        <time>2026-06-02T09:06:05Z</time>
      </trkpt>
      <trkpt lat="41.40131422166794" lon="-81.73463701316955">
        <ele>267.1717288258</ele>
        <time>2026-06-02T09:06:06Z</time>
      </trkpt>
      <trkpt lat="41.40131872892466" lon="-81.73524442308097">
        <ele>267.9329160853</ele>
        <time>2026-06-02T09:06:59Z</time>
      </trkpt>
      <trkpt lat="41.40132520138712" lon="-81.73583979285279">
        <ele>268.3631073857</ele>
        <time>2026-06-02T09:07:42Z</time>
      </trkpt>
      <trkpt lat="41.40132965548646" lon="-81.73643289446193">
        <ele>268.0066522957</ele>
        <time>2026-06-02T09:08:21Z</time>
      </trkpt>
      <trkpt lat="41.40132652322247" lon="-81.73703527974389">
        <ele>267.8460945246</ele>
        <time>2026-06-02T09:08:57Z</time>
      </trkpt>
      <trkpt lat="41.40133268623417" lon="-81.73763020193117">
        <ele>268.0037429522</ele>
        <time>2026-06-02T09:09:38Z</time>
      </trkpt>
      <trkpt lat="41.40133442655320" lon="-81.73823749698320">
        <ele>267.9042276029</ele>
        <time>2026-06-02T09:10:11Z</time>
      </trkpt>
      <trkpt lat="41.40134080281388" lon="-81.73882975827188">
        <ele>267.4841920023</ele>
        <time>2026-06-02T09:10:48Z</time>
      </trkpt>
      <trkpt lat="41.40133806801686" lon="-81.73943457294018">
        <ele>267.2950169484</ele>
        <time>2026-06-02T09:11:48Z</time>
      </trkpt>
      <trkpt lat="41.40135603205919" lon="-81.74003786242929">
        <ele>266.7869825420</ele>
        <time>2026-06-02T09:12:43Z</time>
      </trkpt>
      <trkpt lat="41.40134673379390" lon="-81.74015630751795">
        <ele>266.6888296119</ele>
        <time>2026-06-02T09:13:00Z</time>
      </trkpt>
    </trkseg>
  </trk>
</gpx>