<?xml version='1.0' encoding='UTF-8'?>
<gpx xmlns="http://www.topografix.com/GPX/1/1" creator="https://gpx.studio" version="1.1">
  <metadata>
    <name>Dog Walk - 2026-09-15 #1</name>
  </metadata>
  <trk>
    <name>Dog Walk - 2026-09-15 #1</name>
    <type>dog walk</type>
    <trkseg>
      <trkpt lat="41.40134041344123" lon="-81.74024581818874">
        <ele>266.4692645292</ele>
        <time>2026-09-15T09:08:43Z</time>
      </trkpt>
      <trkpt lat="41.40134887851491" lon="-81.74083761339648">
        <ele>266.4200191352</ele>
        <time>2026-09-15T09:09:31Z</time>
      </trkpt>
      <trkpt lat="41.40134711627586" lon="-81.74143272390326">
        <ele>265.8146530558</ele>
        <time>2026-09-15T09:10:05Z</time>
      </trkpt>
      <trkpt lat="41.40134389648712" lon="-81.74203796832664">
        <ele>265.3543087160</ele>
        <time>2026-09-15T09:10:49Z</time>
      </trkpt>
      <trkpt lat="41.40135180060322" lon="-81.74242434776158">
        <ele>264.5712601079</ele>
        <time>2026-09-15T09:11:13Z</time>
      </trkpt>
      <trkpt lat="41.40176739051277" lon="-81.74263185138703">
        <ele>264.3322043702</ele>
        <time>2026-09-15T09:11:58Z</time>
      </trkpt>
      <trkpt lat="41.40218319166986" lon="-81.74285135622195">
        <ele>263.6385518070</ele>
        <time>2026-09-15T09:12:48Z</time>
      </trkpt>
      <trkpt lat="41.40222517289083" lon="-81.74286214326490">
        <ele>263.3641362389</ele>
        <time>2026-09-15T09:12:51Z</time>
      </trkpt>
      <trkpt lat="41.40221562527274" lon="-81.74226924828081">
        <ele>264.1292819095</ele>
        <time>2026-09-15T09:13:37Z</time>
      </trkpt>
      <trkpt lat="41.40221824183627" lon="-81.74167018681906">
        <ele>264.7871579058</ele>
        <time>2026-09-15T09:14:08Z</time>
      </trkpt>
      <trkpt lat="41.40222084412520" lon="-81.74106382514142">
        <ele>265.6691976174</ele>
        <time>2026-09-15T09:14:50Z</time>
      </trkpt>
      <trkpt lat="41.40221220700570" lon="-81.74046619007218">
        <ele>266.0729641945</ele>
        <time>2026-09-15T09:15:27Z</time>
      </trkpt>
      <trkpt lat="41.40221814151665" lon="-81.73986540856815">
        <ele>266.5322828436</ele>
        <time>2026-09-15T09:16:10Z</time>
      </trkpt>
      <trkpt lat="41.40222363059296" lon="-81.73925965769787">
        <ele>266.8742896529</ele>
        <time>2026-09-15T09:16:42Z</time>
      </trkpt>
      <trkpt lat="41.40222155848910" lon="-81.73868443188684">
        <ele>267.2320409504</ele>
        <time>2026-09-15T09:17:15Z</time>
      </trkpt>
      <trkpt lat="41.40222532574784" lon="-81.73826738461641">
        <ele>266.8475864323</ele>
        <time>2026-09-15T09:17:46Z</time>
      </trkpt>
      <trkpt lat="41.40176024239666" lon="-81.73826451610418">
        <ele>267.8913922730</ele>
        <time>2026-09-15T09:18:24Z</time>
      </trkpt>
      <trkpt lat="41.40133754808519" lon="-81.73826116922676">
        <ele>267.6710082983</ele>
        <time>2026-09-15T09:19:18Z</time>
      </trkpt>
      <trkpt lat="41.40133339343944" lon="-81.73886526172470">
        <ele>267.4545415489</ele>
        <time>2026-09-15T09:19:59Z</time>
      </trkpt>
      <trkpt lat="41.40133790975894" lon="-81.73946390149976">
        <ele>267.1543536868</ele>
        <time>2026-09-15T09:20:39Z</time>
      </trkpt>
      <trkpt lat="41.40134135644742" lon="-81.74005608932654">
        <ele>266.6379928686</ele>
        <time>2026-09-15T09:21:18Z</time>
      </trkpt>
      <trkpt lat="41.40134076575499" lon="-81.74020206469224">
        <ele>266.7101810594</ele>
        <time>2026-09-15T09:21:28Z</time>
      </trkpt>
    </trkseg>
  </trk>
</gpx>