<?xml version='1.0' encoding='UTF-8'?>
<gpx xmlns="http://www.topografix.com/GPX/1/1" creator="https://gpx.studio" version="1.1">
  <metadata>
    <name>Dog Walk - 2026-08-05 #3</name>
  </metadata>
  <trk>
    <name>Dog Walk - 2026-08-05 #3</name>
    <type>dog walk</type>
    <trkseg>
      <trkpt lat="41.40133918542720" lon="-81.74023293028607">
        <ele>266.5683207142</ele>
        <time>2026-08-05T20:04:59Z</time>
      </trkpt>
      <trkpt lat="41.40134344970132" lon="-81.74084179661894">
        <ele>266.2207528377</ele>
        <time>2026-08-05T20:05:31Z</time>
      </trkpt>
      <trkpt lat="41.40134191265620" lon="-81.74144245788823">
        <ele>265.9129552114</ele>
        <time>2026-08-05T20:06:01Z</time>
      </trkpt>
      <trkpt lat="41.40134029603200" lon="-81.74203617798345">
        <ele>265.1661294804</ele>
        <time>2026-08-05T20:06:42Z</time>
      </trkpt>
      <trkpt lat="41.40134977497210" lon="-81.74242256278814">
        <ele>264.8360815917</ele>
        <time>2026-08-05T20:07:12Z</time>
      </trkpt>
      <trkpt lat="41.40176634355362" lon="-81.74263889467635">
        <ele>264.4457599638</ele>
        <time>2026-08-05T20:07:49Z</time>
      </trkpt>
      <trkpt lat="41.40219322493198" lon="-81.74284864401103">
        <ele>263.3501587138</ele>
        <time>2026-08-05T20:08:48Z</time>
      </trkpt>
      <trkpt lat="41.40222295824064" lon="-81.74287560120298">
        <ele>263.3714914035</ele>
        <time>2026-08-05T20:08:52Z</time>
      </trkpt>
      <trkpt lat="41.40221818748353" lon="-81.74225649653033">
        <ele>264.1418359838</ele>
        <time>2026-08-05T20:09:33Z</time>
      </trkpt>
      <trkpt lat="41.40221255247952" lon="-81.74167156105509">
        <ele>264.8544201579</ele>
        <time>2026-08-05T20:10:15Z</time>
      </trkpt>
      <trkpt lat="41.40221683197309" lon="-81.74106932979292">
        <ele>265.3886737797</ele>
        <time>2026-08-05T20:10:55Z</time>
      </trkpt>
      <trkpt lat="41.40221817347879" lon="-81.74046727323447">
        <ele>266.0757156681</ele>
        <time>2026-08-05T20:11:44Z</time>
      </trkpt>
      <trkpt lat="41.40222463238756" lon="-81.73986576723843">
        <ele>266.2743772557</ele>
        <time>2026-08-05T20:12:30Z</time>
      </trkpt>
      <trkpt lat="41.40222421831012" lon="-81.73926692016968">
        <ele>267.1293800142</ele>
        <time>2026-08-05T20:13:01Z</time>
      </trkpt>
      <trkpt lat="41.40222332100902" lon="-81.73866931235494">
        <ele>266.9106869059</ele>
        <time>2026-08-05T20:13:41Z</time>
      </trkpt>
      <trkpt lat="41.40221935108856" lon="-81.73826608304593">
        <ele>267.1760113240</ele>
        <time>2026-08-05T20:14:24Z</time>
      </trkpt>
      <trkpt lat="41.40176448873038" lon="-81.73825180765697">
        <ele>267.8658533650</ele>
        <time>2026-08-05T20:15:06Z</time>
      </trkpt>
      <trkpt lat="41.40133574347105" lon="-81.73826282482513">
        <ele>267.6282271945</ele>
        <time>2026-08-05T20:15:38Z</time>
      </trkpt>
      <trkpt lat="41.40132943120594" lon="-81.73885441080070">
        <ele>267.3302170801</ele>
        <time>2026-08-05T20:16:15Z</time>
      </trkpt>
      <trkpt lat="41.40133935363934" lon="-81.73945786216179">
        <ele>266.9756208422</ele>
        <time>2026-08-05T20:16:55Z</time>
      </trkpt>
      <trkpt lat="41.40134299429565" lon="-81.74005549621120">
        <ele>266.6333886994</ele>
        <time>2026-08-05T20:17:40Z</time>
      </trkpt>
      <trkpt lat="41.40134736109666" lon="-81.74019489803025">
        <ele>266.6283078116</ele>
        <time>2026-08-05T20:17:50Z</time>
      </trkpt>
    </trkseg>
  </trk>
</gpx>