<?xml version='1.0' encoding='UTF-8'?>
<gpx xmlns="http://www.topografix.com/GPX/1/1" creator="https://gpx.studio" version="1.1">
  <metadata>
    <name>Dog Walk - 2026-06-18</name>
  </metadata>
  <trk>
    <name>Dog Walk - 2026-06-18</name>
    <type>dog walk</type>
    <trkseg>
      <trkpt lat="41.40133314291312" lon="-81.74026343509026">
        <ele>266.4711467194</ele>
        <time>2026-06-18T13:16:45Z</time>
      </trkpt>
      <trkpt lat="41.40133551932820" lon="-81.74026259839937">
        <ele>266.6838556197</ele>
        <time>2026-06-18T13:16:46Z</time>
      </trkpt>
      <trkpt lat="41.40133533516849" lon="-81.74085023015758">
        <ele>266.2042478144</ele>
        <time>2026-06-18T13:17:24Z</time>
      </trkpt>
      <trkpt lat="41.40132083013628" lon="-81.74145797997764">
        <ele>265.6831278192</ele>
        <time>2026-06-18T13:18:03Z</time>
      </trkpt>
      <trkpt lat="41.40132294633649" lon="-81.74206600724703">
        <ele>265.3603405002</ele>
        <time>2026-06-18T13:19:03Z</time>
      </trkpt>
      <trkpt lat="41.40132848973134" lon="-81.74238146483070">
        <ele>264.5736614867</ele>
        <time>2026-06-18T13:19:20Z</time>
      </trkpt>
      <trkpt lat="41.40132943967791" lon="-81.74237701897287">
        <ele>264.7231124168</ele>
        <time>2026-06-18T13:19:21Z</time>
      </trkpt>
      <trkpt lat="41.40090199619112" lon="-81.74218513380224">
        <ele>264.9373513118</ele>
        <time>2026-06-18T13:19:54Z</time>
      </trkpt>
      <trkpt lat="41.40047605848886" lon="-81.74199700936869">
        <ele>265.2219752398</ele>
        <time>2026-06-18T13:20:39Z</time>
      </trkpt>
      <trkpt lat="41.40004579620194" lon="-81.74180411489353">
        <ele>265.2942290339</ele>
        <time>2026-06-18T13:21:35Z</time>
      </trkpt>
      <trkpt lat="41.39962490451749" lon="-81.74161372346661">
        <ele>264.6860799893</ele>
        <time>2026-06-18T13:22:14Z</time>
      </trkpt>
      <trkpt lat="41.39954713467552" lon="-81.74156675830845">
        <ele>264.6365999016</ele>
        <time>2026-06-18T13:22:23Z</time>
      </trkpt>
      <trkpt lat="41.39954446151408" lon="-81.74097273525683">
        <ele>265.8032348015</ele>
        <time>2026-06-18T13:22:56Z</time>
      </trkpt>
      <trkpt lat="41.39954113560333" lon="-81.74037485854426">
        <ele>266.1799705984</ele>
        <time>2026-06-18T13:23:34Z</time>
      </trkpt>
      <trkpt lat="41.39954531903400" lon="-81.73976545877402">
        <ele>266.5196834391</ele>
        <time>2026-06-18T13:24:14Z</time>
      </trkpt>
      <trkpt lat="41.39953680802468" lon="-81.73917222471056">
        <ele>267.0052611379</ele>
        <time>2026-06-18T13:24:50Z</time>
      </trkpt>
      <trkpt lat="41.39953433186114" lon="-81.73857447517182">
        <ele>266.8598667898</ele>
        <time>2026-06-18T13:25:22Z</time>
      </trkpt>
      <trkpt lat="41.39953326188647" lon="-81.73829722510885">
        <ele>267.0789795290</ele>
        <time>2026-06-18T13:25:39Z</time>
      </trkpt>
      <trkpt lat="41.39953796546060" lon="-81.73829748249769">
        <ele>266.8079612307</ele>
        <time>2026-06-18T13:25:40Z</time>
      </trkpt>
      <trkpt lat="41.39997980577500" lon="-81.73830209836338">
        <ele>267.1443297249</ele>
        <time>2026-06-18T13:26:15Z</time>
      </trkpt>
      <trkpt lat="41.40042944105533" lon="-81.73829822004457">
        <ele>267.3402617679</ele>
        <time>2026-06-18T13:27:22Z</time>
      </trkpt>
      <trkpt lat="41.40089482246115" lon="-81.73829527375148">
        <ele>267.5549026585</ele>
        <time>2026-06-18T13:28:08Z</time>
      </trkpt>
      <trkpt lat="41.40132688847410" lon="-81.73829985780101">
        <ele>267.1915799039</ele>
        <time>2026-06-18T13:28:43Z</time>
      </trkpt>
      <trkpt lat="41.40132718732337" lon="-81.73890626959282">
        <ele>267.2658656153</ele>
        <time>2026-06-18T13:29:29Z</time>
      </trkpt>
      <trkpt lat="41.40133553552923" lon="-81.73949567425650">
        <ele>267.0163063095</ele>
        <time>2026-06-18T13:30:03Z</time>
      </trkpt>
      <trkpt lat="41.40134116414927" lon="-81.74010411442740">
        <ele>266.6386066667</ele>
        <time>2026-06-18T13:30:49Z</time>
      </trkpt>
      <trkpt lat="41.40134412493417" lon="-81.74016029854806">
        <ele>266.7431691372</ele>
        <time>2026-06-18T13:30:53Z</time>
      </trkpt>
    </trkseg>
  </trk>
</gpx>