<?xml version='1.0' encoding='UTF-8'?>
<gpx xmlns="http://www.topografix.com/GPX/1/1" creator="https://gpx.studio" version="1.1">
  <metadata>
    <name>Dog Walk - 2026-08-17</name>
  </metadata>
  <trk>
    <name>Dog Walk - 2026-08-17</name>
    <type>dog walk</type>
    <trkseg>
      <trkpt lat="41.40133707253478" lon="-81.74022574391881">
        <ele>266.5363387585</ele>
        <time>2026-08-17T10:45:38Z</time>
      </trkpt>
      <trkpt lat="41.40134293901716" lon="-81.74084268862021">
        <ele>266.2164447570</ele>
        <time>2026-08-17T10:46:29Z</time>
      </trkpt>
      <trkpt lat="41.40133500434354" lon="-81.74143224926891">
        <ele>265.6823769092</ele>
        <time>2026-08-17T10:47:21Z</time>
      </trkpt>
      <trkpt lat="41.40134503881634" lon="-81.74202601900792">
        <ele>265.2126940873</ele>
        <time>2026-08-17T10:48:05Z</time>
      </trkpt>
      <trkpt lat="41.40135204168109" lon="-81.74240783163852">
        <ele>264.7542679050</ele>
        <time>2026-08-17T10:48:32Z</time>
      </trkpt>
      <trkpt lat="41.40177079658217" lon="-81.74262613387455">
        <ele>264.3269871087</ele>
        <time>2026-08-17T10:49:20Z</time>
      </trkpt>
      <trkpt lat="41.40218792759642" lon="-81.74284705072247">
        <ele>263.2755681592</ele>
        <time>2026-08-17T10:49:49Z</time>
      </trkpt>
      <trkpt lat="41.40260686587885" lon="-81.74305263845099">
        <ele>262.8356969476</ele>
        <time>2026-08-17T10:50:40Z</time>
      </trkpt>
      <trkpt lat="41.40303532616821" lon="-81.74326216818986">
        <ele>262.4747012037</ele>
        <time>2026-08-17T10:51:21Z</time>
      </trkpt>
      <trkpt lat="41.40344771791789" lon="-81.74347980201983">
        <ele>261.9887228542</ele>
        <time>2026-08-17T10:52:03Z</time>
      </trkpt>
      <trkpt lat="41.40348849738820" lon="-81.74349985124041">
        <ele>261.8841659292</ele>
        <time>2026-08-17T10:52:06Z</time>
      </trkpt>
      <trkpt lat="41.40359973312216" lon="-81.74352324019485">
        <ele>261.7749684192</ele>
        <time>2026-08-17T10:52:18Z</time>
      </trkpt>
      <trkpt lat="41.40399806080976" lon="-81.74351328760669">
        <ele>260.8227567860</ele>
        <time>2026-08-17T10:52:48Z</time>
      </trkpt>
      <trkpt lat="41.40398361164167" lon="-81.74290935199600">
        <ele>261.6199117888</ele>
        <time>2026-08-17T10:53:31Z</time>
      </trkpt>
      <trkpt lat="41.40398567724770" lon="-81.74229829006090">
        <ele>262.1376487007</ele>
        <time>2026-08-17T10:54:15Z</time>
      </trkpt>
      <trkpt lat="41.40398491946542" lon="-81.74170881583706">
        <ele>262.3840676663</ele>
        <time>2026-08-17T10:54:46Z</time>
      </trkpt>
      <trkpt lat="41.40399551173506" lon="-81.74110330566666">
        <ele>263.0324759486</ele>
        <time>2026-08-17T10:55:24Z</time>
      </trkpt>
      <trkpt lat="41.40399037842569" lon="-81.74049891778270">
        <ele>263.6932059935</ele>
        <time>2026-08-17T10:56:03Z</time>
      </trkpt>
      <trkpt lat="41.40398819616826" lon="-81.73991340915077">
        <ele>264.0766838953</ele>
        <time>2026-08-17T10:56:41Z</time>
      </trkpt>
      <trkpt lat="41.40398645487400" lon="-81.73930419693055">
        <ele>264.9692286942</ele>
        <time>2026-08-17T10:57:31Z</time>
      </trkpt>
      <trkpt lat="41.40398511350833" lon="-81.73877172040854">
        <ele>265.4794272876</ele>
        <time>2026-08-17T10:58:13Z</time>
      </trkpt>
      <trkpt lat="41.40353587957156" lon="-81.73878311224482">
        <ele>265.9491594304</ele>
        <time>2026-08-17T10:58:50Z</time>
      </trkpt>
      <trkpt lat="41.40308760224669" lon="-81.73877756287374">
        <ele>266.1099068419</ele>
        <time>2026-08-17T10:59:34Z</time>
      </trkpt>
      <trkpt lat="41.40263235856101" lon="-81.73877466327905">
        <ele>266.7637999090</ele>
        <time>2026-08-17T11:00:09Z</time>
      </trkpt>
      <trkpt lat="41.40223247804819" lon="-81.73877558851018">
        <ele>266.8341660069</ele>
        <time>2026-08-17T11:00:37Z</time>
      </trkpt>
      <trkpt lat="41.40221526988456" lon="-81.73827721109815">
        <ele>267.2035032706</ele>
        <time>2026-08-17T11:01:16Z</time>
      </trkpt>
      <trkpt lat="41.40177401908208" lon="-81.73827062899574">
        <ele>267.7635587648</ele>
        <time>2026-08-17T11:02:07Z</time>
      </trkpt>
      <trkpt lat="41.40132661686614" lon="-81.73827165954300">
        <ele>267.6361304551</ele>
        <time>2026-08-17T11:02:46Z</time>
      </trkpt>
      <trkpt lat="41.40132685408950" lon="-81.73886893500864">
        <ele>267.4508432023</ele>
        <time>2026-08-17T11:03:32Z</time>
      </trkpt>
      <trkpt lat="41.40133682281400" lon="-81.73946468300410">
        <ele>267.3532561791</ele>
        <time>2026-08-17T11:04:29Z</time>
      </trkpt>
      <trkpt lat="41.40133388231568" lon="-81.74006625447521">
        <ele>266.4898838172</ele>
        <time>2026-08-17T11:05:08Z</time>
      </trkpt>
      <trkpt lat="41.40134120327444" lon="-81.74021077026087">
        <ele>266.4825848746</ele>
        <time>2026-08-17T11:05:15Z</time>
      </trkpt>
    </trkseg>
  </trk>
</gpx>