<?xml version='1.0' encoding='UTF-8'?>
<gpx xmlns="http://www.topografix.com/GPX/1/1" creator="https://gpx.studio" version="1.1">
  <metadata>
    <name>Dog Walk - 2026-04-19 #3</name>
  </metadata>
  <trk>
    <name>Dog Walk - 2026-04-19 #3</name>
    <type>dog walk</type>
    <trkseg>
      <trkpt lat="41.40134187732422" lon="-81.74022988500650">
        <ele>266.6506170836</ele>
        <time>2026-04-19T14:24:37Z</time>
      </trkpt>
      <trkpt lat="41.40134741244828" lon="-81.74083727620504">
        <ele>266.3030388027</ele>
        <time>2026-04-19T14:25:16Z</time>
      </trkpt>
      <trkpt lat="41.40133807673360" lon="-81.74143288140488">
        <ele>265.7980377726</ele>
        <time>2026-04-19T14:25:51Z</time>
      </trkpt>
      <trkpt lat="41.40135519943260" lon="-81.74203612564604">
        <ele>265.4164741794</ele>
        <time>2026-04-19T14:26:46Z</time>
      </trkpt>
      <trkpt lat="41.40134689292532" lon="-81.74241815197414">
        <ele>264.8513434145</ele>
        <time>2026-04-19T14:27:05Z</time>
      </trkpt>
      <trkpt lat="41.40178315361103" lon="-81.74261652994424">
        <ele>264.1858217628</ele>
        <time>2026-04-19T14:27:47Z</time>
      </trkpt>
      <trkpt lat="41.40220236386124" lon="-81.74282161780857">
        <ele>263.2147348883</ele>
        <time>2026-04-19T14:28:53Z</time>
      </trkpt>
      <trkpt lat="41.40261882879750" lon="-81.74301329469984">
        <ele>263.3035007091</ele>
        <time>2026-04-19T14:29:28Z</time>
      </trkpt>
      <trkpt lat="41.40304656056223" lon="-81.74322286512636">
        <ele>262.3426795851</ele>
        <time>2026-04-19T14:30:01Z</time>
      </trkpt>
      <trkpt lat="41.40311913007328" lon="-81.74325052461397">
        <ele>262.3942709432</ele>
        <time>2026-04-19T14:30:07Z</time>
      </trkpt>
      <trkpt lat="41.40311013931188" lon="-81.74265067713942">
        <ele>262.9204606057</ele>
        <time>2026-04-19T14:30:45Z</time>
      </trkpt>
      <trkpt lat="41.40310981184101" lon="-81.74204499434862">
        <ele>263.6804491480</ele>
        <time>2026-04-19T14:31:50Z</time>
      </trkpt>
      <trkpt lat="41.40310840139063" lon="-81.74145682235046">
        <ele>264.3849225509</ele>
        <time>2026-04-19T14:32:23Z</time>
      </trkpt>
      <trkpt lat="41.40310718018664" lon="-81.74085246640648">
        <ele>264.8408320483</ele>
        <time>2026-04-19T14:33:03Z</time>
      </trkpt>
      <trkpt lat="41.40310108150389" lon="-81.74026401395548">
        <ele>265.5430967019</ele>
        <time>2026-04-19T14:33:42Z</time>
      </trkpt>
      <trkpt lat="41.40310006055706" lon="-81.73965833265669">
        <ele>265.7842790720</ele>
        <time>2026-04-19T14:34:11Z</time>
      </trkpt>
      <trkpt lat="41.40310806571667" lon="-81.73905043007321">
        <ele>266.2044190763</ele>
        <time>2026-04-19T14:34:43Z</time>
      </trkpt>
      <trkpt lat="41.40309241254053" lon="-81.73878355941790">
        <ele>266.2259681443</ele>
        <time>2026-04-19T14:34:57Z</time>
      </trkpt>
      <trkpt lat="41.40264597357567" lon="-81.73878419865277">
        <ele>266.7624910446</ele>
        <time>2026-04-19T14:35:45Z</time>
      </trkpt>
      <trkpt lat="41.40222636852158" lon="-81.73877737873171">
        <ele>266.7566829000</ele>
        <time>2026-04-19T14:36:25Z</time>
      </trkpt>
      <trkpt lat="41.40222989832231" lon="-81.73818074431348">
        <ele>267.0045094736</ele>
        <time>2026-04-19T14:37:01Z</time>
      </trkpt>
      <trkpt lat="41.40223237078727" lon="-81.73757006140988">
        <ele>267.0999119798</ele>
        <time>2026-04-19T14:37:41Z</time>
      </trkpt>
      <trkpt lat="41.40222876475525" lon="-81.73697749060156">
        <ele>267.0312908911</ele>
        <time>2026-04-19T14:38:16Z</time>
      </trkpt>
      <trkpt lat="41.40222634288686" lon="-81.73638553542064">
        <ele>267.2864084636</ele>
        <time>2026-04-19T14:39:01Z</time>
      </trkpt>
      <trkpt lat="41.40223182182650" lon="-81.73577780141784">
        <ele>267.2963561158</ele>
        <time>2026-04-19T14:39:49Z</time>
      </trkpt>
      <trkpt lat="41.40222434872544" lon="-81.73518263214994">
        <ele>267.0624475807</ele>
        <time>2026-04-19T14:40:25Z</time>
      </trkpt>
      <trkpt lat="41.40222494664192" lon="-81.73464310363927">
        <ele>267.3708155613</ele>
        <time>2026-04-19T14:41:01Z</time>
      </trkpt>
      <trkpt lat="41.40177307778838" lon="-81.73465338898488">
        <ele>267.1514711808</ele>
        <time>2026-04-19T14:41:39Z</time>
      </trkpt>
      <trkpt lat="41.40132536192606" lon="-81.73463731828261">
        <ele>267.4141573980</ele>
        <time>2026-04-19T14:42:15Z</time>
      </trkpt>
      <trkpt lat="41.40131479705057" lon="-81.73463637284752">
        <ele>267.1136048222</ele>
        <time>2026-04-19T14:42:16Z</time>
      </trkpt>
      <trkpt lat="41.40132200769136" lon="-81.73523954371728">
        <ele>267.8660491892</ele>
        <time>2026-04-19T14:43:00Z</time>
      </trkpt>
      <trkpt lat="41.40131446652506" lon="-81.73584141134917">
        <ele>268.2140452379</ele>
        <time>2026-04-19T14:43:43Z</time>
      </trkpt>
      <trkpt lat="41.40131878438139" lon="-81.73643095709319">
        <ele>268.2459411360</ele>
        <time>2026-04-19T14:44:17Z</time>
      </trkpt>
      <trkpt lat="41.40133351962729" lon="-81.73703949416405">
        <ele>267.8496972483</ele>
        <time>2026-04-19T14:44:53Z</time>
      </trkpt>
      <trkpt lat="41.40133068567324" lon="-81.73764980388127">
        <ele>267.9858622599</ele>
        <time>2026-04-19T14:45:33Z</time>
      </trkpt>
      <trkpt lat="41.40134600995366" lon="-81.73823238919091">
        <ele>267.5824391361</ele>
        <time>2026-04-19T14:46:12Z</time>
      </trkpt>
      <trkpt lat="41.40133706688373" lon="-81.73884097273805">
        <ele>267.4280011959</ele>
        <time>2026-04-19T14:46:43Z</time>
      </trkpt>
      <trkpt lat="41.40134208660738" lon="-81.73944174301489">
        <ele>267.0007619460</ele>
        <time>2026-04-19T14:47:26Z</time>
      </trkpt>
      <trkpt lat="41.40134614436128" lon="-81.74002991084778">
        <ele>266.6886051436</ele>
        <time>2026-04-19T14:48:01Z</time>
      </trkpt>
      <trkpt lat="41.40133995463383" lon="-81.74016674314508">
        <ele>266.6092630834</ele>
        <time>2026-04-19T14:48:09Z</time>
      </trkpt>
    </trkseg>
  </trk>
</gpx>