<?xml version='1.0' encoding='UTF-8'?>
<gpx xmlns="http://www.topografix.com/GPX/1/1" creator="https://gpx.studio" version="1.1">
  <metadata>
    <name>Dog Walk - 2026-08-03 #5</name>
  </metadata>
  <trk>
    <name>Dog Walk - 2026-08-03 #5</name>
    <type>dog walk</type>
    <trkseg>
      <trkpt lat="41.40134296243493" lon="-81.74023490655026">
        <ele>266.5304081657</ele>
        <time>2026-08-03T20:11:25Z</time>
      </trkpt>
      <trkpt lat="41.40134682888257" lon="-81.74082842751353">
        <ele>266.1810982467</ele>
        <time>2026-08-03T20:12:12Z</time>
      </trkpt>
      <trkpt lat="41.40134747293170" lon="-81.74144439053475">
        <ele>265.6331257768</ele>
        <time>2026-08-03T20:12:57Z</time>
      </trkpt>
      <trkpt lat="41.40134370850577" lon="-81.74202890793835">
        <ele>265.4104868613</ele>
        <time>2026-08-03T20:13:35Z</time>
      </trkpt>
      <trkpt lat="41.40134833260267" lon="-81.74241751547865">
        <ele>264.6427540376</ele>
        <time>2026-08-03T20:14:05Z</time>
      </trkpt>
      <trkpt lat="41.40177104458240" lon="-81.74263293832833">
        <ele>264.2879208038</ele>
        <time>2026-08-03T20:14:38Z</time>
      </trkpt>
      <trkpt lat="41.40219925674069" lon="-81.74281929724586">
        <ele>263.5263556355</ele>
        <time>2026-08-03T20:15:32Z</time>
      </trkpt>
      <trkpt lat="41.40261568806054" lon="-81.74301796901563">
        <ele>262.8439680357</ele>
        <time>2026-08-03T20:16:06Z</time>
      </trkpt>
      <trkpt lat="41.40304141214774" lon="-81.74322239606919">
        <ele>262.5324586008</ele>
        <time>2026-08-03T20:16:40Z</time>
      </trkpt>
      <trkpt lat="41.40311570960567" lon="-81.74323862135590">
        <ele>262.3362172273</ele>
        <time>2026-08-03T20:16:46Z</time>
      </trkpt>
      <trkpt lat="41.40312014182177" lon="-81.74265527005889">
        <ele>263.2461620620</ele>
        <time>2026-08-03T20:17:35Z</time>
      </trkpt>
      <trkpt lat="41.40310695555634" lon="-81.74205763911257">
        <ele>263.6835447752</ele>
        <time>2026-08-03T20:18:15Z</time>
      </trkpt>
      <trkpt lat="41.40310416265082" lon="-81.74144652768268">
        <ele>264.0084537472</ele>
        <time>2026-08-03T20:19:31Z</time>
      </trkpt>
      <trkpt lat="41.40310925392866" lon="-81.74085114898128">
        <ele>264.8249748497</ele>
        <time>2026-08-03T20:20:25Z</time>
      </trkpt>
      <trkpt lat="41.40310469011811" lon="-81.74026008272092">
        <ele>265.5901615356</ele>
        <time>2026-08-03T20:21:05Z</time>
      </trkpt>
      <trkpt lat="41.40309380052964" lon="-81.73965595549376">
        <ele>265.9484184050</ele>
        <time>2026-08-03T20:21:47Z</time>
      </trkpt>
      <trkpt lat="41.40310002521917" lon="-81.73905919046545">
        <ele>266.2509272009</ele>
        <time>2026-08-03T20:22:33Z</time>
      </trkpt>
      <trkpt lat="41.40309893161091" lon="-81.73878699177259">
        <ele>266.0429325260</ele>
        <time>2026-08-03T20:22:53Z</time>
      </trkpt>
      <trkpt lat="41.40264339554244" lon="-81.73877918940656">
        <ele>266.5176733718</ele>
        <time>2026-08-03T20:23:33Z</time>
      </trkpt>
      <trkpt lat="41.40223368940621" lon="-81.73877858736731">
        <ele>267.0880462351</ele>
        <time>2026-08-03T20:24:03Z</time>
      </trkpt>
      <trkpt lat="41.40222846627606" lon="-81.73818106963667">
        <ele>267.0799297789</ele>
        <time>2026-08-03T20:24:48Z</time>
      </trkpt>
      <trkpt lat="41.40222832164125" lon="-81.73758567799331">
        <ele>267.0877202902</ele>
        <time>2026-08-03T20:25:29Z</time>
      </trkpt>
      <trkpt lat="41.40223342700212" lon="-81.73697583859958">
        <ele>267.1125288995</ele>
        <time>2026-08-03T20:26:09Z</time>
      </trkpt>
      <trkpt lat="41.40222776922896" lon="-81.73637951252752">
        <ele>267.4073147302</ele>
        <time>2026-08-03T20:27:08Z</time>
      </trkpt>
      <trkpt lat="41.40221776141729" lon="-81.73578713216786">
        <ele>267.2075222930</ele>
        <time>2026-08-03T20:28:00Z</time>
      </trkpt>
      <trkpt lat="41.40222577145365" lon="-81.73518880311927">
        <ele>267.0268641931</ele>
        <time>2026-08-03T20:28:40Z</time>
      </trkpt>
      <trkpt lat="41.40222220460009" lon="-81.73465489911366">
        <ele>267.0930971716</ele>
        <time>2026-08-03T20:29:26Z</time>
      </trkpt>
      <trkpt lat="41.40177365752703" lon="-81.73464305686169">
        <ele>267.3123364674</ele>
        <time>2026-08-03T20:30:05Z</time>
      </trkpt>
      <trkpt lat="41.40132810352560" lon="-81.73463499104122">
        <ele>267.5551170427</ele>
        <time>2026-08-03T20:30:44Z</time>
      </trkpt>
      <trkpt lat="41.40130687208124" lon="-81.73463523724523">
        <ele>267.3087671944</ele>
        <time>2026-08-03T20:30:46Z</time>
      </trkpt>
      <trkpt lat="41.40131973031602" lon="-81.73522864534635">
        <ele>267.9811714097</ele>
        <time>2026-08-03T20:31:26Z</time>
      </trkpt>
      <trkpt lat="41.40132609555420" lon="-81.73583741572527">
        <ele>268.0458532865</ele>
        <time>2026-08-03T20:32:03Z</time>
      </trkpt>
      <trkpt lat="41.40133290135063" lon="-81.73644233650288">
        <ele>268.1504833552</ele>
        <time>2026-08-03T20:32:56Z</time>
      </trkpt>
      <trkpt lat="41.40132850749110" lon="-81.73703381528844">
        <ele>267.8195703771</ele>
        <time>2026-08-03T20:33:47Z</time>
      </trkpt>
      <trkpt lat="41.40133817486903" lon="-81.73763670136788">
        <ele>268.0453930456</ele>
        <time>2026-08-03T20:34:25Z</time>
      </trkpt>
      <trkpt lat="41.40134312898771" lon="-81.73823964852311">
        <ele>267.6694875986</ele>
        <time>2026-08-03T20:35:04Z</time>
      </trkpt>
      <trkpt lat="41.40133724026972" lon="-81.73882062916300">
        <ele>267.5243435031</ele>
        <time>2026-08-03T20:35:50Z</time>
      </trkpt>
      <trkpt lat="41.40134370914965" lon="-81.73943020982892">
        <ele>267.0656657976</ele>
        <time>2026-08-03T20:36:27Z</time>
      </trkpt>
      <trkpt lat="41.40134495117708" lon="-81.74003300759669">
        <ele>266.5184646286</ele>
        <time>2026-08-03T20:37:21Z</time>
      </trkpt>
      <trkpt lat="41.40133528782760" lon="-81.74016315320395">
        <ele>266.4078782362</ele>
        <time>2026-08-03T20:37:31Z</time>
      </trkpt>
    </trkseg>
  </trk>
</gpx>