<?xml version='1.0' encoding='UTF-8'?>
<gpx xmlns="http://www.topografix.com/GPX/1/1" creator="https://gpx.studio" version="1.1">
  <metadata>
    <name>Dog Walk - 2026-08-07 #5</name>
  </metadata>
  <trk>
    <name>Dog Walk - 2026-08-07 #5</name>
    <type>dog walk</type>
    <trkseg>
      <trkpt lat="41.40133236312558" lon="-81.74023488339567">
        <ele>266.5539436904</ele>
        <time>2026-08-07T20:59:19Z</time>
      </trkpt>
      <trkpt lat="41.40134175531884" lon="-81.74083766088984">
        <ele>266.3981440788</ele>
        <time>2026-08-07T20:59:52Z</time>
      </trkpt>
      <trkpt lat="41.40134071743734" lon="-81.74142248933015">
        <ele>265.7088162171</ele>
        <time>2026-08-07T21:00:30Z</time>
      </trkpt>
      <trkpt lat="41.40134546522237" lon="-81.74202218234527">
        <ele>265.1209638530</ele>
        <time>2026-08-07T21:01:30Z</time>
      </trkpt>
      <trkpt lat="41.40135188893166" lon="-81.74242294976447">
        <ele>264.7939475390</ele>
        <time>2026-08-07T21:01:55Z</time>
      </trkpt>
      <trkpt lat="41.40177547196104" lon="-81.74262163821334">
        <ele>264.3086509748</ele>
        <time>2026-08-07T21:02:32Z</time>
      </trkpt>
      <trkpt lat="41.40218717523678" lon="-81.74283678586706">
        <ele>263.5315643266</ele>
        <time>2026-08-07T21:03:02Z</time>
      </trkpt>
      <trkpt lat="41.40260695515106" lon="-81.74306147113299">
        <ele>263.0201251368</ele>
        <time>2026-08-07T21:03:48Z</time>
      </trkpt>
      <trkpt lat="41.40302446839509" lon="-81.74326582415071">
        <ele>262.4220777157</ele>
        <time>2026-08-07T21:04:41Z</time>
      </trkpt>
      <trkpt lat="41.40345013380463" lon="-81.74348607598795">
        <ele>261.8924083246</ele>
        <time>2026-08-07T21:05:31Z</time>
      </trkpt>
      <trkpt lat="41.40349137279802" lon="-81.74350975999069">
        <ele>261.6559343119</ele>
        <time>2026-08-07T21:05:35Z</time>
      </trkpt>
      <trkpt lat="41.40359885567113" lon="-81.74352562655780">
        <ele>261.7066326013</ele>
        <time>2026-08-07T21:05:45Z</time>
      </trkpt>
      <trkpt lat="41.40399859926502" lon="-81.74351112559084">
        <ele>260.7839216372</ele>
        <time>2026-08-07T21:06:26Z</time>
      </trkpt>
      <trkpt lat="41.40399556982084" lon="-81.74290498957345">
        <ele>261.5618249214</ele>
        <time>2026-08-07T21:07:06Z</time>
      </trkpt>
      <trkpt lat="41.40399514307684" lon="-81.74230988137472">
        <ele>262.0310322938</ele>
        <time>2026-08-07T21:07:43Z</time>
      </trkpt>
      <trkpt lat="41.40399248461848" lon="-81.74170361438216">
        <ele>262.3439984615</ele>
        <time>2026-08-07T21:08:19Z</time>
      </trkpt>
      <trkpt lat="41.40399245899918" lon="-81.74111868938672">
        <ele>262.8998750378</ele>
        <time>2026-08-07T21:09:02Z</time>
      </trkpt>
      <trkpt lat="41.40398386237806" lon="-81.74051725537920">
        <ele>263.4281205699</ele>
        <time>2026-08-07T21:09:44Z</time>
      </trkpt>
      <trkpt lat="41.40398755347255" lon="-81.73991348666368">
        <ele>264.3617315017</ele>
        <time>2026-08-07T21:10:24Z</time>
      </trkpt>
      <trkpt lat="41.40398374672289" lon="-81.73931010529782">
        <ele>265.0685329128</ele>
        <time>2026-08-07T21:11:02Z</time>
      </trkpt>
      <trkpt lat="41.40398833689942" lon="-81.73877710283490">
        <ele>265.3459181851</ele>
        <time>2026-08-07T21:11:40Z</time>
      </trkpt>
      <trkpt lat="41.40354234442670" lon="-81.73877460033944">
        <ele>265.9174837036</ele>
        <time>2026-08-07T21:12:27Z</time>
      </trkpt>
      <trkpt lat="41.40308340201310" lon="-81.73878011051980">
        <ele>266.3341429260</ele>
        <time>2026-08-07T21:13:01Z</time>
      </trkpt>
      <trkpt lat="41.40263626791916" lon="-81.73877233640218">
        <ele>266.7362749077</ele>
        <time>2026-08-07T21:13:33Z</time>
      </trkpt>
      <trkpt lat="41.40222783037868" lon="-81.73876883842932">
        <ele>267.0726765307</ele>
        <time>2026-08-07T21:14:13Z</time>
      </trkpt>
      <trkpt lat="41.40222244970553" lon="-81.73827493593322">
        <ele>267.1962610968</ele>
        <time>2026-08-07T21:14:59Z</time>
      </trkpt>
      <trkpt lat="41.40176369454166" lon="-81.73826030971532">
        <ele>267.7696453507</ele>
        <time>2026-08-07T21:15:43Z</time>
      </trkpt>
      <trkpt lat="41.40134097231194" lon="-81.73827017586021">
        <ele>267.5943730753</ele>
        <time>2026-08-07T21:16:20Z</time>
      </trkpt>
      <trkpt lat="41.40133180063975" lon="-81.73886653097813">
        <ele>267.3390344532</ele>
        <time>2026-08-07T21:17:27Z</time>
      </trkpt>
      <trkpt lat="41.40132764887366" lon="-81.73947364818164">
        <ele>267.3119698479</ele>
        <time>2026-08-07T21:18:23Z</time>
      </trkpt>
      <trkpt lat="41.40134324919128" lon="-81.74007035679006">
        <ele>266.5738683332</ele>
        <time>2026-08-07T21:19:03Z</time>
      </trkpt>
      <trkpt lat="41.40134409856059" lon="-81.74020617719120">
        <ele>266.5195422099</ele>
        <time>2026-08-07T21:19:12Z</time>
      </trkpt>
    </trkseg>
  </trk>
</gpx>