<?xml version='1.0' encoding='UTF-8'?>
<gpx xmlns="http://www.topografix.com/GPX/1/1" creator="https://gpx.studio" version="1.1">
  <metadata>
    <name>Dog Walk - 2026-07-01 #1</name>
  </metadata>
  <trk>
    <name>Dog Walk - 2026-07-01 #1</name>
    <type>dog walk</type>
    <trkseg>
      <trkpt lat="41.40133386222141" lon="-81.74025339893255">
        <ele>266.6668239604</ele>
        <time>2026-07-01T08:02:57Z</time>
      </trkpt>
      <trkpt lat="41.40132707262345" lon="-81.74024667855734">
        <ele>266.5821768965</ele>
        <time>2026-07-01T08:03:13Z</time>
      </trkpt>
      <trkpt lat="41.40133125724792" lon="-81.74085546927562">
        <ele>266.3656081519</ele>
        <time>2026-07-01T08:03:47Z</time>
      </trkpt>
      <trkpt lat="41.40132748616840" lon="-81.74145344968491">
        <ele>265.8979737271</ele>
        <time>2026-07-01T08:04:18Z</time>
      </trkpt>
      <trkpt lat="41.40131905949919" lon="-81.74206166451445">
        <ele>265.5739314231</ele>
        <time>2026-07-01T08:04:55Z</time>
      </trkpt>
      <trkpt lat="41.40131834941957" lon="-81.74238240873724">
        <ele>264.9275017949</ele>
        <time>2026-07-01T08:05:37Z</time>
      </trkpt>
      <trkpt lat="41.40132386945946" lon="-81.74238304169170">
        <ele>264.9653942637</ele>
        <time>2026-07-01T08:05:52Z</time>
      </trkpt>
      <trkpt lat="41.40089497142078" lon="-81.74217973068629">
        <ele>265.2521156551</ele>
        <time>2026-07-01T08:06:28Z</time>
      </trkpt>
      <trkpt lat="41.40047580813034" lon="-81.74199234476943">
        <ele>265.2730539268</ele>
        <time>2026-07-01T08:07:06Z</time>
      </trkpt>
      <trkpt lat="41.40004433993138" lon="-81.74181212999295">
        <ele>265.4947762516</ele>
        <time>2026-07-01T08:07:53Z</time>
      </trkpt>
      <trkpt lat="41.39961629306255" lon="-81.74160139574121">
        <ele>264.6914532514</ele>
        <time>2026-07-01T08:08:55Z</time>
      </trkpt>
      <trkpt lat="41.39954719380246" lon="-81.74156753291558">
        <ele>264.7909680879</ele>
        <time>2026-07-01T08:09:03Z</time>
      </trkpt>
      <trkpt lat="41.39955296084673" lon="-81.74096405538606">
        <ele>265.7742960167</ele>
        <time>2026-07-01T08:09:44Z</time>
      </trkpt>
      <trkpt lat="41.39954048629637" lon="-81.74037330467148">
        <ele>265.9469978792</ele>
        <time>2026-07-01T08:10:23Z</time>
      </trkpt>
      <trkpt lat="41.39953442621395" lon="-81.73978926936368">
        <ele>266.6115609425</ele>
        <time>2026-07-01T08:11:00Z</time>
      </trkpt>
      <trkpt lat="41.39953620626981" lon="-81.73918045547140">
        <ele>266.9434952690</ele>
        <time>2026-07-01T08:11:37Z</time>
      </trkpt>
      <trkpt lat="41.39953489760719" lon="-81.73858191688842">
        <ele>266.9200886597</ele>
        <time>2026-07-01T08:12:13Z</time>
      </trkpt>
      <trkpt lat="41.39953635179890" lon="-81.73828703994202">
        <ele>266.9871734958</ele>
        <time>2026-07-01T08:12:41Z</time>
      </trkpt>
      <trkpt lat="41.39952616038683" lon="-81.73830911882825">
        <ele>266.7763407799</ele>
        <time>2026-07-01T08:12:43Z</time>
      </trkpt>
      <trkpt lat="41.39999032533201" lon="-81.73829406197878">
        <ele>267.2331764121</ele>
        <time>2026-07-01T08:13:24Z</time>
      </trkpt>
      <trkpt lat="41.40043914702003" lon="-81.73829727535917">
        <ele>267.3700908104</ele>
        <time>2026-07-01T08:14:06Z</time>
      </trkpt>
      <trkpt lat="41.40088129383692" lon="-81.73830182583235">
        <ele>267.3045761344</ele>
        <time>2026-07-01T08:15:15Z</time>
      </trkpt>
      <trkpt lat="41.40132613222255" lon="-81.73830440424661">
        <ele>267.4099680300</ele>
        <time>2026-07-01T08:15:53Z</time>
      </trkpt>
      <trkpt lat="41.40133371529148" lon="-81.73889439259253">
        <ele>267.3812547595</ele>
        <time>2026-07-01T08:16:40Z</time>
      </trkpt>
      <trkpt lat="41.40133689829091" lon="-81.73950527960187">
        <ele>267.3204288599</ele>
        <time>2026-07-01T08:17:23Z</time>
      </trkpt>
      <trkpt lat="41.40133488736925" lon="-81.74010317423249">
        <ele>266.6111737026</ele>
        <time>2026-07-01T08:17:57Z</time>
      </trkpt>
      <trkpt lat="41.40134060958982" lon="-81.74015112148815">
        <ele>266.4956265478</ele>
        <time>2026-07-01T08:18:00Z</time>
      </trkpt>
    </trkseg>
  </trk>
</gpx>