<?xml version='1.0' encoding='UTF-8'?>
<gpx xmlns="http://www.topografix.com/GPX/1/1" creator="https://gpx.studio" version="1.1">
  <metadata>
    <name>Dog Walk - 2026-07-01 #3</name>
  </metadata>
  <trk>
    <name>Dog Walk - 2026-07-01 #3</name>
    <type>dog walk</type>
    <trkseg>
      <trkpt lat="41.40133864610367" lon="-81.74022909446134">
        <ele>266.3931588054</ele>
        <time>2026-07-01T13:39:08Z</time>
      </trkpt>
      <trkpt lat="41.40134439938910" lon="-81.74083339674057">
        <ele>266.2049667176</ele>
        <time>2026-07-01T13:39:42Z</time>
      </trkpt>
      <trkpt lat="41.40134147667974" lon="-81.74143157196796">
        <ele>265.8853321875</ele>
        <time>2026-07-01T13:40:13Z</time>
      </trkpt>
      <trkpt lat="41.40134856214047" lon="-81.74203294138722">
        <ele>265.3095223730</ele>
        <time>2026-07-01T13:41:15Z</time>
      </trkpt>
      <trkpt lat="41.40135220858017" lon="-81.74241426162484">
        <ele>264.6275592893</ele>
        <time>2026-07-01T13:41:35Z</time>
      </trkpt>
      <trkpt lat="41.40177338651652" lon="-81.74264178694011">
        <ele>264.4060264434</ele>
        <time>2026-07-01T13:42:22Z</time>
      </trkpt>
      <trkpt lat="41.40218945321112" lon="-81.74285433148381">
        <ele>263.5241486460</ele>
        <time>2026-07-01T13:43:00Z</time>
      </trkpt>
      <trkpt lat="41.40221797090658" lon="-81.74286835753099">
        <ele>263.5467650139</ele>
        <time>2026-07-01T13:43:03Z</time>
      </trkpt>
      <trkpt lat="41.40221877051346" lon="-81.74226794379973">
        <ele>264.3315526272</ele>
        <time>2026-07-01T13:43:45Z</time>
      </trkpt>
      <trkpt lat="41.40221676487505" lon="-81.74167043094185">
        <ele>264.9180828529</ele>
        <time>2026-07-01T13:44:22Z</time>
      </trkpt>
      <trkpt lat="41.40221210865964" lon="-81.74107344380488">
        <ele>265.5139907525</ele>
        <time>2026-07-01T13:45:06Z</time>
      </trkpt>
      <trkpt lat="41.40221513442588" lon="-81.74046744969478">
        <ele>265.9916716054</ele>
        <time>2026-07-01T13:45:55Z</time>
      </trkpt>
      <trkpt lat="41.40222091872089" lon="-81.73987811276899">
        <ele>266.8356398692</ele>
        <time>2026-07-01T13:46:33Z</time>
      </trkpt>
      <trkpt lat="41.40222991129602" lon="-81.73926615389730">
        <ele>267.1100565529</ele>
        <time>2026-07-01T13:47:11Z</time>
      </trkpt>
      <trkpt lat="41.40221511827794" lon="-81.73866394132614">
        <ele>267.2418736163</ele>
        <time>2026-07-01T13:47:50Z</time>
      </trkpt>
      <trkpt lat="41.40222139739461" lon="-81.73827504228322">
        <ele>267.1550723192</ele>
        <time>2026-07-01T13:48:16Z</time>
      </trkpt>
      <trkpt lat="41.40178366149415" lon="-81.73826941365927">
        <ele>267.7211487827</ele>
        <time>2026-07-01T13:49:03Z</time>
      </trkpt>
      <trkpt lat="41.40134085023040" lon="-81.73826022123535">
        <ele>267.6526339428</ele>
        <time>2026-07-01T13:49:43Z</time>
      </trkpt>
      <trkpt lat="41.40133634125002" lon="-81.73885848395244">
        <ele>267.4612321069</ele>
        <time>2026-07-01T13:50:33Z</time>
      </trkpt>
      <trkpt lat="41.40133287345802" lon="-81.73946071083869">
        <ele>267.3403487628</ele>
        <time>2026-07-01T13:52:00Z</time>
      </trkpt>
      <trkpt lat="41.40134388545511" lon="-81.74006257243030">
        <ele>266.6233117848</ele>
        <time>2026-07-01T13:52:40Z</time>
      </trkpt>
      <trkpt lat="41.40134280650846" lon="-81.74018400065685">
        <ele>266.4954818071</ele>
        <time>2026-07-01T13:52:49Z</time>
      </trkpt>
    </trkseg>
  </trk>
</gpx>