<?xml version='1.0' encoding='UTF-8'?>
<gpx xmlns="http://www.topografix.com/GPX/1/1" creator="https://gpx.studio" version="1.1">
  <metadata>
    <name>Dog Walk - 2026-08-15 #3</name>
  </metadata>
  <trk>
    <name>Dog Walk - 2026-08-15 #3</name>
    <type>dog walk</type>
    <trkseg>
      <trkpt lat="41.40134521824081" lon="-81.74023248230397">
        <ele>266.6014224212</ele>
        <time>2026-08-15T18:02:11Z</time>
      </trkpt>
      <trkpt lat="41.40133680338639" lon="-81.74083252732932">
        <ele>266.4468905347</ele>
        <time>2026-08-15T18:02:41Z</time>
      </trkpt>
      <trkpt lat="41.40133406659832" lon="-81.74144273855215">
        <ele>265.6950635441</ele>
        <time>2026-08-15T18:03:32Z</time>
      </trkpt>
      <trkpt lat="41.40133146217411" lon="-81.74202436780055">
        <ele>265.3025258006</ele>
        <time>2026-08-15T18:04:11Z</time>
      </trkpt>
      <trkpt lat="41.40132791337258" lon="-81.74238063202966">
        <ele>264.6192790410</ele>
        <time>2026-08-15T18:04:31Z</time>
      </trkpt>
      <trkpt lat="41.40091195499878" lon="-81.74218203633633">
        <ele>265.1382440514</ele>
        <time>2026-08-15T18:05:20Z</time>
      </trkpt>
      <trkpt lat="41.40048387738001" lon="-81.74196549115057">
        <ele>265.4461023483</ele>
        <time>2026-08-15T18:05:58Z</time>
      </trkpt>
      <trkpt lat="41.40044980800563" lon="-81.74193852375215">
        <ele>265.2306437846</ele>
        <time>2026-08-15T18:06:01Z</time>
      </trkpt>
      <trkpt lat="41.40044212444771" lon="-81.74135298075785">
        <ele>266.1524521547</ele>
        <time>2026-08-15T18:06:52Z</time>
      </trkpt>
      <trkpt lat="41.40043827387021" lon="-81.74073985898862">
        <ele>266.3909804165</ele>
        <time>2026-08-15T18:07:32Z</time>
      </trkpt>
      <trkpt lat="41.40043531564167" lon="-81.74014642144256">
        <ele>266.6297927515</ele>
        <time>2026-08-15T18:08:20Z</time>
      </trkpt>
      <trkpt lat="41.40043953611668" lon="-81.73955554010108">
        <ele>266.8096029377</ele>
        <time>2026-08-15T18:08:58Z</time>
      </trkpt>
      <trkpt lat="41.40042382547398" lon="-81.73895052625120">
        <ele>266.8494044654</ele>
        <time>2026-08-15T18:09:50Z</time>
      </trkpt>
      <trkpt lat="41.40042226308921" lon="-81.73836172340972">
        <ele>267.3779942875</ele>
        <time>2026-08-15T18:10:29Z</time>
      </trkpt>
      <trkpt lat="41.40041406398410" lon="-81.73775048455188">
        <ele>267.4224264765</ele>
        <time>2026-08-15T18:11:22Z</time>
      </trkpt>
      <trkpt lat="41.40041382462022" lon="-81.73715315550434">
        <ele>267.8853737034</ele>
        <time>2026-08-15T18:11:58Z</time>
      </trkpt>
      <trkpt lat="41.40040860355698" lon="-81.73656464129964">
        <ele>268.0126483574</ele>
        <time>2026-08-15T18:12:57Z</time>
      </trkpt>
      <trkpt lat="41.40039709450867" lon="-81.73595033941878">
        <ele>267.9502927164</ele>
        <time>2026-08-15T18:13:36Z</time>
      </trkpt>
      <trkpt lat="41.40039810894405" lon="-81.73537078162337">
        <ele>267.7037298467</ele>
        <time>2026-08-15T18:14:46Z</time>
      </trkpt>
      <trkpt lat="41.40039871354737" lon="-81.73475725520133">
        <ele>267.2939573449</ele>
        <time>2026-08-15T18:15:28Z</time>
      </trkpt>
      <trkpt lat="41.40039126639812" lon="-81.73462349529122">
        <ele>267.4133327970</ele>
        <time>2026-08-15T18:15:36Z</time>
      </trkpt>
      <trkpt lat="41.40084639970785" lon="-81.73462456015741">
        <ele>267.1739810142</ele>
        <time>2026-08-15T18:16:27Z</time>
      </trkpt>
      <trkpt lat="41.40128780956973" lon="-81.73463386979971">
        <ele>267.5704117119</ele>
        <time>2026-08-15T18:17:14Z</time>
      </trkpt>
      <trkpt lat="41.40132289425328" lon="-81.73462979381193">
        <ele>267.5660234052</ele>
        <time>2026-08-15T18:17:17Z</time>
      </trkpt>
      <trkpt lat="41.40132392947548" lon="-81.73523643589982">
        <ele>267.8318041127</ele>
        <time>2026-08-15T18:17:56Z</time>
      </trkpt>
      <trkpt lat="41.40132595893128" lon="-81.73584606186709">
        <ele>268.2236455557</ele>
        <time>2026-08-15T18:18:44Z</time>
      </trkpt>
      <trkpt lat="41.40133084350932" lon="-81.73642800373314">
        <ele>268.1415620775</ele>
        <time>2026-08-15T18:19:17Z</time>
      </trkpt>
      <trkpt lat="41.40132500770097" lon="-81.73702945488621">
        <ele>268.1425624743</ele>
        <time>2026-08-15T18:20:01Z</time>
      </trkpt>
      <trkpt lat="41.40133466776894" lon="-81.73762623652142">
        <ele>268.0787974137</ele>
        <time>2026-08-15T18:20:54Z</time>
      </trkpt>
      <trkpt lat="41.40133334823476" lon="-81.73823323819676">
        <ele>267.7754571877</ele>
        <time>2026-08-15T18:21:39Z</time>
      </trkpt>
      <trkpt lat="41.40134200516513" lon="-81.73883071151413">
        <ele>267.1011197416</ele>
        <time>2026-08-15T18:22:20Z</time>
      </trkpt>
      <trkpt lat="41.40134814284985" lon="-81.73942959216726">
        <ele>267.1419373563</ele>
        <time>2026-08-15T18:23:00Z</time>
      </trkpt>
      <trkpt lat="41.40134963623890" lon="-81.74002960858542">
        <ele>266.5859017693</ele>
        <time>2026-08-15T18:23:37Z</time>
      </trkpt>
      <trkpt lat="41.40135610322798" lon="-81.74018303118369">
        <ele>266.5995748663</ele>
        <time>2026-08-15T18:23:49Z</time>
      </trkpt>
    </trkseg>
  </trk>
</gpx>