<?xml version='1.0' encoding='UTF-8'?>
<gpx xmlns="http://www.topografix.com/GPX/1/1" creator="https://gpx.studio" version="1.1">
  <metadata>
    <name>Dog Walk - 2026-04-13 #5</name>
  </metadata>
  <trk>
    <name>Dog Walk - 2026-04-13 #5</name>
    <type>dog walk</type>
    <trkseg>
      <trkpt lat="41.40132971129677" lon="-81.74023803537693">
        <ele>266.6006020235</ele>
        <time>2026-04-13T19:30:40Z</time>
      </trkpt>
      <trkpt lat="41.40133602305884" lon="-81.74083566012767">
        <ele>266.2515920163</ele>
        <time>2026-04-13T19:31:16Z</time>
      </trkpt>
      <trkpt lat="41.40132317854867" lon="-81.74143309578972">
        <ele>265.9097190934</ele>
        <time>2026-04-13T19:32:12Z</time>
      </trkpt>
      <trkpt lat="41.40133913978943" lon="-81.74203998683913">
        <ele>265.5887282042</ele>
        <time>2026-04-13T19:32:55Z</time>
      </trkpt>
      <trkpt lat="41.40132948361154" lon="-81.74239371078274">
        <ele>264.8948082661</ele>
        <time>2026-04-13T19:33:28Z</time>
      </trkpt>
      <trkpt lat="41.40091424772172" lon="-81.74220268524910">
        <ele>265.1981175777</ele>
        <time>2026-04-13T19:34:12Z</time>
      </trkpt>
      <trkpt lat="41.40047305954537" lon="-81.74200105234979">
        <ele>265.0909029319</ele>
        <time>2026-04-13T19:34:50Z</time>
      </trkpt>
      <trkpt lat="41.40005244878667" lon="-81.74181060894171">
        <ele>265.4282710510</ele>
        <time>2026-04-13T19:35:28Z</time>
      </trkpt>
      <trkpt lat="41.39962561968328" lon="-81.74161332754292">
        <ele>264.6417085152</ele>
        <time>2026-04-13T19:36:01Z</time>
      </trkpt>
      <trkpt lat="41.39953808907428" lon="-81.74157296164779">
        <ele>264.7681128456</ele>
        <time>2026-04-13T19:36:09Z</time>
      </trkpt>
      <trkpt lat="41.39953122160963" lon="-81.74097023968254">
        <ele>265.7512233748</ele>
        <time>2026-04-13T19:36:41Z</time>
      </trkpt>
      <trkpt lat="41.39952786562834" lon="-81.74037989426330">
        <ele>266.1991311420</ele>
        <time>2026-04-13T19:37:26Z</time>
      </trkpt>
      <trkpt lat="41.39952856131450" lon="-81.73977411389968">
        <ele>266.6250267124</ele>
        <time>2026-04-13T19:38:09Z</time>
      </trkpt>
      <trkpt lat="41.39953064374517" lon="-81.73916970934788">
        <ele>266.9123783020</ele>
        <time>2026-04-13T19:38:48Z</time>
      </trkpt>
      <trkpt lat="41.39952706565666" lon="-81.73857277033464">
        <ele>266.7828592004</ele>
        <time>2026-04-13T19:39:38Z</time>
      </trkpt>
      <trkpt lat="41.39952299110689" lon="-81.73798080102992">
        <ele>267.2906852423</ele>
        <time>2026-04-13T19:40:21Z</time>
      </trkpt>
      <trkpt lat="41.39952666428118" lon="-81.73737591438508">
        <ele>267.3502640008</ele>
        <time>2026-04-13T19:41:03Z</time>
      </trkpt>
      <trkpt lat="41.39953060602970" lon="-81.73677485856722">
        <ele>267.3240812914</ele>
        <time>2026-04-13T19:41:41Z</time>
      </trkpt>
      <trkpt lat="41.39952472803130" lon="-81.73617427812420">
        <ele>267.5234166267</ele>
        <time>2026-04-13T19:42:25Z</time>
      </trkpt>
      <trkpt lat="41.39953041522977" lon="-81.73558756510366">
        <ele>267.2535317841</ele>
        <time>2026-04-13T19:43:04Z</time>
      </trkpt>
      <trkpt lat="41.39951912925078" lon="-81.73497847291341">
        <ele>267.1679796881</ele>
        <time>2026-04-13T19:43:42Z</time>
      </trkpt>
      <trkpt lat="41.39952951802190" lon="-81.73462596556273">
        <ele>267.2687511572</ele>
        <time>2026-04-13T19:44:08Z</time>
      </trkpt>
      <trkpt lat="41.39997869526009" lon="-81.73462772308130">
        <ele>267.3070241374</ele>
        <time>2026-04-13T19:44:42Z</time>
      </trkpt>
      <trkpt lat="41.40042444517577" lon="-81.73462960764432">
        <ele>267.3021205399</ele>
        <time>2026-04-13T19:45:29Z</time>
      </trkpt>
      <trkpt lat="41.40087329168382" lon="-81.73463409585791">
        <ele>267.0762116893</ele>
        <time>2026-04-13T19:46:20Z</time>
      </trkpt>
      <trkpt lat="41.40132430459352" lon="-81.73464760615894">
        <ele>267.3530808618</ele>
        <time>2026-04-13T19:47:07Z</time>
      </trkpt>
      <trkpt lat="41.40131654507446" lon="-81.73523601423997">
        <ele>267.9095098582</ele>
        <time>2026-04-13T19:47:49Z</time>
      </trkpt>
      <trkpt lat="41.40132004124716" lon="-81.73584006827583">
        <ele>268.2587014988</ele>
        <time>2026-04-13T19:48:32Z</time>
      </trkpt>
      <trkpt lat="41.40131898894740" lon="-81.73643663004923">
        <ele>268.0190513480</ele>
        <time>2026-04-13T19:49:11Z</time>
      </trkpt>
      <trkpt lat="41.40132430161096" lon="-81.73704619691998">
        <ele>268.0661521119</ele>
        <time>2026-04-13T19:49:49Z</time>
      </trkpt>
      <trkpt lat="41.40133253781121" lon="-81.73764136599621">
        <ele>268.0220342129</ele>
        <time>2026-04-13T19:50:25Z</time>
      </trkpt>
      <trkpt lat="41.40133288808066" lon="-81.73825016440998">
        <ele>267.6950956308</ele>
        <time>2026-04-13T19:50:58Z</time>
      </trkpt>
      <trkpt lat="41.40133206091058" lon="-81.73883168506758">
        <ele>267.2985187484</ele>
        <time>2026-04-13T19:52:16Z</time>
      </trkpt>
      <trkpt lat="41.40132865373943" lon="-81.73943590614041">
        <ele>267.2006574137</ele>
        <time>2026-04-13T19:52:50Z</time>
      </trkpt>
      <trkpt lat="41.40133436360695" lon="-81.74003032361443">
        <ele>266.7676377681</ele>
        <time>2026-04-13T19:53:39Z</time>
      </trkpt>
      <trkpt lat="41.40133590044918" lon="-81.74022262403733">
        <ele>266.4281245059</ele>
        <time>2026-04-13T19:53:53Z</time>
      </trkpt>
    </trkseg>
  </trk>
</gpx>