<?xml version='1.0' encoding='UTF-8'?>
<gpx xmlns="http://www.topografix.com/GPX/1/1" creator="https://gpx.studio" version="1.1">
  <metadata>
    <name>Dog Walk - 2026-03-31 #1</name>
  </metadata>
  <trk>
    <name>Dog Walk - 2026-03-31 #1</name>
    <type>dog walk</type>
    <trkseg>
      <trkpt lat="41.40134546566006" lon="-81.74024156093780">
        <ele>266.5533137403</ele>
        <time>2026-03-31T08:18:23Z</time>
      </trkpt>
      <trkpt lat="41.40133393427982" lon="-81.74083572395099">
        <ele>266.1503475862</ele>
        <time>2026-03-31T08:19:03Z</time>
      </trkpt>
      <trkpt lat="41.40135419393754" lon="-81.74143850747147">
        <ele>265.6206091569</ele>
        <time>2026-03-31T08:19:39Z</time>
      </trkpt>
      <trkpt lat="41.40134432033198" lon="-81.74202897930292">
        <ele>265.5418377733</ele>
        <time>2026-03-31T08:20:47Z</time>
      </trkpt>
      <trkpt lat="41.40134906510043" lon="-81.74241517166644">
        <ele>264.6160236727</ele>
        <time>2026-03-31T08:21:14Z</time>
      </trkpt>
      <trkpt lat="41.40177185883503" lon="-81.74263222152514">
        <ele>264.2421179861</ele>
        <time>2026-03-31T08:21:48Z</time>
      </trkpt>
      <trkpt lat="41.40218883863586" lon="-81.74284918572997">
        <ele>263.3864505471</ele>
        <time>2026-03-31T08:22:47Z</time>
      </trkpt>
      <trkpt lat="41.40221664463466" lon="-81.74286655173933">
        <ele>263.4261555196</ele>
        <time>2026-03-31T08:23:02Z</time>
      </trkpt>
      <trkpt lat="41.40222071501606" lon="-81.74226691279404">
        <ele>263.8362889687</ele>
        <time>2026-03-31T08:23:43Z</time>
      </trkpt>
      <trkpt lat="41.40222093227369" lon="-81.74167157666440">
        <ele>264.8777896788</ele>
        <time>2026-03-31T08:24:27Z</time>
      </trkpt>
      <trkpt lat="41.40222268787140" lon="-81.74107849297849">
        <ele>265.5678847332</ele>
        <time>2026-03-31T08:25:03Z</time>
      </trkpt>
      <trkpt lat="41.40222171756927" lon="-81.74046739252212">
        <ele>266.0150970907</ele>
        <time>2026-03-31T08:25:35Z</time>
      </trkpt>
      <trkpt lat="41.40222669305957" lon="-81.73986044942508">
        <ele>266.7101395441</ele>
        <time>2026-03-31T08:26:21Z</time>
      </trkpt>
      <trkpt lat="41.40221747136526" lon="-81.73927105910582">
        <ele>266.7393014919</ele>
        <time>2026-03-31T08:27:00Z</time>
      </trkpt>
      <trkpt lat="41.40222002567764" lon="-81.73868523361095">
        <ele>267.1119052787</ele>
        <time>2026-03-31T08:27:46Z</time>
      </trkpt>
      <trkpt lat="41.40222723882907" lon="-81.73826964299076">
        <ele>267.0255316374</ele>
        <time>2026-03-31T08:28:11Z</time>
      </trkpt>
      <trkpt lat="41.40176912105111" lon="-81.73826484475740">
        <ele>267.8630521790</ele>
        <time>2026-03-31T08:28:57Z</time>
      </trkpt>
      <trkpt lat="41.40133808928024" lon="-81.73826295762019">
        <ele>267.7458983233</ele>
        <time>2026-03-31T08:29:32Z</time>
      </trkpt>
      <trkpt lat="41.40133775881731" lon="-81.73886635398033">
        <ele>267.1964742889</ele>
        <time>2026-03-31T08:30:15Z</time>
      </trkpt>
      <trkpt lat="41.40133030342876" lon="-81.73946501189882">
        <ele>267.3560218890</ele>
        <time>2026-03-31T08:30:52Z</time>
      </trkpt>
      <trkpt lat="41.40134065004867" lon="-81.74007005264650">
        <ele>266.6165978695</ele>
        <time>2026-03-31T08:31:41Z</time>
      </trkpt>
      <trkpt lat="41.40133722466663" lon="-81.74018013370487">
        <ele>266.4829407348</ele>
        <time>2026-03-31T08:31:49Z</time>
      </trkpt>
    </trkseg>
  </trk>
</gpx>