<?xml version='1.0' encoding='UTF-8'?>
<gpx xmlns="http://www.topografix.com/GPX/1/1" creator="https://gpx.studio" version="1.1">
  <metadata>
    <name>Dog Walk - 2026-05-17</name>
  </metadata>
  <trk>
    <name>Dog Walk - 2026-05-17</name>
    <type>dog walk</type>
    <trkseg>
      <trkpt lat="41.40132885490490" lon="-81.74025306391985">
        <ele>266.5519560285</ele>
        <time>2026-05-17T08:34:09Z</time>
      </trkpt>
      <trkpt lat="41.40133647724174" lon="-81.74024832659781">
        <ele>266.4310267060</ele>
        <time>2026-05-17T08:34:10Z</time>
      </trkpt>
      <trkpt lat="41.40133383203987" lon="-81.74084632687732">
        <ele>266.3365958916</ele>
        <time>2026-05-17T08:34:57Z</time>
      </trkpt>
      <trkpt lat="41.40133629357646" lon="-81.74146125471155">
        <ele>265.9611014492</ele>
        <time>2026-05-17T08:35:48Z</time>
      </trkpt>
      <trkpt lat="41.40132887093173" lon="-81.74205932140507">
        <ele>265.2105317935</ele>
        <time>2026-05-17T08:36:51Z</time>
      </trkpt>
      <trkpt lat="41.40132173051581" lon="-81.74237861010297">
        <ele>264.8357978318</ele>
        <time>2026-05-17T08:37:09Z</time>
      </trkpt>
      <trkpt lat="41.40132830602989" lon="-81.74237879464303">
        <ele>264.7738750092</ele>
        <time>2026-05-17T08:37:10Z</time>
      </trkpt>
      <trkpt lat="41.40089518251528" lon="-81.74217969903245">
        <ele>265.3467459572</ele>
        <time>2026-05-17T08:37:40Z</time>
      </trkpt>
      <trkpt lat="41.40047497602716" lon="-81.74199167977953">
        <ele>265.1916389315</ele>
        <time>2026-05-17T08:38:21Z</time>
      </trkpt>
      <trkpt lat="41.40005136767750" lon="-81.74179192926169">
        <ele>265.4441452052</ele>
        <time>2026-05-17T08:38:59Z</time>
      </trkpt>
      <trkpt lat="41.39962038498383" lon="-81.74161621277121">
        <ele>264.7800489609</ele>
        <time>2026-05-17T08:39:35Z</time>
      </trkpt>
      <trkpt lat="41.39954905176586" lon="-81.74158080619532">
        <ele>264.9178793915</ele>
        <time>2026-05-17T08:39:47Z</time>
      </trkpt>
      <trkpt lat="41.39954203521575" lon="-81.74097469592427">
        <ele>265.6919444285</ele>
        <time>2026-05-17T08:40:29Z</time>
      </trkpt>
      <trkpt lat="41.39954018163440" lon="-81.74036818710775">
        <ele>266.1872899177</ele>
        <time>2026-05-17T08:41:09Z</time>
      </trkpt>
      <trkpt lat="41.39953619481257" lon="-81.73976779672707">
        <ele>266.4411314614</ele>
        <time>2026-05-17T08:41:40Z</time>
      </trkpt>
      <trkpt lat="41.39953732241286" lon="-81.73918337502913">
        <ele>266.5416867404</ele>
        <time>2026-05-17T08:42:21Z</time>
      </trkpt>
      <trkpt lat="41.39952790532083" lon="-81.73857469659131">
        <ele>266.9452687607</ele>
        <time>2026-05-17T08:43:06Z</time>
      </trkpt>
      <trkpt lat="41.39953351508635" lon="-81.73829226341456">
        <ele>266.9665485284</ele>
        <time>2026-05-17T08:43:25Z</time>
      </trkpt>
      <trkpt lat="41.39953000508100" lon="-81.73828453510038">
        <ele>266.5606632406</ele>
        <time>2026-05-17T08:43:26Z</time>
      </trkpt>
      <trkpt lat="41.39998977215591" lon="-81.73828728425914">
        <ele>267.2212877703</ele>
        <time>2026-05-17T08:44:03Z</time>
      </trkpt>
      <trkpt lat="41.40043105900617" lon="-81.73829475684219">
        <ele>267.3699013373</ele>
        <time>2026-05-17T08:44:42Z</time>
      </trkpt>
      <trkpt lat="41.40089041703144" lon="-81.73830166144540">
        <ele>267.5682089443</ele>
        <time>2026-05-17T08:45:27Z</time>
      </trkpt>
      <trkpt lat="41.40132292869856" lon="-81.73829918344325">
        <ele>267.4586477201</ele>
        <time>2026-05-17T08:46:20Z</time>
      </trkpt>
      <trkpt lat="41.40133082328305" lon="-81.73888990807797">
        <ele>267.4830751030</ele>
        <time>2026-05-17T08:47:05Z</time>
      </trkpt>
      <trkpt lat="41.40133613848254" lon="-81.73950718146365">
        <ele>267.2730847551</ele>
        <time>2026-05-17T08:47:46Z</time>
      </trkpt>
      <trkpt lat="41.40134166336866" lon="-81.74010429876112">
        <ele>266.4923961600</ele>
        <time>2026-05-17T08:48:20Z</time>
      </trkpt>
      <trkpt lat="41.40133986435576" lon="-81.74016045481552">
        <ele>266.5382161919</ele>
        <time>2026-05-17T08:48:25Z</time>
      </trkpt>
    </trkseg>
  </trk>
</gpx>