<?xml version='1.0' encoding='UTF-8'?>
<gpx xmlns="http://www.topografix.com/GPX/1/1" creator="https://gpx.studio" version="1.1">
  <metadata>
    <name>Dog Walk - 2026-09-14 #3</name>
  </metadata>
  <trk>
    <name>Dog Walk - 2026-09-14 #3</name>
    <type>dog walk</type>
    <trkseg>
      <trkpt lat="41.40133601094541" lon="-81.74023733090324">
        <ele>266.4724536301</ele>
        <time>2026-09-14T17:59:37Z</time>
      </trkpt>
      <trkpt lat="41.40134779357403" lon="-81.74083813527690">
        <ele>266.0738062310</ele>
        <time>2026-09-14T18:00:17Z</time>
      </trkpt>
      <trkpt lat="41.40133860491540" lon="-81.74142871120578">
        <ele>266.0228868662</ele>
        <time>2026-09-14T18:00:52Z</time>
      </trkpt>
      <trkpt lat="41.40134518592362" lon="-81.74203683822388">
        <ele>264.9885160000</ele>
        <time>2026-09-14T18:01:36Z</time>
      </trkpt>
      <trkpt lat="41.40134406298044" lon="-81.74242064330149">
        <ele>264.7409224120</ele>
        <time>2026-09-14T18:01:57Z</time>
      </trkpt>
      <trkpt lat="41.40176907802817" lon="-81.74261750525096">
        <ele>264.1441657616</ele>
        <time>2026-09-14T18:02:35Z</time>
      </trkpt>
      <trkpt lat="41.40219559893449" lon="-81.74282037311097">
        <ele>263.3562492283</ele>
        <time>2026-09-14T18:03:23Z</time>
      </trkpt>
      <trkpt lat="41.40262080372737" lon="-81.74302881854172">
        <ele>262.9783891322</ele>
        <time>2026-09-14T18:04:04Z</time>
      </trkpt>
      <trkpt lat="41.40303311439474" lon="-81.74321783278346">
        <ele>262.3427214778</ele>
        <time>2026-09-14T18:04:42Z</time>
      </trkpt>
      <trkpt lat="41.40311611601333" lon="-81.74325216860926">
        <ele>262.6194247697</ele>
        <time>2026-09-14T18:04:49Z</time>
      </trkpt>
      <trkpt lat="41.40311576520469" lon="-81.74265120547575">
        <ele>263.1774274119</ele>
        <time>2026-09-14T18:05:59Z</time>
      </trkpt>
      <trkpt lat="41.40311633573978" lon="-81.74206256969192">
        <ele>263.5656022713</ele>
        <time>2026-09-14T18:06:34Z</time>
      </trkpt>
      <trkpt lat="41.40311196422905" lon="-81.74144955454888">
        <ele>264.1378163646</ele>
        <time>2026-09-14T18:07:15Z</time>
      </trkpt>
      <trkpt lat="41.40310568578642" lon="-81.74085125140840">
        <ele>264.8232204190</ele>
        <time>2026-09-14T18:07:50Z</time>
      </trkpt>
      <trkpt lat="41.40310444269753" lon="-81.74025383092093">
        <ele>265.4757941646</ele>
        <time>2026-09-14T18:08:27Z</time>
      </trkpt>
      <trkpt lat="41.40310468058880" lon="-81.73964811535792">
        <ele>266.1418186397</ele>
        <time>2026-09-14T18:09:06Z</time>
      </trkpt>
      <trkpt lat="41.40309564746769" lon="-81.73905595522976">
        <ele>266.2337547126</ele>
        <time>2026-09-14T18:09:44Z</time>
      </trkpt>
      <trkpt lat="41.40310825309403" lon="-81.73878752055077">
        <ele>266.1621789138</ele>
        <time>2026-09-14T18:10:03Z</time>
      </trkpt>
      <trkpt lat="41.40264365095315" lon="-81.73878579860344">
        <ele>266.7167814608</ele>
        <time>2026-09-14T18:10:37Z</time>
      </trkpt>
      <trkpt lat="41.40223335464012" lon="-81.73877937642557">
        <ele>266.9611186070</ele>
        <time>2026-09-14T18:11:16Z</time>
      </trkpt>
      <trkpt lat="41.40223649681169" lon="-81.73819362355285">
        <ele>267.1046685948</ele>
        <time>2026-09-14T18:11:51Z</time>
      </trkpt>
      <trkpt lat="41.40223087341768" lon="-81.73757863911196">
        <ele>267.2433290719</ele>
        <time>2026-09-14T18:12:31Z</time>
      </trkpt>
      <trkpt lat="41.40223650836976" lon="-81.73697792545167">
        <ele>267.2687207504</ele>
        <time>2026-09-14T18:13:17Z</time>
      </trkpt>
      <trkpt lat="41.40222543067065" lon="-81.73637729104962">
        <ele>267.0949859998</ele>
        <time>2026-09-14T18:14:08Z</time>
      </trkpt>
      <trkpt lat="41.40222147243700" lon="-81.73578814438682">
        <ele>267.2926490296</ele>
        <time>2026-09-14T18:14:55Z</time>
      </trkpt>
      <trkpt lat="41.40222594250391" lon="-81.73518209517566">
        <ele>267.1960023110</ele>
        <time>2026-09-14T18:16:00Z</time>
      </trkpt>
      <trkpt lat="41.40221712995443" lon="-81.73465002239739">
        <ele>267.2901076583</ele>
        <time>2026-09-14T18:16:28Z</time>
      </trkpt>
      <trkpt lat="41.40177519653793" lon="-81.73464165061961">
        <ele>267.0088224823</ele>
        <time>2026-09-14T18:17:14Z</time>
      </trkpt>
      <trkpt lat="41.40132363269085" lon="-81.73463453216415">
        <ele>267.4489779918</ele>
        <time>2026-09-14T18:17:50Z</time>
      </trkpt>
      <trkpt lat="41.40131617437622" lon="-81.73463666739177">
        <ele>267.5554790780</ele>
        <time>2026-09-14T18:17:51Z</time>
      </trkpt>
      <trkpt lat="41.40131541558138" lon="-81.73523786293599">
        <ele>268.1110510325</ele>
        <time>2026-09-14T18:18:27Z</time>
      </trkpt>
      <trkpt lat="41.40132137554971" lon="-81.73583593610316">
        <ele>268.1703204756</ele>
        <time>2026-09-14T18:18:59Z</time>
      </trkpt>
      <trkpt lat="41.40132750481630" lon="-81.73642571383080">
        <ele>268.0572299099</ele>
        <time>2026-09-14T18:19:37Z</time>
      </trkpt>
      <trkpt lat="41.40132766261846" lon="-81.73703054266734">
        <ele>268.0429993665</ele>
        <time>2026-09-14T18:20:25Z</time>
      </trkpt>
      <trkpt lat="41.40132930826672" lon="-81.73763510804511">
        <ele>267.9578490769</ele>
        <time>2026-09-14T18:20:58Z</time>
      </trkpt>
      <trkpt lat="41.40133744730497" lon="-81.73823110178625">
        <ele>267.7366835678</ele>
        <time>2026-09-14T18:21:42Z</time>
      </trkpt>
      <trkpt lat="41.40134063786948" lon="-81.73882116647194">
        <ele>267.0594093104</ele>
        <time>2026-09-14T18:22:27Z</time>
      </trkpt>
      <trkpt lat="41.40134266897059" lon="-81.73943480524891">
        <ele>267.2542634409</ele>
        <time>2026-09-14T18:23:09Z</time>
      </trkpt>
      <trkpt lat="41.40135066287592" lon="-81.74002781036903">
        <ele>266.5720879096</ele>
        <time>2026-09-14T18:23:45Z</time>
      </trkpt>
      <trkpt lat="41.40133783200475" lon="-81.74016527148913">
        <ele>266.3333957969</ele>
        <time>2026-09-14T18:23:55Z</time>
      </trkpt>
    </trkseg>
  </trk>
</gpx>