<?xml version='1.0' encoding='UTF-8'?>
<gpx xmlns="http://www.topografix.com/GPX/1/1" creator="https://gpx.studio" version="1.1">
  <metadata>
    <name>Dog Walk - 2026-03-08 #2</name>
  </metadata>
  <trk>
    <name>Dog Walk - 2026-03-08 #2</name>
    <type>dog walk</type>
    <trkseg>
      <trkpt lat="41.40134000721023" lon="-81.74023179922560">
        <ele>266.4301248467</ele>
        <time>2026-03-08T10:00:35Z</time>
      </trkpt>
      <trkpt lat="41.40134387192170" lon="-81.74084121216796">
        <ele>266.2816716840</ele>
        <time>2026-03-08T10:01:10Z</time>
      </trkpt>
      <trkpt lat="41.40134896348009" lon="-81.74143832745783">
        <ele>266.0123152586</ele>
        <time>2026-03-08T10:02:04Z</time>
      </trkpt>
      <trkpt lat="41.40134378866837" lon="-81.74203101297233">
        <ele>265.1326993031</ele>
        <time>2026-03-08T10:02:50Z</time>
      </trkpt>
      <trkpt lat="41.40135007468849" lon="-81.74242657399888">
        <ele>264.7011319925</ele>
        <time>2026-03-08T10:03:18Z</time>
      </trkpt>
      <trkpt lat="41.40176684276909" lon="-81.74262019868947">
        <ele>264.4457956294</ele>
        <time>2026-03-08T10:03:53Z</time>
      </trkpt>
      <trkpt lat="41.40219448167275" lon="-81.74281358904702">
        <ele>263.3763893228</ele>
        <time>2026-03-08T10:04:21Z</time>
      </trkpt>
      <trkpt lat="41.40261708595663" lon="-81.74301527352563">
        <ele>263.0780552306</ele>
        <time>2026-03-08T10:04:58Z</time>
      </trkpt>
      <trkpt lat="41.40304347737172" lon="-81.74321854927216">
        <ele>262.6095769771</ele>
        <time>2026-03-08T10:05:35Z</time>
      </trkpt>
      <trkpt lat="41.40311136076898" lon="-81.74325671723926">
        <ele>262.3762411569</ele>
        <time>2026-03-08T10:05:44Z</time>
      </trkpt>
      <trkpt lat="41.40312270511075" lon="-81.74265351084013">
        <ele>263.1872911998</ele>
        <time>2026-03-08T10:06:26Z</time>
      </trkpt>
      <trkpt lat="41.40311352674547" lon="-81.74205696465496">
        <ele>263.8958695791</ele>
        <time>2026-03-08T10:07:17Z</time>
      </trkpt>
      <trkpt lat="41.40311134566183" lon="-81.74145880964261">
        <ele>264.0027680545</ele>
        <time>2026-03-08T10:07:49Z</time>
      </trkpt>
      <trkpt lat="41.40310662371360" lon="-81.74085019454658">
        <ele>264.8248959179</ele>
        <time>2026-03-08T10:08:21Z</time>
      </trkpt>
      <trkpt lat="41.40310485191599" lon="-81.74025574231433">
        <ele>265.3132547843</ele>
        <time>2026-03-08T10:09:22Z</time>
      </trkpt>
      <trkpt lat="41.40310436397635" lon="-81.73966607746196">
        <ele>265.7519327433</ele>
        <time>2026-03-08T10:10:03Z</time>
      </trkpt>
      <trkpt lat="41.40309154198152" lon="-81.73905380787558">
        <ele>266.2302748346</ele>
        <time>2026-03-08T10:10:43Z</time>
      </trkpt>
      <trkpt lat="41.40309278416773" lon="-81.73877711529538">
        <ele>266.2247610922</ele>
        <time>2026-03-08T10:10:56Z</time>
      </trkpt>
      <trkpt lat="41.40265041076284" lon="-81.73877764546677">
        <ele>266.7415268482</ele>
        <time>2026-03-08T10:11:33Z</time>
      </trkpt>
      <trkpt lat="41.40223762822261" lon="-81.73877710307984">
        <ele>266.9970395142</ele>
        <time>2026-03-08T10:12:24Z</time>
      </trkpt>
      <trkpt lat="41.40223271097168" lon="-81.73817289976337">
        <ele>266.8913783191</ele>
        <time>2026-03-08T10:12:57Z</time>
      </trkpt>
      <trkpt lat="41.40223858781220" lon="-81.73758393367766">
        <ele>267.1656117889</ele>
        <time>2026-03-08T10:13:38Z</time>
      </trkpt>
      <trkpt lat="41.40223583183096" lon="-81.73698790097365">
        <ele>267.1647760206</ele>
        <time>2026-03-08T10:14:22Z</time>
      </trkpt>
      <trkpt lat="41.40222185131431" lon="-81.73639084347978">
        <ele>267.3142624383</ele>
        <time>2026-03-08T10:15:09Z</time>
      </trkpt>
      <trkpt lat="41.40223417912788" lon="-81.73578303212237">
        <ele>267.1906731917</ele>
        <time>2026-03-08T10:15:46Z</time>
      </trkpt>
      <trkpt lat="41.40222923778941" lon="-81.73518635799695">
        <ele>267.1112961281</ele>
        <time>2026-03-08T10:16:23Z</time>
      </trkpt>
      <trkpt lat="41.40222482372825" lon="-81.73465403063192">
        <ele>266.9868281599</ele>
        <time>2026-03-08T10:16:54Z</time>
      </trkpt>
      <trkpt lat="41.40176858311383" lon="-81.73464137240867">
        <ele>267.2604680735</ele>
        <time>2026-03-08T10:17:45Z</time>
      </trkpt>
      <trkpt lat="41.40132082506926" lon="-81.73463752435860">
        <ele>267.4022502217</ele>
        <time>2026-03-08T10:18:28Z</time>
      </trkpt>
      <trkpt lat="41.40131550356398" lon="-81.73463239023070">
        <ele>267.2930831423</ele>
        <time>2026-03-08T10:18:29Z</time>
      </trkpt>
      <trkpt lat="41.40131807954793" lon="-81.73523177243699">
        <ele>267.9305622242</ele>
        <time>2026-03-08T10:19:16Z</time>
      </trkpt>
      <trkpt lat="41.40132767760637" lon="-81.73583726507628">
        <ele>268.2508197799</ele>
        <time>2026-03-08T10:20:19Z</time>
      </trkpt>
      <trkpt lat="41.40132900861030" lon="-81.73643886422437">
        <ele>268.0111260619</ele>
        <time>2026-03-08T10:20:52Z</time>
      </trkpt>
      <trkpt lat="41.40132060217761" lon="-81.73704382901343">
        <ele>267.9945812928</ele>
        <time>2026-03-08T10:21:30Z</time>
      </trkpt>
      <trkpt lat="41.40133005915127" lon="-81.73764113637228">
        <ele>267.8293895763</ele>
        <time>2026-03-08T10:22:22Z</time>
      </trkpt>
      <trkpt lat="41.40133276384373" lon="-81.73822534259429">
        <ele>267.5012641052</ele>
        <time>2026-03-08T10:23:06Z</time>
      </trkpt>
      <trkpt lat="41.40133645894107" lon="-81.73883798156795">
        <ele>267.5141451835</ele>
        <time>2026-03-08T10:23:50Z</time>
      </trkpt>
      <trkpt lat="41.40134160945635" lon="-81.73941545372790">
        <ele>266.9070654880</ele>
        <time>2026-03-08T10:24:42Z</time>
      </trkpt>
      <trkpt lat="41.40134399572149" lon="-81.74001892578627">
        <ele>266.7915944249</ele>
        <time>2026-03-08T10:25:15Z</time>
      </trkpt>
      <trkpt lat="41.40134734821111" lon="-81.74015701930477">
        <ele>266.7425015995</ele>
        <time>2026-03-08T10:25:35Z</time>
      </trkpt>
    </trkseg>
  </trk>
</gpx>