<?xml version='1.0' encoding='UTF-8'?>
<gpx xmlns="http://www.topografix.com/GPX/1/1" creator="https://gpx.studio" version="1.1">
  <metadata>
    <name>Dog Walk - 2026-04-29 #3</name>
  </metadata>
  <trk>
    <name>Dog Walk - 2026-04-29 #3</name>
    <type>dog walk</type>
    <trkseg>
      <trkpt lat="41.40133369605164" lon="-81.74023643877567">
        <ele>266.4498331545</ele>
        <time>2026-04-29T14:01:30Z</time>
      </trkpt>
      <trkpt lat="41.40134756065139" lon="-81.74082825983220">
        <ele>266.3673917798</ele>
        <time>2026-04-29T14:02:26Z</time>
      </trkpt>
      <trkpt lat="41.40135189810502" lon="-81.74142100142478">
        <ele>265.7424154489</ele>
        <time>2026-04-29T14:03:17Z</time>
      </trkpt>
      <trkpt lat="41.40135212474015" lon="-81.74203479541232">
        <ele>265.1595088684</ele>
        <time>2026-04-29T14:04:17Z</time>
      </trkpt>
      <trkpt lat="41.40135540508734" lon="-81.74240833186133">
        <ele>264.5297971455</ele>
        <time>2026-04-29T14:04:45Z</time>
      </trkpt>
      <trkpt lat="41.40177202860070" lon="-81.74262345267282">
        <ele>264.4134721134</ele>
        <time>2026-04-29T14:05:21Z</time>
      </trkpt>
      <trkpt lat="41.40218750796985" lon="-81.74282954656881">
        <ele>263.5718926760</ele>
        <time>2026-04-29T14:06:14Z</time>
      </trkpt>
      <trkpt lat="41.40261189644097" lon="-81.74304754550346">
        <ele>263.0108190695</ele>
        <time>2026-04-29T14:06:51Z</time>
      </trkpt>
      <trkpt lat="41.40302884542938" lon="-81.74326154452484">
        <ele>262.5829936560</ele>
        <time>2026-04-29T14:07:35Z</time>
      </trkpt>
      <trkpt lat="41.40344359012450" lon="-81.74347483515569">
        <ele>261.9343742668</ele>
        <time>2026-04-29T14:08:06Z</time>
      </trkpt>
      <trkpt lat="41.40349949427366" lon="-81.74349594120703">
        <ele>261.6672090852</ele>
        <time>2026-04-29T14:08:12Z</time>
      </trkpt>
      <trkpt lat="41.40359672603588" lon="-81.74352082502787">
        <ele>261.7554088634</ele>
        <time>2026-04-29T14:08:21Z</time>
      </trkpt>
      <trkpt lat="41.40399574522239" lon="-81.74350624232218">
        <ele>260.6986306697</ele>
        <time>2026-04-29T14:09:01Z</time>
      </trkpt>
      <trkpt lat="41.40398805027893" lon="-81.74291139213781">
        <ele>261.5407799973</ele>
        <time>2026-04-29T14:09:43Z</time>
      </trkpt>
      <trkpt lat="41.40398476473698" lon="-81.74231090931173">
        <ele>262.0986517148</ele>
        <time>2026-04-29T14:10:24Z</time>
      </trkpt>
      <trkpt lat="41.40398935202811" lon="-81.74170834224752">
        <ele>262.5219998298</ele>
        <time>2026-04-29T14:10:54Z</time>
      </trkpt>
      <trkpt lat="41.40399651550719" lon="-81.74111184147297">
        <ele>262.8826989620</ele>
        <time>2026-04-29T14:11:51Z</time>
      </trkpt>
      <trkpt lat="41.40399195106421" lon="-81.74051811388452">
        <ele>263.5865525279</ele>
        <time>2026-04-29T14:12:34Z</time>
      </trkpt>
      <trkpt lat="41.40398720290178" lon="-81.73991336701221">
        <ele>264.3216487242</ele>
        <time>2026-04-29T14:13:12Z</time>
      </trkpt>
      <trkpt lat="41.40398315278501" lon="-81.73931200342064">
        <ele>265.2382465823</ele>
        <time>2026-04-29T14:13:52Z</time>
      </trkpt>
      <trkpt lat="41.40398017250427" lon="-81.73877678647375">
        <ele>265.3260214583</ele>
        <time>2026-04-29T14:14:44Z</time>
      </trkpt>
      <trkpt lat="41.40353902046102" lon="-81.73876821502785">
        <ele>265.8752835668</ele>
        <time>2026-04-29T14:15:23Z</time>
      </trkpt>
      <trkpt lat="41.40308872890921" lon="-81.73877750753428">
        <ele>266.2401951744</ele>
        <time>2026-04-29T14:16:19Z</time>
      </trkpt>
      <trkpt lat="41.40263613652603" lon="-81.73878038506133">
        <ele>266.9455064967</ele>
        <time>2026-04-29T14:16:52Z</time>
      </trkpt>
      <trkpt lat="41.40223129972320" lon="-81.73877762715770">
        <ele>267.3301583909</ele>
        <time>2026-04-29T14:17:30Z</time>
      </trkpt>
      <trkpt lat="41.40221805769663" lon="-81.73828314711446">
        <ele>267.2708452233</ele>
        <time>2026-04-29T14:18:25Z</time>
      </trkpt>
      <trkpt lat="41.40176965221578" lon="-81.73827397262865">
        <ele>267.6792427714</ele>
        <time>2026-04-29T14:19:01Z</time>
      </trkpt>
      <trkpt lat="41.40133174002963" lon="-81.73826529039032">
        <ele>267.6364522927</ele>
        <time>2026-04-29T14:19:42Z</time>
      </trkpt>
      <trkpt lat="41.40132619351767" lon="-81.73886612253872">
        <ele>267.3071295191</ele>
        <time>2026-04-29T14:20:23Z</time>
      </trkpt>
      <trkpt lat="41.40133707428066" lon="-81.73945868405913">
        <ele>267.0811436817</ele>
        <time>2026-04-29T14:21:00Z</time>
      </trkpt>
      <trkpt lat="41.40132833112906" lon="-81.74006049061096">
        <ele>266.5947404504</ele>
        <time>2026-04-29T14:21:47Z</time>
      </trkpt>
      <trkpt lat="41.40134387392212" lon="-81.74021393497988">
        <ele>266.8057510373</ele>
        <time>2026-04-29T14:21:58Z</time>
      </trkpt>
    </trkseg>
  </trk>
</gpx>