<?xml version='1.0' encoding='UTF-8'?>
<gpx xmlns="http://www.topografix.com/GPX/1/1" creator="https://gpx.studio" version="1.1">
  <metadata>
    <name>Dog Walk - 2026-02-24 #4</name>
  </metadata>
  <trk>
    <name>Dog Walk - 2026-02-24 #4</name>
    <type>dog walk</type>
    <trkseg>
      <trkpt lat="41.40133894500134" lon="-81.74023478850593">
        <ele>266.3167272382</ele>
        <time>2026-02-24T17:29:06Z</time>
      </trkpt>
      <trkpt lat="41.40134046020634" lon="-81.74083869835378">
        <ele>266.0131751119</ele>
        <time>2026-02-24T17:30:19Z</time>
      </trkpt>
      <trkpt lat="41.40135196684328" lon="-81.74143618438039">
        <ele>265.6014987097</ele>
        <time>2026-02-24T17:30:53Z</time>
      </trkpt>
      <trkpt lat="41.40134484750878" lon="-81.74204399475161">
        <ele>265.3415451861</ele>
        <time>2026-02-24T17:31:30Z</time>
      </trkpt>
      <trkpt lat="41.40135143432410" lon="-81.74242373761624">
        <ele>264.5690737914</ele>
        <time>2026-02-24T17:32:06Z</time>
      </trkpt>
      <trkpt lat="41.40177831802657" lon="-81.74261939695684">
        <ele>264.3366017533</ele>
        <time>2026-02-24T17:32:58Z</time>
      </trkpt>
      <trkpt lat="41.40219044033485" lon="-81.74281570488549">
        <ele>263.4772810637</ele>
        <time>2026-02-24T17:33:32Z</time>
      </trkpt>
      <trkpt lat="41.40261962383410" lon="-81.74300788148498">
        <ele>263.2176547419</ele>
        <time>2026-02-24T17:34:27Z</time>
      </trkpt>
      <trkpt lat="41.40304702402390" lon="-81.74322984369027">
        <ele>262.5204499037</ele>
        <time>2026-02-24T17:34:59Z</time>
      </trkpt>
      <trkpt lat="41.40311769674933" lon="-81.74325001591674">
        <ele>262.2938122801</ele>
        <time>2026-02-24T17:35:05Z</time>
      </trkpt>
      <trkpt lat="41.40311525651413" lon="-81.74265289644771">
        <ele>263.4127279366</ele>
        <time>2026-02-24T17:35:38Z</time>
      </trkpt>
      <trkpt lat="41.40311359813678" lon="-81.74206144718889">
        <ele>263.7130619835</ele>
        <time>2026-02-24T17:36:20Z</time>
      </trkpt>
      <trkpt lat="41.40310689433298" lon="-81.74145310206684">
        <ele>264.1853336142</ele>
        <time>2026-02-24T17:37:16Z</time>
      </trkpt>
      <trkpt lat="41.40310187927173" lon="-81.74085416561775">
        <ele>264.7677988137</ele>
        <time>2026-02-24T17:37:48Z</time>
      </trkpt>
      <trkpt lat="41.40310977408978" lon="-81.74025309562305">
        <ele>265.4801381413</ele>
        <time>2026-02-24T17:38:35Z</time>
      </trkpt>
      <trkpt lat="41.40309857486107" lon="-81.73966059628836">
        <ele>265.8723135177</ele>
        <time>2026-02-24T17:39:10Z</time>
      </trkpt>
      <trkpt lat="41.40310344930472" lon="-81.73905095083288">
        <ele>266.1383809119</ele>
        <time>2026-02-24T17:40:00Z</time>
      </trkpt>
      <trkpt lat="41.40309701223357" lon="-81.73879202088212">
        <ele>266.2393291623</ele>
        <time>2026-02-24T17:40:35Z</time>
      </trkpt>
      <trkpt lat="41.40264406739325" lon="-81.73878686591044">
        <ele>266.8213180002</ele>
        <time>2026-02-24T17:41:13Z</time>
      </trkpt>
      <trkpt lat="41.40223366475106" lon="-81.73878140719144">
        <ele>267.0534530610</ele>
        <time>2026-02-24T17:41:48Z</time>
      </trkpt>
      <trkpt lat="41.40223266383560" lon="-81.73818177016062">
        <ele>267.2594065162</ele>
        <time>2026-02-24T17:42:43Z</time>
      </trkpt>
      <trkpt lat="41.40223780495201" lon="-81.73757335181283">
        <ele>266.9066156417</ele>
        <time>2026-02-24T17:43:26Z</time>
      </trkpt>
      <trkpt lat="41.40221984370942" lon="-81.73697348657095">
        <ele>267.0034763031</ele>
        <time>2026-02-24T17:44:09Z</time>
      </trkpt>
      <trkpt lat="41.40223163756360" lon="-81.73639334097716">
        <ele>267.2028667355</ele>
        <time>2026-02-24T17:44:52Z</time>
      </trkpt>
      <trkpt lat="41.40222962203406" lon="-81.73577760899340">
        <ele>267.2508101351</ele>
        <time>2026-02-24T17:45:36Z</time>
      </trkpt>
      <trkpt lat="41.40222421432325" lon="-81.73519132468991">
        <ele>267.1192415841</ele>
        <time>2026-02-24T17:46:08Z</time>
      </trkpt>
      <trkpt lat="41.40222313455018" lon="-81.73465623990865">
        <ele>266.9915233416</ele>
        <time>2026-02-24T17:46:47Z</time>
      </trkpt>
      <trkpt lat="41.40176694729018" lon="-81.73463586576636">
        <ele>267.2259442616</ele>
        <time>2026-02-24T17:47:20Z</time>
      </trkpt>
      <trkpt lat="41.40132815531209" lon="-81.73463505478068">
        <ele>267.2222805177</ele>
        <time>2026-02-24T17:48:30Z</time>
      </trkpt>
      <trkpt lat="41.40131724785144" lon="-81.73463522342527">
        <ele>267.4179487410</ele>
        <time>2026-02-24T17:48:31Z</time>
      </trkpt>
      <trkpt lat="41.40131202804120" lon="-81.73523353463165">
        <ele>267.8871719037</ele>
        <time>2026-02-24T17:49:30Z</time>
      </trkpt>
      <trkpt lat="41.40131989960518" lon="-81.73583464393262">
        <ele>268.3115824953</ele>
        <time>2026-02-24T17:50:07Z</time>
      </trkpt>
      <trkpt lat="41.40132970069065" lon="-81.73642775976032">
        <ele>268.2882643818</ele>
        <time>2026-02-24T17:50:45Z</time>
      </trkpt>
      <trkpt lat="41.40133002647271" lon="-81.73702940913128">
        <ele>267.9324225444</ele>
        <time>2026-02-24T17:51:35Z</time>
      </trkpt>
      <trkpt lat="41.40132668265556" lon="-81.73763692152812">
        <ele>268.0206599117</ele>
        <time>2026-02-24T17:52:14Z</time>
      </trkpt>
      <trkpt lat="41.40133641602387" lon="-81.73823987427392">
        <ele>267.9231376317</ele>
        <time>2026-02-24T17:52:48Z</time>
      </trkpt>
      <trkpt lat="41.40134033124563" lon="-81.73883639204193">
        <ele>267.4872688065</ele>
        <time>2026-02-24T17:53:26Z</time>
      </trkpt>
      <trkpt lat="41.40134221358588" lon="-81.73943385748524">
        <ele>267.1523037462</ele>
        <time>2026-02-24T17:54:30Z</time>
      </trkpt>
      <trkpt lat="41.40134162309629" lon="-81.74003476271099">
        <ele>266.7390230813</ele>
        <time>2026-02-24T17:55:07Z</time>
      </trkpt>
      <trkpt lat="41.40134537208854" lon="-81.74015430475373">
        <ele>266.4206330569</ele>
        <time>2026-02-24T17:55:14Z</time>
      </trkpt>
    </trkseg>
  </trk>
</gpx>