<?xml version='1.0' encoding='UTF-8'?>
<gpx xmlns="http://www.topografix.com/GPX/1/1" creator="https://gpx.studio" version="1.1">
  <metadata>
    <name>Dog Walk - 2026-05-18 #2</name>
  </metadata>
  <trk>
    <name>Dog Walk - 2026-05-18 #2</name>
    <type>dog walk</type>
    <trkseg>
      <trkpt lat="41.40133908252322" lon="-81.74023084022541">
        <ele>266.4702214716</ele>
        <time>2026-05-18T12:43:52Z</time>
      </trkpt>
      <trkpt lat="41.40134471108865" lon="-81.74082841619931">
        <ele>266.1940911460</ele>
        <time>2026-05-18T12:44:31Z</time>
      </trkpt>
      <trkpt lat="41.40133718650485" lon="-81.74142722806906">
        <ele>265.7213124548</ele>
        <time>2026-05-18T12:45:01Z</time>
      </trkpt>
      <trkpt lat="41.40132724682868" lon="-81.74202648559904">
        <ele>265.6180853372</ele>
        <time>2026-05-18T12:45:39Z</time>
      </trkpt>
      <trkpt lat="41.40132607470443" lon="-81.74239176487191">
        <ele>264.7222969900</ele>
        <time>2026-05-18T12:46:00Z</time>
      </trkpt>
      <trkpt lat="41.40090544320870" lon="-81.74218501117802">
        <ele>265.1376618233</ele>
        <time>2026-05-18T12:46:41Z</time>
      </trkpt>
      <trkpt lat="41.40049425307860" lon="-81.74197007249110">
        <ele>265.2697826278</ele>
        <time>2026-05-18T12:47:14Z</time>
      </trkpt>
      <trkpt lat="41.40045385484041" lon="-81.74195253163207">
        <ele>265.3986990050</ele>
        <time>2026-05-18T12:47:18Z</time>
      </trkpt>
      <trkpt lat="41.40044300667844" lon="-81.74135760755631">
        <ele>265.9724784271</ele>
        <time>2026-05-18T12:47:59Z</time>
      </trkpt>
      <trkpt lat="41.40044917627594" lon="-81.74076180514373">
        <ele>266.3457056233</ele>
        <time>2026-05-18T12:48:39Z</time>
      </trkpt>
      <trkpt lat="41.40043697981859" lon="-81.74016097222922">
        <ele>266.6337808526</ele>
        <time>2026-05-18T12:49:22Z</time>
      </trkpt>
      <trkpt lat="41.40043315790740" lon="-81.73955075186440">
        <ele>267.0249347707</ele>
        <time>2026-05-18T12:50:00Z</time>
      </trkpt>
      <trkpt lat="41.40042489640891" lon="-81.73895154187119">
        <ele>267.1767183927</ele>
        <time>2026-05-18T12:50:32Z</time>
      </trkpt>
      <trkpt lat="41.40042933321325" lon="-81.73835441987960">
        <ele>267.3967236005</ele>
        <time>2026-05-18T12:51:07Z</time>
      </trkpt>
      <trkpt lat="41.40041404834744" lon="-81.73775974256577">
        <ele>267.4626609019</ele>
        <time>2026-05-18T12:51:47Z</time>
      </trkpt>
      <trkpt lat="41.40041326830650" lon="-81.73715499886941">
        <ele>267.8651145021</ele>
        <time>2026-05-18T12:52:30Z</time>
      </trkpt>
      <trkpt lat="41.40041422707433" lon="-81.73655478430030">
        <ele>268.0146309359</ele>
        <time>2026-05-18T12:53:12Z</time>
      </trkpt>
      <trkpt lat="41.40040389583373" lon="-81.73596606564571">
        <ele>267.9222184878</ele>
        <time>2026-05-18T12:53:58Z</time>
      </trkpt>
      <trkpt lat="41.40039983172148" lon="-81.73536105531095">
        <ele>267.7519203516</ele>
        <time>2026-05-18T12:54:41Z</time>
      </trkpt>
      <trkpt lat="41.40039245346755" lon="-81.73475378702270">
        <ele>267.5233615506</ele>
        <time>2026-05-18T12:55:23Z</time>
      </trkpt>
      <trkpt lat="41.40039728609146" lon="-81.73463663506776">
        <ele>267.1919313457</ele>
        <time>2026-05-18T12:55:31Z</time>
      </trkpt>
      <trkpt lat="41.40084671403580" lon="-81.73462018445206">
        <ele>267.4218648200</ele>
        <time>2026-05-18T12:56:09Z</time>
      </trkpt>
      <trkpt lat="41.40128545751392" lon="-81.73464222777100">
        <ele>267.3006565222</ele>
        <time>2026-05-18T12:57:12Z</time>
      </trkpt>
      <trkpt lat="41.40131834355881" lon="-81.73463092382168">
        <ele>267.3892436977</ele>
        <time>2026-05-18T12:57:15Z</time>
      </trkpt>
      <trkpt lat="41.40132112714613" lon="-81.73523410848749">
        <ele>268.1895089767</ele>
        <time>2026-05-18T12:58:10Z</time>
      </trkpt>
      <trkpt lat="41.40132366176912" lon="-81.73583132051309">
        <ele>268.2553991390</ele>
        <time>2026-05-18T12:58:53Z</time>
      </trkpt>
      <trkpt lat="41.40132644726703" lon="-81.73643000435715">
        <ele>268.0537610148</ele>
        <time>2026-05-18T12:59:35Z</time>
      </trkpt>
      <trkpt lat="41.40133564633381" lon="-81.73702211270727">
        <ele>267.9158279924</ele>
        <time>2026-05-18T13:00:13Z</time>
      </trkpt>
      <trkpt lat="41.40133674397693" lon="-81.73763339601049">
        <ele>267.8659200619</ele>
        <time>2026-05-18T13:00:59Z</time>
      </trkpt>
      <trkpt lat="41.40133643645741" lon="-81.73822135059909">
        <ele>267.5115505032</ele>
        <time>2026-05-18T13:01:37Z</time>
      </trkpt>
      <trkpt lat="41.40133470889078" lon="-81.73882963670593">
        <ele>267.3630742452</ele>
        <time>2026-05-18T13:02:22Z</time>
      </trkpt>
      <trkpt lat="41.40133373043846" lon="-81.73942714312793">
        <ele>267.2061517517</ele>
        <time>2026-05-18T13:03:08Z</time>
      </trkpt>
      <trkpt lat="41.40134774175478" lon="-81.74003025184486">
        <ele>266.4155587735</ele>
        <time>2026-05-18T13:03:42Z</time>
      </trkpt>
      <trkpt lat="41.40134687223586" lon="-81.74019276883483">
        <ele>266.7857534275</ele>
        <time>2026-05-18T13:03:53Z</time>
      </trkpt>
    </trkseg>
  </trk>
</gpx>