<?xml version='1.0' encoding='UTF-8'?>
<gpx xmlns="http://www.topografix.com/GPX/1/1" creator="https://gpx.studio" version="1.1">
  <metadata>
    <name>Dog Walk - 2026-08-24 #2</name>
  </metadata>
  <trk>
    <name>Dog Walk - 2026-08-24 #2</name>
    <type>dog walk</type>
    <trkseg>
      <trkpt lat="41.40134241537478" lon="-81.74022296548154">
        <ele>266.4019992926</ele>
        <time>2026-08-24T19:31:53Z</time>
      </trkpt>
      <trkpt lat="41.40133707777751" lon="-81.74082975341005">
        <ele>266.2788726275</ele>
        <time>2026-08-24T19:32:32Z</time>
      </trkpt>
      <trkpt lat="41.40133948582852" lon="-81.74142841257429">
        <ele>265.9017328410</ele>
        <time>2026-08-24T19:33:11Z</time>
      </trkpt>
      <trkpt lat="41.40132455089012" lon="-81.74202032892842">
        <ele>265.3719381143</ele>
        <time>2026-08-24T19:33:45Z</time>
      </trkpt>
      <trkpt lat="41.40133027608287" lon="-81.74238518835858">
        <ele>264.9167640010</ele>
        <time>2026-08-24T19:34:09Z</time>
      </trkpt>
      <trkpt lat="41.40090602646525" lon="-81.74218661327842">
        <ele>265.4724569414</ele>
        <time>2026-08-24T19:34:49Z</time>
      </trkpt>
      <trkpt lat="41.40048758743159" lon="-81.74196420702613">
        <ele>265.2712598614</ele>
        <time>2026-08-24T19:35:26Z</time>
      </trkpt>
      <trkpt lat="41.40045512923751" lon="-81.74195516307414">
        <ele>265.2548398525</ele>
        <time>2026-08-24T19:35:30Z</time>
      </trkpt>
      <trkpt lat="41.40044921152206" lon="-81.74134562338642">
        <ele>265.9030403959</ele>
        <time>2026-08-24T19:36:08Z</time>
      </trkpt>
      <trkpt lat="41.40043484552476" lon="-81.74075103212004">
        <ele>266.4719028468</ele>
        <time>2026-08-24T19:36:49Z</time>
      </trkpt>
      <trkpt lat="41.40043382183061" lon="-81.74015364496637">
        <ele>266.8391056776</ele>
        <time>2026-08-24T19:37:33Z</time>
      </trkpt>
      <trkpt lat="41.40043692545344" lon="-81.73956190815467">
        <ele>267.0167809948</ele>
        <time>2026-08-24T19:38:19Z</time>
      </trkpt>
      <trkpt lat="41.40043313330397" lon="-81.73895428968822">
        <ele>267.0876023208</ele>
        <time>2026-08-24T19:38:56Z</time>
      </trkpt>
      <trkpt lat="41.40042936757233" lon="-81.73834510715166">
        <ele>267.3531489961</ele>
        <time>2026-08-24T19:39:42Z</time>
      </trkpt>
      <trkpt lat="41.40041413360055" lon="-81.73775267532648">
        <ele>267.5254734275</ele>
        <time>2026-08-24T19:40:21Z</time>
      </trkpt>
      <trkpt lat="41.40040816499088" lon="-81.73716020724039">
        <ele>267.9256215337</ele>
        <time>2026-08-24T19:41:07Z</time>
      </trkpt>
      <trkpt lat="41.40040296800910" lon="-81.73655828212412">
        <ele>268.0982335317</ele>
        <time>2026-08-24T19:41:53Z</time>
      </trkpt>
      <trkpt lat="41.40040619807241" lon="-81.73594981654338">
        <ele>267.8955302592</ele>
        <time>2026-08-24T19:42:39Z</time>
      </trkpt>
      <trkpt lat="41.40040717912520" lon="-81.73535590601333">
        <ele>267.7600683119</ele>
        <time>2026-08-24T19:43:22Z</time>
      </trkpt>
      <trkpt lat="41.40039314161686" lon="-81.73476597142532">
        <ele>267.5760976143</ele>
        <time>2026-08-24T19:44:00Z</time>
      </trkpt>
      <trkpt lat="41.40039136251314" lon="-81.73462724857883">
        <ele>267.4121115379</ele>
        <time>2026-08-24T19:44:10Z</time>
      </trkpt>
      <trkpt lat="41.40084756850836" lon="-81.73463101736751">
        <ele>267.3634809510</ele>
        <time>2026-08-24T19:44:53Z</time>
      </trkpt>
      <trkpt lat="41.40129437721721" lon="-81.73462809935236">
        <ele>267.2778213127</ele>
        <time>2026-08-24T19:45:31Z</time>
      </trkpt>
      <trkpt lat="41.40130846983086" lon="-81.73463099868842">
        <ele>267.2773014022</ele>
        <time>2026-08-24T19:45:33Z</time>
      </trkpt>
      <trkpt lat="41.40131959956646" lon="-81.73522721751858">
        <ele>267.8676555058</ele>
        <time>2026-08-24T19:46:07Z</time>
      </trkpt>
      <trkpt lat="41.40131997393127" lon="-81.73583760598579">
        <ele>268.2089788119</ele>
        <time>2026-08-24T19:46:47Z</time>
      </trkpt>
      <trkpt lat="41.40132231971720" lon="-81.73643642553014">
        <ele>268.0458686947</ele>
        <time>2026-08-24T19:47:51Z</time>
      </trkpt>
      <trkpt lat="41.40133070131934" lon="-81.73702594288659">
        <ele>268.0940367298</ele>
        <time>2026-08-24T19:48:31Z</time>
      </trkpt>
      <trkpt lat="41.40133364547443" lon="-81.73762520759510">
        <ele>268.1158537120</ele>
        <time>2026-08-24T19:49:14Z</time>
      </trkpt>
      <trkpt lat="41.40134809109100" lon="-81.73823180552547">
        <ele>267.9872273064</ele>
        <time>2026-08-24T19:49:55Z</time>
      </trkpt>
      <trkpt lat="41.40134087521865" lon="-81.73883492768917">
        <ele>267.3646099369</ele>
        <time>2026-08-24T19:50:32Z</time>
      </trkpt>
      <trkpt lat="41.40134064785504" lon="-81.73942415984375">
        <ele>266.9681060361</ele>
        <time>2026-08-24T19:51:03Z</time>
      </trkpt>
      <trkpt lat="41.40135154253478" lon="-81.74003560444876">
        <ele>266.6468675723</ele>
        <time>2026-08-24T19:51:57Z</time>
      </trkpt>
      <trkpt lat="41.40135024283647" lon="-81.74019855008061">
        <ele>266.3196409771</ele>
        <time>2026-08-24T19:52:08Z</time>
      </trkpt>
    </trkseg>
  </trk>
</gpx>