<?xml version='1.0' encoding='UTF-8'?>
<gpx xmlns="http://www.topografix.com/GPX/1/1" creator="https://gpx.studio" version="1.1">
  <metadata>
    <name>Dog Walk - 2026-03-07 #2</name>
  </metadata>
  <trk>
    <name>Dog Walk - 2026-03-07 #2</name>
    <type>dog walk</type>
    <trkseg>
      <trkpt lat="41.40133667348832" lon="-81.74026391081676">
        <ele>266.6375885926</ele>
        <time>2026-03-07T11:32:22Z</time>
      </trkpt>
      <trkpt lat="41.40132217163804" lon="-81.74025998769274">
        <ele>266.6312437066</ele>
        <time>2026-03-07T11:32:23Z</time>
      </trkpt>
      <trkpt lat="41.40132817669943" lon="-81.74085307130521">
        <ele>266.1772082129</ele>
        <time>2026-03-07T11:32:58Z</time>
      </trkpt>
      <trkpt lat="41.40132782421280" lon="-81.74146085857770">
        <ele>265.9362176889</ele>
        <time>2026-03-07T11:33:49Z</time>
      </trkpt>
      <trkpt lat="41.40132701627871" lon="-81.74205136968871">
        <ele>265.2056731860</ele>
        <time>2026-03-07T11:34:31Z</time>
      </trkpt>
      <trkpt lat="41.40131734747690" lon="-81.74237651665506">
        <ele>264.8673212793</ele>
        <time>2026-03-07T11:34:54Z</time>
      </trkpt>
      <trkpt lat="41.40132385782022" lon="-81.74237190069603">
        <ele>264.8596093034</ele>
        <time>2026-03-07T11:34:55Z</time>
      </trkpt>
      <trkpt lat="41.40089566811582" lon="-81.74219396893341">
        <ele>265.2251722379</ele>
        <time>2026-03-07T11:35:29Z</time>
      </trkpt>
      <trkpt lat="41.40047730653974" lon="-81.74199732492193">
        <ele>265.0703940837</ele>
        <time>2026-03-07T11:36:11Z</time>
      </trkpt>
      <trkpt lat="41.40005114756091" lon="-81.74179667746105">
        <ele>265.5193564859</ele>
        <time>2026-03-07T11:36:50Z</time>
      </trkpt>
      <trkpt lat="41.39962536736942" lon="-81.74161053151012">
        <ele>264.5450144014</ele>
        <time>2026-03-07T11:37:35Z</time>
      </trkpt>
      <trkpt lat="41.39954405981826" lon="-81.74156102383624">
        <ele>265.0280883229</ele>
        <time>2026-03-07T11:37:44Z</time>
      </trkpt>
      <trkpt lat="41.39954864190271" lon="-81.74097219367690">
        <ele>265.8795383780</ele>
        <time>2026-03-07T11:38:15Z</time>
      </trkpt>
      <trkpt lat="41.39953724334545" lon="-81.74036516674214">
        <ele>266.1740299280</ele>
        <time>2026-03-07T11:38:56Z</time>
      </trkpt>
      <trkpt lat="41.39953307948448" lon="-81.73977668623148">
        <ele>266.6350097174</ele>
        <time>2026-03-07T11:39:29Z</time>
      </trkpt>
      <trkpt lat="41.39953017572251" lon="-81.73917716401483">
        <ele>266.8050188559</ele>
        <time>2026-03-07T11:40:04Z</time>
      </trkpt>
      <trkpt lat="41.39954594743965" lon="-81.73858052378839">
        <ele>267.1115507035</ele>
        <time>2026-03-07T11:40:36Z</time>
      </trkpt>
      <trkpt lat="41.39954144778332" lon="-81.73829562077219">
        <ele>266.9434666049</ele>
        <time>2026-03-07T11:40:55Z</time>
      </trkpt>
      <trkpt lat="41.39953673500101" lon="-81.73830462199662">
        <ele>266.8883085903</ele>
        <time>2026-03-07T11:40:56Z</time>
      </trkpt>
      <trkpt lat="41.39998127815109" lon="-81.73829206642861">
        <ele>267.2208964082</ele>
        <time>2026-03-07T11:41:38Z</time>
      </trkpt>
      <trkpt lat="41.40043187326116" lon="-81.73830558284433">
        <ele>267.3144998890</ele>
        <time>2026-03-07T11:42:20Z</time>
      </trkpt>
      <trkpt lat="41.40088597334289" lon="-81.73829650561700">
        <ele>267.5473136069</ele>
        <time>2026-03-07T11:43:16Z</time>
      </trkpt>
      <trkpt lat="41.40132484376388" lon="-81.73830764850088">
        <ele>267.5511996583</ele>
        <time>2026-03-07T11:44:03Z</time>
      </trkpt>
      <trkpt lat="41.40133379114398" lon="-81.73889286789002">
        <ele>267.4108111555</ele>
        <time>2026-03-07T11:44:48Z</time>
      </trkpt>
      <trkpt lat="41.40133187012776" lon="-81.73950515603977">
        <ele>267.4038516492</ele>
        <time>2026-03-07T11:45:19Z</time>
      </trkpt>
      <trkpt lat="41.40133627986609" lon="-81.74009190409755">
        <ele>266.7625120198</ele>
        <time>2026-03-07T11:46:00Z</time>
      </trkpt>
      <trkpt lat="41.40134734897087" lon="-81.74016234822660">
        <ele>266.6199778515</ele>
        <time>2026-03-07T11:46:22Z</time>
      </trkpt>
    </trkseg>
  </trk>
</gpx>