<?xml version='1.0' encoding='UTF-8'?>
<gpx xmlns="http://www.topografix.com/GPX/1/1" creator="https://gpx.studio" version="1.1">
  <metadata>
    <name>Dog Walk - 2026-03-02 #4</name>
  </metadata>
  <trk>
    <name>Dog Walk - 2026-03-02 #4</name>
    <type>dog walk</type>
    <trkseg>
      <trkpt lat="41.40133439449711" lon="-81.74024448177109">
        <ele>266.3607499909</ele>
        <time>2026-03-02T20:05:39Z</time>
      </trkpt>
      <trkpt lat="41.40134747968902" lon="-81.74083412274345">
        <ele>266.0894800097</ele>
        <time>2026-03-02T20:06:14Z</time>
      </trkpt>
      <trkpt lat="41.40135232401073" lon="-81.74144036088100">
        <ele>265.7644890355</ele>
        <time>2026-03-02T20:06:55Z</time>
      </trkpt>
      <trkpt lat="41.40135169880264" lon="-81.74203429187541">
        <ele>265.3040478974</ele>
        <time>2026-03-02T20:07:32Z</time>
      </trkpt>
      <trkpt lat="41.40134941457151" lon="-81.74242903012963">
        <ele>264.6301289083</ele>
        <time>2026-03-02T20:07:58Z</time>
      </trkpt>
      <trkpt lat="41.40177254329148" lon="-81.74263661327694">
        <ele>264.1749484099</ele>
        <time>2026-03-02T20:08:30Z</time>
      </trkpt>
      <trkpt lat="41.40218320676302" lon="-81.74283803748007">
        <ele>263.4952449395</ele>
        <time>2026-03-02T20:09:07Z</time>
      </trkpt>
      <trkpt lat="41.40221313042411" lon="-81.74286387748103">
        <ele>263.2813295516</ele>
        <time>2026-03-02T20:09:10Z</time>
      </trkpt>
      <trkpt lat="41.40221440904207" lon="-81.74226534282450">
        <ele>264.0540488602</ele>
        <time>2026-03-02T20:09:55Z</time>
      </trkpt>
      <trkpt lat="41.40221324683471" lon="-81.74166389655984">
        <ele>264.6440991116</ele>
        <time>2026-03-02T20:10:28Z</time>
      </trkpt>
      <trkpt lat="41.40221824074312" lon="-81.74106057246635">
        <ele>265.4071751843</ele>
        <time>2026-03-02T20:11:19Z</time>
      </trkpt>
      <trkpt lat="41.40222952073464" lon="-81.74046221234966">
        <ele>265.9739210934</ele>
        <time>2026-03-02T20:11:56Z</time>
      </trkpt>
      <trkpt lat="41.40221982620878" lon="-81.73987214498082">
        <ele>266.3029210791</ele>
        <time>2026-03-02T20:12:29Z</time>
      </trkpt>
      <trkpt lat="41.40221667430274" lon="-81.73927400791798">
        <ele>266.9241747277</ele>
        <time>2026-03-02T20:13:02Z</time>
      </trkpt>
      <trkpt lat="41.40222283679407" lon="-81.73866222635382">
        <ele>267.0007983269</ele>
        <time>2026-03-02T20:13:36Z</time>
      </trkpt>
      <trkpt lat="41.40222046134144" lon="-81.73826931661469">
        <ele>266.9032239938</ele>
        <time>2026-03-02T20:13:57Z</time>
      </trkpt>
      <trkpt lat="41.40176860372630" lon="-81.73826907196181">
        <ele>267.7625178075</ele>
        <time>2026-03-02T20:14:27Z</time>
      </trkpt>
      <trkpt lat="41.40134926509535" lon="-81.73825785965269">
        <ele>267.6169748583</ele>
        <time>2026-03-02T20:15:06Z</time>
      </trkpt>
      <trkpt lat="41.40134017208532" lon="-81.73886673464676">
        <ele>267.4758640212</ele>
        <time>2026-03-02T20:15:55Z</time>
      </trkpt>
      <trkpt lat="41.40133355038663" lon="-81.73945904672152">
        <ele>267.2282864977</ele>
        <time>2026-03-02T20:16:45Z</time>
      </trkpt>
      <trkpt lat="41.40134484790963" lon="-81.74006020303858">
        <ele>266.5639988196</ele>
        <time>2026-03-02T20:17:22Z</time>
      </trkpt>
      <trkpt lat="41.40134072820039" lon="-81.74019099905709">
        <ele>266.4001314424</ele>
        <time>2026-03-02T20:17:33Z</time>
      </trkpt>
    </trkseg>
  </trk>
</gpx>