<?xml version='1.0' encoding='UTF-8'?>
<gpx xmlns="http://www.topografix.com/GPX/1/1" creator="https://gpx.studio" version="1.1">
  <metadata>
    <name>Dog Walk - 2026-04-12 #1</name>
  </metadata>
  <trk>
    <name>Dog Walk - 2026-04-12 #1</name>
    <type>dog walk</type>
    <trkseg>
      <trkpt lat="41.40133053841317" lon="-81.74022827511033">
        <ele>266.3463707712</ele>
        <time>2026-04-12T07:04:39Z</time>
      </trkpt>
      <trkpt lat="41.40134075932057" lon="-81.74082108565824">
        <ele>266.2128844725</ele>
        <time>2026-04-12T07:05:31Z</time>
      </trkpt>
      <trkpt lat="41.40135681659685" lon="-81.74143376250522">
        <ele>265.7205614165</ele>
        <time>2026-04-12T07:06:12Z</time>
      </trkpt>
      <trkpt lat="41.40133946810688" lon="-81.74203734724244">
        <ele>265.1114453632</ele>
        <time>2026-04-12T07:06:54Z</time>
      </trkpt>
      <trkpt lat="41.40135073819000" lon="-81.74240588445599">
        <ele>264.8365068584</ele>
        <time>2026-04-12T07:07:22Z</time>
      </trkpt>
      <trkpt lat="41.40177475457386" lon="-81.74263409943872">
        <ele>264.2781135438</ele>
        <time>2026-04-12T07:08:14Z</time>
      </trkpt>
      <trkpt lat="41.40219307251184" lon="-81.74283461872369">
        <ele>263.4272734809</ele>
        <time>2026-04-12T07:08:53Z</time>
      </trkpt>
      <trkpt lat="41.40261557829705" lon="-81.74305459123812">
        <ele>263.1012149430</ele>
        <time>2026-04-12T07:09:30Z</time>
      </trkpt>
      <trkpt lat="41.40302777850504" lon="-81.74326443698260">
        <ele>262.4329337740</ele>
        <time>2026-04-12T07:10:15Z</time>
      </trkpt>
      <trkpt lat="41.40345089331318" lon="-81.74347647234585">
        <ele>261.7085152978</ele>
        <time>2026-04-12T07:11:38Z</time>
      </trkpt>
      <trkpt lat="41.40348556336448" lon="-81.74350251329476">
        <ele>261.9044256901</ele>
        <time>2026-04-12T07:11:42Z</time>
      </trkpt>
      <trkpt lat="41.40360210603500" lon="-81.74351626924464">
        <ele>261.6616392622</ele>
        <time>2026-04-12T07:11:53Z</time>
      </trkpt>
      <trkpt lat="41.40399073652666" lon="-81.74350592137712">
        <ele>260.7079840030</ele>
        <time>2026-04-12T07:12:25Z</time>
      </trkpt>
      <trkpt lat="41.40399832373880" lon="-81.74290230747262">
        <ele>261.4435186676</ele>
        <time>2026-04-12T07:13:04Z</time>
      </trkpt>
      <trkpt lat="41.40398732100248" lon="-81.74230541437214">
        <ele>262.1115821462</ele>
        <time>2026-04-12T07:13:38Z</time>
      </trkpt>
      <trkpt lat="41.40399433716379" lon="-81.74171547898543">
        <ele>262.5607530734</ele>
        <time>2026-04-12T07:14:31Z</time>
      </trkpt>
      <trkpt lat="41.40398548624963" lon="-81.74111596120028">
        <ele>263.1290879014</ele>
        <time>2026-04-12T07:15:08Z</time>
      </trkpt>
      <trkpt lat="41.40399029732650" lon="-81.74050862836737">
        <ele>263.3457999222</ele>
        <time>2026-04-12T07:15:47Z</time>
      </trkpt>
      <trkpt lat="41.40398215181531" lon="-81.73991559041774">
        <ele>264.4335212434</ele>
        <time>2026-04-12T07:16:37Z</time>
      </trkpt>
      <trkpt lat="41.40399824406292" lon="-81.73931106926923">
        <ele>264.8217191957</ele>
        <time>2026-04-12T07:17:08Z</time>
      </trkpt>
      <trkpt lat="41.40398862322223" lon="-81.73877305135566">
        <ele>265.5616041006</ele>
        <time>2026-04-12T07:17:52Z</time>
      </trkpt>
      <trkpt lat="41.40353374379180" lon="-81.73877875884975">
        <ele>265.7928127296</ele>
        <time>2026-04-12T07:18:31Z</time>
      </trkpt>
      <trkpt lat="41.40309177764421" lon="-81.73877926999727">
        <ele>266.2243534556</ele>
        <time>2026-04-12T07:19:05Z</time>
      </trkpt>
      <trkpt lat="41.40263201933765" lon="-81.73878616022542">
        <ele>266.8673110286</ele>
        <time>2026-04-12T07:19:51Z</time>
      </trkpt>
      <trkpt lat="41.40222834637891" lon="-81.73877724201873">
        <ele>267.0795804735</ele>
        <time>2026-04-12T07:20:26Z</time>
      </trkpt>
      <trkpt lat="41.40222081122729" lon="-81.73827203420988">
        <ele>267.0502464430</ele>
        <time>2026-04-12T07:20:59Z</time>
      </trkpt>
      <trkpt lat="41.40176454615516" lon="-81.73826069373037">
        <ele>267.8744703930</ele>
        <time>2026-04-12T07:21:42Z</time>
      </trkpt>
      <trkpt lat="41.40132729262013" lon="-81.73826381429568">
        <ele>267.5464669133</ele>
        <time>2026-04-12T07:22:22Z</time>
      </trkpt>
      <trkpt lat="41.40133876803287" lon="-81.73885604172956">
        <ele>267.2954637052</ele>
        <time>2026-04-12T07:23:02Z</time>
      </trkpt>
      <trkpt lat="41.40133397196813" lon="-81.73946835347421">
        <ele>267.2174481465</ele>
        <time>2026-04-12T07:23:42Z</time>
      </trkpt>
      <trkpt lat="41.40134286580087" lon="-81.74006585718872">
        <ele>266.5668575523</ele>
        <time>2026-04-12T07:24:26Z</time>
      </trkpt>
      <trkpt lat="41.40133810079238" lon="-81.74021331060760">
        <ele>266.6861563619</ele>
        <time>2026-04-12T07:24:36Z</time>
      </trkpt>
    </trkseg>
  </trk>
</gpx>