<?xml version='1.0' encoding='UTF-8'?>
<gpx xmlns="http://www.topografix.com/GPX/1/1" creator="https://gpx.studio" version="1.1">
  <metadata>
    <name>Dog Walk - 2026-03-30 #2</name>
  </metadata>
  <trk>
    <name>Dog Walk - 2026-03-30 #2</name>
    <type>dog walk</type>
    <trkseg>
      <trkpt lat="41.40135409695342" lon="-81.74023302545814">
        <ele>266.6530366420</ele>
        <time>2026-03-30T16:01:00Z</time>
      </trkpt>
      <trkpt lat="41.40133606698784" lon="-81.74083002728412">
        <ele>266.2760627661</ele>
        <time>2026-03-30T16:01:40Z</time>
      </trkpt>
      <trkpt lat="41.40133751711083" lon="-81.74143551016944">
        <ele>266.0142241496</ele>
        <time>2026-03-30T16:02:24Z</time>
      </trkpt>
      <trkpt lat="41.40132873726097" lon="-81.74202969089416">
        <ele>265.3941727306</ele>
        <time>2026-03-30T16:03:03Z</time>
      </trkpt>
      <trkpt lat="41.40132572220293" lon="-81.74239304011149">
        <ele>264.7169678970</ele>
        <time>2026-03-30T16:03:31Z</time>
      </trkpt>
      <trkpt lat="41.40091271507522" lon="-81.74216831974682">
        <ele>265.1493752958</ele>
        <time>2026-03-30T16:04:33Z</time>
      </trkpt>
      <trkpt lat="41.40048711058459" lon="-81.74197044300288">
        <ele>265.2532160999</ele>
        <time>2026-03-30T16:05:10Z</time>
      </trkpt>
      <trkpt lat="41.40044836031574" lon="-81.74193938881362">
        <ele>265.3090139342</ele>
        <time>2026-03-30T16:05:24Z</time>
      </trkpt>
      <trkpt lat="41.40044228968902" lon="-81.74134672942998">
        <ele>266.1097936789</ele>
        <time>2026-03-30T16:06:06Z</time>
      </trkpt>
      <trkpt lat="41.40043783611468" lon="-81.74074483351038">
        <ele>266.3236843726</ele>
        <time>2026-03-30T16:06:47Z</time>
      </trkpt>
      <trkpt lat="41.40043618777739" lon="-81.74014747107201">
        <ele>266.6086245365</ele>
        <time>2026-03-30T16:07:32Z</time>
      </trkpt>
      <trkpt lat="41.40044106764179" lon="-81.73955689521250">
        <ele>266.8210018917</ele>
        <time>2026-03-30T16:08:11Z</time>
      </trkpt>
      <trkpt lat="41.40043154198933" lon="-81.73894639623292">
        <ele>267.1351823660</ele>
        <time>2026-03-30T16:08:51Z</time>
      </trkpt>
      <trkpt lat="41.40042316317509" lon="-81.73834396129124">
        <ele>267.5382185335</ele>
        <time>2026-03-30T16:09:37Z</time>
      </trkpt>
      <trkpt lat="41.40041171404985" lon="-81.73774902180530">
        <ele>267.6683169541</ele>
        <time>2026-03-30T16:10:04Z</time>
      </trkpt>
      <trkpt lat="41.40041846981784" lon="-81.73716252007804">
        <ele>267.8141025918</ele>
        <time>2026-03-30T16:10:43Z</time>
      </trkpt>
      <trkpt lat="41.40040067128415" lon="-81.73654941032824">
        <ele>267.9629392452</ele>
        <time>2026-03-30T16:11:36Z</time>
      </trkpt>
      <trkpt lat="41.40040360697552" lon="-81.73594999717348">
        <ele>267.9419219599</ele>
        <time>2026-03-30T16:12:16Z</time>
      </trkpt>
      <trkpt lat="41.40039540486611" lon="-81.73535746468187">
        <ele>267.7938627023</ele>
        <time>2026-03-30T16:12:56Z</time>
      </trkpt>
      <trkpt lat="41.40039689577497" lon="-81.73476181292965">
        <ele>267.5123102627</ele>
        <time>2026-03-30T16:13:41Z</time>
      </trkpt>
      <trkpt lat="41.40039344546319" lon="-81.73462992270461">
        <ele>267.3009232361</ele>
        <time>2026-03-30T16:13:47Z</time>
      </trkpt>
      <trkpt lat="41.40083846642121" lon="-81.73463675255479">
        <ele>267.3749492431</ele>
        <time>2026-03-30T16:14:30Z</time>
      </trkpt>
      <trkpt lat="41.40129610938738" lon="-81.73463617239514">
        <ele>267.3487517707</ele>
        <time>2026-03-30T16:15:15Z</time>
      </trkpt>
      <trkpt lat="41.40131641142814" lon="-81.73462502823914">
        <ele>267.4479166319</ele>
        <time>2026-03-30T16:15:16Z</time>
      </trkpt>
      <trkpt lat="41.40132374070640" lon="-81.73522092694040">
        <ele>267.9163513279</ele>
        <time>2026-03-30T16:15:50Z</time>
      </trkpt>
      <trkpt lat="41.40132925267571" lon="-81.73583355701626">
        <ele>268.1841142774</ele>
        <time>2026-03-30T16:16:23Z</time>
      </trkpt>
      <trkpt lat="41.40131648943598" lon="-81.73642826780461">
        <ele>268.0250157818</ele>
        <time>2026-03-30T16:17:10Z</time>
      </trkpt>
      <trkpt lat="41.40132840960747" lon="-81.73703500603045">
        <ele>268.0158326760</ele>
        <time>2026-03-30T16:18:23Z</time>
      </trkpt>
      <trkpt lat="41.40133588157866" lon="-81.73763974933168">
        <ele>268.1853188215</ele>
        <time>2026-03-30T16:19:17Z</time>
      </trkpt>
      <trkpt lat="41.40133810710633" lon="-81.73824132844260">
        <ele>267.5882057541</ele>
        <time>2026-03-30T16:19:59Z</time>
      </trkpt>
      <trkpt lat="41.40133243151315" lon="-81.73882841559090">
        <ele>267.3523427879</ele>
        <time>2026-03-30T16:20:36Z</time>
      </trkpt>
      <trkpt lat="41.40134656944679" lon="-81.73943360106813">
        <ele>267.1035242014</ele>
        <time>2026-03-30T16:21:41Z</time>
      </trkpt>
      <trkpt lat="41.40134721436941" lon="-81.74003571930751">
        <ele>266.6162466285</ele>
        <time>2026-03-30T16:22:31Z</time>
      </trkpt>
      <trkpt lat="41.40134113109808" lon="-81.74020551226093">
        <ele>266.6471769894</ele>
        <time>2026-03-30T16:22:43Z</time>
      </trkpt>
    </trkseg>
  </trk>
</gpx>