<?xml version='1.0' encoding='UTF-8'?>
<gpx xmlns="http://www.topografix.com/GPX/1/1" creator="https://gpx.studio" version="1.1">
  <metadata>
    <name>Dog Walk - 2026-03-02 #2</name>
  </metadata>
  <trk>
    <name>Dog Walk - 2026-03-02 #2</name>
    <type>dog walk</type>
    <trkseg>
      <trkpt lat="41.40133067561256" lon="-81.74026082213804">
        <ele>266.5764452933</ele>
        <time>2026-03-02T11:32:43Z</time>
      </trkpt>
      <trkpt lat="41.40133042396178" lon="-81.74025703099024">
        <ele>266.4277719659</ele>
        <time>2026-03-02T11:32:44Z</time>
      </trkpt>
      <trkpt lat="41.40133662902348" lon="-81.74086767281726">
        <ele>266.0964567744</ele>
        <time>2026-03-02T11:33:16Z</time>
      </trkpt>
      <trkpt lat="41.40132874191532" lon="-81.74145682684211">
        <ele>266.0186876329</ele>
        <time>2026-03-02T11:33:52Z</time>
      </trkpt>
      <trkpt lat="41.40132625505900" lon="-81.74204799225723">
        <ele>265.4014308445</ele>
        <time>2026-03-02T11:34:33Z</time>
      </trkpt>
      <trkpt lat="41.40132379041752" lon="-81.74237800918577">
        <ele>264.7211574118</ele>
        <time>2026-03-02T11:35:00Z</time>
      </trkpt>
      <trkpt lat="41.40132406883851" lon="-81.74238740008535">
        <ele>264.6961769413</ele>
        <time>2026-03-02T11:35:01Z</time>
      </trkpt>
      <trkpt lat="41.40090176315365" lon="-81.74217795119434">
        <ele>265.2075298983</ele>
        <time>2026-03-02T11:35:44Z</time>
      </trkpt>
      <trkpt lat="41.40047685029369" lon="-81.74199014540532">
        <ele>264.9981891633</ele>
        <time>2026-03-02T11:36:14Z</time>
      </trkpt>
      <trkpt lat="41.40004816056088" lon="-81.74180048213454">
        <ele>265.1834635987</ele>
        <time>2026-03-02T11:37:06Z</time>
      </trkpt>
      <trkpt lat="41.39962217560856" lon="-81.74160173286589">
        <ele>264.8299140880</ele>
        <time>2026-03-02T11:37:48Z</time>
      </trkpt>
      <trkpt lat="41.39954086174281" lon="-81.74156696850841">
        <ele>264.6575114809</ele>
        <time>2026-03-02T11:37:54Z</time>
      </trkpt>
      <trkpt lat="41.39954568803942" lon="-81.74097888175520">
        <ele>265.5645638122</ele>
        <time>2026-03-02T11:38:40Z</time>
      </trkpt>
      <trkpt lat="41.39954055013481" lon="-81.74036811243487">
        <ele>266.2914245075</ele>
        <time>2026-03-02T11:39:33Z</time>
      </trkpt>
      <trkpt lat="41.39953571165141" lon="-81.73977527313369">
        <ele>266.6957792131</ele>
        <time>2026-03-02T11:40:29Z</time>
      </trkpt>
      <trkpt lat="41.39953931872478" lon="-81.73916494258505">
        <ele>266.9711996472</ele>
        <time>2026-03-02T11:41:28Z</time>
      </trkpt>
      <trkpt lat="41.39953889920300" lon="-81.73856944619894">
        <ele>266.9952583052</ele>
        <time>2026-03-02T11:42:05Z</time>
      </trkpt>
      <trkpt lat="41.39954025108185" lon="-81.73829520453920">
        <ele>266.9093993026</ele>
        <time>2026-03-02T11:42:22Z</time>
      </trkpt>
      <trkpt lat="41.39954149516213" lon="-81.73829465463579">
        <ele>267.1671094700</ele>
        <time>2026-03-02T11:42:23Z</time>
      </trkpt>
      <trkpt lat="41.39998090862527" lon="-81.73830125808681">
        <ele>267.2224972103</ele>
        <time>2026-03-02T11:43:03Z</time>
      </trkpt>
      <trkpt lat="41.40044070146477" lon="-81.73830500445919">
        <ele>267.1773423151</ele>
        <time>2026-03-02T11:43:54Z</time>
      </trkpt>
      <trkpt lat="41.40088683397237" lon="-81.73829765161548">
        <ele>267.4359320236</ele>
        <time>2026-03-02T11:44:23Z</time>
      </trkpt>
      <trkpt lat="41.40132155669203" lon="-81.73829866580613">
        <ele>267.4485848045</ele>
        <time>2026-03-02T11:44:58Z</time>
      </trkpt>
      <trkpt lat="41.40133366706308" lon="-81.73890434602438">
        <ele>267.2302291437</ele>
        <time>2026-03-02T11:45:43Z</time>
      </trkpt>
      <trkpt lat="41.40133791156612" lon="-81.73950932204048">
        <ele>267.2799998425</ele>
        <time>2026-03-02T11:46:14Z</time>
      </trkpt>
      <trkpt lat="41.40133748363552" lon="-81.74009956774610">
        <ele>266.8148715147</ele>
        <time>2026-03-02T11:46:56Z</time>
      </trkpt>
      <trkpt lat="41.40133524676664" lon="-81.74016416999631">
        <ele>266.6543975006</ele>
        <time>2026-03-02T11:47:02Z</time>
      </trkpt>
    </trkseg>
  </trk>
</gpx>