<?xml version='1.0' encoding='UTF-8'?>
<gpx xmlns="http://www.topografix.com/GPX/1/1" creator="https://gpx.studio" version="1.1">
  <metadata>
    <name>Dog Walk - 2026-08-27 #3</name>
  </metadata>
  <trk>
    <name>Dog Walk - 2026-08-27 #3</name>
    <type>dog walk</type>
    <trkseg>
      <trkpt lat="41.40134725246569" lon="-81.74023747773190">
        <ele>266.4473162368</ele>
        <time>2026-08-27T15:44:15Z</time>
      </trkpt>
      <trkpt lat="41.40134003483917" lon="-81.74082896691583">
        <ele>266.2662701987</ele>
        <time>2026-08-27T15:44:49Z</time>
      </trkpt>
      <trkpt lat="41.40134093351740" lon="-81.74143314148623">
        <ele>265.8554271092</ele>
        <time>2026-08-27T15:45:20Z</time>
      </trkpt>
      <trkpt lat="41.40133599186250" lon="-81.74201496010713">
        <ele>265.4079482781</ele>
        <time>2026-08-27T15:46:02Z</time>
      </trkpt>
      <trkpt lat="41.40133954398510" lon="-81.74238821273717">
        <ele>264.6537286106</ele>
        <time>2026-08-27T15:46:33Z</time>
      </trkpt>
      <trkpt lat="41.40090612027005" lon="-81.74218859974140">
        <ele>265.0858468269</ele>
        <time>2026-08-27T15:47:08Z</time>
      </trkpt>
      <trkpt lat="41.40048398244735" lon="-81.74196941840566">
        <ele>265.1279547162</ele>
        <time>2026-08-27T15:47:53Z</time>
      </trkpt>
      <trkpt lat="41.40044495297792" lon="-81.74195416535977">
        <ele>265.4735837377</ele>
        <time>2026-08-27T15:47:57Z</time>
      </trkpt>
      <trkpt lat="41.40044358644792" lon="-81.74136074998115">
        <ele>265.9670435369</ele>
        <time>2026-08-27T15:48:34Z</time>
      </trkpt>
      <trkpt lat="41.40043775374378" lon="-81.74074496896495">
        <ele>266.3469805695</ele>
        <time>2026-08-27T15:49:32Z</time>
      </trkpt>
      <trkpt lat="41.40043240263109" lon="-81.74015109103853">
        <ele>266.8947637736</ele>
        <time>2026-08-27T15:50:05Z</time>
      </trkpt>
      <trkpt lat="41.40042604257488" lon="-81.73954698619367">
        <ele>267.1091213713</ele>
        <time>2026-08-27T15:50:45Z</time>
      </trkpt>
      <trkpt lat="41.40042533025956" lon="-81.73894283688547">
        <ele>267.1788077536</ele>
        <time>2026-08-27T15:51:16Z</time>
      </trkpt>
      <trkpt lat="41.40041644936109" lon="-81.73835236140580">
        <ele>267.3613848044</ele>
        <time>2026-08-27T15:51:49Z</time>
      </trkpt>
      <trkpt lat="41.40041817121296" lon="-81.73776133334054">
        <ele>267.6519833912</ele>
        <time>2026-08-27T15:52:24Z</time>
      </trkpt>
      <trkpt lat="41.40041438328862" lon="-81.73716587520161">
        <ele>267.9402066704</ele>
        <time>2026-08-27T15:52:56Z</time>
      </trkpt>
      <trkpt lat="41.40040109885229" lon="-81.73656054611537">
        <ele>267.9194912919</ele>
        <time>2026-08-27T15:53:38Z</time>
      </trkpt>
      <trkpt lat="41.40040459568208" lon="-81.73596635305196">
        <ele>267.9903025516</ele>
        <time>2026-08-27T15:54:26Z</time>
      </trkpt>
      <trkpt lat="41.40039683636051" lon="-81.73535528332671">
        <ele>267.9557767076</ele>
        <time>2026-08-27T15:55:05Z</time>
      </trkpt>
      <trkpt lat="41.40040216976828" lon="-81.73476373161370">
        <ele>267.4347878986</ele>
        <time>2026-08-27T15:55:36Z</time>
      </trkpt>
      <trkpt lat="41.40040126426850" lon="-81.73462806570258">
        <ele>267.2987254934</ele>
        <time>2026-08-27T15:55:43Z</time>
      </trkpt>
      <trkpt lat="41.40084577032019" lon="-81.73462922406704">
        <ele>267.1184143658</ele>
        <time>2026-08-27T15:56:18Z</time>
      </trkpt>
      <trkpt lat="41.40129454214017" lon="-81.73463123278168">
        <ele>267.3748955125</ele>
        <time>2026-08-27T15:57:11Z</time>
      </trkpt>
      <trkpt lat="41.40131825552100" lon="-81.73463881336058">
        <ele>267.2577040734</ele>
        <time>2026-08-27T15:57:13Z</time>
      </trkpt>
      <trkpt lat="41.40132143447805" lon="-81.73523071879238">
        <ele>267.8779089997</ele>
        <time>2026-08-27T15:58:05Z</time>
      </trkpt>
      <trkpt lat="41.40132637794645" lon="-81.73582597274685">
        <ele>268.1876427984</ele>
        <time>2026-08-27T15:58:44Z</time>
      </trkpt>
      <trkpt lat="41.40133203838355" lon="-81.73643485692487">
        <ele>268.3545903348</ele>
        <time>2026-08-27T15:59:21Z</time>
      </trkpt>
      <trkpt lat="41.40133682088193" lon="-81.73704810187812">
        <ele>267.8004772847</ele>
        <time>2026-08-27T16:00:08Z</time>
      </trkpt>
      <trkpt lat="41.40133392480645" lon="-81.73763519450122">
        <ele>267.9628739393</ele>
        <time>2026-08-27T16:00:53Z</time>
      </trkpt>
      <trkpt lat="41.40134260471570" lon="-81.73823805272393">
        <ele>267.5083435005</ele>
        <time>2026-08-27T16:01:43Z</time>
      </trkpt>
      <trkpt lat="41.40133937957227" lon="-81.73883291323826">
        <ele>267.2064297820</ele>
        <time>2026-08-27T16:02:23Z</time>
      </trkpt>
      <trkpt lat="41.40134368026850" lon="-81.73943380782892">
        <ele>267.2396461696</ele>
        <time>2026-08-27T16:03:15Z</time>
      </trkpt>
      <trkpt lat="41.40133908722238" lon="-81.74003531734164">
        <ele>266.7150428755</ele>
        <time>2026-08-27T16:04:16Z</time>
      </trkpt>
      <trkpt lat="41.40134868024549" lon="-81.74019782679127">
        <ele>266.6801331334</ele>
        <time>2026-08-27T16:04:28Z</time>
      </trkpt>
    </trkseg>
  </trk>
</gpx>