<?xml version='1.0' encoding='UTF-8'?>
<gpx xmlns="http://www.topografix.com/GPX/1/1" creator="https://gpx.studio" version="1.1">
  <metadata>
    <name>Dog Walk - 2026-04-28 #1</name>
  </metadata>
  <trk>
    <name>Dog Walk - 2026-04-28 #1</name>
    <type>dog walk</type>
    <trkseg>
      <trkpt lat="41.40133693569533" lon="-81.74025733405024">
        <ele>266.5180097810</ele>
        <time>2026-04-28T07:19:25Z</time>
      </trkpt>
      <trkpt lat="41.40132936359382" lon="-81.74026289689824">
        <ele>266.4611418318</ele>
        <time>2026-04-28T07:19:29Z</time>
      </trkpt>
      <trkpt lat="41.40133036155712" lon="-81.74085702144232">
        <ele>266.0617017694</ele>
        <time>2026-04-28T07:20:24Z</time>
      </trkpt>
      <trkpt lat="41.40131837893537" lon="-81.74145758643101">
        <ele>265.9108160404</ele>
        <time>2026-04-28T07:21:08Z</time>
      </trkpt>
      <trkpt lat="41.40132341632364" lon="-81.74207107005334">
        <ele>265.1565347911</ele>
        <time>2026-04-28T07:21:59Z</time>
      </trkpt>
      <trkpt lat="41.40132626532202" lon="-81.74237475438076">
        <ele>264.7618873430</ele>
        <time>2026-04-28T07:22:17Z</time>
      </trkpt>
      <trkpt lat="41.40132606665578" lon="-81.74237723030309">
        <ele>264.8431513300</ele>
        <time>2026-04-28T07:22:18Z</time>
      </trkpt>
      <trkpt lat="41.40090242062853" lon="-81.74218174175142">
        <ele>265.0942759926</ele>
        <time>2026-04-28T07:23:01Z</time>
      </trkpt>
      <trkpt lat="41.40047051403905" lon="-81.74198400948495">
        <ele>265.0928972478</ele>
        <time>2026-04-28T07:23:47Z</time>
      </trkpt>
      <trkpt lat="41.40004518057955" lon="-81.74180500421059">
        <ele>265.5477865323</ele>
        <time>2026-04-28T07:24:32Z</time>
      </trkpt>
      <trkpt lat="41.39962297470790" lon="-81.74160432390127">
        <ele>264.7627366067</ele>
        <time>2026-04-28T07:25:29Z</time>
      </trkpt>
      <trkpt lat="41.39953921820477" lon="-81.74157996434367">
        <ele>264.6632763385</ele>
        <time>2026-04-28T07:25:37Z</time>
      </trkpt>
      <trkpt lat="41.39953302881283" lon="-81.74097212623903">
        <ele>265.7470641108</ele>
        <time>2026-04-28T07:26:20Z</time>
      </trkpt>
      <trkpt lat="41.39953390355214" lon="-81.74036694637529">
        <ele>266.2654661414</ele>
        <time>2026-04-28T07:27:01Z</time>
      </trkpt>
      <trkpt lat="41.39953229931927" lon="-81.73977195061545">
        <ele>266.5490635313</ele>
        <time>2026-04-28T07:27:54Z</time>
      </trkpt>
      <trkpt lat="41.39953962750133" lon="-81.73917456460561">
        <ele>267.0776196827</ele>
        <time>2026-04-28T07:28:28Z</time>
      </trkpt>
      <trkpt lat="41.39953507640060" lon="-81.73857288041303">
        <ele>266.7524809421</ele>
        <time>2026-04-28T07:29:11Z</time>
      </trkpt>
      <trkpt lat="41.39953899037521" lon="-81.73829168295832">
        <ele>266.8278659736</ele>
        <time>2026-04-28T07:29:33Z</time>
      </trkpt>
      <trkpt lat="41.39953417462558" lon="-81.73829681554838">
        <ele>266.7494900048</ele>
        <time>2026-04-28T07:29:34Z</time>
      </trkpt>
      <trkpt lat="41.39998555686599" lon="-81.73830412104347">
        <ele>267.2564683926</ele>
        <time>2026-04-28T07:30:05Z</time>
      </trkpt>
      <trkpt lat="41.40043221294720" lon="-81.73830714589376">
        <ele>267.2563041788</ele>
        <time>2026-04-28T07:30:57Z</time>
      </trkpt>
      <trkpt lat="41.40088196234358" lon="-81.73830450582770">
        <ele>267.6520353965</ele>
        <time>2026-04-28T07:31:35Z</time>
      </trkpt>
      <trkpt lat="41.40132289238694" lon="-81.73831002013786">
        <ele>267.3786937489</ele>
        <time>2026-04-28T07:32:14Z</time>
      </trkpt>
      <trkpt lat="41.40133560838377" lon="-81.73890371681313">
        <ele>267.3757855822</ele>
        <time>2026-04-28T07:32:50Z</time>
      </trkpt>
      <trkpt lat="41.40133423191554" lon="-81.73949666069925">
        <ele>267.1251866812</ele>
        <time>2026-04-28T07:33:35Z</time>
      </trkpt>
      <trkpt lat="41.40133803368290" lon="-81.74010011547958">
        <ele>266.6079780683</ele>
        <time>2026-04-28T07:34:22Z</time>
      </trkpt>
      <trkpt lat="41.40133586073181" lon="-81.74016125167228">
        <ele>266.5158927149</ele>
        <time>2026-04-28T07:34:26Z</time>
      </trkpt>
    </trkseg>
  </trk>
</gpx>