<?xml version='1.0' encoding='UTF-8'?>
<gpx xmlns="http://www.topografix.com/GPX/1/1" creator="https://gpx.studio" version="1.1">
  <metadata>
    <name>Dog Walk - 2026-04-06 #4</name>
  </metadata>
  <trk>
    <name>Dog Walk - 2026-04-06 #4</name>
    <type>dog walk</type>
    <trkseg>
      <trkpt lat="41.40133566254025" lon="-81.74022691864539">
        <ele>266.4437258546</ele>
        <time>2026-04-06T17:17:17Z</time>
      </trkpt>
      <trkpt lat="41.40133768425585" lon="-81.74081913268471">
        <ele>266.2163815226</ele>
        <time>2026-04-06T17:17:56Z</time>
      </trkpt>
      <trkpt lat="41.40132708667657" lon="-81.74141692687579">
        <ele>265.6770631273</ele>
        <time>2026-04-06T17:18:40Z</time>
      </trkpt>
      <trkpt lat="41.40133130926215" lon="-81.74202237436091">
        <ele>265.2988142419</ele>
        <time>2026-04-06T17:19:21Z</time>
      </trkpt>
      <trkpt lat="41.40133071525823" lon="-81.74238478471958">
        <ele>264.6939410001</ele>
        <time>2026-04-06T17:19:41Z</time>
      </trkpt>
      <trkpt lat="41.40090354714542" lon="-81.74217813085038">
        <ele>265.0483544227</ele>
        <time>2026-04-06T17:20:20Z</time>
      </trkpt>
      <trkpt lat="41.40048597479728" lon="-81.74197305873079">
        <ele>265.2307063174</ele>
        <time>2026-04-06T17:20:55Z</time>
      </trkpt>
      <trkpt lat="41.40045356357242" lon="-81.74195415386869">
        <ele>265.1123206255</ele>
        <time>2026-04-06T17:20:57Z</time>
      </trkpt>
      <trkpt lat="41.40043866828798" lon="-81.74135590012246">
        <ele>265.8965905874</ele>
        <time>2026-04-06T17:21:39Z</time>
      </trkpt>
      <trkpt lat="41.40044707149142" lon="-81.74074796401145">
        <ele>266.2255680675</ele>
        <time>2026-04-06T17:22:21Z</time>
      </trkpt>
      <trkpt lat="41.40044431482731" lon="-81.74016023338619">
        <ele>266.6518580043</ele>
        <time>2026-04-06T17:22:52Z</time>
      </trkpt>
      <trkpt lat="41.40043746292794" lon="-81.73955007087069">
        <ele>266.9221401024</ele>
        <time>2026-04-06T17:23:33Z</time>
      </trkpt>
      <trkpt lat="41.40042821044029" lon="-81.73895552916825">
        <ele>267.2859439669</ele>
        <time>2026-04-06T17:24:29Z</time>
      </trkpt>
      <trkpt lat="41.40041881128325" lon="-81.73835658039852">
        <ele>267.2439517108</ele>
        <time>2026-04-06T17:25:08Z</time>
      </trkpt>
      <trkpt lat="41.40041996335415" lon="-81.73775784322140">
        <ele>267.5878301998</ele>
        <time>2026-04-06T17:25:48Z</time>
      </trkpt>
      <trkpt lat="41.40041664015819" lon="-81.73715032490351">
        <ele>267.9261190282</ele>
        <time>2026-04-06T17:26:44Z</time>
      </trkpt>
      <trkpt lat="41.40040378031923" lon="-81.73655032280442">
        <ele>268.0649151555</ele>
        <time>2026-04-06T17:27:40Z</time>
      </trkpt>
      <trkpt lat="41.40040072321656" lon="-81.73595542505883">
        <ele>268.0139638446</ele>
        <time>2026-04-06T17:28:20Z</time>
      </trkpt>
      <trkpt lat="41.40040307960095" lon="-81.73535099350087">
        <ele>267.8042222936</ele>
        <time>2026-04-06T17:29:17Z</time>
      </trkpt>
      <trkpt lat="41.40039584952272" lon="-81.73476151097776">
        <ele>267.3843348080</ele>
        <time>2026-04-06T17:29:49Z</time>
      </trkpt>
      <trkpt lat="41.40039112278494" lon="-81.73462684187834">
        <ele>267.1936404551</ele>
        <time>2026-04-06T17:29:58Z</time>
      </trkpt>
      <trkpt lat="41.40084824870736" lon="-81.73463595016558">
        <ele>267.2948712797</ele>
        <time>2026-04-06T17:30:49Z</time>
      </trkpt>
      <trkpt lat="41.40129464923641" lon="-81.73464135212886">
        <ele>267.2109254380</ele>
        <time>2026-04-06T17:31:26Z</time>
      </trkpt>
      <trkpt lat="41.40132567951522" lon="-81.73463910369216">
        <ele>267.3975546107</ele>
        <time>2026-04-06T17:31:31Z</time>
      </trkpt>
      <trkpt lat="41.40132088755596" lon="-81.73523707843991">
        <ele>267.7887130551</ele>
        <time>2026-04-06T17:32:18Z</time>
      </trkpt>
      <trkpt lat="41.40133522197256" lon="-81.73582904840609">
        <ele>268.4502419083</ele>
        <time>2026-04-06T17:33:13Z</time>
      </trkpt>
      <trkpt lat="41.40132370296220" lon="-81.73643048160953">
        <ele>268.1150005666</ele>
        <time>2026-04-06T17:33:51Z</time>
      </trkpt>
      <trkpt lat="41.40132906409896" lon="-81.73703620492735">
        <ele>268.0273977718</ele>
        <time>2026-04-06T17:34:28Z</time>
      </trkpt>
      <trkpt lat="41.40133644052926" lon="-81.73763158248805">
        <ele>267.7219411039</ele>
        <time>2026-04-06T17:35:07Z</time>
      </trkpt>
      <trkpt lat="41.40133293228511" lon="-81.73823239779561">
        <ele>267.5227608432</ele>
        <time>2026-04-06T17:35:37Z</time>
      </trkpt>
      <trkpt lat="41.40134462167362" lon="-81.73882936708546">
        <ele>267.5025577686</ele>
        <time>2026-04-06T17:36:17Z</time>
      </trkpt>
      <trkpt lat="41.40133637958359" lon="-81.73941826765501">
        <ele>267.2156226374</ele>
        <time>2026-04-06T17:36:58Z</time>
      </trkpt>
      <trkpt lat="41.40134858834931" lon="-81.74003238463800">
        <ele>266.8659982850</ele>
        <time>2026-04-06T17:37:39Z</time>
      </trkpt>
      <trkpt lat="41.40134896529561" lon="-81.74020689151901">
        <ele>266.4677654246</ele>
        <time>2026-04-06T17:37:48Z</time>
      </trkpt>
    </trkseg>
  </trk>
</gpx>