<?xml version='1.0' encoding='UTF-8'?>
<gpx xmlns="http://www.topografix.com/GPX/1/1" creator="https://gpx.studio" version="1.1">
  <metadata>
    <name>Dog Walk - 2026-07-31 #4</name>
  </metadata>
  <trk>
    <name>Dog Walk - 2026-07-31 #4</name>
    <type>dog walk</type>
    <trkseg>
      <trkpt lat="41.40133789864404" lon="-81.74023907811655">
        <ele>266.5366487666</ele>
        <time>2026-07-31T19:12:26Z</time>
      </trkpt>
      <trkpt lat="41.40133110869414" lon="-81.74084621435482">
        <ele>266.0642407488</ele>
        <time>2026-07-31T19:13:05Z</time>
      </trkpt>
      <trkpt lat="41.40132924912769" lon="-81.74142660992914">
        <ele>265.8257024341</ele>
        <time>2026-07-31T19:13:43Z</time>
      </trkpt>
      <trkpt lat="41.40133241418842" lon="-81.74203030570560">
        <ele>265.3187786107</ele>
        <time>2026-07-31T19:14:25Z</time>
      </trkpt>
      <trkpt lat="41.40132833098640" lon="-81.74239701828769">
        <ele>264.7230010319</ele>
        <time>2026-07-31T19:14:48Z</time>
      </trkpt>
      <trkpt lat="41.40091006843867" lon="-81.74220099086276">
        <ele>265.2569339502</ele>
        <time>2026-07-31T19:15:19Z</time>
      </trkpt>
      <trkpt lat="41.40047634492367" lon="-81.74200537944697">
        <ele>265.0665017167</ele>
        <time>2026-07-31T19:15:56Z</time>
      </trkpt>
      <trkpt lat="41.40005612943452" lon="-81.74180461417318">
        <ele>265.4217506680</ele>
        <time>2026-07-31T19:16:41Z</time>
      </trkpt>
      <trkpt lat="41.39961987805822" lon="-81.74161408666558">
        <ele>264.7777846772</ele>
        <time>2026-07-31T19:17:12Z</time>
      </trkpt>
      <trkpt lat="41.39952767263617" lon="-81.74157509269973">
        <ele>264.7224915976</ele>
        <time>2026-07-31T19:17:21Z</time>
      </trkpt>
      <trkpt lat="41.39953669095252" lon="-81.74097149622958">
        <ele>265.7133784838</ele>
        <time>2026-07-31T19:17:57Z</time>
      </trkpt>
      <trkpt lat="41.39953251480991" lon="-81.74037027274213">
        <ele>266.2708080358</ele>
        <time>2026-07-31T19:18:30Z</time>
      </trkpt>
      <trkpt lat="41.39953587974751" lon="-81.73977223425432">
        <ele>266.8861645618</ele>
        <time>2026-07-31T19:19:13Z</time>
      </trkpt>
      <trkpt lat="41.39953020516633" lon="-81.73917741404806">
        <ele>266.8323599047</ele>
        <time>2026-07-31T19:19:53Z</time>
      </trkpt>
      <trkpt lat="41.39952988029111" lon="-81.73857314572778">
        <ele>266.9505229806</ele>
        <time>2026-07-31T19:20:27Z</time>
      </trkpt>
      <trkpt lat="41.39952531847955" lon="-81.73797792941539">
        <ele>267.0051336174</ele>
        <time>2026-07-31T19:20:54Z</time>
      </trkpt>
      <trkpt lat="41.39952700103743" lon="-81.73737693216412">
        <ele>267.2539099123</ele>
        <time>2026-07-31T19:21:53Z</time>
      </trkpt>
      <trkpt lat="41.39953064853627" lon="-81.73677584389665">
        <ele>267.6115106492</ele>
        <time>2026-07-31T19:22:29Z</time>
      </trkpt>
      <trkpt lat="41.39952343081890" lon="-81.73617722888754">
        <ele>267.5298887389</ele>
        <time>2026-07-31T19:23:06Z</time>
      </trkpt>
      <trkpt lat="41.39952810887333" lon="-81.73558295133441">
        <ele>266.9580010242</ele>
        <time>2026-07-31T19:23:52Z</time>
      </trkpt>
      <trkpt lat="41.39952122774742" lon="-81.73498652094314">
        <ele>267.2450746057</ele>
        <time>2026-07-31T19:24:41Z</time>
      </trkpt>
      <trkpt lat="41.39952141234306" lon="-81.73462278599560">
        <ele>267.3627364144</ele>
        <time>2026-07-31T19:25:07Z</time>
      </trkpt>
      <trkpt lat="41.39998274600870" lon="-81.73462193609599">
        <ele>267.0527152015</ele>
        <time>2026-07-31T19:25:49Z</time>
      </trkpt>
      <trkpt lat="41.40041995321902" lon="-81.73463569327149">
        <ele>267.1305495107</ele>
        <time>2026-07-31T19:26:37Z</time>
      </trkpt>
      <trkpt lat="41.40087222658590" lon="-81.73463703769187">
        <ele>267.1970305267</ele>
        <time>2026-07-31T19:27:28Z</time>
      </trkpt>
      <trkpt lat="41.40131927766424" lon="-81.73463707197494">
        <ele>267.2992643456</ele>
        <time>2026-07-31T19:28:17Z</time>
      </trkpt>
      <trkpt lat="41.40132297977211" lon="-81.73523700997008">
        <ele>267.9085121363</ele>
        <time>2026-07-31T19:29:00Z</time>
      </trkpt>
      <trkpt lat="41.40132475500949" lon="-81.73583860266200">
        <ele>268.0696246846</ele>
        <time>2026-07-31T19:29:37Z</time>
      </trkpt>
      <trkpt lat="41.40131749536694" lon="-81.73644276381337">
        <ele>268.1835905148</ele>
        <time>2026-07-31T19:30:06Z</time>
      </trkpt>
      <trkpt lat="41.40132355307912" lon="-81.73703761052484">
        <ele>268.1429390189</ele>
        <time>2026-07-31T19:30:41Z</time>
      </trkpt>
      <trkpt lat="41.40132436742326" lon="-81.73763237517562">
        <ele>268.0253875858</ele>
        <time>2026-07-31T19:31:13Z</time>
      </trkpt>
      <trkpt lat="41.40132040538767" lon="-81.73823129976854">
        <ele>267.6157534537</ele>
        <time>2026-07-31T19:32:00Z</time>
      </trkpt>
      <trkpt lat="41.40133498472581" lon="-81.73884255629329">
        <ele>267.2567754235</ele>
        <time>2026-07-31T19:32:38Z</time>
      </trkpt>
      <trkpt lat="41.40132892069645" lon="-81.73943802697546">
        <ele>267.1451712181</ele>
        <time>2026-07-31T19:33:33Z</time>
      </trkpt>
      <trkpt lat="41.40132926690598" lon="-81.74004103394694">
        <ele>266.6280416017</ele>
        <time>2026-07-31T19:34:17Z</time>
      </trkpt>
      <trkpt lat="41.40133506896255" lon="-81.74021718274886">
        <ele>266.4714681579</ele>
        <time>2026-07-31T19:34:27Z</time>
      </trkpt>
    </trkseg>
  </trk>
</gpx>