<?xml version='1.0' encoding='UTF-8'?>
<gpx xmlns="http://www.topografix.com/GPX/1/1" creator="https://gpx.studio" version="1.1">
  <metadata>
    <name>Dog Walk - 2026-05-07 #3</name>
  </metadata>
  <trk>
    <name>Dog Walk - 2026-05-07 #3</name>
    <type>dog walk</type>
    <trkseg>
      <trkpt lat="41.40134128180148" lon="-81.74023232192651">
        <ele>266.3737213733</ele>
        <time>2026-05-07T16:02:01Z</time>
      </trkpt>
      <trkpt lat="41.40133599619794" lon="-81.74082902788923">
        <ele>266.2288759463</ele>
        <time>2026-05-07T16:02:34Z</time>
      </trkpt>
      <trkpt lat="41.40133152683177" lon="-81.74143398538703">
        <ele>265.7898280998</ele>
        <time>2026-05-07T16:03:14Z</time>
      </trkpt>
      <trkpt lat="41.40131996688621" lon="-81.74203055904145">
        <ele>265.2859891325</ele>
        <time>2026-05-07T16:04:05Z</time>
      </trkpt>
      <trkpt lat="41.40132920080425" lon="-81.74239724653708">
        <ele>264.8832718323</ele>
        <time>2026-05-07T16:04:26Z</time>
      </trkpt>
      <trkpt lat="41.40090887221989" lon="-81.74217052437164">
        <ele>265.2206987444</ele>
        <time>2026-05-07T16:04:53Z</time>
      </trkpt>
      <trkpt lat="41.40048096390601" lon="-81.74197548085837">
        <ele>265.2408322707</ele>
        <time>2026-05-07T16:05:39Z</time>
      </trkpt>
      <trkpt lat="41.40045320658095" lon="-81.74194932081951">
        <ele>265.2292466472</ele>
        <time>2026-05-07T16:05:42Z</time>
      </trkpt>
      <trkpt lat="41.40044236475634" lon="-81.74135860428285">
        <ele>265.9721962713</ele>
        <time>2026-05-07T16:06:22Z</time>
      </trkpt>
      <trkpt lat="41.40044490754354" lon="-81.74073987614662">
        <ele>266.2277775632</ele>
        <time>2026-05-07T16:07:06Z</time>
      </trkpt>
      <trkpt lat="41.40043419623365" lon="-81.74015489058648">
        <ele>266.7424309772</ele>
        <time>2026-05-07T16:07:44Z</time>
      </trkpt>
      <trkpt lat="41.40042913927567" lon="-81.73955666899474">
        <ele>266.9952468078</ele>
        <time>2026-05-07T16:08:30Z</time>
      </trkpt>
      <trkpt lat="41.40043227496668" lon="-81.73894918853719">
        <ele>267.2915570417</ele>
        <time>2026-05-07T16:09:00Z</time>
      </trkpt>
      <trkpt lat="41.40042225407985" lon="-81.73835651952940">
        <ele>266.9589732835</ele>
        <time>2026-05-07T16:09:41Z</time>
      </trkpt>
      <trkpt lat="41.40041384205384" lon="-81.73775146509134">
        <ele>267.6986358572</ele>
        <time>2026-05-07T16:10:30Z</time>
      </trkpt>
      <trkpt lat="41.40041329964609" lon="-81.73715501866772">
        <ele>267.9766780982</ele>
        <time>2026-05-07T16:11:07Z</time>
      </trkpt>
      <trkpt lat="41.40040771132331" lon="-81.73654566685907">
        <ele>267.9913607743</ele>
        <time>2026-05-07T16:11:50Z</time>
      </trkpt>
      <trkpt lat="41.40040394227834" lon="-81.73594789713134">
        <ele>267.9192384984</ele>
        <time>2026-05-07T16:12:25Z</time>
      </trkpt>
      <trkpt lat="41.40040267685926" lon="-81.73534528229308">
        <ele>267.5794286421</ele>
        <time>2026-05-07T16:13:06Z</time>
      </trkpt>
      <trkpt lat="41.40039836403897" lon="-81.73475795840793">
        <ele>267.4509837186</ele>
        <time>2026-05-07T16:13:42Z</time>
      </trkpt>
      <trkpt lat="41.40039110260173" lon="-81.73463299447755">
        <ele>267.1852744077</ele>
        <time>2026-05-07T16:13:50Z</time>
      </trkpt>
      <trkpt lat="41.40084799297450" lon="-81.73463868417267">
        <ele>267.3921417746</ele>
        <time>2026-05-07T16:14:30Z</time>
      </trkpt>
      <trkpt lat="41.40128756939635" lon="-81.73463984931279">
        <ele>267.2270932613</ele>
        <time>2026-05-07T16:15:12Z</time>
      </trkpt>
      <trkpt lat="41.40131342569089" lon="-81.73462699869684">
        <ele>267.2906896696</ele>
        <time>2026-05-07T16:15:14Z</time>
      </trkpt>
      <trkpt lat="41.40131798748236" lon="-81.73521995918144">
        <ele>267.7516612363</ele>
        <time>2026-05-07T16:15:55Z</time>
      </trkpt>
      <trkpt lat="41.40132963481268" lon="-81.73584453843395">
        <ele>268.5639727234</ele>
        <time>2026-05-07T16:16:34Z</time>
      </trkpt>
      <trkpt lat="41.40133158365647" lon="-81.73643129683630">
        <ele>268.2289703984</ele>
        <time>2026-05-07T16:17:04Z</time>
      </trkpt>
      <trkpt lat="41.40133580779518" lon="-81.73703488904754">
        <ele>268.1080164518</ele>
        <time>2026-05-07T16:17:50Z</time>
      </trkpt>
      <trkpt lat="41.40133612197555" lon="-81.73763668794098">
        <ele>267.8068264103</ele>
        <time>2026-05-07T16:18:30Z</time>
      </trkpt>
      <trkpt lat="41.40133696896067" lon="-81.73823972709310">
        <ele>267.6963107680</ele>
        <time>2026-05-07T16:19:04Z</time>
      </trkpt>
      <trkpt lat="41.40134460962647" lon="-81.73882355816963">
        <ele>267.4488435640</ele>
        <time>2026-05-07T16:19:47Z</time>
      </trkpt>
      <trkpt lat="41.40134091742022" lon="-81.73944306338504">
        <ele>267.0006277893</ele>
        <time>2026-05-07T16:20:20Z</time>
      </trkpt>
      <trkpt lat="41.40134731039511" lon="-81.74003045382634">
        <ele>266.6430355857</ele>
        <time>2026-05-07T16:21:05Z</time>
      </trkpt>
      <trkpt lat="41.40134054166204" lon="-81.74020520307198">
        <ele>266.6773374840</ele>
        <time>2026-05-07T16:21:15Z</time>
      </trkpt>
    </trkseg>
  </trk>
</gpx>