<?xml version='1.0' encoding='UTF-8'?>
<gpx xmlns="http://www.topografix.com/GPX/1/1" creator="https://gpx.studio" version="1.1">
  <metadata>
    <name>Dog Walk - 2026-05-29 #3</name>
  </metadata>
  <trk>
    <name>Dog Walk - 2026-05-29 #3</name>
    <type>dog walk</type>
    <trkseg>
      <trkpt lat="41.40134180702205" lon="-81.74024139398411">
        <ele>266.4583552058</ele>
        <time>2026-05-29T12:59:33Z</time>
      </trkpt>
      <trkpt lat="41.40134953811441" lon="-81.74082382902159">
        <ele>266.2601835094</ele>
        <time>2026-05-29T13:00:05Z</time>
      </trkpt>
      <trkpt lat="41.40133404099127" lon="-81.74142506269354">
        <ele>265.6869846276</ele>
        <time>2026-05-29T13:00:48Z</time>
      </trkpt>
      <trkpt lat="41.40134500391227" lon="-81.74203020699454">
        <ele>265.2396125849</ele>
        <time>2026-05-29T13:01:37Z</time>
      </trkpt>
      <trkpt lat="41.40135664417941" lon="-81.74242699491974">
        <ele>264.6801566973</ele>
        <time>2026-05-29T13:02:06Z</time>
      </trkpt>
      <trkpt lat="41.40176431140451" lon="-81.74264333038286">
        <ele>264.3869295433</ele>
        <time>2026-05-29T13:03:09Z</time>
      </trkpt>
      <trkpt lat="41.40218770039900" lon="-81.74284982480006">
        <ele>263.6380533220</ele>
        <time>2026-05-29T13:03:47Z</time>
      </trkpt>
      <trkpt lat="41.40221977769785" lon="-81.74287622841342">
        <ele>263.4352675497</ele>
        <time>2026-05-29T13:03:50Z</time>
      </trkpt>
      <trkpt lat="41.40221422114821" lon="-81.74226982160376">
        <ele>264.1947237645</ele>
        <time>2026-05-29T13:04:28Z</time>
      </trkpt>
      <trkpt lat="41.40220748047114" lon="-81.74166729743477">
        <ele>264.7041523782</ele>
        <time>2026-05-29T13:05:06Z</time>
      </trkpt>
      <trkpt lat="41.40221681361846" lon="-81.74107244794638">
        <ele>265.5569749399</ele>
        <time>2026-05-29T13:05:57Z</time>
      </trkpt>
      <trkpt lat="41.40222118062257" lon="-81.74046571616428">
        <ele>266.0469594541</ele>
        <time>2026-05-29T13:06:44Z</time>
      </trkpt>
      <trkpt lat="41.40222049197894" lon="-81.73986230028146">
        <ele>266.2615608188</ele>
        <time>2026-05-29T13:07:32Z</time>
      </trkpt>
      <trkpt lat="41.40221586283493" lon="-81.73926899031069">
        <ele>267.0009072691</ele>
        <time>2026-05-29T13:08:12Z</time>
      </trkpt>
      <trkpt lat="41.40221479207916" lon="-81.73866302064943">
        <ele>267.0596863562</ele>
        <time>2026-05-29T13:08:51Z</time>
      </trkpt>
      <trkpt lat="41.40221557219751" lon="-81.73827284548473">
        <ele>267.4672700851</ele>
        <time>2026-05-29T13:09:14Z</time>
      </trkpt>
      <trkpt lat="41.40176582880699" lon="-81.73826450839596">
        <ele>267.8115424654</ele>
        <time>2026-05-29T13:10:01Z</time>
      </trkpt>
      <trkpt lat="41.40134139087789" lon="-81.73826595973323">
        <ele>267.5793947151</ele>
        <time>2026-05-29T13:10:48Z</time>
      </trkpt>
      <trkpt lat="41.40134672364098" lon="-81.73886761227092">
        <ele>267.2745779177</ele>
        <time>2026-05-29T13:11:38Z</time>
      </trkpt>
      <trkpt lat="41.40134088882749" lon="-81.73945103489788">
        <ele>267.0491525169</ele>
        <time>2026-05-29T13:12:11Z</time>
      </trkpt>
      <trkpt lat="41.40133541031804" lon="-81.74005923484462">
        <ele>266.4229511947</ele>
        <time>2026-05-29T13:12:47Z</time>
      </trkpt>
      <trkpt lat="41.40133765750638" lon="-81.74019455528899">
        <ele>266.4807136650</ele>
        <time>2026-05-29T13:13:04Z</time>
      </trkpt>
    </trkseg>
  </trk>
</gpx>