<?xml version='1.0' encoding='UTF-8'?>
<gpx xmlns="http://www.topografix.com/GPX/1/1" creator="https://gpx.studio" version="1.1">
  <metadata>
    <name>Dog Walk - 2026-05-13 #1</name>
  </metadata>
  <trk>
    <name>Dog Walk - 2026-05-13 #1</name>
    <type>dog walk</type>
    <trkseg>
      <trkpt lat="41.40133488935686" lon="-81.74023098394579">
        <ele>266.4216358336</ele>
        <time>2026-05-13T09:43:15Z</time>
      </trkpt>
      <trkpt lat="41.40133776314106" lon="-81.74082978649500">
        <ele>266.2404334788</ele>
        <time>2026-05-13T09:44:27Z</time>
      </trkpt>
      <trkpt lat="41.40133765514837" lon="-81.74143351787335">
        <ele>265.7239159753</ele>
        <time>2026-05-13T09:45:10Z</time>
      </trkpt>
      <trkpt lat="41.40134394554334" lon="-81.74202703801768">
        <ele>265.2000027522</ele>
        <time>2026-05-13T09:45:50Z</time>
      </trkpt>
      <trkpt lat="41.40135092462685" lon="-81.74241241369181">
        <ele>264.7984770773</ele>
        <time>2026-05-13T09:46:21Z</time>
      </trkpt>
      <trkpt lat="41.40177723047929" lon="-81.74262333581764">
        <ele>264.4543210337</ele>
        <time>2026-05-13T09:46:57Z</time>
      </trkpt>
      <trkpt lat="41.40218659965378" lon="-81.74283460985910">
        <ele>263.4097365264</ele>
        <time>2026-05-13T09:47:29Z</time>
      </trkpt>
      <trkpt lat="41.40261169520305" lon="-81.74305315229630">
        <ele>263.0351795845</ele>
        <time>2026-05-13T09:48:20Z</time>
      </trkpt>
      <trkpt lat="41.40303545245545" lon="-81.74326590964728">
        <ele>262.3519164905</ele>
        <time>2026-05-13T09:48:59Z</time>
      </trkpt>
      <trkpt lat="41.40343850466819" lon="-81.74348144544881">
        <ele>261.8423932730</ele>
        <time>2026-05-13T09:49:34Z</time>
      </trkpt>
      <trkpt lat="41.40348901447551" lon="-81.74349843866405">
        <ele>262.0375565106</ele>
        <time>2026-05-13T09:49:49Z</time>
      </trkpt>
      <trkpt lat="41.40359241068238" lon="-81.74352188469346">
        <ele>261.6177576753</ele>
        <time>2026-05-13T09:49:57Z</time>
      </trkpt>
      <trkpt lat="41.40399358087407" lon="-81.74351020796860">
        <ele>260.7457597460</ele>
        <time>2026-05-13T09:50:31Z</time>
      </trkpt>
      <trkpt lat="41.40398719765950" lon="-81.74291104109307">
        <ele>261.6519887311</ele>
        <time>2026-05-13T09:51:36Z</time>
      </trkpt>
      <trkpt lat="41.40400058151506" lon="-81.74230932687182">
        <ele>262.0259001447</ele>
        <time>2026-05-13T09:52:18Z</time>
      </trkpt>
      <trkpt lat="41.40399562364320" lon="-81.74171823741159">
        <ele>262.4298299367</ele>
        <time>2026-05-13T09:53:01Z</time>
      </trkpt>
      <trkpt lat="41.40399029160479" lon="-81.74110566932271">
        <ele>262.6510789745</ele>
        <time>2026-05-13T09:53:37Z</time>
      </trkpt>
      <trkpt lat="41.40399084500434" lon="-81.74051005809700">
        <ele>263.4741383693</ele>
        <time>2026-05-13T09:54:21Z</time>
      </trkpt>
      <trkpt lat="41.40398531955178" lon="-81.73991257083021">
        <ele>264.1958186587</ele>
        <time>2026-05-13T09:55:09Z</time>
      </trkpt>
      <trkpt lat="41.40398871632760" lon="-81.73930926180287">
        <ele>265.0156024577</ele>
        <time>2026-05-13T09:55:53Z</time>
      </trkpt>
      <trkpt lat="41.40399686569768" lon="-81.73878053370854">
        <ele>265.4572773666</ele>
        <time>2026-05-13T09:56:28Z</time>
      </trkpt>
      <trkpt lat="41.40353582650160" lon="-81.73876857565365">
        <ele>266.2175199602</ele>
        <time>2026-05-13T09:57:11Z</time>
      </trkpt>
      <trkpt lat="41.40309009938589" lon="-81.73877625037895">
        <ele>266.3165096403</ele>
        <time>2026-05-13T09:57:48Z</time>
      </trkpt>
      <trkpt lat="41.40263829592715" lon="-81.73877224864754">
        <ele>266.7339895288</ele>
        <time>2026-05-13T09:58:31Z</time>
      </trkpt>
      <trkpt lat="41.40222725980685" lon="-81.73877748244149">
        <ele>267.1255625178</ele>
        <time>2026-05-13T09:59:18Z</time>
      </trkpt>
      <trkpt lat="41.40221051809058" lon="-81.73829354182551">
        <ele>267.0439987734</ele>
        <time>2026-05-13T09:59:48Z</time>
      </trkpt>
      <trkpt lat="41.40177078932211" lon="-81.73826238052681">
        <ele>267.8670636671</ele>
        <time>2026-05-13T10:00:22Z</time>
      </trkpt>
      <trkpt lat="41.40133222601813" lon="-81.73827003509052">
        <ele>267.5171745010</ele>
        <time>2026-05-13T10:01:20Z</time>
      </trkpt>
      <trkpt lat="41.40132665413457" lon="-81.73886885628225">
        <ele>267.3353797918</ele>
        <time>2026-05-13T10:02:00Z</time>
      </trkpt>
      <trkpt lat="41.40133436744999" lon="-81.73946449056254">
        <ele>267.0812324320</ele>
        <time>2026-05-13T10:02:49Z</time>
      </trkpt>
      <trkpt lat="41.40133822767743" lon="-81.74006279085202">
        <ele>266.5893821976</ele>
        <time>2026-05-13T10:03:34Z</time>
      </trkpt>
      <trkpt lat="41.40133287545505" lon="-81.74020524654010">
        <ele>266.6664694800</ele>
        <time>2026-05-13T10:03:40Z</time>
      </trkpt>
    </trkseg>
  </trk>
</gpx>