<?xml version='1.0' encoding='UTF-8'?>
<gpx xmlns="http://www.topografix.com/GPX/1/1" creator="https://gpx.studio" version="1.1">
  <metadata>
    <name>Dog Walk - 2026-03-20 #1</name>
  </metadata>
  <trk>
    <name>Dog Walk - 2026-03-20 #1</name>
    <type>dog walk</type>
    <trkseg>
      <trkpt lat="41.40134134585070" lon="-81.74023025438287">
        <ele>266.5778556181</ele>
        <time>2026-03-20T08:03:48Z</time>
      </trkpt>
      <trkpt lat="41.40133873823380" lon="-81.74083365105281">
        <ele>266.1171899643</ele>
        <time>2026-03-20T08:04:24Z</time>
      </trkpt>
      <trkpt lat="41.40134610956662" lon="-81.74143884868532">
        <ele>265.7796744536</ele>
        <time>2026-03-20T08:04:58Z</time>
      </trkpt>
      <trkpt lat="41.40134879664206" lon="-81.74203900120939">
        <ele>265.2270781484</ele>
        <time>2026-03-20T08:05:39Z</time>
      </trkpt>
      <trkpt lat="41.40133833253196" lon="-81.74242093951736">
        <ele>264.7684607337</ele>
        <time>2026-03-20T08:06:01Z</time>
      </trkpt>
      <trkpt lat="41.40176529412055" lon="-81.74263719678413">
        <ele>264.1869883314</ele>
        <time>2026-03-20T08:06:44Z</time>
      </trkpt>
      <trkpt lat="41.40218209249689" lon="-81.74285087497158">
        <ele>263.5471324668</ele>
        <time>2026-03-20T08:07:22Z</time>
      </trkpt>
      <trkpt lat="41.40222175661766" lon="-81.74287128789452">
        <ele>263.3400402512</ele>
        <time>2026-03-20T08:07:26Z</time>
      </trkpt>
      <trkpt lat="41.40221880091543" lon="-81.74226763680032">
        <ele>264.1469137024</ele>
        <time>2026-03-20T08:08:02Z</time>
      </trkpt>
      <trkpt lat="41.40220994287934" lon="-81.74166949539999">
        <ele>264.7208254933</ele>
        <time>2026-03-20T08:08:44Z</time>
      </trkpt>
      <trkpt lat="41.40221805930842" lon="-81.74105545314033">
        <ele>265.5328726746</ele>
        <time>2026-03-20T08:09:19Z</time>
      </trkpt>
      <trkpt lat="41.40222154432469" lon="-81.74045593363267">
        <ele>265.8634638625</ele>
        <time>2026-03-20T08:09:52Z</time>
      </trkpt>
      <trkpt lat="41.40222148961256" lon="-81.73987515455163">
        <ele>266.4831298568</ele>
        <time>2026-03-20T08:10:24Z</time>
      </trkpt>
      <trkpt lat="41.40221866674078" lon="-81.73926792278067">
        <ele>266.9364279818</ele>
        <time>2026-03-20T08:11:12Z</time>
      </trkpt>
      <trkpt lat="41.40221704094223" lon="-81.73866900309410">
        <ele>267.2515242692</ele>
        <time>2026-03-20T08:11:54Z</time>
      </trkpt>
      <trkpt lat="41.40222430676912" lon="-81.73827072031825">
        <ele>266.9326585030</ele>
        <time>2026-03-20T08:12:52Z</time>
      </trkpt>
      <trkpt lat="41.40177037152645" lon="-81.73827810989940">
        <ele>268.0544743265</ele>
        <time>2026-03-20T08:13:41Z</time>
      </trkpt>
      <trkpt lat="41.40134054387344" lon="-81.73826432648936">
        <ele>267.4755575518</ele>
        <time>2026-03-20T08:14:18Z</time>
      </trkpt>
      <trkpt lat="41.40134434565081" lon="-81.73885912106070">
        <ele>267.2260432684</ele>
        <time>2026-03-20T08:14:54Z</time>
      </trkpt>
      <trkpt lat="41.40134119899662" lon="-81.73946180749516">
        <ele>267.1974003730</ele>
        <time>2026-03-20T08:15:45Z</time>
      </trkpt>
      <trkpt lat="41.40132975240233" lon="-81.74005737724649">
        <ele>266.6612824314</ele>
        <time>2026-03-20T08:16:41Z</time>
      </trkpt>
      <trkpt lat="41.40134021439588" lon="-81.74018576934792">
        <ele>266.5708064818</ele>
        <time>2026-03-20T08:16:49Z</time>
      </trkpt>
    </trkseg>
  </trk>
</gpx>