<?xml version='1.0' encoding='UTF-8'?>
<gpx xmlns="http://www.topografix.com/GPX/1/1" creator="https://gpx.studio" version="1.1">
  <metadata>
    <name>Dog Walk - 2026-04-26</name>
  </metadata>
  <trk>
    <name>Dog Walk - 2026-04-26</name>
    <type>dog walk</type>
    <trkseg>
      <trkpt lat="41.40134179545354" lon="-81.74023986944954">
        <ele>266.2882174739</ele>
        <time>2026-04-26T12:35:31Z</time>
      </trkpt>
      <trkpt lat="41.40134302725901" lon="-81.74084423473646">
        <ele>266.3532070195</ele>
        <time>2026-04-26T12:36:21Z</time>
      </trkpt>
      <trkpt lat="41.40134841522451" lon="-81.74143622416777">
        <ele>265.7564197493</ele>
        <time>2026-04-26T12:37:03Z</time>
      </trkpt>
      <trkpt lat="41.40134942631124" lon="-81.74203885072885">
        <ele>265.1937897599</ele>
        <time>2026-04-26T12:37:46Z</time>
      </trkpt>
      <trkpt lat="41.40135327088124" lon="-81.74241503985840">
        <ele>264.6581747822</ele>
        <time>2026-04-26T12:38:15Z</time>
      </trkpt>
      <trkpt lat="41.40176959170783" lon="-81.74263853594276">
        <ele>264.3059018970</ele>
        <time>2026-04-26T12:38:48Z</time>
      </trkpt>
      <trkpt lat="41.40218949630682" lon="-81.74284726664507">
        <ele>263.3707681116</ele>
        <time>2026-04-26T12:39:28Z</time>
      </trkpt>
      <trkpt lat="41.40221150169838" lon="-81.74286493710538">
        <ele>263.3948028446</ele>
        <time>2026-04-26T12:39:31Z</time>
      </trkpt>
      <trkpt lat="41.40221956513745" lon="-81.74225738239198">
        <ele>264.2129613115</ele>
        <time>2026-04-26T12:40:05Z</time>
      </trkpt>
      <trkpt lat="41.40222295793418" lon="-81.74167088942291">
        <ele>264.9744019811</ele>
        <time>2026-04-26T12:40:53Z</time>
      </trkpt>
      <trkpt lat="41.40221547630360" lon="-81.74106436867653">
        <ele>265.4407584117</ele>
        <time>2026-04-26T12:41:29Z</time>
      </trkpt>
      <trkpt lat="41.40222421648655" lon="-81.74046418738656">
        <ele>266.1995988016</ele>
        <time>2026-04-26T12:42:16Z</time>
      </trkpt>
      <trkpt lat="41.40221489558124" lon="-81.73986496029227">
        <ele>266.3924466370</ele>
        <time>2026-04-26T12:42:50Z</time>
      </trkpt>
      <trkpt lat="41.40222159461704" lon="-81.73926329937726">
        <ele>266.9847216757</ele>
        <time>2026-04-26T12:43:34Z</time>
      </trkpt>
      <trkpt lat="41.40221035157305" lon="-81.73867183680093">
        <ele>266.9100371139</ele>
        <time>2026-04-26T12:44:07Z</time>
      </trkpt>
      <trkpt lat="41.40222492481308" lon="-81.73826826686484">
        <ele>267.2044434850</ele>
        <time>2026-04-26T12:44:40Z</time>
      </trkpt>
      <trkpt lat="41.40177854928413" lon="-81.73826614067876">
        <ele>267.5914015863</ele>
        <time>2026-04-26T12:45:22Z</time>
      </trkpt>
      <trkpt lat="41.40133838749172" lon="-81.73825595438831">
        <ele>267.5772138912</ele>
        <time>2026-04-26T12:46:18Z</time>
      </trkpt>
      <trkpt lat="41.40134168136612" lon="-81.73885494535591">
        <ele>267.6186217725</ele>
        <time>2026-04-26T12:46:51Z</time>
      </trkpt>
      <trkpt lat="41.40135152484770" lon="-81.73946260038561">
        <ele>267.1827327110</ele>
        <time>2026-04-26T12:47:24Z</time>
      </trkpt>
      <trkpt lat="41.40133611357171" lon="-81.74005813009472">
        <ele>266.5335160352</ele>
        <time>2026-04-26T12:48:00Z</time>
      </trkpt>
      <trkpt lat="41.40134422962799" lon="-81.74018834278785">
        <ele>266.5317355333</ele>
        <time>2026-04-26T12:48:19Z</time>
      </trkpt>
    </trkseg>
  </trk>
</gpx>