<?xml version='1.0' encoding='UTF-8'?>
<gpx xmlns="http://www.topografix.com/GPX/1/1" creator="https://gpx.studio" version="1.1">
  <metadata>
    <name>Dog Walk - 2026-09-12 #1</name>
  </metadata>
  <trk>
    <name>Dog Walk - 2026-09-12 #1</name>
    <type>dog walk</type>
    <trkseg>
      <trkpt lat="41.40133674810181" lon="-81.74022822608833">
        <ele>266.2795246266</ele>
        <time>2026-09-12T08:15:16Z</time>
      </trkpt>
      <trkpt lat="41.40134879238887" lon="-81.74082369343938">
        <ele>265.9661354184</ele>
        <time>2026-09-12T08:15:53Z</time>
      </trkpt>
      <trkpt lat="41.40134228627564" lon="-81.74144055875071">
        <ele>265.7445805167</ele>
        <time>2026-09-12T08:16:29Z</time>
      </trkpt>
      <trkpt lat="41.40134712688346" lon="-81.74203578776800">
        <ele>265.2083861178</ele>
        <time>2026-09-12T08:17:15Z</time>
      </trkpt>
      <trkpt lat="41.40135404401232" lon="-81.74242099613309">
        <ele>264.6484853522</ele>
        <time>2026-09-12T08:17:42Z</time>
      </trkpt>
      <trkpt lat="41.40176149724363" lon="-81.74262004792588">
        <ele>264.3762126450</ele>
        <time>2026-09-12T08:18:23Z</time>
      </trkpt>
      <trkpt lat="41.40218709033535" lon="-81.74284381506108">
        <ele>263.5338975903</ele>
        <time>2026-09-12T08:19:06Z</time>
      </trkpt>
      <trkpt lat="41.40261643573526" lon="-81.74305854701511">
        <ele>262.8778935760</ele>
        <time>2026-09-12T08:19:49Z</time>
      </trkpt>
      <trkpt lat="41.40302731847823" lon="-81.74327283533246">
        <ele>262.5037557648</ele>
        <time>2026-09-12T08:20:25Z</time>
      </trkpt>
      <trkpt lat="41.40345428975565" lon="-81.74347713105287">
        <ele>261.8588648219</ele>
        <time>2026-09-12T08:21:27Z</time>
      </trkpt>
      <trkpt lat="41.40349251289516" lon="-81.74350230718224">
        <ele>261.9966257778</ele>
        <time>2026-09-12T08:21:31Z</time>
      </trkpt>
      <trkpt lat="41.40359641698742" lon="-81.74353057300911">
        <ele>261.6707062338</ele>
        <time>2026-09-12T08:21:42Z</time>
      </trkpt>
      <trkpt lat="41.40399220821008" lon="-81.74350115384968">
        <ele>260.7712750246</ele>
        <time>2026-09-12T08:22:23Z</time>
      </trkpt>
      <trkpt lat="41.40399310504727" lon="-81.74290534876087">
        <ele>261.2209097495</ele>
        <time>2026-09-12T08:23:11Z</time>
      </trkpt>
      <trkpt lat="41.40398658533030" lon="-81.74231026779597">
        <ele>262.0896104827</ele>
        <time>2026-09-12T08:23:46Z</time>
      </trkpt>
      <trkpt lat="41.40398774817925" lon="-81.74171249439681">
        <ele>262.4915400510</ele>
        <time>2026-09-12T08:24:19Z</time>
      </trkpt>
      <trkpt lat="41.40398805661698" lon="-81.74111591756915">
        <ele>262.9474040594</ele>
        <time>2026-09-12T08:25:01Z</time>
      </trkpt>
      <trkpt lat="41.40398652616017" lon="-81.74050496620362">
        <ele>263.4061730024</ele>
        <time>2026-09-12T08:25:50Z</time>
      </trkpt>
      <trkpt lat="41.40398877227800" lon="-81.73991320988439">
        <ele>264.2635360584</ele>
        <time>2026-09-12T08:26:39Z</time>
      </trkpt>
      <trkpt lat="41.40398908324230" lon="-81.73931335590257">
        <ele>264.9288009161</ele>
        <time>2026-09-12T08:27:11Z</time>
      </trkpt>
      <trkpt lat="41.40397919552109" lon="-81.73876733575594">
        <ele>265.3024524523</ele>
        <time>2026-09-12T08:27:53Z</time>
      </trkpt>
      <trkpt lat="41.40353287990516" lon="-81.73877220388241">
        <ele>265.9663924297</ele>
        <time>2026-09-12T08:28:38Z</time>
      </trkpt>
      <trkpt lat="41.40308657199061" lon="-81.73877379486055">
        <ele>266.2260521226</ele>
        <time>2026-09-12T08:29:38Z</time>
      </trkpt>
      <trkpt lat="41.40262911144558" lon="-81.73877499517040">
        <ele>266.6204175618</ele>
        <time>2026-09-12T08:30:04Z</time>
      </trkpt>
      <trkpt lat="41.40222699977828" lon="-81.73877178976782">
        <ele>267.0913198612</ele>
        <time>2026-09-12T08:30:43Z</time>
      </trkpt>
      <trkpt lat="41.40221901219090" lon="-81.73828443077012">
        <ele>266.9891310355</ele>
        <time>2026-09-12T08:31:20Z</time>
      </trkpt>
      <trkpt lat="41.40176697836468" lon="-81.73827215376217">
        <ele>267.8370962082</ele>
        <time>2026-09-12T08:32:01Z</time>
      </trkpt>
      <trkpt lat="41.40132719229671" lon="-81.73826062967737">
        <ele>267.3873584190</ele>
        <time>2026-09-12T08:32:44Z</time>
      </trkpt>
      <trkpt lat="41.40133401881394" lon="-81.73887280192488">
        <ele>267.2679476477</ele>
        <time>2026-09-12T08:33:39Z</time>
      </trkpt>
      <trkpt lat="41.40134009398447" lon="-81.73946975084588">
        <ele>267.2810406884</ele>
        <time>2026-09-12T08:34:14Z</time>
      </trkpt>
      <trkpt lat="41.40133344237375" lon="-81.74006449327251">
        <ele>266.6922564264</ele>
        <time>2026-09-12T08:35:08Z</time>
      </trkpt>
      <trkpt lat="41.40133572289227" lon="-81.74021049527688">
        <ele>266.4133893864</ele>
        <time>2026-09-12T08:35:22Z</time>
      </trkpt>
    </trkseg>
  </trk>
</gpx>