<?xml version='1.0' encoding='UTF-8'?>
<gpx xmlns="http://www.topografix.com/GPX/1/1" creator="https://gpx.studio" version="1.1">
  <metadata>
    <name>Dog Walk - 2026-03-12 #2</name>
  </metadata>
  <trk>
    <name>Dog Walk - 2026-03-12 #2</name>
    <type>dog walk</type>
    <trkseg>
      <trkpt lat="41.40133295600499" lon="-81.74023874509055">
        <ele>266.5032638514</ele>
        <time>2026-03-12T10:28:48Z</time>
      </trkpt>
      <trkpt lat="41.40134573486641" lon="-81.74083688305033">
        <ele>266.3329582047</ele>
        <time>2026-03-12T10:29:22Z</time>
      </trkpt>
      <trkpt lat="41.40134017151603" lon="-81.74143772329013">
        <ele>265.9512149604</ele>
        <time>2026-03-12T10:30:03Z</time>
      </trkpt>
      <trkpt lat="41.40134162643036" lon="-81.74202700683230">
        <ele>265.1587643445</ele>
        <time>2026-03-12T10:30:35Z</time>
      </trkpt>
      <trkpt lat="41.40135224396792" lon="-81.74242729713310">
        <ele>264.6515564531</ele>
        <time>2026-03-12T10:31:04Z</time>
      </trkpt>
      <trkpt lat="41.40177250091666" lon="-81.74262655148620">
        <ele>264.3961498674</ele>
        <time>2026-03-12T10:31:51Z</time>
      </trkpt>
      <trkpt lat="41.40219446267132" lon="-81.74282114115815">
        <ele>263.2740496044</ele>
        <time>2026-03-12T10:32:30Z</time>
      </trkpt>
      <trkpt lat="41.40263046549361" lon="-81.74301150893952">
        <ele>263.1278993823</ele>
        <time>2026-03-12T10:33:10Z</time>
      </trkpt>
      <trkpt lat="41.40304313858565" lon="-81.74322343462504">
        <ele>262.4595927973</ele>
        <time>2026-03-12T10:33:40Z</time>
      </trkpt>
      <trkpt lat="41.40312522624740" lon="-81.74323710655327">
        <ele>262.5248855853</ele>
        <time>2026-03-12T10:33:47Z</time>
      </trkpt>
      <trkpt lat="41.40310729602697" lon="-81.74264116575829">
        <ele>263.0553196779</ele>
        <time>2026-03-12T10:34:27Z</time>
      </trkpt>
      <trkpt lat="41.40311875942846" lon="-81.74205173343186">
        <ele>263.6970255295</ele>
        <time>2026-03-12T10:34:55Z</time>
      </trkpt>
      <trkpt lat="41.40310805686790" lon="-81.74144956351833">
        <ele>264.1727589041</ele>
        <time>2026-03-12T10:35:44Z</time>
      </trkpt>
      <trkpt lat="41.40310484216071" lon="-81.74085759997776">
        <ele>264.6137753204</ele>
        <time>2026-03-12T10:36:19Z</time>
      </trkpt>
      <trkpt lat="41.40310201721169" lon="-81.74026002959869">
        <ele>265.0734472639</ele>
        <time>2026-03-12T10:37:06Z</time>
      </trkpt>
      <trkpt lat="41.40309951741914" lon="-81.73965872505441">
        <ele>265.6967887964</ele>
        <time>2026-03-12T10:37:45Z</time>
      </trkpt>
      <trkpt lat="41.40310216646080" lon="-81.73905379649129">
        <ele>266.2267978511</ele>
        <time>2026-03-12T10:38:34Z</time>
      </trkpt>
      <trkpt lat="41.40310333408902" lon="-81.73879089193565">
        <ele>266.0575003408</ele>
        <time>2026-03-12T10:38:51Z</time>
      </trkpt>
      <trkpt lat="41.40264967469880" lon="-81.73877971106064">
        <ele>266.7527933135</ele>
        <time>2026-03-12T10:39:35Z</time>
      </trkpt>
      <trkpt lat="41.40222907149605" lon="-81.73876668079598">
        <ele>267.0570990337</ele>
        <time>2026-03-12T10:40:16Z</time>
      </trkpt>
      <trkpt lat="41.40223706835622" lon="-81.73818786560955">
        <ele>267.0476982586</ele>
        <time>2026-03-12T10:40:57Z</time>
      </trkpt>
      <trkpt lat="41.40223409459046" lon="-81.73757936573109">
        <ele>266.8458583065</ele>
        <time>2026-03-12T10:41:37Z</time>
      </trkpt>
      <trkpt lat="41.40223070864162" lon="-81.73698629670758">
        <ele>267.2880775923</ele>
        <time>2026-03-12T10:42:12Z</time>
      </trkpt>
      <trkpt lat="41.40223087330144" lon="-81.73638641336046">
        <ele>267.2567734690</ele>
        <time>2026-03-12T10:43:08Z</time>
      </trkpt>
      <trkpt lat="41.40223065952580" lon="-81.73577683501975">
        <ele>267.3287877120</ele>
        <time>2026-03-12T10:43:48Z</time>
      </trkpt>
      <trkpt lat="41.40222527380762" lon="-81.73518355972740">
        <ele>267.2154870515</ele>
        <time>2026-03-12T10:44:31Z</time>
      </trkpt>
      <trkpt lat="41.40221985040908" lon="-81.73466537645096">
        <ele>267.0001431279</ele>
        <time>2026-03-12T10:44:59Z</time>
      </trkpt>
      <trkpt lat="41.40177941549607" lon="-81.73463748495784">
        <ele>267.2305836409</ele>
        <time>2026-03-12T10:46:05Z</time>
      </trkpt>
      <trkpt lat="41.40132053144610" lon="-81.73463374659117">
        <ele>267.4373264239</ele>
        <time>2026-03-12T10:46:37Z</time>
      </trkpt>
      <trkpt lat="41.40131687555826" lon="-81.73463828382729">
        <ele>267.4688751073</ele>
        <time>2026-03-12T10:46:47Z</time>
      </trkpt>
      <trkpt lat="41.40131311003660" lon="-81.73523450627431">
        <ele>267.8804805744</ele>
        <time>2026-03-12T10:47:36Z</time>
      </trkpt>
      <trkpt lat="41.40132113238431" lon="-81.73584429973353">
        <ele>268.3651105746</ele>
        <time>2026-03-12T10:48:15Z</time>
      </trkpt>
      <trkpt lat="41.40132123792518" lon="-81.73643689802130">
        <ele>268.1733042359</ele>
        <time>2026-03-12T10:48:49Z</time>
      </trkpt>
      <trkpt lat="41.40133101917564" lon="-81.73702663746603">
        <ele>268.0584876500</ele>
        <time>2026-03-12T10:49:39Z</time>
      </trkpt>
      <trkpt lat="41.40134166803146" lon="-81.73761871592673">
        <ele>268.1104791366</ele>
        <time>2026-03-12T10:50:17Z</time>
      </trkpt>
      <trkpt lat="41.40133877486526" lon="-81.73823571728569">
        <ele>267.3020217722</ele>
        <time>2026-03-12T10:50:54Z</time>
      </trkpt>
      <trkpt lat="41.40132729447527" lon="-81.73883091391113">
        <ele>267.2701307544</ele>
        <time>2026-03-12T10:51:31Z</time>
      </trkpt>
      <trkpt lat="41.40133871290431" lon="-81.73942921035618">
        <ele>267.1796511525</ele>
        <time>2026-03-12T10:52:08Z</time>
      </trkpt>
      <trkpt lat="41.40134410431300" lon="-81.74002915709930">
        <ele>266.4790295953</ele>
        <time>2026-03-12T10:52:46Z</time>
      </trkpt>
      <trkpt lat="41.40134608684691" lon="-81.74015376805829">
        <ele>266.4220520051</ele>
        <time>2026-03-12T10:52:55Z</time>
      </trkpt>
    </trkseg>
  </trk>
</gpx>