<?xml version='1.0' encoding='UTF-8'?>
<gpx xmlns="http://www.topografix.com/GPX/1/1" creator="https://gpx.studio" version="1.1">
  <metadata>
    <name>Dog Walk - 2026-04-29 #1</name>
  </metadata>
  <trk>
    <name>Dog Walk - 2026-04-29 #1</name>
    <type>dog walk</type>
    <trkseg>
      <trkpt lat="41.40133537178941" lon="-81.74024138599775">
        <ele>266.3842860650</ele>
        <time>2026-04-29T07:26:04Z</time>
      </trkpt>
      <trkpt lat="41.40134476574906" lon="-81.74084224780449">
        <ele>266.2968057432</ele>
        <time>2026-04-29T07:26:47Z</time>
      </trkpt>
      <trkpt lat="41.40134905909724" lon="-81.74143187922286">
        <ele>265.8021437644</ele>
        <time>2026-04-29T07:27:21Z</time>
      </trkpt>
      <trkpt lat="41.40135123526910" lon="-81.74204025265070">
        <ele>265.3445502413</ele>
        <time>2026-04-29T07:28:06Z</time>
      </trkpt>
      <trkpt lat="41.40134647261651" lon="-81.74241799902018">
        <ele>264.7738861542</ele>
        <time>2026-04-29T07:28:36Z</time>
      </trkpt>
      <trkpt lat="41.40176881373220" lon="-81.74262282687337">
        <ele>264.3738623991</ele>
        <time>2026-04-29T07:29:15Z</time>
      </trkpt>
      <trkpt lat="41.40219181207332" lon="-81.74282247610334">
        <ele>263.2707297028</ele>
        <time>2026-04-29T07:30:01Z</time>
      </trkpt>
      <trkpt lat="41.40262265787101" lon="-81.74301637562745">
        <ele>263.2139506699</ele>
        <time>2026-04-29T07:30:49Z</time>
      </trkpt>
      <trkpt lat="41.40304803936356" lon="-81.74322646558340">
        <ele>262.2635503930</ele>
        <time>2026-04-29T07:31:28Z</time>
      </trkpt>
      <trkpt lat="41.40312337516173" lon="-81.74325101209054">
        <ele>262.0983261360</ele>
        <time>2026-04-29T07:31:43Z</time>
      </trkpt>
      <trkpt lat="41.40311615478578" lon="-81.74265610267641">
        <ele>262.9672506991</ele>
        <time>2026-04-29T07:32:29Z</time>
      </trkpt>
      <trkpt lat="41.40310873709564" lon="-81.74205344933009">
        <ele>263.5934739230</ele>
        <time>2026-04-29T07:33:22Z</time>
      </trkpt>
      <trkpt lat="41.40310551919764" lon="-81.74145426164529">
        <ele>264.2547078864</ele>
        <time>2026-04-29T07:34:14Z</time>
      </trkpt>
      <trkpt lat="41.40310715269636" lon="-81.74086100946478">
        <ele>264.7747068825</ele>
        <time>2026-04-29T07:34:46Z</time>
      </trkpt>
      <trkpt lat="41.40310173448249" lon="-81.74025916530182">
        <ele>265.3574603836</ele>
        <time>2026-04-29T07:35:28Z</time>
      </trkpt>
      <trkpt lat="41.40310476448126" lon="-81.73966316820825">
        <ele>265.6908435978</ele>
        <time>2026-04-29T07:36:16Z</time>
      </trkpt>
      <trkpt lat="41.40310069963194" lon="-81.73905881122428">
        <ele>266.0374560029</ele>
        <time>2026-04-29T07:36:51Z</time>
      </trkpt>
      <trkpt lat="41.40310159370740" lon="-81.73879588120559">
        <ele>265.9738037950</ele>
        <time>2026-04-29T07:37:06Z</time>
      </trkpt>
      <trkpt lat="41.40264103471283" lon="-81.73877539062130">
        <ele>266.4791848279</ele>
        <time>2026-04-29T07:37:55Z</time>
      </trkpt>
      <trkpt lat="41.40223581941542" lon="-81.73878050938238">
        <ele>267.1796053584</ele>
        <time>2026-04-29T07:38:40Z</time>
      </trkpt>
      <trkpt lat="41.40222409772207" lon="-81.73816989304612">
        <ele>267.2755219757</ele>
        <time>2026-04-29T07:39:20Z</time>
      </trkpt>
      <trkpt lat="41.40223240997376" lon="-81.73758849401746">
        <ele>267.1627012470</ele>
        <time>2026-04-29T07:39:59Z</time>
      </trkpt>
      <trkpt lat="41.40222718579275" lon="-81.73698798625041">
        <ele>267.4258403926</ele>
        <time>2026-04-29T07:40:40Z</time>
      </trkpt>
      <trkpt lat="41.40222602458629" lon="-81.73639033900686">
        <ele>267.2030900267</ele>
        <time>2026-04-29T07:41:28Z</time>
      </trkpt>
      <trkpt lat="41.40222625462061" lon="-81.73577248509622">
        <ele>267.5841031855</ele>
        <time>2026-04-29T07:42:10Z</time>
      </trkpt>
      <trkpt lat="41.40222500838509" lon="-81.73519140120935">
        <ele>267.1030710669</ele>
        <time>2026-04-29T07:42:46Z</time>
      </trkpt>
      <trkpt lat="41.40222236532456" lon="-81.73465096655856">
        <ele>267.0406600873</ele>
        <time>2026-04-29T07:43:28Z</time>
      </trkpt>
      <trkpt lat="41.40177350398302" lon="-81.73463139565293">
        <ele>267.3701028093</ele>
        <time>2026-04-29T07:44:09Z</time>
      </trkpt>
      <trkpt lat="41.40132409278442" lon="-81.73463318942760">
        <ele>267.2256068919</ele>
        <time>2026-04-29T07:44:55Z</time>
      </trkpt>
      <trkpt lat="41.40131508284444" lon="-81.73463134603077">
        <ele>267.1635459688</ele>
        <time>2026-04-29T07:44:56Z</time>
      </trkpt>
      <trkpt lat="41.40132041821015" lon="-81.73523820888943">
        <ele>267.7104440731</ele>
        <time>2026-04-29T07:45:51Z</time>
      </trkpt>
      <trkpt lat="41.40131668957408" lon="-81.73583674508410">
        <ele>268.1235621769</ele>
        <time>2026-04-29T07:46:28Z</time>
      </trkpt>
      <trkpt lat="41.40131889444292" lon="-81.73643927209554">
        <ele>267.8891922945</ele>
        <time>2026-04-29T07:47:00Z</time>
      </trkpt>
      <trkpt lat="41.40132379696674" lon="-81.73703954489351">
        <ele>267.9813748944</ele>
        <time>2026-04-29T07:47:42Z</time>
      </trkpt>
      <trkpt lat="41.40133032249166" lon="-81.73763047380541">
        <ele>267.8185544654</ele>
        <time>2026-04-29T07:48:11Z</time>
      </trkpt>
      <trkpt lat="41.40134171189334" lon="-81.73823882128468">
        <ele>267.5393611129</ele>
        <time>2026-04-29T07:48:54Z</time>
      </trkpt>
      <trkpt lat="41.40133761028528" lon="-81.73882897077404">
        <ele>267.2745887446</ele>
        <time>2026-04-29T07:49:28Z</time>
      </trkpt>
      <trkpt lat="41.40134971697575" lon="-81.73943332830217">
        <ele>267.2999594326</ele>
        <time>2026-04-29T07:50:20Z</time>
      </trkpt>
      <trkpt lat="41.40134265515891" lon="-81.74003505875228">
        <ele>266.8209907990</ele>
        <time>2026-04-29T07:51:11Z</time>
      </trkpt>
      <trkpt lat="41.40134606201033" lon="-81.74014897973626">
        <ele>266.6415600599</ele>
        <time>2026-04-29T07:51:17Z</time>
      </trkpt>
    </trkseg>
  </trk>
</gpx>