<?xml version='1.0' encoding='UTF-8'?>
<gpx xmlns="http://www.topografix.com/GPX/1/1" creator="https://gpx.studio" version="1.1">
  <metadata>
    <name>Dog Walk - 2026-04-05</name>
  </metadata>
  <trk>
    <name>Dog Walk - 2026-04-05</name>
    <type>dog walk</type>
    <trkseg>
      <trkpt lat="41.40134141677599" lon="-81.74022519503387">
        <ele>266.5916994530</ele>
        <time>2026-04-05T11:21:50Z</time>
      </trkpt>
      <trkpt lat="41.40133779734756" lon="-81.74083657511827">
        <ele>266.3424877085</ele>
        <time>2026-04-05T11:22:38Z</time>
      </trkpt>
      <trkpt lat="41.40134644082239" lon="-81.74142824174233">
        <ele>265.8127126592</ele>
        <time>2026-04-05T11:23:22Z</time>
      </trkpt>
      <trkpt lat="41.40133231620374" lon="-81.74202860317045">
        <ele>265.4684754308</ele>
        <time>2026-04-05T11:24:10Z</time>
      </trkpt>
      <trkpt lat="41.40132290553403" lon="-81.74238632292484">
        <ele>264.6689362460</ele>
        <time>2026-04-05T11:24:35Z</time>
      </trkpt>
      <trkpt lat="41.40090858330734" lon="-81.74218847672782">
        <ele>265.3147779483</ele>
        <time>2026-04-05T11:25:20Z</time>
      </trkpt>
      <trkpt lat="41.40048215862402" lon="-81.74195957802601">
        <ele>265.2764134173</ele>
        <time>2026-04-05T11:26:00Z</time>
      </trkpt>
      <trkpt lat="41.40045438608485" lon="-81.74194932166192">
        <ele>265.3820326382</ele>
        <time>2026-04-05T11:26:02Z</time>
      </trkpt>
      <trkpt lat="41.40045509734615" lon="-81.74134897013379">
        <ele>266.1079949834</ele>
        <time>2026-04-05T11:26:47Z</time>
      </trkpt>
      <trkpt lat="41.40044174787304" lon="-81.74074678862537">
        <ele>266.4392972571</ele>
        <time>2026-04-05T11:27:37Z</time>
      </trkpt>
      <trkpt lat="41.40044253030350" lon="-81.74015159257347">
        <ele>266.7709039363</ele>
        <time>2026-04-05T11:28:14Z</time>
      </trkpt>
      <trkpt lat="41.40043243218254" lon="-81.73955543529181">
        <ele>267.0195222708</ele>
        <time>2026-04-05T11:28:49Z</time>
      </trkpt>
      <trkpt lat="41.40043018271386" lon="-81.73894458065494">
        <ele>267.3787454254</ele>
        <time>2026-04-05T11:29:24Z</time>
      </trkpt>
      <trkpt lat="41.40041436878573" lon="-81.73835123801379">
        <ele>267.2761104112</ele>
        <time>2026-04-05T11:30:04Z</time>
      </trkpt>
      <trkpt lat="41.40042183580039" lon="-81.73774873235749">
        <ele>267.7877681000</ele>
        <time>2026-04-05T11:30:48Z</time>
      </trkpt>
      <trkpt lat="41.40040710941363" lon="-81.73714653557249">
        <ele>268.0813729503</ele>
        <time>2026-04-05T11:31:26Z</time>
      </trkpt>
      <trkpt lat="41.40041250923502" lon="-81.73655698577990">
        <ele>267.8352206423</ele>
        <time>2026-04-05T11:32:08Z</time>
      </trkpt>
      <trkpt lat="41.40041149098116" lon="-81.73595963891285">
        <ele>268.0493783904</ele>
        <time>2026-04-05T11:32:49Z</time>
      </trkpt>
      <trkpt lat="41.40039931878115" lon="-81.73536434651355">
        <ele>267.6911185058</ele>
        <time>2026-04-05T11:33:37Z</time>
      </trkpt>
      <trkpt lat="41.40039487281432" lon="-81.73475827069163">
        <ele>267.2281364408</ele>
        <time>2026-04-05T11:34:16Z</time>
      </trkpt>
      <trkpt lat="41.40039281119694" lon="-81.73462601409116">
        <ele>267.4979831674</ele>
        <time>2026-04-05T11:34:24Z</time>
      </trkpt>
      <trkpt lat="41.40084284339832" lon="-81.73463410367872">
        <ele>267.3091288205</ele>
        <time>2026-04-05T11:34:59Z</time>
      </trkpt>
      <trkpt lat="41.40129529734494" lon="-81.73463606005869">
        <ele>267.3551685496</ele>
        <time>2026-04-05T11:35:44Z</time>
      </trkpt>
      <trkpt lat="41.40132154879786" lon="-81.73463118376573">
        <ele>267.3663115414</ele>
        <time>2026-04-05T11:35:47Z</time>
      </trkpt>
      <trkpt lat="41.40132302937685" lon="-81.73522900051461">
        <ele>267.9783367801</ele>
        <time>2026-04-05T11:36:25Z</time>
      </trkpt>
      <trkpt lat="41.40132697623186" lon="-81.73583844724911">
        <ele>268.2437582740</ele>
        <time>2026-04-05T11:37:03Z</time>
      </trkpt>
      <trkpt lat="41.40133135178633" lon="-81.73643167826346">
        <ele>268.0821342992</ele>
        <time>2026-04-05T11:37:43Z</time>
      </trkpt>
      <trkpt lat="41.40133431135147" lon="-81.73703089439174">
        <ele>268.0752652225</ele>
        <time>2026-04-05T11:38:27Z</time>
      </trkpt>
      <trkpt lat="41.40133536550734" lon="-81.73763647741087">
        <ele>267.7873994780</ele>
        <time>2026-04-05T11:39:07Z</time>
      </trkpt>
      <trkpt lat="41.40133975845719" lon="-81.73822896241782">
        <ele>267.6954792747</ele>
        <time>2026-04-05T11:39:48Z</time>
      </trkpt>
      <trkpt lat="41.40134243307770" lon="-81.73883979362823">
        <ele>267.3990388081</ele>
        <time>2026-04-05T11:40:34Z</time>
      </trkpt>
      <trkpt lat="41.40133938567616" lon="-81.73943581280899">
        <ele>267.2217781958</ele>
        <time>2026-04-05T11:41:13Z</time>
      </trkpt>
      <trkpt lat="41.40134431757228" lon="-81.74003302855992">
        <ele>266.5733087045</ele>
        <time>2026-04-05T11:41:54Z</time>
      </trkpt>
      <trkpt lat="41.40134649113046" lon="-81.74019260240634">
        <ele>266.6368854681</ele>
        <time>2026-04-05T11:42:02Z</time>
      </trkpt>
    </trkseg>
  </trk>
</gpx>