<?xml version='1.0' encoding='UTF-8'?>
<gpx xmlns="http://www.topografix.com/GPX/1/1" creator="https://gpx.studio" version="1.1">
  <metadata>
    <name>Dog Walk - 2026-06-16 #3</name>
  </metadata>
  <trk>
    <name>Dog Walk - 2026-06-16 #3</name>
    <type>dog walk</type>
    <trkseg>
      <trkpt lat="41.40132678878340" lon="-81.74025987366537">
        <ele>266.3830908111</ele>
        <time>2026-06-16T19:54:18Z</time>
      </trkpt>
      <trkpt lat="41.40132990351432" lon="-81.74025174706131">
        <ele>266.5029613308</ele>
        <time>2026-06-16T19:54:19Z</time>
      </trkpt>
      <trkpt lat="41.40132754011616" lon="-81.74085872169731">
        <ele>266.2160253113</ele>
        <time>2026-06-16T19:54:55Z</time>
      </trkpt>
      <trkpt lat="41.40132985391994" lon="-81.74145155501476">
        <ele>266.1140307365</ele>
        <time>2026-06-16T19:55:29Z</time>
      </trkpt>
      <trkpt lat="41.40132849635263" lon="-81.74205741267538">
        <ele>265.3765207935</ele>
        <time>2026-06-16T19:56:07Z</time>
      </trkpt>
      <trkpt lat="41.40132666309377" lon="-81.74238959366083">
        <ele>264.5706194966</ele>
        <time>2026-06-16T19:56:29Z</time>
      </trkpt>
      <trkpt lat="41.40133593739461" lon="-81.74237361258052">
        <ele>264.7227721118</ele>
        <time>2026-06-16T19:56:31Z</time>
      </trkpt>
      <trkpt lat="41.40089472995969" lon="-81.74218631366600">
        <ele>265.0007577302</ele>
        <time>2026-06-16T19:57:15Z</time>
      </trkpt>
      <trkpt lat="41.40048263189907" lon="-81.74198493967950">
        <ele>265.3855581935</ele>
        <time>2026-06-16T19:57:47Z</time>
      </trkpt>
      <trkpt lat="41.40004935520324" lon="-81.74180260099581">
        <ele>265.6581495354</ele>
        <time>2026-06-16T19:58:21Z</time>
      </trkpt>
      <trkpt lat="41.39962259604612" lon="-81.74160884399045">
        <ele>264.7990537194</ele>
        <time>2026-06-16T19:59:08Z</time>
      </trkpt>
      <trkpt lat="41.39954480571075" lon="-81.74156133820505">
        <ele>264.8047736105</ele>
        <time>2026-06-16T19:59:16Z</time>
      </trkpt>
      <trkpt lat="41.39954245251099" lon="-81.74097679144901">
        <ele>265.7765417338</ele>
        <time>2026-06-16T19:59:52Z</time>
      </trkpt>
      <trkpt lat="41.39953916582600" lon="-81.74036723862532">
        <ele>266.1311553159</ele>
        <time>2026-06-16T20:00:31Z</time>
      </trkpt>
      <trkpt lat="41.39953974718759" lon="-81.73977804648405">
        <ele>266.5339979651</ele>
        <time>2026-06-16T20:01:10Z</time>
      </trkpt>
      <trkpt lat="41.39953503347208" lon="-81.73916820619669">
        <ele>266.8154297270</ele>
        <time>2026-06-16T20:01:53Z</time>
      </trkpt>
      <trkpt lat="41.39954019298754" lon="-81.73857173879739">
        <ele>266.8956877518</ele>
        <time>2026-06-16T20:02:31Z</time>
      </trkpt>
      <trkpt lat="41.39953941854437" lon="-81.73828962212040">
        <ele>266.7906129329</ele>
        <time>2026-06-16T20:02:51Z</time>
      </trkpt>
      <trkpt lat="41.39953968089853" lon="-81.73829583131887">
        <ele>266.8643037243</ele>
        <time>2026-06-16T20:02:52Z</time>
      </trkpt>
      <trkpt lat="41.39998503380671" lon="-81.73830238400339">
        <ele>267.1934729611</ele>
        <time>2026-06-16T20:03:33Z</time>
      </trkpt>
      <trkpt lat="41.40042882122966" lon="-81.73830132687759">
        <ele>267.1928159493</ele>
        <time>2026-06-16T20:04:14Z</time>
      </trkpt>
      <trkpt lat="41.40087879019438" lon="-81.73829696461615">
        <ele>267.4602520916</ele>
        <time>2026-06-16T20:04:50Z</time>
      </trkpt>
      <trkpt lat="41.40132650873529" lon="-81.73831915522526">
        <ele>267.3067510264</ele>
        <time>2026-06-16T20:05:54Z</time>
      </trkpt>
      <trkpt lat="41.40132995302903" lon="-81.73890406033505">
        <ele>267.2755781933</ele>
        <time>2026-06-16T20:06:36Z</time>
      </trkpt>
      <trkpt lat="41.40133188558659" lon="-81.73951118085998">
        <ele>267.2476270499</ele>
        <time>2026-06-16T20:07:15Z</time>
      </trkpt>
      <trkpt lat="41.40134176214183" lon="-81.74010378413855">
        <ele>266.7720036727</ele>
        <time>2026-06-16T20:08:00Z</time>
      </trkpt>
      <trkpt lat="41.40133734417289" lon="-81.74015317862298">
        <ele>266.6205649362</ele>
        <time>2026-06-16T20:08:16Z</time>
      </trkpt>
    </trkseg>
  </trk>
</gpx>