<?xml version='1.0' encoding='UTF-8'?>
<gpx xmlns="http://www.topografix.com/GPX/1/1" creator="https://gpx.studio" version="1.1">
  <metadata>
    <name>Dog Walk - 2026-03-20 #3</name>
  </metadata>
  <trk>
    <name>Dog Walk - 2026-03-20 #3</name>
    <type>dog walk</type>
    <trkseg>
      <trkpt lat="41.40133628220111" lon="-81.74023780736154">
        <ele>266.5329352809</ele>
        <time>2026-03-20T14:27:39Z</time>
      </trkpt>
      <trkpt lat="41.40133746930346" lon="-81.74084095155557">
        <ele>266.4036413965</ele>
        <time>2026-03-20T14:28:17Z</time>
      </trkpt>
      <trkpt lat="41.40134796678080" lon="-81.74143315767411">
        <ele>266.0249887707</ele>
        <time>2026-03-20T14:28:54Z</time>
      </trkpt>
      <trkpt lat="41.40134843150243" lon="-81.74204373787849">
        <ele>265.3788246643</ele>
        <time>2026-03-20T14:29:46Z</time>
      </trkpt>
      <trkpt lat="41.40134876321653" lon="-81.74241210972482">
        <ele>264.9049705067</ele>
        <time>2026-03-20T14:30:15Z</time>
      </trkpt>
      <trkpt lat="41.40177045831172" lon="-81.74262445840461">
        <ele>264.2450202265</ele>
        <time>2026-03-20T14:30:52Z</time>
      </trkpt>
      <trkpt lat="41.40217598671094" lon="-81.74284831305101">
        <ele>263.4377255581</ele>
        <time>2026-03-20T14:31:29Z</time>
      </trkpt>
      <trkpt lat="41.40222043688091" lon="-81.74286525898144">
        <ele>263.2463850566</ele>
        <time>2026-03-20T14:31:32Z</time>
      </trkpt>
      <trkpt lat="41.40221330400524" lon="-81.74226949715909">
        <ele>264.0997334237</ele>
        <time>2026-03-20T14:32:16Z</time>
      </trkpt>
      <trkpt lat="41.40220836573081" lon="-81.74166654082956">
        <ele>264.8892065499</ele>
        <time>2026-03-20T14:33:00Z</time>
      </trkpt>
      <trkpt lat="41.40221474871458" lon="-81.74106557808827">
        <ele>265.4241315630</ele>
        <time>2026-03-20T14:33:33Z</time>
      </trkpt>
      <trkpt lat="41.40221996334158" lon="-81.74046381853590">
        <ele>265.9611833148</ele>
        <time>2026-03-20T14:34:11Z</time>
      </trkpt>
      <trkpt lat="41.40221996165901" lon="-81.73986403687890">
        <ele>266.5468156541</ele>
        <time>2026-03-20T14:34:43Z</time>
      </trkpt>
      <trkpt lat="41.40221845250055" lon="-81.73927381159072">
        <ele>267.0875044865</ele>
        <time>2026-03-20T14:35:18Z</time>
      </trkpt>
      <trkpt lat="41.40222483125094" lon="-81.73866012557146">
        <ele>266.9110528864</ele>
        <time>2026-03-20T14:36:02Z</time>
      </trkpt>
      <trkpt lat="41.40221899034278" lon="-81.73827451318016">
        <ele>266.9467413566</ele>
        <time>2026-03-20T14:36:23Z</time>
      </trkpt>
      <trkpt lat="41.40177244831550" lon="-81.73826548006481">
        <ele>267.8758013517</ele>
        <time>2026-03-20T14:37:11Z</time>
      </trkpt>
      <trkpt lat="41.40133932151927" lon="-81.73826088366542">
        <ele>267.6901536571</ele>
        <time>2026-03-20T14:37:55Z</time>
      </trkpt>
      <trkpt lat="41.40134724636041" lon="-81.73885594787150">
        <ele>267.2732546514</ele>
        <time>2026-03-20T14:38:28Z</time>
      </trkpt>
      <trkpt lat="41.40134270798398" lon="-81.73945264077426">
        <ele>267.1441287251</ele>
        <time>2026-03-20T14:39:08Z</time>
      </trkpt>
      <trkpt lat="41.40133894157131" lon="-81.74007454048623">
        <ele>266.7158234421</ele>
        <time>2026-03-20T14:39:45Z</time>
      </trkpt>
      <trkpt lat="41.40134501156985" lon="-81.74018926152529">
        <ele>266.6858646820</ele>
        <time>2026-03-20T14:39:54Z</time>
      </trkpt>
    </trkseg>
  </trk>
</gpx>