<?xml version='1.0' encoding='UTF-8'?>
<gpx xmlns="http://www.topografix.com/GPX/1/1" creator="https://gpx.studio" version="1.1">
  <metadata>
    <name>Dog Walk - 2026-05-05 #2</name>
  </metadata>
  <trk>
    <name>Dog Walk - 2026-05-05 #2</name>
    <type>dog walk</type>
    <trkseg>
      <trkpt lat="41.40134591559710" lon="-81.74023802448011">
        <ele>266.5669783335</ele>
        <time>2026-05-05T10:43:00Z</time>
      </trkpt>
      <trkpt lat="41.40133484366690" lon="-81.74081878470342">
        <ele>266.0804895849</ele>
        <time>2026-05-05T10:43:36Z</time>
      </trkpt>
      <trkpt lat="41.40133516066258" lon="-81.74143870211098">
        <ele>265.7547802664</ele>
        <time>2026-05-05T10:44:13Z</time>
      </trkpt>
      <trkpt lat="41.40133311203071" lon="-81.74202858967496">
        <ele>265.4574546970</ele>
        <time>2026-05-05T10:44:50Z</time>
      </trkpt>
      <trkpt lat="41.40133073999812" lon="-81.74238276827425">
        <ele>264.7823957107</ele>
        <time>2026-05-05T10:45:08Z</time>
      </trkpt>
      <trkpt lat="41.40090256207407" lon="-81.74217922402811">
        <ele>265.3339431425</ele>
        <time>2026-05-05T10:45:54Z</time>
      </trkpt>
      <trkpt lat="41.40048528182268" lon="-81.74196213004862">
        <ele>265.2137763377</ele>
        <time>2026-05-05T10:46:37Z</time>
      </trkpt>
      <trkpt lat="41.40044965294114" lon="-81.74194894300703">
        <ele>265.1480027468</ele>
        <time>2026-05-05T10:46:40Z</time>
      </trkpt>
      <trkpt lat="41.40044952517403" lon="-81.74134885580607">
        <ele>266.0876571095</ele>
        <time>2026-05-05T10:47:13Z</time>
      </trkpt>
      <trkpt lat="41.40044436002631" lon="-81.74075618130821">
        <ele>266.5034166306</ele>
        <time>2026-05-05T10:47:53Z</time>
      </trkpt>
      <trkpt lat="41.40043688711138" lon="-81.74015751044355">
        <ele>267.0379159086</ele>
        <time>2026-05-05T10:48:40Z</time>
      </trkpt>
      <trkpt lat="41.40043708561616" lon="-81.73955677854352">
        <ele>267.0522125955</ele>
        <time>2026-05-05T10:49:29Z</time>
      </trkpt>
      <trkpt lat="41.40042567430259" lon="-81.73894809890862">
        <ele>266.9524426465</ele>
        <time>2026-05-05T10:50:08Z</time>
      </trkpt>
      <trkpt lat="41.40041825523348" lon="-81.73835248898345">
        <ele>267.2894067256</ele>
        <time>2026-05-05T10:50:42Z</time>
      </trkpt>
      <trkpt lat="41.40041873872124" lon="-81.73775684697551">
        <ele>267.6740962034</ele>
        <time>2026-05-05T10:51:23Z</time>
      </trkpt>
      <trkpt lat="41.40041301474842" lon="-81.73714942893986">
        <ele>268.1028784059</ele>
        <time>2026-05-05T10:52:02Z</time>
      </trkpt>
      <trkpt lat="41.40041082868599" lon="-81.73654427232324">
        <ele>268.0303779501</ele>
        <time>2026-05-05T10:52:40Z</time>
      </trkpt>
      <trkpt lat="41.40039659639778" lon="-81.73595042974441">
        <ele>267.9463902237</ele>
        <time>2026-05-05T10:53:16Z</time>
      </trkpt>
      <trkpt lat="41.40039605955522" lon="-81.73535951709960">
        <ele>267.8070130081</ele>
        <time>2026-05-05T10:54:08Z</time>
      </trkpt>
      <trkpt lat="41.40040022789577" lon="-81.73475888281899">
        <ele>267.3245187850</ele>
        <time>2026-05-05T10:55:05Z</time>
      </trkpt>
      <trkpt lat="41.40039484372485" lon="-81.73462697605342">
        <ele>267.2319213505</ele>
        <time>2026-05-05T10:55:16Z</time>
      </trkpt>
      <trkpt lat="41.40084767911527" lon="-81.73463171887462">
        <ele>267.2379770301</ele>
        <time>2026-05-05T10:56:07Z</time>
      </trkpt>
      <trkpt lat="41.40129668232365" lon="-81.73463727792898">
        <ele>267.3246753701</ele>
        <time>2026-05-05T10:56:45Z</time>
      </trkpt>
      <trkpt lat="41.40131841736186" lon="-81.73463743875679">
        <ele>267.1038546566</ele>
        <time>2026-05-05T10:56:47Z</time>
      </trkpt>
      <trkpt lat="41.40132299123562" lon="-81.73524068861245">
        <ele>267.9844707335</ele>
        <time>2026-05-05T10:57:31Z</time>
      </trkpt>
      <trkpt lat="41.40132185504203" lon="-81.73582611332724">
        <ele>268.3226074520</ele>
        <time>2026-05-05T10:58:05Z</time>
      </trkpt>
      <trkpt lat="41.40132567105458" lon="-81.73643940245651">
        <ele>267.9419308126</ele>
        <time>2026-05-05T10:58:46Z</time>
      </trkpt>
      <trkpt lat="41.40133664527417" lon="-81.73703258530607">
        <ele>268.0538417660</ele>
        <time>2026-05-05T10:59:21Z</time>
      </trkpt>
      <trkpt lat="41.40132898430966" lon="-81.73763064778900">
        <ele>267.9431452335</ele>
        <time>2026-05-05T10:59:55Z</time>
      </trkpt>
      <trkpt lat="41.40133829577784" lon="-81.73823041086170">
        <ele>267.4782674586</ele>
        <time>2026-05-05T11:00:39Z</time>
      </trkpt>
      <trkpt lat="41.40133914918687" lon="-81.73883201511653">
        <ele>267.2055522731</ele>
        <time>2026-05-05T11:01:15Z</time>
      </trkpt>
      <trkpt lat="41.40133901147243" lon="-81.73942876075265">
        <ele>267.0532188414</ele>
        <time>2026-05-05T11:02:01Z</time>
      </trkpt>
      <trkpt lat="41.40134360853974" lon="-81.74002144774066">
        <ele>266.6243165266</ele>
        <time>2026-05-05T11:02:43Z</time>
      </trkpt>
      <trkpt lat="41.40134682043757" lon="-81.74019603753599">
        <ele>266.4907809418</ele>
        <time>2026-05-05T11:02:54Z</time>
      </trkpt>
    </trkseg>
  </trk>
</gpx>