<?xml version='1.0' encoding='UTF-8'?>
<gpx xmlns="http://www.topografix.com/GPX/1/1" creator="https://gpx.studio" version="1.1">
  <metadata>
    <name>Walk - 2026-06-29</name>
  </metadata>
  <trk>
    <name>Walk - 2026-06-29</name>
    <type>walk</type>
    <trkseg>
      <trkpt lat="41.40133438375364" lon="-81.74025896270584">
        <ele>266.4798858878</ele>
        <time>2026-06-29T11:43:12Z</time>
      </trkpt>
      <trkpt lat="41.40133741049406" lon="-81.74085104455959">
        <ele>266.2025890237</ele>
        <time>2026-06-29T11:43:45Z</time>
      </trkpt>
      <trkpt lat="41.40133534272083" lon="-81.74145633822162">
        <ele>265.8909132145</ele>
        <time>2026-06-29T11:44:17Z</time>
      </trkpt>
      <trkpt lat="41.40134335613303" lon="-81.74204372446130">
        <ele>265.1798083043</ele>
        <time>2026-06-29T11:44:54Z</time>
      </trkpt>
      <trkpt lat="41.40135072816229" lon="-81.74240417505617">
        <ele>264.6018115367</ele>
        <time>2026-06-29T11:45:17Z</time>
      </trkpt>
      <trkpt lat="41.40092674302277" lon="-81.74221500790468">
        <ele>265.0867087561</ele>
        <time>2026-06-29T11:46:11Z</time>
      </trkpt>
      <trkpt lat="41.40049649242294" lon="-81.74201834780827">
        <ele>265.2182202851</ele>
        <time>2026-06-29T11:46:56Z</time>
      </trkpt>
      <trkpt lat="41.40006606941154" lon="-81.74181622952409">
        <ele>265.4213081860</ele>
        <time>2026-06-29T11:47:38Z</time>
      </trkpt>
      <trkpt lat="41.39964222387145" lon="-81.74162019020673">
        <ele>264.8447565063</ele>
        <time>2026-06-29T11:48:16Z</time>
      </trkpt>
      <trkpt lat="41.39951806151200" lon="-81.74156564223044">
        <ele>264.8487402767</ele>
        <time>2026-06-29T11:48:27Z</time>
      </trkpt>
      <trkpt lat="41.39951480383397" lon="-81.74156399371839">
        <ele>264.8178433729</ele>
        <time>2026-06-29T11:48:38Z</time>
      </trkpt>
      <trkpt lat="41.39952225675800" lon="-81.74155444340194">
        <ele>264.8051753878</ele>
        <time>2026-06-29T11:48:39Z</time>
      </trkpt>
      <trkpt lat="41.39951783201584" lon="-81.74097826459813">
        <ele>265.6843833828</ele>
        <time>2026-06-29T11:49:14Z</time>
      </trkpt>
      <trkpt lat="41.39951679221201" lon="-81.74037092273819">
        <ele>266.1443127612</ele>
        <time>2026-06-29T11:49:53Z</time>
      </trkpt>
      <trkpt lat="41.39952223509749" lon="-81.73976061341986">
        <ele>266.8064656337</ele>
        <time>2026-06-29T11:50:38Z</time>
      </trkpt>
      <trkpt lat="41.39952519049024" lon="-81.73916666533017">
        <ele>266.8247996642</ele>
        <time>2026-06-29T11:51:07Z</time>
      </trkpt>
      <trkpt lat="41.39952624802282" lon="-81.73856197139899">
        <ele>266.8299823517</ele>
        <time>2026-06-29T11:51:57Z</time>
      </trkpt>
      <trkpt lat="41.39952669882923" lon="-81.73829444859122">
        <ele>266.9417607789</ele>
        <time>2026-06-29T11:52:22Z</time>
      </trkpt>
      <trkpt lat="41.39997265475672" lon="-81.73828197179907">
        <ele>267.2305212391</ele>
        <time>2026-06-29T11:53:11Z</time>
      </trkpt>
      <trkpt lat="41.40041811169250" lon="-81.73829393689785">
        <ele>267.1977260051</ele>
        <time>2026-06-29T11:53:44Z</time>
      </trkpt>
      <trkpt lat="41.40086864756557" lon="-81.73830574724391">
        <ele>267.5050610241</ele>
        <time>2026-06-29T11:54:16Z</time>
      </trkpt>
      <trkpt lat="41.40132564954855" lon="-81.73829564780191">
        <ele>267.6945942921</ele>
        <time>2026-06-29T11:55:12Z</time>
      </trkpt>
      <trkpt lat="41.40132530985181" lon="-81.73830525787925">
        <ele>267.4421001757</ele>
        <time>2026-06-29T11:55:13Z</time>
      </trkpt>
      <trkpt lat="41.40131984878815" lon="-81.73830046039633">
        <ele>267.6350249808</ele>
        <time>2026-06-29T11:55:24Z</time>
      </trkpt>
      <trkpt lat="41.40132956525924" lon="-81.73890257241816">
        <ele>267.3565722405</ele>
        <time>2026-06-29T11:55:55Z</time>
      </trkpt>
      <trkpt lat="41.40133184941443" lon="-81.73950737211064">
        <ele>267.3054761187</ele>
        <time>2026-06-29T11:56:33Z</time>
      </trkpt>
      <trkpt lat="41.40133064498344" lon="-81.74009483448154">
        <ele>266.5745575345</ele>
        <time>2026-06-29T11:57:19Z</time>
      </trkpt>
      <trkpt lat="41.40133999363137" lon="-81.74015323187191">
        <ele>266.7416577950</ele>
        <time>2026-06-29T11:57:23Z</time>
      </trkpt>
    </trkseg>
  </trk>
</gpx>