<?xml version='1.0' encoding='UTF-8'?>
<gpx xmlns="http://www.topografix.com/GPX/1/1" creator="https://gpx.studio" version="1.1">
  <metadata>
    <name>Walk - 2026-02-19</name>
  </metadata>
  <trk>
    <name>Walk - 2026-02-19</name>
    <type>walk</type>
    <trkseg>
      <trkpt lat="41.40133288401717" lon="-81.73988513446236">
        <ele>266.1795297275</ele>
        <time>2026-02-19T16:36:37Z</time>
      </trkpt>
      <trkpt lat="41.40134952087058" lon="-81.74242643840309">
        <ele>264.7311915881</ele>
        <time>2026-02-19T16:39:06Z</time>
      </trkpt>
      <trkpt lat="41.40221077577666" lon="-81.74286386733318">
        <ele>262.9475320438</ele>
        <time>2026-02-19T16:40:10Z</time>
      </trkpt>
      <trkpt lat="41.40311532569137" lon="-81.74329443991533">
        <ele>261.9824959446</ele>
        <time>2026-02-19T16:41:16Z</time>
      </trkpt>
      <trkpt lat="41.40348178654632" lon="-81.74350094512199">
        <ele>261.9711221497</ele>
        <time>2026-02-19T16:41:47Z</time>
      </trkpt>
      <trkpt lat="41.40350111427500" lon="-81.74364055815161">
        <ele>261.8479663817</ele>
        <time>2026-02-19T16:41:57Z</time>
      </trkpt>
      <trkpt lat="41.40352116724897" lon="-81.74369932258901">
        <ele>261.4699922286</ele>
        <time>2026-02-19T16:42:00Z</time>
      </trkpt>
      <trkpt lat="41.40352399816309" lon="-81.74374866301878">
        <ele>261.2137076450</ele>
        <time>2026-02-19T16:42:03Z</time>
      </trkpt>
      <trkpt lat="41.40352548793545" lon="-81.74419585585537">
        <ele>260.0097855189</ele>
        <time>2026-02-19T16:42:26Z</time>
      </trkpt>
      <trkpt lat="41.40355677298258" lon="-81.74442845320493">
        <ele>259.2127024729</ele>
        <time>2026-02-19T16:42:41Z</time>
      </trkpt>
      <trkpt lat="41.40358625308528" lon="-81.74455517182473">
        <ele>258.7271960303</ele>
        <time>2026-02-19T16:42:49Z</time>
      </trkpt>
      <trkpt lat="41.40361688842226" lon="-81.74467975627410">
        <ele>257.7787739804</ele>
        <time>2026-02-19T16:43:01Z</time>
      </trkpt>
      <trkpt lat="41.40372270842433" lon="-81.74492485059126">
        <ele>257.0795256592</ele>
        <time>2026-02-19T16:43:20Z</time>
      </trkpt>
      <trkpt lat="41.40391567658949" lon="-81.74522038812859">
        <ele>256.9779088234</ele>
        <time>2026-02-19T16:43:45Z</time>
      </trkpt>
      <trkpt lat="41.40352996500022" lon="-81.74567220094860">
        <ele>257.9365862466</ele>
        <time>2026-02-19T16:44:31Z</time>
      </trkpt>
      <trkpt lat="41.40348603924645" lon="-81.74562306513212">
        <ele>258.0833767976</ele>
        <time>2026-02-19T16:44:35Z</time>
      </trkpt>
      <trkpt lat="41.40346030423334" lon="-81.74561983829720">
        <ele>257.9875334733</ele>
        <time>2026-02-19T16:44:38Z</time>
      </trkpt>
      <trkpt lat="41.40333680355941" lon="-81.74575107315805">
        <ele>258.3808729743</ele>
        <time>2026-02-19T16:44:49Z</time>
      </trkpt>
      <trkpt lat="41.40330226494126" lon="-81.74576709181707">
        <ele>258.7676787396</ele>
        <time>2026-02-19T16:44:52Z</time>
      </trkpt>
      <trkpt lat="41.40326277789805" lon="-81.74576202924439">
        <ele>258.9431262030</ele>
        <time>2026-02-19T16:44:55Z</time>
      </trkpt>
      <trkpt lat="41.40291468274007" lon="-81.74528520628445">
        <ele>259.8701715410</ele>
        <time>2026-02-19T16:45:36Z</time>
      </trkpt>
      <trkpt lat="41.40279904181260" lon="-81.74543639833780">
        <ele>260.1691851290</ele>
        <time>2026-02-19T16:45:49Z</time>
      </trkpt>
      <trkpt lat="41.40271388197460" lon="-81.74530995127326">
        <ele>259.8611921047</ele>
        <time>2026-02-19T16:46:03Z</time>
      </trkpt>
      <trkpt lat="41.40229558016780" lon="-81.74578996853508">
        <ele>261.3215672796</ele>
        <time>2026-02-19T16:46:41Z</time>
      </trkpt>
      <trkpt lat="41.40099443620956" lon="-81.74579934665404">
        <ele>263.3499702727</ele>
        <time>2026-02-19T16:48:15Z</time>
      </trkpt>
      <trkpt lat="41.40028977576768" lon="-81.74665240298503">
        <ele>263.9945857356</ele>
        <time>2026-02-19T16:49:40Z</time>
      </trkpt>
      <trkpt lat="41.39811868466742" lon="-81.74923271128519">
        <ele>263.0919133278</ele>
        <time>2026-02-19T16:53:24Z</time>
      </trkpt>
      <trkpt lat="41.39792690483166" lon="-81.74945536582160">
        <ele>264.1300686280</ele>
        <time>2026-02-19T16:53:40Z</time>
      </trkpt>
      <trkpt lat="41.39715105647344" lon="-81.75031231448111">
        <ele>263.0052189121</ele>
        <time>2026-02-19T16:55:07Z</time>
      </trkpt>
      <trkpt lat="41.39708554561582" lon="-81.75031135407839">
        <ele>262.9795491588</ele>
        <time>2026-02-19T16:55:12Z</time>
      </trkpt>
      <trkpt lat="41.39699415820206" lon="-81.75024094894961">
        <ele>263.2190828408</ele>
        <time>2026-02-19T16:55:19Z</time>
      </trkpt>
      <trkpt lat="41.39572473795296" lon="-81.74834210739586">
        <ele>266.1232550243</ele>
        <time>2026-02-19T16:58:33Z</time>
      </trkpt>
    </trkseg>
  </trk>
</gpx>