<?xml version='1.0' encoding='UTF-8'?>
<gpx xmlns="http://www.topografix.com/GPX/1/1" creator="https://gpx.studio" version="1.1">
  <metadata>
    <name>Walk - 2026-05-26</name>
  </metadata>
  <trk>
    <name>Walk - 2026-05-26</name>
    <type>walk</type>
    <trkseg>
      <trkpt lat="41.87683219031024" lon="-87.63528645597196">
        <ele>180.8488078701</ele>
        <time>2026-05-26T19:01:20Z</time>
      </trkpt>
      <trkpt lat="41.87680984915588" lon="-87.63662924560855">
        <ele>183.0703970058</ele>
        <time>2026-05-26T19:03:12Z</time>
      </trkpt>
      <trkpt lat="41.87681006589565" lon="-87.63680186422448">
        <ele>182.7463710760</ele>
        <time>2026-05-26T19:03:25Z</time>
      </trkpt>
      <trkpt lat="41.87681516207788" lon="-87.63705447492046">
        <ele>181.4148216647</ele>
        <time>2026-05-26T19:03:41Z</time>
      </trkpt>
      <trkpt lat="41.87680141716987" lon="-87.63778106239329">
        <ele>184.2412492502</ele>
        <time>2026-05-26T19:04:25Z</time>
      </trkpt>
      <trkpt lat="41.87676821927236" lon="-87.63962242480622">
        <ele>182.9830511476</ele>
        <time>2026-05-26T19:06:00Z</time>
      </trkpt>
      <trkpt lat="41.87676147088855" lon="-87.64090178599287">
        <ele>180.9765205502</ele>
        <time>2026-05-26T19:07:56Z</time>
      </trkpt>
      <trkpt lat="41.87674185199133" lon="-87.64249145270948">
        <ele>181.1479883797</ele>
        <time>2026-05-26T19:10:06Z</time>
      </trkpt>
      <trkpt lat="41.87674331996411" lon="-87.64249255041958">
        <ele>181.1185885533</ele>
        <time>2026-05-26T19:10:07Z</time>
      </trkpt>
      <trkpt lat="41.87826378091439" lon="-87.64253605814405">
        <ele>181.1146589283</ele>
        <time>2026-05-26T19:12:47Z</time>
      </trkpt>
      <trkpt lat="41.87928953937891" lon="-87.64258137763588">
        <ele>180.9380416283</ele>
        <time>2026-05-26T19:14:17Z</time>
      </trkpt>
      <trkpt lat="41.87930267262251" lon="-87.64257593047698">
        <ele>181.2311744163</ele>
        <time>2026-05-26T19:14:18Z</time>
      </trkpt>
      <trkpt lat="41.87928888018365" lon="-87.64257482114192">
        <ele>180.8430898469</ele>
        <time>2026-05-26T19:14:19Z</time>
      </trkpt>
      <trkpt lat="41.87926746052673" lon="-87.64403177666880">
        <ele>181.1199936022</ele>
        <time>2026-05-26T19:16:36Z</time>
      </trkpt>
      <trkpt lat="41.87928354810050" lon="-87.64403213674298">
        <ele>180.8606221766</ele>
        <time>2026-05-26T19:16:37Z</time>
      </trkpt>
      <trkpt lat="41.87926319025177" lon="-87.64404091005167">
        <ele>181.1198806183</ele>
        <time>2026-05-26T19:16:40Z</time>
      </trkpt>
      <trkpt lat="41.87925272435566" lon="-87.64524499187087">
        <ele>180.1468105333</ele>
        <time>2026-05-26T19:18:37Z</time>
      </trkpt>
      <trkpt lat="41.87923607017530" lon="-87.64630327782834">
        <ele>181.0330646581</ele>
        <time>2026-05-26T19:19:31Z</time>
      </trkpt>
      <trkpt lat="41.87922245311333" lon="-87.64728166743744">
        <ele>180.9546927983</ele>
        <time>2026-05-26T19:20:18Z</time>
      </trkpt>
      <trkpt lat="41.88316047932508" lon="-87.64741693292122">
        <ele>180.8036691275</ele>
        <time>2026-05-26T19:26:32Z</time>
      </trkpt>
      <trkpt lat="41.88314985942978" lon="-87.64631326109351">
        <ele>180.7613139620</ele>
        <time>2026-05-26T19:27:52Z</time>
      </trkpt>
      <trkpt lat="41.88316773744426" lon="-87.64582391775815">
        <ele>180.0664241288</ele>
        <time>2026-05-26T19:29:11Z</time>
      </trkpt>
      <trkpt lat="41.88318376675103" lon="-87.64566966283255">
        <ele>180.0230059499</ele>
        <time>2026-05-26T19:29:20Z</time>
      </trkpt>
      <trkpt lat="41.88316642904262" lon="-87.64525820683247">
        <ele>179.5952563956</ele>
        <time>2026-05-26T19:29:49Z</time>
      </trkpt>
      <trkpt lat="41.88318254232981" lon="-87.64429510576213">
        <ele>180.9817912321</ele>
        <time>2026-05-26T19:31:01Z</time>
      </trkpt>
      <trkpt lat="41.88325943575443" lon="-87.64429846202044">
        <ele>181.1678948971</ele>
        <time>2026-05-26T19:31:16Z</time>
      </trkpt>
      <trkpt lat="41.88327262013890" lon="-87.64430606497299">
        <ele>181.0198371225</ele>
        <time>2026-05-26T19:31:17Z</time>
      </trkpt>
      <trkpt lat="41.88326558737324" lon="-87.64426946064535">
        <ele>181.0626244846</ele>
        <time>2026-05-26T19:31:19Z</time>
      </trkpt>
      <trkpt lat="41.88327838844624" lon="-87.64414324335162">
        <ele>181.2243905945</ele>
        <time>2026-05-26T19:31:33Z</time>
      </trkpt>
      <trkpt lat="41.88322779112607" lon="-87.64416062013095">
        <ele>180.8947367587</ele>
        <time>2026-05-26T19:31:38Z</time>
      </trkpt>
      <trkpt lat="41.88318553074148" lon="-87.64414333698636">
        <ele>181.0412261973</ele>
        <time>2026-05-26T19:31:41Z</time>
      </trkpt>
      <trkpt lat="41.88319037512820" lon="-87.64138892032445">
        <ele>181.0224295668</ele>
        <time>2026-05-26T19:35:22Z</time>
      </trkpt>
      <trkpt lat="41.88318227833717" lon="-87.64127312953715">
        <ele>181.1950162353</ele>
        <time>2026-05-26T19:35:30Z</time>
      </trkpt>
      <trkpt lat="41.88321875648674" lon="-87.64117651581050">
        <ele>180.9923471095</ele>
        <time>2026-05-26T19:35:37Z</time>
      </trkpt>
      <trkpt lat="41.88665110792266" lon="-87.64128226662498">
        <ele>180.3855208951</ele>
        <time>2026-05-26T19:39:25Z</time>
      </trkpt>
      <trkpt lat="41.88680728051923" lon="-87.64134945654691">
        <ele>180.7059120962</ele>
        <time>2026-05-26T19:39:40Z</time>
      </trkpt>
      <trkpt lat="41.88876088094401" lon="-87.64138521408785">
        <ele>180.1167265118</ele>
        <time>2026-05-26T19:42:11Z</time>
      </trkpt>
      <trkpt lat="41.88882371196059" lon="-87.64135228163501">
        <ele>179.9365656953</ele>
        <time>2026-05-26T19:43:10Z</time>
      </trkpt>
      <trkpt lat="41.88901460946837" lon="-87.64136381448796">
        <ele>180.0040592210</ele>
        <time>2026-05-26T19:43:28Z</time>
      </trkpt>
      <trkpt lat="41.88902164490214" lon="-87.64103084899376">
        <ele>180.0877953049</ele>
        <time>2026-05-26T19:44:07Z</time>
      </trkpt>
      <trkpt lat="41.88914862980763" lon="-87.64106590111538">
        <ele>180.0850504311</ele>
        <time>2026-05-26T19:44:23Z</time>
      </trkpt>
      <trkpt lat="41.88913399145142" lon="-87.64125789632610">
        <ele>181.4790345339</ele>
        <time>2026-05-26T19:44:42Z</time>
      </trkpt>
      <trkpt lat="41.88911816190609" lon="-87.64221620868669">
        <ele>179.8634441401</ele>
        <time>2026-05-26T19:45:47Z</time>
      </trkpt>
      <trkpt lat="41.88907396344554" lon="-87.64222387428595">
        <ele>180.0239294543</ele>
        <time>2026-05-26T19:45:53Z</time>
      </trkpt>
      <trkpt lat="41.88908091751770" lon="-87.64191728783841">
        <ele>179.9708486796</ele>
        <time>2026-05-26T19:46:22Z</time>
      </trkpt>
      <trkpt lat="41.88907653788900" lon="-87.64177002117064">
        <ele>179.9402283116</ele>
        <time>2026-05-26T19:46:32Z</time>
      </trkpt>
      <trkpt lat="41.88905367258446" lon="-87.64167327703294">
        <ele>179.9594290379</ele>
        <time>2026-05-26T19:46:41Z</time>
      </trkpt>
      <trkpt lat="41.88900589585926" lon="-87.64155956521637">
        <ele>179.9908869498</ele>
        <time>2026-05-26T19:46:52Z</time>
      </trkpt>
      <trkpt lat="41.88902979579930" lon="-87.64042136591021">
        <ele>180.3591514141</ele>
        <time>2026-05-26T19:48:01Z</time>
      </trkpt>
      <trkpt lat="41.88906839226892" lon="-87.64030910688682">
        <ele>180.9459317011</ele>
        <time>2026-05-26T19:48:08Z</time>
      </trkpt>
      <trkpt lat="41.88905296901032" lon="-87.63984707375688">
        <ele>181.4077250621</ele>
        <time>2026-05-26T19:48:49Z</time>
      </trkpt>
      <trkpt lat="41.88903487078333" lon="-87.63973093394739">
        <ele>181.3475887681</ele>
        <time>2026-05-26T19:48:57Z</time>
      </trkpt>
      <trkpt lat="41.88907693694978" lon="-87.63926811274058">
        <ele>177.4937757083</ele>
        <time>2026-05-26T19:49:26Z</time>
      </trkpt>
      <trkpt lat="41.88908989424754" lon="-87.63907825140373">
        <ele>176.4326580450</ele>
        <time>2026-05-26T19:49:40Z</time>
      </trkpt>
      <trkpt lat="41.88911470033253" lon="-87.63897284311363">
        <ele>177.9945060938</ele>
        <time>2026-05-26T19:49:47Z</time>
      </trkpt>
      <trkpt lat="41.88906661749674" lon="-87.63888736042911">
        <ele>179.6535408887</ele>
        <time>2026-05-26T19:49:52Z</time>
      </trkpt>
      <trkpt lat="41.88904555183836" lon="-87.63856094401199">
        <ele>180.4126101431</ele>
        <time>2026-05-26T19:50:08Z</time>
      </trkpt>
      <trkpt lat="41.88907121844189" lon="-87.63713644242554">
        <ele>179.3846666983</ele>
        <time>2026-05-26T19:51:35Z</time>
      </trkpt>
      <trkpt lat="41.88913382900481" lon="-87.63712677695870">
        <ele>179.4577361481</ele>
        <time>2026-05-26T19:51:41Z</time>
      </trkpt>
      <trkpt lat="41.88913012230454" lon="-87.63718389074997">
        <ele>179.6690040714</ele>
        <time>2026-05-26T19:51:44Z</time>
      </trkpt>
      <trkpt lat="41.88912886730881" lon="-87.63712998175281">
        <ele>179.5102931440</ele>
        <time>2026-05-26T19:51:49Z</time>
      </trkpt>
      <trkpt lat="41.88907529309707" lon="-87.63714199227478">
        <ele>179.5185224906</ele>
        <time>2026-05-26T19:52:29Z</time>
      </trkpt>
      <trkpt lat="41.88908105324404" lon="-87.63678440539277">
        <ele>181.6291465114</ele>
        <time>2026-05-26T19:53:37Z</time>
      </trkpt>
      <trkpt lat="41.88907238815951" lon="-87.63666989422741">
        <ele>181.6357506401</ele>
        <time>2026-05-26T19:53:43Z</time>
      </trkpt>
      <trkpt lat="41.88908651737134" lon="-87.63550616157052">
        <ele>183.1460453747</ele>
        <time>2026-05-26T19:54:53Z</time>
      </trkpt>
      <trkpt lat="41.88912005360447" lon="-87.63429553243104">
        <ele>181.2129380946</ele>
        <time>2026-05-26T19:56:25Z</time>
      </trkpt>
      <trkpt lat="41.88914671001371" lon="-87.63425644440940">
        <ele>181.2659986753</ele>
        <time>2026-05-26T19:56:27Z</time>
      </trkpt>
      <trkpt lat="41.88915814208851" lon="-87.63415097346673">
        <ele>181.5302328645</ele>
        <time>2026-05-26T19:56:34Z</time>
      </trkpt>
      <trkpt lat="41.88915244862241" lon="-87.63402808850377">
        <ele>181.4300648599</ele>
        <time>2026-05-26T19:56:43Z</time>
      </trkpt>
      <trkpt lat="41.88915430348715" lon="-87.63387127407945">
        <ele>181.3440602223</ele>
        <time>2026-05-26T19:56:54Z</time>
      </trkpt>
      <trkpt lat="41.88918648428861" lon="-87.63388684923036">
        <ele>181.1923071325</ele>
        <time>2026-05-26T19:57:18Z</time>
      </trkpt>
      <trkpt lat="41.88915843868998" lon="-87.63387751935181">
        <ele>181.5225379628</ele>
        <time>2026-05-26T19:57:21Z</time>
      </trkpt>
      <trkpt lat="41.88915008962594" lon="-87.63402308538760">
        <ele>181.5099871117</ele>
        <time>2026-05-26T19:57:28Z</time>
      </trkpt>
      <trkpt lat="41.88841448601019" lon="-87.63401298378689">
        <ele>184.1876030964</ele>
        <time>2026-05-26T19:58:27Z</time>
      </trkpt>
      <trkpt lat="41.88795889587436" lon="-87.63399464743766">
        <ele>182.6966488998</ele>
        <time>2026-05-26T19:59:07Z</time>
      </trkpt>
      <trkpt lat="41.88708972992345" lon="-87.63398699523886">
        <ele>181.9193371109</ele>
        <time>2026-05-26T20:00:23Z</time>
      </trkpt>
      <trkpt lat="41.88694731579640" lon="-87.63397203670699">
        <ele>182.7718912233</ele>
        <time>2026-05-26T20:01:04Z</time>
      </trkpt>
      <trkpt lat="41.88583455823585" lon="-87.63395369512428">
        <ele>180.9700256456</ele>
        <time>2026-05-26T20:02:39Z</time>
      </trkpt>
      <trkpt lat="41.87931300847172" lon="-87.63377902284046">
        <ele>180.8417740617</ele>
        <time>2026-05-26T20:12:39Z</time>
      </trkpt>
      <trkpt lat="41.87723140954187" lon="-87.63371573855700">
        <ele>181.2475933176</ele>
        <time>2026-05-26T20:15:44Z</time>
      </trkpt>
      <trkpt lat="41.87692893842721" lon="-87.63370673497896">
        <ele>180.7921915926</ele>
        <time>2026-05-26T20:16:16Z</time>
      </trkpt>
      <trkpt lat="41.87692610307866" lon="-87.63362531882666">
        <ele>181.2672415688</ele>
        <time>2026-05-26T20:16:24Z</time>
      </trkpt>
      <trkpt lat="41.87692725186912" lon="-87.63359174650827">
        <ele>181.0575312403</ele>
        <time>2026-05-26T20:16:26Z</time>
      </trkpt>
      <trkpt lat="41.87690462204064" lon="-87.63357889180713">
        <ele>180.9967640613</ele>
        <time>2026-05-26T20:16:29Z</time>
      </trkpt>
      <trkpt lat="41.87685825083147" lon="-87.63357760613242">
        <ele>181.1876130266</ele>
        <time>2026-05-26T20:16:33Z</time>
      </trkpt>
      <trkpt lat="41.87685458322566" lon="-87.63362178460888">
        <ele>180.9187193592</ele>
        <time>2026-05-26T20:16:36Z</time>
      </trkpt>
    </trkseg>
  </trk>
</gpx>