<?xml version='1.0' encoding='UTF-8'?>
<gpx xmlns="http://www.topografix.com/GPX/1/1" creator="https://gpx.studio" version="1.1">
  <metadata>
    <name>Walk - 2026-02-18</name>
  </metadata>
  <trk>
    <name>Walk - 2026-02-18</name>
    <type>walk</type>
    <trkseg>
      <trkpt lat="41.49932271637208" lon="-81.69435439747812">
        <ele>199.7849507945</ele>
        <time>2026-02-18T17:55:27Z</time>
      </trkpt>
      <trkpt lat="41.49941479101038" lon="-81.69442129262099">
        <ele>199.8131027593</ele>
        <time>2026-02-18T17:55:35Z</time>
      </trkpt>
      <trkpt lat="41.49960423687957" lon="-81.69401377922557">
        <ele>200.0205944486</ele>
        <time>2026-02-18T17:56:03Z</time>
      </trkpt>
      <trkpt lat="41.49986828637181" lon="-81.69350886089229">
        <ele>200.1470057352</ele>
        <time>2026-02-18T17:56:31Z</time>
      </trkpt>
      <trkpt lat="41.50020910059994" lon="-81.69345997903143">
        <ele>200.7468539960</ele>
        <time>2026-02-18T17:57:06Z</time>
      </trkpt>
      <trkpt lat="41.50035637132385" lon="-81.69345317723808">
        <ele>200.6213165407</ele>
        <time>2026-02-18T17:57:15Z</time>
      </trkpt>
      <trkpt lat="41.50042966780718" lon="-81.69346833260164">
        <ele>200.1364014748</ele>
        <time>2026-02-18T17:57:21Z</time>
      </trkpt>
      <trkpt lat="41.50047181119629" lon="-81.69344646277969">
        <ele>199.7630401976</ele>
        <time>2026-02-18T17:57:39Z</time>
      </trkpt>
      <trkpt lat="41.50051457009499" lon="-81.69341738019737">
        <ele>199.1662562548</ele>
        <time>2026-02-18T17:57:42Z</time>
      </trkpt>
      <trkpt lat="41.50057397682862" lon="-81.69346269032414">
        <ele>199.0098590483</ele>
        <time>2026-02-18T17:57:47Z</time>
      </trkpt>
      <trkpt lat="41.50057736558445" lon="-81.69350357605623">
        <ele>199.1901702417</ele>
        <time>2026-02-18T17:57:50Z</time>
      </trkpt>
      <trkpt lat="41.50059351701019" lon="-81.69348027625250">
        <ele>199.1247261459</ele>
        <time>2026-02-18T17:57:52Z</time>
      </trkpt>
      <trkpt lat="41.50065951656246" lon="-81.69334179504169">
        <ele>198.8778218487</ele>
        <time>2026-02-18T17:58:00Z</time>
      </trkpt>
      <trkpt lat="41.50068352008034" lon="-81.69330227675502">
        <ele>198.9085157946</ele>
        <time>2026-02-18T17:58:04Z</time>
      </trkpt>
      <trkpt lat="41.50085014316448" lon="-81.69345238812625">
        <ele>198.9060225971</ele>
        <time>2026-02-18T17:58:21Z</time>
      </trkpt>
      <trkpt lat="41.50087436790184" lon="-81.69337370708922">
        <ele>198.8850788505</ele>
        <time>2026-02-18T17:58:25Z</time>
      </trkpt>
      <trkpt lat="41.50172061769629" lon="-81.69413004669596">
        <ele>198.2470507592</ele>
        <time>2026-02-18T17:59:45Z</time>
      </trkpt>
      <trkpt lat="41.50183302783542" lon="-81.69391657395735">
        <ele>197.9393677060</ele>
        <time>2026-02-18T18:00:02Z</time>
      </trkpt>
      <trkpt lat="41.50203886781281" lon="-81.69410661925733">
        <ele>197.9961999712</ele>
        <time>2026-02-18T18:00:18Z</time>
      </trkpt>
      <trkpt lat="41.50206844990311" lon="-81.69404619927043">
        <ele>198.1243867494</ele>
        <time>2026-02-18T18:00:23Z</time>
      </trkpt>
      <trkpt lat="41.50269915140497" lon="-81.69462513525259">
        <ele>201.0358520666</ele>
        <time>2026-02-18T18:01:40Z</time>
      </trkpt>
      <trkpt lat="41.50277840643963" lon="-81.69445373290274">
        <ele>201.0906955361</ele>
        <time>2026-02-18T18:01:50Z</time>
      </trkpt>
      <trkpt lat="41.50348331769559" lon="-81.69508726708102">
        <ele>199.2803941256</ele>
        <time>2026-02-18T18:02:56Z</time>
      </trkpt>
      <trkpt lat="41.50355454934455" lon="-81.69517251852353">
        <ele>199.1483253899</ele>
        <time>2026-02-18T18:03:03Z</time>
      </trkpt>
      <trkpt lat="41.50355328206138" lon="-81.69519195565411">
        <ele>198.6723202880</ele>
        <time>2026-02-18T18:03:05Z</time>
      </trkpt>
      <trkpt lat="41.50372664763194" lon="-81.69534276444396">
        <ele>196.7846089990</ele>
        <time>2026-02-18T18:03:22Z</time>
      </trkpt>
      <trkpt lat="41.50371180668240" lon="-81.69538806539427">
        <ele>196.8187291963</ele>
        <time>2026-02-18T18:03:25Z</time>
      </trkpt>
      <trkpt lat="41.50442030978725" lon="-81.69604795231902">
        <ele>196.8865876541</ele>
        <time>2026-02-18T18:04:27Z</time>
      </trkpt>
      <trkpt lat="41.50459184205224" lon="-81.69620276553579">
        <ele>195.4660575955</ele>
        <time>2026-02-18T18:04:41Z</time>
      </trkpt>
      <trkpt lat="41.50462543907748" lon="-81.69613382822720">
        <ele>195.1840859257</ele>
        <time>2026-02-18T18:04:47Z</time>
      </trkpt>
      <trkpt lat="41.50491214457453" lon="-81.69559460571188">
        <ele>192.9438972121</ele>
        <time>2026-02-18T18:05:37Z</time>
      </trkpt>
      <trkpt lat="41.50506584620867" lon="-81.69528961686015">
        <ele>195.9740487120</ele>
        <time>2026-02-18T18:05:57Z</time>
      </trkpt>
      <trkpt lat="41.50418841546264" lon="-81.69447746282155">
        <ele>197.0490632154</ele>
        <time>2026-02-18T18:07:40Z</time>
      </trkpt>
      <trkpt lat="41.50439176554691" lon="-81.69405469715214">
        <ele>196.4689996526</ele>
        <time>2026-02-18T18:08:10Z</time>
      </trkpt>
      <trkpt lat="41.50557711164957" lon="-81.69175207907753">
        <ele>195.8797390515</ele>
        <time>2026-02-18T18:11:14Z</time>
      </trkpt>
      <trkpt lat="41.50576921795526" lon="-81.69140646421027">
        <ele>196.2304938019</ele>
        <time>2026-02-18T18:11:41Z</time>
      </trkpt>
      <trkpt lat="41.50625459535307" lon="-81.69130930993254">
        <ele>196.9957475382</ele>
        <time>2026-02-18T18:12:17Z</time>
      </trkpt>
      <trkpt lat="41.50629071792856" lon="-81.69122891711342">
        <ele>196.9434761746</ele>
        <time>2026-02-18T18:12:27Z</time>
      </trkpt>
      <trkpt lat="41.50645081155224" lon="-81.69136741322201">
        <ele>197.0166553875</ele>
        <time>2026-02-18T18:12:46Z</time>
      </trkpt>
      <trkpt lat="41.50651213857341" lon="-81.69135347070478">
        <ele>197.2977252023</ele>
        <time>2026-02-18T18:12:51Z</time>
      </trkpt>
      <trkpt lat="41.50661734455562" lon="-81.69131152770309">
        <ele>197.1198180186</ele>
        <time>2026-02-18T18:13:04Z</time>
      </trkpt>
      <trkpt lat="41.50657639858260" lon="-81.69105742716573">
        <ele>196.9944234658</ele>
        <time>2026-02-18T18:13:21Z</time>
      </trkpt>
      <trkpt lat="41.50644633561559" lon="-81.69094540202337">
        <ele>196.9564518782</ele>
        <time>2026-02-18T18:13:32Z</time>
      </trkpt>
      <trkpt lat="41.50646372993214" lon="-81.69090918806471">
        <ele>196.8132907709</ele>
        <time>2026-02-18T18:13:34Z</time>
      </trkpt>
      <trkpt lat="41.50635733840307" lon="-81.69024304657162">
        <ele>195.1874943794</ele>
        <time>2026-02-18T18:14:18Z</time>
      </trkpt>
      <trkpt lat="41.50674401021153" lon="-81.68946946666459">
        <ele>194.2637403693</ele>
        <time>2026-02-18T18:15:12Z</time>
      </trkpt>
      <trkpt lat="41.50694492725389" lon="-81.68905651669165">
        <ele>194.0862476125</ele>
        <time>2026-02-18T18:15:42Z</time>
      </trkpt>
      <trkpt lat="41.50748326251908" lon="-81.68802391635833">
        <ele>193.5237534734</ele>
        <time>2026-02-18T18:17:03Z</time>
      </trkpt>
      <trkpt lat="41.50729515739926" lon="-81.68774008912681">
        <ele>194.1098380785</ele>
        <time>2026-02-18T18:17:23Z</time>
      </trkpt>
      <trkpt lat="41.50738834279547" lon="-81.68757270936128">
        <ele>193.9078503127</ele>
        <time>2026-02-18T18:17:38Z</time>
      </trkpt>
      <trkpt lat="41.50671032405590" lon="-81.68697490275409">
        <ele>195.0120313701</ele>
        <time>2026-02-18T18:18:57Z</time>
      </trkpt>
      <trkpt lat="41.50610951055472" lon="-81.68636469998970">
        <ele>195.0170246582</ele>
        <time>2026-02-18T18:19:52Z</time>
      </trkpt>
      <trkpt lat="41.50589668311022" lon="-81.68618142194583">
        <ele>195.0497366993</ele>
        <time>2026-02-18T18:20:16Z</time>
      </trkpt>
      <trkpt lat="41.50502220823685" lon="-81.68544146822123">
        <ele>195.2178577766</ele>
        <time>2026-02-18T18:21:43Z</time>
      </trkpt>
      <trkpt lat="41.50432911857955" lon="-81.68480254592914">
        <ele>195.9809531105</ele>
        <time>2026-02-18T18:22:45Z</time>
      </trkpt>
      <trkpt lat="41.50410057701637" lon="-81.68457418197549">
        <ele>195.8377109734</ele>
        <time>2026-02-18T18:23:09Z</time>
      </trkpt>
      <trkpt lat="41.50401276012541" lon="-81.68456064553276">
        <ele>196.0049279283</ele>
        <time>2026-02-18T18:23:14Z</time>
      </trkpt>
      <trkpt lat="41.50368899616391" lon="-81.68425809435351">
        <ele>195.9469346706</ele>
        <time>2026-02-18T18:23:43Z</time>
      </trkpt>
      <trkpt lat="41.50353005336350" lon="-81.68412701427627">
        <ele>196.0392144207</ele>
        <time>2026-02-18T18:24:15Z</time>
      </trkpt>
      <trkpt lat="41.50338168200119" lon="-81.68400087220780">
        <ele>196.6018502625</ele>
        <time>2026-02-18T18:24:30Z</time>
      </trkpt>
      <trkpt lat="41.50320217247310" lon="-81.68386501377552">
        <ele>197.1698520732</ele>
        <time>2026-02-18T18:24:43Z</time>
      </trkpt>
      <trkpt lat="41.50312718036167" lon="-81.68374916102846">
        <ele>196.8309387901</ele>
        <time>2026-02-18T18:24:53Z</time>
      </trkpt>
      <trkpt lat="41.50309599467753" lon="-81.68365702969325">
        <ele>197.1313598727</ele>
        <time>2026-02-18T18:25:00Z</time>
      </trkpt>
      <trkpt lat="41.50307013659126" lon="-81.68352892623209">
        <ele>196.9466112511</ele>
        <time>2026-02-18T18:25:07Z</time>
      </trkpt>
      <trkpt lat="41.50288061548920" lon="-81.68349562663973">
        <ele>196.8154896580</ele>
        <time>2026-02-18T18:25:23Z</time>
      </trkpt>
      <trkpt lat="41.50284257358921" lon="-81.68356679484414">
        <ele>196.9073348972</ele>
        <time>2026-02-18T18:25:27Z</time>
      </trkpt>
      <trkpt lat="41.50279175512419" lon="-81.68355750417233">
        <ele>196.8861226533</ele>
        <time>2026-02-18T18:25:38Z</time>
      </trkpt>
      <trkpt lat="41.50255670150290" lon="-81.68334958128732">
        <ele>197.6709586080</ele>
        <time>2026-02-18T18:25:57Z</time>
      </trkpt>
      <trkpt lat="41.50243361087538" lon="-81.68333762907068">
        <ele>198.1235335393</ele>
        <time>2026-02-18T18:26:10Z</time>
      </trkpt>
      <trkpt lat="41.50227447385630" lon="-81.68327718628841">
        <ele>198.0763914627</ele>
        <time>2026-02-18T18:26:24Z</time>
      </trkpt>
      <trkpt lat="41.50090684480625" lon="-81.68294555917491">
        <ele>201.5261905050</ele>
        <time>2026-02-18T18:28:02Z</time>
      </trkpt>
      <trkpt lat="41.50088913897050" lon="-81.68292430767008">
        <ele>201.2674828182</ele>
        <time>2026-02-18T18:28:05Z</time>
      </trkpt>
      <trkpt lat="41.50086742969649" lon="-81.68302008593015">
        <ele>201.8188922313</ele>
        <time>2026-02-18T18:28:12Z</time>
      </trkpt>
      <trkpt lat="41.50089229667651" lon="-81.68302251006511">
        <ele>201.3485071716</ele>
        <time>2026-02-18T18:28:14Z</time>
      </trkpt>
      <trkpt lat="41.50087142338449" lon="-81.68301646490704">
        <ele>201.6787554165</ele>
        <time>2026-02-18T18:28:15Z</time>
      </trkpt>
      <trkpt lat="41.50088472088073" lon="-81.68292624266114">
        <ele>201.1879234321</ele>
        <time>2026-02-18T18:28:21Z</time>
      </trkpt>
      <trkpt lat="41.50088861403593" lon="-81.68286418549519">
        <ele>201.5387235933</ele>
        <time>2026-02-18T18:28:25Z</time>
      </trkpt>
      <trkpt lat="41.50065966701858" lon="-81.68278774226499">
        <ele>201.8641284940</ele>
        <time>2026-02-18T18:28:45Z</time>
      </trkpt>
      <trkpt lat="41.50078306000058" lon="-81.68198000091898">
        <ele>201.8551732133</ele>
        <time>2026-02-18T18:29:40Z</time>
      </trkpt>
      <trkpt lat="41.50069608733282" lon="-81.68191138772920">
        <ele>201.8967902154</ele>
        <time>2026-02-18T18:29:48Z</time>
      </trkpt>
      <trkpt lat="41.49984463867045" lon="-81.68108880502859">
        <ele>203.3238608466</ele>
        <time>2026-02-18T18:31:02Z</time>
      </trkpt>
      <trkpt lat="41.49975772426301" lon="-81.68105914117206">
        <ele>203.8485152418</ele>
        <time>2026-02-18T18:31:09Z</time>
      </trkpt>
      <trkpt lat="41.49964876045333" lon="-81.68096455234263">
        <ele>204.0250166036</ele>
        <time>2026-02-18T18:31:20Z</time>
      </trkpt>
      <trkpt lat="41.49966625815068" lon="-81.68080924249470">
        <ele>203.9872732038</ele>
        <time>2026-02-18T18:31:29Z</time>
      </trkpt>
      <trkpt lat="41.49961111667309" lon="-81.68075957292388">
        <ele>203.8686553580</ele>
        <time>2026-02-18T18:31:34Z</time>
      </trkpt>
      <trkpt lat="41.49957724749089" lon="-81.68072229342084">
        <ele>204.0204784533</ele>
        <time>2026-02-18T18:31:37Z</time>
      </trkpt>
      <trkpt lat="41.49957066148126" lon="-81.68089325388075">
        <ele>203.9676598171</ele>
        <time>2026-02-18T18:31:56Z</time>
      </trkpt>
      <trkpt lat="41.49917546743816" lon="-81.68051958724442">
        <ele>205.0543329737</ele>
        <time>2026-02-18T18:32:30Z</time>
      </trkpt>
      <trkpt lat="41.49880602273127" lon="-81.68019569424962">
        <ele>205.9148294572</ele>
        <time>2026-02-18T18:33:02Z</time>
      </trkpt>
      <trkpt lat="41.49829788748293" lon="-81.67970542423286">
        <ele>204.8716310164</ele>
        <time>2026-02-18T18:33:50Z</time>
      </trkpt>
      <trkpt lat="41.49769203306035" lon="-81.67919386998304">
        <ele>205.1050535201</ele>
        <time>2026-02-18T18:34:58Z</time>
      </trkpt>
      <trkpt lat="41.49754506215172" lon="-81.67914223251714">
        <ele>205.0099867460</ele>
        <time>2026-02-18T18:35:10Z</time>
      </trkpt>
      <trkpt lat="41.49760932131814" lon="-81.67901139787972">
        <ele>204.9356307378</ele>
        <time>2026-02-18T18:35:20Z</time>
      </trkpt>
      <trkpt lat="41.49754589303693" lon="-81.67914039465077">
        <ele>204.9583073122</ele>
        <time>2026-02-18T18:35:28Z</time>
      </trkpt>
      <trkpt lat="41.49768710751270" lon="-81.67918138283193">
        <ele>205.0654024091</ele>
        <time>2026-02-18T18:35:41Z</time>
      </trkpt>
      <trkpt lat="41.49597867578500" lon="-81.68250315286819">
        <ele>205.1690711960</ele>
        <time>2026-02-18T18:39:09Z</time>
      </trkpt>
      <trkpt lat="41.49583640170103" lon="-81.68278994976180">
        <ele>203.7668360454</ele>
        <time>2026-02-18T18:39:27Z</time>
      </trkpt>
      <trkpt lat="41.49579894206421" lon="-81.68275555542418">
        <ele>204.2218609568</ele>
        <time>2026-02-18T18:39:31Z</time>
      </trkpt>
      <trkpt lat="41.49584233648653" lon="-81.68278463894120">
        <ele>203.7077833323</ele>
        <time>2026-02-18T18:39:49Z</time>
      </trkpt>
      <trkpt lat="41.49518046917372" lon="-81.68408320846488">
        <ele>203.8118141429</ele>
        <time>2026-02-18T18:41:28Z</time>
      </trkpt>
      <trkpt lat="41.49496350770942" lon="-81.68448484905244">
        <ele>204.1362798526</ele>
        <time>2026-02-18T18:41:54Z</time>
      </trkpt>
      <trkpt lat="41.49461355912593" lon="-81.68529329676515">
        <ele>204.1156957755</ele>
        <time>2026-02-18T18:42:56Z</time>
      </trkpt>
      <trkpt lat="41.49537234648982" lon="-81.68710660528578">
        <ele>203.3560203203</ele>
        <time>2026-02-18T18:45:08Z</time>
      </trkpt>
      <trkpt lat="41.49545878100480" lon="-81.68731238901687">
        <ele>202.9443274465</ele>
        <time>2026-02-18T18:45:29Z</time>
      </trkpt>
      <trkpt lat="41.49566062298467" lon="-81.68777290239416">
        <ele>203.3501399391</ele>
        <time>2026-02-18T18:46:00Z</time>
      </trkpt>
      <trkpt lat="41.49570787657958" lon="-81.68791778475027">
        <ele>202.7156856696</ele>
        <time>2026-02-18T18:46:10Z</time>
      </trkpt>
      <trkpt lat="41.49581682584937" lon="-81.68812659925035">
        <ele>203.2047448953</ele>
        <time>2026-02-18T18:46:25Z</time>
      </trkpt>
      <trkpt lat="41.49619054788047" lon="-81.68899352869236">
        <ele>203.1140380174</ele>
        <time>2026-02-18T18:47:18Z</time>
      </trkpt>
      <trkpt lat="41.49622136542914" lon="-81.68908768843934">
        <ele>203.1412862624</ele>
        <time>2026-02-18T18:47:25Z</time>
      </trkpt>
      <trkpt lat="41.49636567178515" lon="-81.68944948475199">
        <ele>202.3604905908</ele>
        <time>2026-02-18T18:47:45Z</time>
      </trkpt>
      <trkpt lat="41.49657515904861" lon="-81.68991922912781">
        <ele>203.1513301048</ele>
        <time>2026-02-18T18:48:28Z</time>
      </trkpt>
      <trkpt lat="41.49660888127816" lon="-81.68994205151107">
        <ele>202.8092150445</ele>
        <time>2026-02-18T18:48:31Z</time>
      </trkpt>
      <trkpt lat="41.49667779717842" lon="-81.69007734366069">
        <ele>202.7965355866</ele>
        <time>2026-02-18T18:48:53Z</time>
      </trkpt>
      <trkpt lat="41.49674553629017" lon="-81.69026094312430">
        <ele>203.0325124847</ele>
        <time>2026-02-18T18:49:06Z</time>
      </trkpt>
      <trkpt lat="41.49675824884680" lon="-81.69029492859102">
        <ele>202.7754627399</ele>
        <time>2026-02-18T18:49:08Z</time>
      </trkpt>
      <trkpt lat="41.49715719594249" lon="-81.69121760409688">
        <ele>202.8980690793</ele>
        <time>2026-02-18T18:50:16Z</time>
      </trkpt>
      <trkpt lat="41.49727247059259" lon="-81.69136189306467">
        <ele>203.0493003165</ele>
        <time>2026-02-18T18:50:28Z</time>
      </trkpt>
      <trkpt lat="41.49782375951636" lon="-81.69186464181207">
        <ele>203.7859762960</ele>
        <time>2026-02-18T18:51:15Z</time>
      </trkpt>
      <trkpt lat="41.49805680033935" lon="-81.69200548568330">
        <ele>204.0247907701</ele>
        <time>2026-02-18T18:51:35Z</time>
      </trkpt>
      <trkpt lat="41.49806867987697" lon="-81.69198689196935">
        <ele>204.0083843495</ele>
        <time>2026-02-18T18:51:37Z</time>
      </trkpt>
      <trkpt lat="41.49809467138002" lon="-81.69208303200244">
        <ele>203.5474427368</ele>
        <time>2026-02-18T18:51:42Z</time>
      </trkpt>
      <trkpt lat="41.49797870466967" lon="-81.69232259248834">
        <ele>203.6924311757</ele>
        <time>2026-02-18T18:51:55Z</time>
      </trkpt>
      <trkpt lat="41.49886153100638" lon="-81.69311919374522">
        <ele>201.7231379628</ele>
        <time>2026-02-18T18:53:14Z</time>
      </trkpt>
      <trkpt lat="41.49888286337416" lon="-81.69315251759876">
        <ele>201.9238789508</ele>
        <time>2026-02-18T18:53:16Z</time>
      </trkpt>
      <trkpt lat="41.49887876968491" lon="-81.69322706649064">
        <ele>202.1047643259</ele>
        <time>2026-02-18T18:53:21Z</time>
      </trkpt>
      <trkpt lat="41.49898227108815" lon="-81.69331007010946">
        <ele>202.0984241672</ele>
        <time>2026-02-18T18:53:30Z</time>
      </trkpt>
      <trkpt lat="41.49902027369247" lon="-81.69334541462180">
        <ele>201.8744505855</ele>
        <time>2026-02-18T18:53:35Z</time>
      </trkpt>
      <trkpt lat="41.49884278575001" lon="-81.69370692029075">
        <ele>200.9773130325</ele>
        <time>2026-02-18T18:54:00Z</time>
      </trkpt>
      <trkpt lat="41.49881570141755" lon="-81.69381416455222">
        <ele>200.9128975146</ele>
        <time>2026-02-18T18:54:06Z</time>
      </trkpt>
      <trkpt lat="41.49883313266647" lon="-81.69389646499577">
        <ele>200.8354103566</ele>
        <time>2026-02-18T18:54:10Z</time>
      </trkpt>
      <trkpt lat="41.49885658918977" lon="-81.69396508339740">
        <ele>200.9228289599</ele>
        <time>2026-02-18T18:54:15Z</time>
      </trkpt>
      <trkpt lat="41.49893393899123" lon="-81.69405556361097">
        <ele>200.8250310971</ele>
        <time>2026-02-18T18:54:24Z</time>
      </trkpt>
      <trkpt lat="41.49916678920012" lon="-81.69424656233980">
        <ele>199.8575308028</ele>
        <time>2026-02-18T18:54:43Z</time>
      </trkpt>
      <trkpt lat="41.49910634909948" lon="-81.69436086265966">
        <ele>199.8813959252</ele>
        <time>2026-02-18T18:54:52Z</time>
      </trkpt>
      <trkpt lat="41.49913656788399" lon="-81.69438707213983">
        <ele>200.0564384454</ele>
        <time>2026-02-18T18:54:55Z</time>
      </trkpt>
    </trkseg>
  </trk>
</gpx>