<?xml version='1.0' encoding='UTF-8'?>
<gpx xmlns="http://www.topografix.com/GPX/1/1" creator="https://gpx.studio" version="1.1">
  <metadata>
    <name>Walk - 2026-05-27</name>
  </metadata>
  <trk>
    <name>Walk - 2026-05-27</name>
    <type>walk</type>
    <trkseg>
      <trkpt lat="41.87685519223833" lon="-87.63375520976312">
        <ele>180.9855586222</ele>
        <time>2026-05-27T14:08:42Z</time>
      </trkpt>
      <trkpt lat="41.87684944192641" lon="-87.63444513582994">
        <ele>181.0737070536</ele>
        <time>2026-05-27T14:09:50Z</time>
      </trkpt>
      <trkpt lat="41.87811825131174" lon="-87.63447706353064">
        <ele>180.9842794922</ele>
        <time>2026-05-27T14:11:53Z</time>
      </trkpt>
      <trkpt lat="41.87812726706194" lon="-87.63361591067226">
        <ele>181.1239877007</ele>
        <time>2026-05-27T14:13:17Z</time>
      </trkpt>
      <trkpt lat="41.87816136571448" lon="-87.63362020930313">
        <ele>181.1305099817</ele>
        <time>2026-05-27T14:13:20Z</time>
      </trkpt>
      <trkpt lat="41.87812738754242" lon="-87.63361003842081">
        <ele>181.0455435159</ele>
        <time>2026-05-27T14:13:23Z</time>
      </trkpt>
      <trkpt lat="41.87814722015969" lon="-87.63226965256575">
        <ele>180.7463751406</ele>
        <time>2026-05-27T14:15:09Z</time>
      </trkpt>
      <trkpt lat="41.87941179895441" lon="-87.63230174405236">
        <ele>180.9634194266</ele>
        <time>2026-05-27T14:17:32Z</time>
      </trkpt>
      <trkpt lat="41.87939021311873" lon="-87.63364628955854">
        <ele>181.1398404921</ele>
        <time>2026-05-27T14:18:55Z</time>
      </trkpt>
      <trkpt lat="41.87943851305973" lon="-87.63365129472585">
        <ele>180.9941558246</ele>
        <time>2026-05-27T14:19:57Z</time>
      </trkpt>
      <trkpt lat="41.87946584177284" lon="-87.63365757868780">
        <ele>180.9180813048</ele>
        <time>2026-05-27T14:20:00Z</time>
      </trkpt>
      <trkpt lat="41.87946282088782" lon="-87.63368677004593">
        <ele>180.8895713182</ele>
        <time>2026-05-27T14:20:01Z</time>
      </trkpt>
      <trkpt lat="41.87947553129558" lon="-87.63375381770280">
        <ele>181.1138455724</ele>
        <time>2026-05-27T14:20:56Z</time>
      </trkpt>
      <trkpt lat="41.87947077811453" lon="-87.63377900467091">
        <ele>180.8887824440</ele>
        <time>2026-05-27T14:20:58Z</time>
      </trkpt>
      <trkpt lat="41.87938492531116" lon="-87.63378850040607">
        <ele>181.0156752360</ele>
        <time>2026-05-27T14:21:06Z</time>
      </trkpt>
      <trkpt lat="41.87937409754654" lon="-87.63528036986882">
        <ele>180.8757193334</ele>
        <time>2026-05-27T14:22:59Z</time>
      </trkpt>
      <trkpt lat="41.88065091802378" lon="-87.63530182296346">
        <ele>180.8867140780</ele>
        <time>2026-05-27T14:24:35Z</time>
      </trkpt>
      <trkpt lat="41.88192049036653" lon="-87.63533475485194">
        <ele>180.8909974737</ele>
        <time>2026-05-27T14:26:28Z</time>
      </trkpt>
      <trkpt lat="41.88315677142521" lon="-87.63537759151428">
        <ele>180.9938748586</ele>
        <time>2026-05-27T14:28:38Z</time>
      </trkpt>
      <trkpt lat="41.88573949704656" lon="-87.63540955613527">
        <ele>181.0463606721</ele>
        <time>2026-05-27T14:33:42Z</time>
      </trkpt>
      <trkpt lat="41.88662057610141" lon="-87.63543038340465">
        <ele>182.5923215619</ele>
        <time>2026-05-27T14:34:44Z</time>
      </trkpt>
      <trkpt lat="41.88676329114841" lon="-87.63543741521210">
        <ele>183.3269783557</ele>
        <time>2026-05-27T14:34:57Z</time>
      </trkpt>
      <trkpt lat="41.88680291362046" lon="-87.63528840234261">
        <ele>183.1169021773</ele>
        <time>2026-05-27T14:35:06Z</time>
      </trkpt>
      <trkpt lat="41.88682235882582" lon="-87.63515136899981">
        <ele>183.0473935982</ele>
        <time>2026-05-27T14:35:52Z</time>
      </trkpt>
      <trkpt lat="41.88681459545915" lon="-87.63383476973635">
        <ele>182.2408322786</ele>
        <time>2026-05-27T14:38:12Z</time>
      </trkpt>
      <trkpt lat="41.88695365321094" lon="-87.63383856899432">
        <ele>183.1086726510</ele>
        <time>2026-05-27T14:39:03Z</time>
      </trkpt>
      <trkpt lat="41.88694854470799" lon="-87.63393313178896">
        <ele>182.7908244332</ele>
        <time>2026-05-27T14:39:11Z</time>
      </trkpt>
      <trkpt lat="41.88694334772725" lon="-87.63397481535658">
        <ele>182.9279162426</ele>
        <time>2026-05-27T14:39:14Z</time>
      </trkpt>
      <trkpt lat="41.88682044594623" lon="-87.63398486968661">
        <ele>182.7697026355</ele>
        <time>2026-05-27T14:39:22Z</time>
      </trkpt>
      <trkpt lat="41.88681861435620" lon="-87.63242120088711">
        <ele>182.9621623051</ele>
        <time>2026-05-27T14:41:00Z</time>
      </trkpt>
      <trkpt lat="41.88694926970702" lon="-87.63250030033643">
        <ele>182.8941704012</ele>
        <time>2026-05-27T14:41:15Z</time>
      </trkpt>
      <trkpt lat="41.88704765649003" lon="-87.63249617069170">
        <ele>182.6377108069</ele>
        <time>2026-05-27T14:41:23Z</time>
      </trkpt>
      <trkpt lat="41.88717948130680" lon="-87.63250767358038">
        <ele>178.3200161580</ele>
        <time>2026-05-27T14:41:53Z</time>
      </trkpt>
      <trkpt lat="41.88780620948449" lon="-87.63252262072116">
        <ele>176.5459236266</ele>
        <time>2026-05-27T14:43:03Z</time>
      </trkpt>
      <trkpt lat="41.88800859633822" lon="-87.63252341090842">
        <ele>177.6362920295</ele>
        <time>2026-05-27T14:44:02Z</time>
      </trkpt>
      <trkpt lat="41.88810791518065" lon="-87.63245672838096">
        <ele>177.2480341156</ele>
        <time>2026-05-27T14:44:14Z</time>
      </trkpt>
      <trkpt lat="41.88829726706767" lon="-87.63245674396657">
        <ele>178.2871835464</ele>
        <time>2026-05-27T14:44:31Z</time>
      </trkpt>
      <trkpt lat="41.88851657477391" lon="-87.63242288682137">
        <ele>178.9755354056</ele>
        <time>2026-05-27T14:44:57Z</time>
      </trkpt>
      <trkpt lat="41.88888893925311" lon="-87.63241899100184">
        <ele>181.3763416104</ele>
        <time>2026-05-27T14:45:33Z</time>
      </trkpt>
      <trkpt lat="41.88923812193991" lon="-87.63243201627046">
        <ele>181.1105616657</ele>
        <time>2026-05-27T14:46:01Z</time>
      </trkpt>
      <trkpt lat="41.88928774337829" lon="-87.63244546226855">
        <ele>181.1069025303</ele>
        <time>2026-05-27T14:46:05Z</time>
      </trkpt>
      <trkpt lat="41.88928463245062" lon="-87.63238018543643">
        <ele>181.0456405489</ele>
        <time>2026-05-27T14:46:10Z</time>
      </trkpt>
      <trkpt lat="41.88929520764790" lon="-87.63232960389927">
        <ele>181.1453818830</ele>
        <time>2026-05-27T14:46:44Z</time>
      </trkpt>
      <trkpt lat="41.88926203449737" lon="-87.63234113083961">
        <ele>181.0451297465</ele>
        <time>2026-05-27T14:46:48Z</time>
      </trkpt>
      <trkpt lat="41.88919575684798" lon="-87.63232344911792">
        <ele>181.1874080494</ele>
        <time>2026-05-27T14:46:54Z</time>
      </trkpt>
      <trkpt lat="41.88921715509926" lon="-87.63128777731291">
        <ele>182.0722927480</ele>
        <time>2026-05-27T14:47:49Z</time>
      </trkpt>
      <trkpt lat="41.88924248426605" lon="-87.62952562237155">
        <ele>182.0271932497</ele>
        <time>2026-05-27T14:49:46Z</time>
      </trkpt>
      <trkpt lat="41.88924173538293" lon="-87.62968589292191">
        <ele>181.7434292628</ele>
        <time>2026-05-27T14:49:56Z</time>
      </trkpt>
      <trkpt lat="41.88857366070668" lon="-87.62967234451227">
        <ele>185.0345757112</ele>
        <time>2026-05-27T14:51:28Z</time>
      </trkpt>
      <trkpt lat="41.88792782566312" lon="-87.62963220872192">
        <ele>183.7093249474</ele>
        <time>2026-05-27T14:53:01Z</time>
      </trkpt>
      <trkpt lat="41.88789883269615" lon="-87.62963574028198">
        <ele>182.6218887458</ele>
        <time>2026-05-27T14:53:26Z</time>
      </trkpt>
      <trkpt lat="41.88711958959917" lon="-87.62962449118258">
        <ele>180.7637233664</ele>
        <time>2026-05-27T14:54:56Z</time>
      </trkpt>
      <trkpt lat="41.88700604695796" lon="-87.62962782780134">
        <ele>182.2551684422</ele>
        <time>2026-05-27T14:55:05Z</time>
      </trkpt>
      <trkpt lat="41.88682075062780" lon="-87.62960998914093">
        <ele>183.2013130668</ele>
        <time>2026-05-27T14:55:23Z</time>
      </trkpt>
      <trkpt lat="41.88682510048091" lon="-87.62941146860699">
        <ele>183.0211338809</ele>
        <time>2026-05-27T14:55:37Z</time>
      </trkpt>
      <trkpt lat="41.88694545169032" lon="-87.62941374078720">
        <ele>182.9982931415</ele>
        <time>2026-05-27T14:55:45Z</time>
      </trkpt>
      <trkpt lat="41.88695176653138" lon="-87.62945777384704">
        <ele>183.1090534808</ele>
        <time>2026-05-27T14:55:49Z</time>
      </trkpt>
      <trkpt lat="41.88695122380119" lon="-87.62962808760344">
        <ele>182.6095196486</ele>
        <time>2026-05-27T14:56:03Z</time>
      </trkpt>
      <trkpt lat="41.88682774112222" lon="-87.62961285521472">
        <ele>183.0725798598</ele>
        <time>2026-05-27T14:56:14Z</time>
      </trkpt>
      <trkpt lat="41.88681566405797" lon="-87.62781215521538">
        <ele>182.9857953239</ele>
        <time>2026-05-27T14:58:51Z</time>
      </trkpt>
      <trkpt lat="41.88690523467683" lon="-87.62780471371264">
        <ele>182.7741520363</ele>
        <time>2026-05-27T14:58:58Z</time>
      </trkpt>
      <trkpt lat="41.88695399568847" lon="-87.62781060175892">
        <ele>182.4786158295</ele>
        <time>2026-05-27T14:59:01Z</time>
      </trkpt>
      <trkpt lat="41.88694072886766" lon="-87.62789095584290">
        <ele>182.5329417114</ele>
        <time>2026-05-27T14:59:05Z</time>
      </trkpt>
      <trkpt lat="41.88723368972281" lon="-87.62789770529177">
        <ele>177.5293050653</ele>
        <time>2026-05-27T14:59:34Z</time>
      </trkpt>
      <trkpt lat="41.88785594933591" lon="-87.62793640164870">
        <ele>179.5014825922</ele>
        <time>2026-05-27T15:00:29Z</time>
      </trkpt>
      <trkpt lat="41.88796798245672" lon="-87.62793827364042">
        <ele>184.9820867554</ele>
        <time>2026-05-27T15:00:40Z</time>
      </trkpt>
      <trkpt lat="41.88850495833655" lon="-87.62794492081022">
        <ele>185.0221707562</ele>
        <time>2026-05-27T15:01:52Z</time>
      </trkpt>
      <trkpt lat="41.88864865528633" lon="-87.62801892369022">
        <ele>184.5035931476</ele>
        <time>2026-05-27T15:02:08Z</time>
      </trkpt>
      <trkpt lat="41.88929052864724" lon="-87.62800763121132">
        <ele>182.0701392761</ele>
        <time>2026-05-27T15:03:12Z</time>
      </trkpt>
      <trkpt lat="41.88966264259816" lon="-87.62800534723911">
        <ele>180.7712219418</ele>
        <time>2026-05-27T15:03:40Z</time>
      </trkpt>
      <trkpt lat="41.88968282313530" lon="-87.62676395064415">
        <ele>185.5029226443</ele>
        <time>2026-05-27T15:05:30Z</time>
      </trkpt>
      <trkpt lat="41.88947960228344" lon="-87.62676653906595">
        <ele>185.2561934939</ele>
        <time>2026-05-27T15:05:55Z</time>
      </trkpt>
      <trkpt lat="41.88947494693608" lon="-87.62666332388217">
        <ele>186.5139508415</ele>
        <time>2026-05-27T15:06:02Z</time>
      </trkpt>
      <trkpt lat="41.88944285953983" lon="-87.62665767413088">
        <ele>185.9395418686</ele>
        <time>2026-05-27T15:06:05Z</time>
      </trkpt>
      <trkpt lat="41.88938901590955" lon="-87.62668492775360">
        <ele>186.1669220918</ele>
        <time>2026-05-27T15:06:09Z</time>
      </trkpt>
      <trkpt lat="41.88940510250305" lon="-87.62656243330686">
        <ele>187.3112369129</ele>
        <time>2026-05-27T15:06:16Z</time>
      </trkpt>
      <trkpt lat="41.88935643272767" lon="-87.62656741460795">
        <ele>186.8706833759</ele>
        <time>2026-05-27T15:06:21Z</time>
      </trkpt>
      <trkpt lat="41.88937140147762" lon="-87.62649861852518">
        <ele>187.1468803026</ele>
        <time>2026-05-27T15:06:27Z</time>
      </trkpt>
      <trkpt lat="41.88936034039060" lon="-87.62656236903651">
        <ele>186.7128659106</ele>
        <time>2026-05-27T15:07:05Z</time>
      </trkpt>
      <trkpt lat="41.88941335741482" lon="-87.62655622495600">
        <ele>187.2982190527</ele>
        <time>2026-05-27T15:07:09Z</time>
      </trkpt>
      <trkpt lat="41.88939131442023" lon="-87.62668146866467">
        <ele>186.2285612994</ele>
        <time>2026-05-27T15:07:19Z</time>
      </trkpt>
      <trkpt lat="41.88935418089609" lon="-87.62675088668671">
        <ele>185.7518785791</ele>
        <time>2026-05-27T15:07:26Z</time>
      </trkpt>
      <trkpt lat="41.88905106530181" lon="-87.62700140671865">
        <ele>186.0251229441</ele>
        <time>2026-05-27T15:08:02Z</time>
      </trkpt>
      <trkpt lat="41.88904115926950" lon="-87.62705671329036">
        <ele>185.9700460930</ele>
        <time>2026-05-27T15:08:06Z</time>
      </trkpt>
      <trkpt lat="41.88901110885951" lon="-87.62713894494318">
        <ele>185.9645628145</ele>
        <time>2026-05-27T15:08:13Z</time>
      </trkpt>
      <trkpt lat="41.88896059669551" lon="-87.62720101592826">
        <ele>185.1414806530</ele>
        <time>2026-05-27T15:08:19Z</time>
      </trkpt>
      <trkpt lat="41.88888825074762" lon="-87.62723860475585">
        <ele>184.8478677722</ele>
        <time>2026-05-27T15:08:25Z</time>
      </trkpt>
      <trkpt lat="41.88883009123293" lon="-87.62725877516746">
        <ele>184.6937882292</ele>
        <time>2026-05-27T15:08:43Z</time>
      </trkpt>
      <trkpt lat="41.88881143425254" lon="-87.62723563823374">
        <ele>185.0034267390</ele>
        <time>2026-05-27T15:08:45Z</time>
      </trkpt>
      <trkpt lat="41.88878608300590" lon="-87.62718693545254">
        <ele>185.3088659784</ele>
        <time>2026-05-27T15:08:49Z</time>
      </trkpt>
      <trkpt lat="41.88870287152925" lon="-87.62722154837374">
        <ele>185.2665471466</ele>
        <time>2026-05-27T15:08:58Z</time>
      </trkpt>
      <trkpt lat="41.88863199134046" lon="-87.62724791412042">
        <ele>185.0506156016</ele>
        <time>2026-05-27T15:09:08Z</time>
      </trkpt>
      <trkpt lat="41.88850488106741" lon="-87.62723868354320">
        <ele>185.1558013042</ele>
        <time>2026-05-27T15:09:21Z</time>
      </trkpt>
      <trkpt lat="41.88842763134956" lon="-87.62723140013340">
        <ele>185.5068896914</ele>
        <time>2026-05-27T15:09:31Z</time>
      </trkpt>
      <trkpt lat="41.88828365672764" lon="-87.62716125971151">
        <ele>185.8480539825</ele>
        <time>2026-05-27T15:09:49Z</time>
      </trkpt>
      <trkpt lat="41.88818136667624" lon="-87.62710347700681">
        <ele>183.3844587906</ele>
        <time>2026-05-27T15:10:02Z</time>
      </trkpt>
      <trkpt lat="41.88731169071139" lon="-87.62656203545889">
        <ele>184.8613522080</ele>
        <time>2026-05-27T15:11:36Z</time>
      </trkpt>
      <trkpt lat="41.88723274790505" lon="-87.62646203264774">
        <ele>184.4624805164</ele>
        <time>2026-05-27T15:11:47Z</time>
      </trkpt>
      <trkpt lat="41.88709746567800" lon="-87.62639068536237">
        <ele>184.1421373438</ele>
        <time>2026-05-27T15:11:59Z</time>
      </trkpt>
      <trkpt lat="41.88719725691802" lon="-87.62629327680587">
        <ele>184.8954709361</ele>
        <time>2026-05-27T15:12:09Z</time>
      </trkpt>
      <trkpt lat="41.88723192213152" lon="-87.62625977580338">
        <ele>184.8975808566</ele>
        <time>2026-05-27T15:12:13Z</time>
      </trkpt>
      <trkpt lat="41.88802537278877" lon="-87.62556799312486">
        <ele>186.9088833617</ele>
        <time>2026-05-27T15:13:15Z</time>
      </trkpt>
      <trkpt lat="41.88813065592967" lon="-87.62544264495402">
        <ele>186.8591367890</ele>
        <time>2026-05-27T15:13:45Z</time>
      </trkpt>
      <trkpt lat="41.88817676018724" lon="-87.62535891726534">
        <ele>186.9230087268</ele>
        <time>2026-05-27T15:13:54Z</time>
      </trkpt>
      <trkpt lat="41.88821315780906" lon="-87.62524104500524">
        <ele>187.0293533911</ele>
        <time>2026-05-27T15:14:05Z</time>
      </trkpt>
      <trkpt lat="41.88823009671573" lon="-87.62514868734951">
        <ele>186.8760672897</ele>
        <time>2026-05-27T15:14:10Z</time>
      </trkpt>
      <trkpt lat="41.88822196641270" lon="-87.62485893389696">
        <ele>187.1927102362</ele>
        <time>2026-05-27T15:14:38Z</time>
      </trkpt>
      <trkpt lat="41.88821313566334" lon="-87.62461681346825">
        <ele>186.9916422672</ele>
        <time>2026-05-27T15:14:56Z</time>
      </trkpt>
      <trkpt lat="41.88818654859700" lon="-87.62446550047638">
        <ele>187.0460977378</ele>
        <time>2026-05-27T15:15:06Z</time>
      </trkpt>
      <trkpt lat="41.88831784342938" lon="-87.62443402310215">
        <ele>187.0057583420</ele>
        <time>2026-05-27T15:15:20Z</time>
      </trkpt>
      <trkpt lat="41.88831859468328" lon="-87.62448154573526">
        <ele>187.0415681677</ele>
        <time>2026-05-27T15:15:23Z</time>
      </trkpt>
      <trkpt lat="41.88831293435928" lon="-87.62456928288238">
        <ele>186.8748035957</ele>
        <time>2026-05-27T15:15:31Z</time>
      </trkpt>
      <trkpt lat="41.88811805951832" lon="-87.62463119748882">
        <ele>186.9083080360</ele>
        <time>2026-05-27T15:16:00Z</time>
      </trkpt>
      <trkpt lat="41.88786888769541" lon="-87.62465466809671">
        <ele>186.0042583261</ele>
        <time>2026-05-27T15:16:32Z</time>
      </trkpt>
      <trkpt lat="41.88681004654527" lon="-87.62464172988986">
        <ele>184.2693054396</ele>
        <time>2026-05-27T15:18:28Z</time>
      </trkpt>
      <trkpt lat="41.88680317607248" lon="-87.62446214389590">
        <ele>184.4514952192</ele>
        <time>2026-05-27T15:18:39Z</time>
      </trkpt>
      <trkpt lat="41.88681549036312" lon="-87.62393260747658">
        <ele>184.1026975647</ele>
        <time>2026-05-27T15:19:28Z</time>
      </trkpt>
      <trkpt lat="41.88681980764759" lon="-87.62382118095829">
        <ele>185.3592457891</ele>
        <time>2026-05-27T15:20:13Z</time>
      </trkpt>
      <trkpt lat="41.88681983845037" lon="-87.62367030409376">
        <ele>184.7264495894</ele>
        <time>2026-05-27T15:20:22Z</time>
      </trkpt>
      <trkpt lat="41.88684058054437" lon="-87.62230727876509">
        <ele>187.6837856738</ele>
        <time>2026-05-27T15:21:58Z</time>
      </trkpt>
      <trkpt lat="41.88801524513643" lon="-87.62233936034741">
        <ele>186.5837036621</ele>
        <time>2026-05-27T15:26:04Z</time>
      </trkpt>
      <trkpt lat="41.88821616315541" lon="-87.62236672449706">
        <ele>182.6721933448</ele>
        <time>2026-05-27T15:26:21Z</time>
      </trkpt>
      <trkpt lat="41.88835460860942" lon="-87.62237733083930">
        <ele>180.0742563903</ele>
        <time>2026-05-27T15:26:32Z</time>
      </trkpt>
      <trkpt lat="41.88839659188346" lon="-87.62237743789196">
        <ele>180.8639038570</ele>
        <time>2026-05-27T15:26:36Z</time>
      </trkpt>
      <trkpt lat="41.88831851385240" lon="-87.62168899964296">
        <ele>178.4420733115</ele>
        <time>2026-05-27T15:27:10Z</time>
      </trkpt>
      <trkpt lat="41.88838931002377" lon="-87.62151985101384">
        <ele>177.5428837486</ele>
        <time>2026-05-27T15:27:22Z</time>
      </trkpt>
      <trkpt lat="41.88838025648312" lon="-87.62135121635002">
        <ele>177.3294783191</ele>
        <time>2026-05-27T15:27:34Z</time>
      </trkpt>
      <trkpt lat="41.88832326201049" lon="-87.62127007452554">
        <ele>177.9607786053</ele>
        <time>2026-05-27T15:27:43Z</time>
      </trkpt>
      <trkpt lat="41.88829372886514" lon="-87.62096387470108">
        <ele>179.9562658151</ele>
        <time>2026-05-27T15:28:06Z</time>
      </trkpt>
      <trkpt lat="41.88833868675103" lon="-87.62091848873678">
        <ele>179.6927995516</ele>
        <time>2026-05-27T15:28:11Z</time>
      </trkpt>
      <trkpt lat="41.88832874144377" lon="-87.62083613768132">
        <ele>180.3754435084</ele>
        <time>2026-05-27T15:28:18Z</time>
      </trkpt>
      <trkpt lat="41.88829570671398" lon="-87.62042283975514">
        <ele>178.1586558853</ele>
        <time>2026-05-27T15:29:28Z</time>
      </trkpt>
      <trkpt lat="41.88825578780135" lon="-87.62014414570056">
        <ele>177.6069548779</ele>
        <time>2026-05-27T15:29:46Z</time>
      </trkpt>
      <trkpt lat="41.88818873907231" lon="-87.62003367104219">
        <ele>177.9615374344</ele>
        <time>2026-05-27T15:30:02Z</time>
      </trkpt>
      <trkpt lat="41.88814156921211" lon="-87.61963543768114">
        <ele>178.0891755809</ele>
        <time>2026-05-27T15:30:24Z</time>
      </trkpt>
      <trkpt lat="41.88819229766452" lon="-87.61954601012248">
        <ele>177.8786301350</ele>
        <time>2026-05-27T15:30:30Z</time>
      </trkpt>
      <trkpt lat="41.88810952447984" lon="-87.61894343723802">
        <ele>178.0568531520</ele>
        <time>2026-05-27T15:31:13Z</time>
      </trkpt>
      <trkpt lat="41.88796037015203" lon="-87.61875453461839">
        <ele>178.9127225927</ele>
        <time>2026-05-27T15:31:36Z</time>
      </trkpt>
      <trkpt lat="41.88792079563659" lon="-87.61802335833619">
        <ele>179.1349916269</ele>
        <time>2026-05-27T15:32:26Z</time>
      </trkpt>
      <trkpt lat="41.88799539149324" lon="-87.61757413393045">
        <ele>178.3037380925</ele>
        <time>2026-05-27T15:32:53Z</time>
      </trkpt>
      <trkpt lat="41.88795846869776" lon="-87.61695587159892">
        <ele>178.2938789109</ele>
        <time>2026-05-27T15:33:32Z</time>
      </trkpt>
      <trkpt lat="41.88790660626936" lon="-87.61690650668112">
        <ele>178.5742575681</ele>
        <time>2026-05-27T15:33:45Z</time>
      </trkpt>
      <trkpt lat="41.88790363108940" lon="-87.61641716106580">
        <ele>178.2791778661</ele>
        <time>2026-05-27T15:34:24Z</time>
      </trkpt>
      <trkpt lat="41.88788179646210" lon="-87.61633864505228">
        <ele>178.5151649139</ele>
        <time>2026-05-27T15:34:31Z</time>
      </trkpt>
      <trkpt lat="41.88785536851474" lon="-87.61586148461966">
        <ele>178.5794518060</ele>
        <time>2026-05-27T15:34:53Z</time>
      </trkpt>
      <trkpt lat="41.88791522940826" lon="-87.61578556721106">
        <ele>178.3235667924</ele>
        <time>2026-05-27T15:34:58Z</time>
      </trkpt>
      <trkpt lat="41.88789696727132" lon="-87.61544763128009">
        <ele>177.6793976008</ele>
        <time>2026-05-27T15:35:33Z</time>
      </trkpt>
      <trkpt lat="41.88780570069579" lon="-87.61533561910176">
        <ele>178.8265101231</ele>
        <time>2026-05-27T15:35:50Z</time>
      </trkpt>
      <trkpt lat="41.88779114526577" lon="-87.61484222801533">
        <ele>178.9918543520</ele>
        <time>2026-05-27T15:36:37Z</time>
      </trkpt>
      <trkpt lat="41.88780070385345" lon="-87.61480558816666">
        <ele>178.8929018134</ele>
        <time>2026-05-27T15:36:40Z</time>
      </trkpt>
      <trkpt lat="41.88779184797887" lon="-87.61459304679477">
        <ele>179.0347013009</ele>
        <time>2026-05-27T15:36:53Z</time>
      </trkpt>
      <trkpt lat="41.88782873125542" lon="-87.61438444976086">
        <ele>178.1297369222</ele>
        <time>2026-05-27T15:37:06Z</time>
      </trkpt>
      <trkpt lat="41.88781012183640" lon="-87.61372816117101">
        <ele>179.1000387128</ele>
        <time>2026-05-27T15:37:48Z</time>
      </trkpt>
      <trkpt lat="41.88780228683581" lon="-87.61350935277434">
        <ele>179.1807988623</ele>
        <time>2026-05-27T15:38:04Z</time>
      </trkpt>
      <trkpt lat="41.88777448114623" lon="-87.61345728245360">
        <ele>179.3775084253</ele>
        <time>2026-05-27T15:38:09Z</time>
      </trkpt>
      <trkpt lat="41.88766937966196" lon="-87.61329274520865">
        <ele>179.9727259417</ele>
        <time>2026-05-27T15:38:25Z</time>
      </trkpt>
      <trkpt lat="41.88748162989495" lon="-87.61308800611459">
        <ele>179.4525215718</ele>
        <time>2026-05-27T15:38:45Z</time>
      </trkpt>
      <trkpt lat="41.88743855330257" lon="-87.61305109899209">
        <ele>179.2239324013</ele>
        <time>2026-05-27T15:38:50Z</time>
      </trkpt>
      <trkpt lat="41.88738347123147" lon="-87.61302744896010">
        <ele>179.0352701094</ele>
        <time>2026-05-27T15:38:54Z</time>
      </trkpt>
      <trkpt lat="41.88721048303042" lon="-87.61301321618804">
        <ele>178.8902083564</ele>
        <time>2026-05-27T15:39:12Z</time>
      </trkpt>
      <trkpt lat="41.88721757132110" lon="-87.61310585862921">
        <ele>179.2907029259</ele>
        <time>2026-05-27T15:39:17Z</time>
      </trkpt>
      <trkpt lat="41.88723468752665" lon="-87.61316942461238">
        <ele>180.0576872180</ele>
        <time>2026-05-27T15:39:26Z</time>
      </trkpt>
      <trkpt lat="41.88725440221842" lon="-87.61321351137708">
        <ele>179.9122771605</ele>
        <time>2026-05-27T15:39:29Z</time>
      </trkpt>
      <trkpt lat="41.88741389152660" lon="-87.61344741863847">
        <ele>179.4498655099</ele>
        <time>2026-05-27T15:39:45Z</time>
      </trkpt>
      <trkpt lat="41.88736005073669" lon="-87.61357397364843">
        <ele>178.5438657747</ele>
        <time>2026-05-27T15:39:54Z</time>
      </trkpt>
      <trkpt lat="41.88728051889288" lon="-87.61371729535813">
        <ele>177.9342338578</ele>
        <time>2026-05-27T15:40:06Z</time>
      </trkpt>
      <trkpt lat="41.88736502291627" lon="-87.61358227745301">
        <ele>178.7419331365</ele>
        <time>2026-05-27T15:40:17Z</time>
      </trkpt>
      <trkpt lat="41.88740125897720" lon="-87.61345422795218">
        <ele>179.5258885149</ele>
        <time>2026-05-27T15:40:25Z</time>
      </trkpt>
      <trkpt lat="41.88725393368608" lon="-87.61322164309109">
        <ele>179.5541290871</ele>
        <time>2026-05-27T15:40:50Z</time>
      </trkpt>
      <trkpt lat="41.88723272095856" lon="-87.61316288562101">
        <ele>179.9463959598</ele>
        <time>2026-05-27T15:40:54Z</time>
      </trkpt>
      <trkpt lat="41.88722549420260" lon="-87.61310795612795">
        <ele>179.3667104830</ele>
        <time>2026-05-27T15:41:37Z</time>
      </trkpt>
      <trkpt lat="41.88722421971426" lon="-87.61301258271590">
        <ele>179.0536696171</ele>
        <time>2026-05-27T15:41:45Z</time>
      </trkpt>
      <trkpt lat="41.88665884920883" lon="-87.61291365036709">
        <ele>178.5942858010</ele>
        <time>2026-05-27T15:42:30Z</time>
      </trkpt>
      <trkpt lat="41.88661013824458" lon="-87.61319254318239">
        <ele>180.5806202526</ele>
        <time>2026-05-27T15:42:44Z</time>
      </trkpt>
      <trkpt lat="41.88658091132663" lon="-87.61335283432513">
        <ele>181.1974026809</ele>
        <time>2026-05-27T15:42:55Z</time>
      </trkpt>
      <trkpt lat="41.88618739046175" lon="-87.61331875493433">
        <ele>179.1516468360</ele>
        <time>2026-05-27T15:43:24Z</time>
      </trkpt>
      <trkpt lat="41.88597583498990" lon="-87.61329227937047">
        <ele>179.7139559979</ele>
        <time>2026-05-27T15:43:44Z</time>
      </trkpt>
      <trkpt lat="41.88564023248541" lon="-87.61323237252842">
        <ele>180.3483067844</ele>
        <time>2026-05-27T15:44:11Z</time>
      </trkpt>
      <trkpt lat="41.88554944596555" lon="-87.61323689922200">
        <ele>181.0420513777</ele>
        <time>2026-05-27T15:44:21Z</time>
      </trkpt>
      <trkpt lat="41.88515803125070" lon="-87.61317841592057">
        <ele>181.0546589391</ele>
        <time>2026-05-27T15:44:48Z</time>
      </trkpt>
      <trkpt lat="41.88492206466554" lon="-87.61317546928493">
        <ele>180.6270889697</ele>
        <time>2026-05-27T15:45:10Z</time>
      </trkpt>
      <trkpt lat="41.88488588614526" lon="-87.61316385723596">
        <ele>180.8319742578</ele>
        <time>2026-05-27T15:45:46Z</time>
      </trkpt>
      <trkpt lat="41.88475619917655" lon="-87.61310112242222">
        <ele>180.6843827863</ele>
        <time>2026-05-27T15:45:57Z</time>
      </trkpt>
      <trkpt lat="41.88465439576376" lon="-87.61304361673407">
        <ele>180.0850288140</ele>
        <time>2026-05-27T15:46:05Z</time>
      </trkpt>
      <trkpt lat="41.88435607399741" lon="-87.61303328675436">
        <ele>180.1593523083</ele>
        <time>2026-05-27T15:46:29Z</time>
      </trkpt>
      <trkpt lat="41.88438106285317" lon="-87.61307384106263">
        <ele>180.2837543335</ele>
        <time>2026-05-27T15:46:33Z</time>
      </trkpt>
      <trkpt lat="41.88436620901772" lon="-87.61310228721786">
        <ele>180.3952867238</ele>
        <time>2026-05-27T15:46:35Z</time>
      </trkpt>
    </trkseg>
  </trk>
</gpx>