<?xml version='1.0' encoding='UTF-8'?>
<gpx xmlns="http://www.topografix.com/GPX/1/1" creator="https://gpx.studio" version="1.1">
  <metadata>
    <name>Walk - 2026-03-03</name>
  </metadata>
  <trk>
    <name>Walk - 2026-03-03</name>
    <type>walk</type>
    <trkseg>
      <trkpt lat="41.40140217620481" lon="-81.73959152355550">
        <ele>266.6085779510</ele>
        <time>2026-03-03T09:36:57Z</time>
      </trkpt>
      <trkpt lat="41.40140309547900" lon="-81.73834706233021">
        <ele>267.7576907336</ele>
        <time>2026-03-03T09:37:55Z</time>
      </trkpt>
      <trkpt lat="41.39958956276916" lon="-81.73834847204216">
        <ele>267.0175941123</ele>
        <time>2026-03-03T09:40:44Z</time>
      </trkpt>
      <trkpt lat="41.39871014139576" lon="-81.73834665259530">
        <ele>265.9281371526</ele>
        <time>2026-03-03T09:42:02Z</time>
      </trkpt>
      <trkpt lat="41.39871605726623" lon="-81.73828326240417">
        <ele>265.9850405853</ele>
        <time>2026-03-03T09:42:06Z</time>
      </trkpt>
      <trkpt lat="41.39865833264999" lon="-81.73828477280948">
        <ele>265.8152670596</ele>
        <time>2026-03-03T09:42:20Z</time>
      </trkpt>
      <trkpt lat="41.39866621603187" lon="-81.73817935575020">
        <ele>265.9325976274</ele>
        <time>2026-03-03T09:42:27Z</time>
      </trkpt>
      <trkpt lat="41.39783236124564" lon="-81.73818329178467">
        <ele>265.9935263950</ele>
        <time>2026-03-03T09:43:41Z</time>
      </trkpt>
      <trkpt lat="41.39783060929350" lon="-81.73593462089597">
        <ele>267.9649647727</ele>
        <time>2026-03-03T09:46:22Z</time>
      </trkpt>
      <trkpt lat="41.39711011180056" lon="-81.73594720660145">
        <ele>268.1690577581</ele>
        <time>2026-03-03T09:47:24Z</time>
      </trkpt>
      <trkpt lat="41.39416365266479" lon="-81.73593910749480">
        <ele>271.5291462131</ele>
        <time>2026-03-03T09:51:09Z</time>
      </trkpt>
      <trkpt lat="41.39398486688236" lon="-81.73595307925875">
        <ele>272.0805660564</ele>
        <time>2026-03-03T09:51:24Z</time>
      </trkpt>
      <trkpt lat="41.39313584181883" lon="-81.73597468506810">
        <ele>270.9108008457</ele>
        <time>2026-03-03T09:52:22Z</time>
      </trkpt>
      <trkpt lat="41.39307605654386" lon="-81.73594236003383">
        <ele>270.8312527002</ele>
        <time>2026-03-03T09:52:27Z</time>
      </trkpt>
      <trkpt lat="41.39211679127666" lon="-81.73594540296797">
        <ele>270.2668172122</ele>
        <time>2026-03-03T09:53:27Z</time>
      </trkpt>
      <trkpt lat="41.39202353209537" lon="-81.73606225049259">
        <ele>269.9519202894</ele>
        <time>2026-03-03T09:53:36Z</time>
      </trkpt>
      <trkpt lat="41.38942366993614" lon="-81.73608223607557">
        <ele>272.9717819810</ele>
        <time>2026-03-03T09:56:57Z</time>
      </trkpt>
      <trkpt lat="41.38940482359971" lon="-81.73619143269994">
        <ele>272.9745656335</ele>
        <time>2026-03-03T09:57:19Z</time>
      </trkpt>
      <trkpt lat="41.38936042727592" lon="-81.73628434061905">
        <ele>273.1874928784</ele>
        <time>2026-03-03T09:57:25Z</time>
      </trkpt>
      <trkpt lat="41.38928702642454" lon="-81.73640990483302">
        <ele>273.0687583248</ele>
        <time>2026-03-03T09:57:47Z</time>
      </trkpt>
      <trkpt lat="41.38918669450583" lon="-81.73655313512475">
        <ele>273.0483391185</ele>
        <time>2026-03-03T09:58:03Z</time>
      </trkpt>
      <trkpt lat="41.38904822936198" lon="-81.73668140573834">
        <ele>273.0580806915</ele>
        <time>2026-03-03T09:58:16Z</time>
      </trkpt>
      <trkpt lat="41.38894034489864" lon="-81.73675626867823">
        <ele>273.1194065509</ele>
        <time>2026-03-03T09:58:26Z</time>
      </trkpt>
      <trkpt lat="41.38884826043699" lon="-81.73680487949562">
        <ele>272.7050192657</ele>
        <time>2026-03-03T09:58:33Z</time>
      </trkpt>
      <trkpt lat="41.38865936835818" lon="-81.73685322830595">
        <ele>272.3790247938</ele>
        <time>2026-03-03T09:58:51Z</time>
      </trkpt>
      <trkpt lat="41.38856787485464" lon="-81.73686467845937">
        <ele>272.7948465737</ele>
        <time>2026-03-03T09:59:00Z</time>
      </trkpt>
      <trkpt lat="41.38846944448224" lon="-81.73684734913616">
        <ele>272.9448448329</ele>
        <time>2026-03-03T09:59:07Z</time>
      </trkpt>
      <trkpt lat="41.38704587072020" lon="-81.73667070193574">
        <ele>273.8636695268</ele>
        <time>2026-03-03T10:01:14Z</time>
      </trkpt>
      <trkpt lat="41.38695035875909" lon="-81.73694068116332">
        <ele>273.3858206014</ele>
        <time>2026-03-03T10:01:30Z</time>
      </trkpt>
      <trkpt lat="41.38684284781116" lon="-81.73718925641489">
        <ele>273.1505495416</ele>
        <time>2026-03-03T10:01:46Z</time>
      </trkpt>
      <trkpt lat="41.38663344400348" lon="-81.73758735212353">
        <ele>273.0231342678</ele>
        <time>2026-03-03T10:02:08Z</time>
      </trkpt>
      <trkpt lat="41.38654626779088" lon="-81.73750420303062">
        <ele>273.2095531049</ele>
        <time>2026-03-03T10:02:16Z</time>
      </trkpt>
      <trkpt lat="41.38653162861697" lon="-81.73751487363535">
        <ele>273.3050805770</ele>
        <time>2026-03-03T10:02:17Z</time>
      </trkpt>
      <trkpt lat="41.38644065658203" lon="-81.73762283847313">
        <ele>273.8184891906</ele>
        <time>2026-03-03T10:02:25Z</time>
      </trkpt>
      <trkpt lat="41.38641299712407" lon="-81.73763974813309">
        <ele>273.7223590647</ele>
        <time>2026-03-03T10:02:27Z</time>
      </trkpt>
      <trkpt lat="41.38632246117153" lon="-81.73764400107201">
        <ele>273.9192315455</ele>
        <time>2026-03-03T10:02:34Z</time>
      </trkpt>
      <trkpt lat="41.38623164758421" lon="-81.73773347624474">
        <ele>273.8644166102</ele>
        <time>2026-03-03T10:02:45Z</time>
      </trkpt>
      <trkpt lat="41.38617334827143" lon="-81.73777307129369">
        <ele>273.5298145912</ele>
        <time>2026-03-03T10:02:50Z</time>
      </trkpt>
      <trkpt lat="41.38604106230695" lon="-81.73782155333534">
        <ele>273.2765103526</ele>
        <time>2026-03-03T10:03:03Z</time>
      </trkpt>
      <trkpt lat="41.38595097207950" lon="-81.73783402142470">
        <ele>273.2879815023</ele>
        <time>2026-03-03T10:03:10Z</time>
      </trkpt>
      <trkpt lat="41.38586497451227" lon="-81.73782910132918">
        <ele>273.0413263064</ele>
        <time>2026-03-03T10:03:17Z</time>
      </trkpt>
      <trkpt lat="41.38578162437049" lon="-81.73782411148701">
        <ele>273.3098568144</ele>
        <time>2026-03-03T10:03:24Z</time>
      </trkpt>
      <trkpt lat="41.38563951065307" lon="-81.73787313749587">
        <ele>273.3980206457</ele>
        <time>2026-03-03T10:03:41Z</time>
      </trkpt>
      <trkpt lat="41.38560202743377" lon="-81.73787125238231">
        <ele>273.5212000512</ele>
        <time>2026-03-03T10:03:44Z</time>
      </trkpt>
      <trkpt lat="41.38551500388956" lon="-81.73783837933328">
        <ele>273.4327974093</ele>
        <time>2026-03-03T10:03:50Z</time>
      </trkpt>
      <trkpt lat="41.38539567289831" lon="-81.73774402826514">
        <ele>273.5944711310</ele>
        <time>2026-03-03T10:04:00Z</time>
      </trkpt>
      <trkpt lat="41.38538690102520" lon="-81.73773032024656">
        <ele>273.9894006784</ele>
        <time>2026-03-03T10:04:01Z</time>
      </trkpt>
      <trkpt lat="41.38537928553107" lon="-81.73763910727867">
        <ele>274.1036159746</ele>
        <time>2026-03-03T10:04:06Z</time>
      </trkpt>
      <trkpt lat="41.38533698213573" lon="-81.73770083511241">
        <ele>275.0551359898</ele>
        <time>2026-03-03T10:04:12Z</time>
      </trkpt>
      <trkpt lat="41.38522621094266" lon="-81.73766833988257">
        <ele>275.6473990522</ele>
        <time>2026-03-03T10:04:21Z</time>
      </trkpt>
      <trkpt lat="41.38504801069731" lon="-81.73766737707717">
        <ele>276.0511450759</ele>
        <time>2026-03-03T10:04:34Z</time>
      </trkpt>
      <trkpt lat="41.38504206948111" lon="-81.73753230153380">
        <ele>275.9451967889</ele>
        <time>2026-03-03T10:04:49Z</time>
      </trkpt>
      <trkpt lat="41.38510554746671" lon="-81.73755707829108">
        <ele>275.9332297227</ele>
        <time>2026-03-03T10:04:53Z</time>
      </trkpt>
      <trkpt lat="41.38520707689557" lon="-81.73751075952127">
        <ele>275.7501247548</ele>
        <time>2026-03-03T10:05:04Z</time>
      </trkpt>
    </trkseg>
  </trk>
</gpx>